{"type":"FeatureCollection","features":[{"type":"Feature","id":9,"geometry":{"type":"LineString","coordinates":[[-63.499999999800025,36.400000000200009],[-61.299999999700105,36.699999999600436],[-58.800000000199759,36.99999999990024],[-56.000000000399609,36.99999999990024],[-53.000000000099817,36.99999999990024],[-49.700000000399598,36.99999999990024],[-46.600000000299644,36.99999999990024],[-43.900000000299656,36.800000000299917]]},"properties":{"objectid":9,"stormtype":"DB","stormnum":3,"ss":0,"idp_source":"AL032026_lin","idp_filedate":1786568547000,"idp_ingestdate":1786568609000,"st_length(shape)":19.64569326708466,"binnumber":"AT3"}},{"type":"Feature","id":10,"geometry":{"type":"LineString","coordinates":[[-43.900000000299656,36.800000000299917],[-41.799999999999898,36.900000000100079]]},"properties":{"objectid":10,"stormtype":"DB","stormnum":3,"ss":0,"idp_source":"AL032026_lin","idp_filedate":1786568547000,"idp_ingestdate":1786568609000,"st_length(shape)":2.1023796044527772,"binnumber":"AT3"}}]}