{"type":"FeatureCollection","features":[{"type":"Feature","id":12,"geometry":{"type":"LineString","coordinates":[[-38.199999999999875,38.600000000299929],[-36.200000000399598,40.100000000000136]]},"properties":{"objectid":12,"stormname":"Cristobal","stormtype":"TD","basin":"AL","advdate":"900 AM GMT Thu Aug 13 2026","advisnum":"4","fcstprd":120,"stormnum":3,"idp_source":"al032026-004_5day_lin","idp_filedate":1786613294000,"idp_ingestdate":1786613349000,"st_length(shape)":2.4999999995003463,"binnumber":"AT3"}}]}