{"type": "FeatureCollection", "features": [{"type": "Feature", "id": 68, "geometry": {"type": "Point", "coordinates": [-38.199999999999875, 38.60000000029993]}, "properties": {"objectid": 68, "stormname": "Tropical Depression Cristobal", "stormtype": "TD", "dvlbl": "D", "basin": "AL", "advdate": "900 AM GMT Thu Aug 13 2026", "advisnum": "4", "fcstprd": 120, "gust": 40, "maxwind": 30, "mslp": 1014, "ssnum": 0, "datelbl": "9:00 AM Thu", "tcdvlp": "Tropical Depression", "tcdir": 45, "tcspd": 14, "fldatelbl": "2026-08-13 6:00 AM Thu GMT", "lat": 39, "lon": -38, "stormnum": 3, "stormsrc": "Tropical Cyclone", "tau": 0, "timezone": "GMT", "validtime": "13/0600", "idp_source": "al032026-004_5day_pts", "idp_filedate": 1786613294000, "idp_ingestdate": 1786613362000, "binnumber": "AT3", "MAXWIND": 30, "VALIDTIME": "13/0600"}}, {"type": "Feature", "id": 69, "geometry": {"type": "Point", "coordinates": [-36.2000000003996, 40.100000000000136]}, "properties": {"objectid": 69, "stormname": "Tropical Depression Cristobal", "stormtype": "STD", "dvlbl": "D", "basin": "AL", "advdate": "900 AM GMT Thu Aug 13 2026", "advisnum": "4", "fcstprd": 120, "gust": 35, "maxwind": 25, "mslp": 9999, "ssnum": 0, "datelbl": "6:00 PM Thu", "tcdvlp": "Subtropical Depression", "tcdir": 9999, "tcspd": 9999, "fldatelbl": "2026-08-13 6:00 PM Thu GMT", "lat": 40, "lon": -36, "stormnum": 3, "stormsrc": "Post-Tropical Cyclone", "tau": 12, "timezone": "GMT", "validtime": "13/1800", "idp_source": "al032026-004_5day_pts", "idp_filedate": 1786613294000, "idp_ingestdate": 1786613362000, "binnumber": "AT3", "MAXWIND": 25, "VALIDTIME": "13/1800"}}]}