{"type":"FeatureCollection","features":[{"type":"Feature","id":108,"geometry":{"type":"Point","coordinates":[-63.499999999800025,36.400000000200009]},"properties":{"objectid":108,"stormname":"GENESIS006","stormtype":"DB","stormnum":3,"intensity":15,"basin":"al","mslp":1012,"dtg":2026081018,"year":2026,"month":"08","day":10,"hhmm":"1800","lat":36,"lon":-64,"ss":0,"idp_source":"AL032026_pts","idp_filedate":1786590178000,"idp_ingestdate":1786590186000,"binnumber":"AT3"}},{"type":"Feature","id":109,"geometry":{"type":"Point","coordinates":[-61.299999999700105,36.699999999600436]},"properties":{"objectid":109,"stormname":"GENESIS006","stormtype":"DB","stormnum":3,"intensity":15,"basin":"al","mslp":1012,"dtg":2026081100,"year":2026,"month":"08","day":11,"hhmm":"0000","lat":37,"lon":-61,"ss":0,"idp_source":"AL032026_pts","idp_filedate":1786590178000,"idp_ingestdate":1786590186000,"binnumber":"AT3"}},{"type":"Feature","id":110,"geometry":{"type":"Point","coordinates":[-58.800000000199759,36.99999999990024]},"properties":{"objectid":110,"stormname":"GENESIS006","stormtype":"DB","stormnum":3,"intensity":15,"basin":"al","mslp":1012,"dtg":2026081106,"year":2026,"month":"08","day":11,"hhmm":"0600","lat":37,"lon":-59,"ss":0,"idp_source":"AL032026_pts","idp_filedate":1786590178000,"idp_ingestdate":1786590186000,"binnumber":"AT3"}},{"type":"Feature","id":111,"geometry":{"type":"Point","coordinates":[-56.000000000399609,36.99999999990024]},"properties":{"objectid":111,"stormname":"GENESIS006","stormtype":"DB","stormnum":3,"intensity":25,"basin":"al","mslp":1012,"dtg":2026081112,"year":2026,"month":"08","day":11,"hhmm":"1200","lat":37,"lon":-56,"ss":0,"idp_source":"AL032026_pts","idp_filedate":1786590178000,"idp_ingestdate":1786590186000,"binnumber":"AT3"}},{"type":"Feature","id":112,"geometry":{"type":"Point","coordinates":[-53.000000000099817,36.99999999990024]},"properties":{"objectid":112,"stormname":"INVEST","stormtype":"DB","stormnum":3,"intensity":30,"basin":"al","mslp":1011,"dtg":2026081118,"year":2026,"month":"08","day":11,"hhmm":"1800","lat":37,"lon":-53,"ss":0,"idp_source":"AL032026_pts","idp_filedate":1786590178000,"idp_ingestdate":1786590186000,"binnumber":"AT3"}},{"type":"Feature","id":113,"geometry":{"type":"Point","coordinates":[-49.700000000399598,36.99999999990024]},"properties":{"objectid":113,"stormname":"INVEST","stormtype":"DB","stormnum":3,"intensity":30,"basin":"al","mslp":1011,"dtg":2026081200,"year":2026,"month":"08","day":12,"hhmm":"0000","lat":37,"lon":-50,"ss":0,"idp_source":"AL032026_pts","idp_filedate":1786590178000,"idp_ingestdate":1786590186000,"binnumber":"AT3"}},{"type":"Feature","id":114,"geometry":{"type":"Point","coordinates":[-46.600000000299644,36.99999999990024]},"properties":{"objectid":114,"stormname":"INVEST","stormtype":"DB","stormnum":3,"intensity":35,"basin":"al","mslp":1011,"dtg":2026081206,"year":2026,"month":"08","day":12,"hhmm":"0600","lat":37,"lon":-47,"ss":0,"idp_source":"AL032026_pts","idp_filedate":1786590178000,"idp_ingestdate":1786590186000,"binnumber":"AT3"}},{"type":"Feature","id":115,"geometry":{"type":"Point","coordinates":[-43.900000000299656,36.800000000299917]},"properties":{"objectid":115,"stormname":"CRISTOBAL","stormtype":"TS","stormnum":3,"intensity":40,"basin":"al","mslp":1008,"dtg":2026081212,"year":2026,"month":"08","day":12,"hhmm":"1200","lat":37,"lon":-44,"ss":0,"idp_source":"AL032026_pts","idp_filedate":1786590178000,"idp_ingestdate":1786590186000,"binnumber":"AT3"}},{"type":"Feature","id":116,"geometry":{"type":"Point","coordinates":[-41.799999999999898,36.900000000100079]},"properties":{"objectid":116,"stormname":"CRISTOBAL","stormtype":"TS","stormnum":3,"intensity":40,"basin":"al","mslp":1008,"dtg":2026081218,"year":2026,"month":"08","day":12,"hhmm":"1800","lat":37,"lon":-42,"ss":0,"idp_source":"AL032026_pts","idp_filedate":1786590178000,"idp_ingestdate":1786590186000,"binnumber":"AT3"}},{"type":"Feature","id":117,"geometry":{"type":"Point","coordinates":[-40.199999999600209,37.300000000199987]},"properties":{"objectid":117,"stormname":"CRISTOBAL","stormtype":"TS","stormnum":3,"intensity":35,"basin":"al","mslp":1011,"dtg":2026081300,"year":2026,"month":"08","day":13,"hhmm":"0000","lat":37,"lon":-40,"ss":0,"idp_source":"AL032026_pts","idp_filedate":1786590178000,"idp_ingestdate":1786590186000,"binnumber":"AT3"}}]}