{"type":"FeatureCollection","features":[{"type":"Feature","id":12,"geometry":{"type":"Polygon","coordinates":[[[-38.256669999920462,38.33700000024993],[-38.248970000065356,38.335739999701389],[-38.232570000105284,38.334150000122577],[-38.20570999981652,38.333229999964658],[-38.196510000036369,38.333479999802307],[-38.177600000339623,38.334399999960169],[-38.149320000217699,38.337080000341871],[-38.13150000042458,38.34018000030693],[-38.123130000249205,38.342280000022129],[-38.106400000359599,38.346469999890701],[-38.090339999890944,38.351330000079599],[-38.066989999588714,38.35937999988721],[-38.051939999831006,38.365240000325912],[-38.044739999651142,38.368519999598448],[-38.023070000380073,38.378230000414362],[-38.009100000064848,38.385190000318403],[-38.002399999560225,38.388959999704355],[-37.982239999776027,38.400189999568966],[-37.969269999710605,38.408149999722866],[-37.956390000198212,38.416200000429797],[-37.943500000224731,38.424239999776319],[-37.930530000159251,38.432210000391365],[-37.917399999909946,38.439999999900238],[-37.904090000353108,38.447630000124548],[-37.890790000358095,38.455249999887712],[-37.87766000010879,38.463049999857731],[-37.864690000043367,38.471010000011631],[-37.851889999723596,38.47913999991124],[-37.839260000048853,38.487429999994674],[-37.826709999566731,38.495820000193021],[-37.807879999961926,38.508389999798794],[-37.80161000040107,38.512579999667423],[-37.789050000357122,38.520960000303944],[-37.770230000314143,38.533529999909717],[-37.763950000292141,38.53771999977829],[-37.751399999810019,38.54610000041481],[-37.738850000227217,38.554489999713837],[-37.720030000184238,38.567049999757842],[-37.713750000162236,38.571250000087559],[-37.701199999680114,38.57962999982476],[-37.688650000097311,38.588009999561962],[-37.67609999961519,38.596390000198483],[-37.66355000003233,38.604769999935684],[-37.651000000449528,38.613149999672885],[-37.638449999967406,38.621530000309406],[-37.625900000384604,38.629910000046607],[-37.613349999902425,38.638289999783808],[-37.600720000227682,38.646590000328388],[-37.581479999702083,38.658740000350861],[-37.574949999842488,38.66268000038184],[-37.555209999641647,38.674329999829752],[-37.541819999992867,38.681879999962177],[-37.535210000041332,38.68573000033939],[-37.522079999792027,38.693530000309408],[-37.509109999726604,38.701480000002164],[-37.496310000306153,38.709620000362861],[-37.483670000170264,38.717910000446295],[-37.471119999688142,38.726299999745322],[-37.46483999966614,38.730480000052125],[-37.446019999623161,38.743060000119044],[-37.433470000040359,38.75143000029442],[-37.420919999558237,38.759819999593446],[-37.408369999975378,38.768200000229967],[-37.395820000392575,38.776579999967169],[-37.383269999910453,38.78495999970437],[-37.377000000349597,38.789149999572942],[-37.358169999845472,38.801720000078092],[-37.33934999980255,38.814289999683865],[-37.333069999780548,38.818479999552494],[-37.314249999737569,38.831050000057587],[-37.307969999715567,38.835250000387362],[-37.295420000132765,38.843630000124563],[-37.289149999672645,38.847819999993135],[-37.270320000067841,38.860389999598965],[-37.257769999585719,38.868770000235486],[-37.24522000000286,38.877149999972687],[-37.232670000420057,38.885540000171034],[-37.226399999959881,38.88971999957846],[-37.207570000355133,38.90229000008361],[-37.188750000312154,38.914870000150529],[-37.182390000198211,38.918979999927217],[-37.169589999878497,38.927100000264943],[-37.156619999813017,38.935069999980669],[-37.143489999563712,38.942860000388862],[-37.130180000006874,38.950489999713852],[-37.116869999550715,38.958110000376337],[-37.10374000020073,38.96589999988521],[-37.090770000135251,38.973869999600936],[-37.071609999701593,38.98609999971535],[-37.065340000140793,38.990300000045124],[-37.046509999636669,39.002869999650898],[-37.040240000075812,39.007060000418846],[-37.02768999959369,39.015429999694902],[-37.015140000010888,39.023819999893249],[-37.002590000428029,39.03219999963045],[-36.990039999945907,39.040580000266971],[-36.983759999923961,39.044770000135543],[-36.95865999985898,39.061529999609945],[-36.95239000029818,39.065720000377837],[-36.939839999816002,39.074100000115038],[-36.921010000211197,39.086680000182014],[-36.914739999751077,39.090870000050586],[-36.902190000168275,39.099249999787787],[-36.889639999686096,39.107630000424308],[-36.877090000103294,39.116010000161509],[-36.864539999621172,39.12438999989871],[-36.85199000003837,39.132769999635912],[-36.833160000433566,39.145340000141061],[-36.820609999951444,39.153719999878263],[-36.814340000390587,39.15792000020798],[-36.801789999908465,39.166299999945181],[-36.795509999886463,39.17048999981381],[-36.776689999843484,39.183060000318903],[-36.764049999707595,39.191350000402338],[-36.751250000287143,39.199480000301946],[-36.738289999783547,39.207450000017616],[-36.71854000002088,39.219089999903701],[-36.711849999977403,39.222869999750856],[-36.705240000025867,39.226720000128068],[-36.68541000017126,39.238290000383358],[-36.67244000010578,39.246249999637939],[-36.659639999786066,39.254380000436811],[-36.647010000111322,39.262680000082071],[-36.634450000067318,39.271059999819272],[-36.621910000046341,39.279439999556473],[-36.609350000002394,39.287820000192994],[-36.596809999981417,39.296199999930195],[-36.577980000376613,39.308770000435345],[-36.571709999916436,39.312960000303917],[-36.559160000333634,39.321340000041118],[-36.546609999851512,39.32971999977832],[-36.534060000268653,39.33810000041484],[-36.521509999786531,39.346489999713867],[-36.508960000203729,39.354870000350388],[-36.496409999721607,39.363250000087589],[-36.483860000138748,39.371629999824791],[-36.471220000002859,39.37993000036937],[-36.458419999683144,39.388060000268922],[-36.451900000284638,39.391989999838756],[-36.43232000026768,39.403809999931696],[-36.419009999811522,39.411440000156006],[-36.405709999816509,39.419059999919227],[-36.386049999707609,39.430799999920225],[-36.379610000401101,39.434820000043089],[-36.360449999967386,39.447050000157503],[-36.354169999945441,39.451249999587958],[-36.341620000362582,39.459630000224479],[-36.32906999988046,39.46800999996168],[-36.316520000297658,39.476389999698881],[-36.303969999815536,39.484770000335402],[-36.291420000232677,39.493150000072603],[-36.2788800002117,39.501529999809804],[-36.266320000167752,39.509910000446325],[-36.25376999968563,39.518299999745352],[-36.241220000102828,39.526680000381873],[-36.228680000081795,39.535060000119074],[-36.216129999599673,39.543439999856275],[-36.203580000016871,39.551819999593476],[-36.184750000412066,39.56439000009857],[-36.178470000390064,39.568579999967199],[-36.159650000347142,39.581149999572972],[-36.15337000032514,39.585340000340864],[-36.140819999843018,39.593720000078065],[-36.121999999800039,39.606289999683895],[-36.115719999778037,39.610490000013613],[-36.103170000195234,39.618869999750814],[-36.090619999713113,39.627250000387335],[-36.078070000130253,39.635630000124536],[-36.065519999648131,39.644009999861737],[-36.052970000065329,39.652389999598938],[-36.040419999583207,39.660770000235459],[-36.027870000000405,39.66914999997266],[-36.015320000417546,39.677529999709861],[-35.996500000374624,39.690109999776837],[-35.990140000260681,39.694209999991642],[-35.977339999940909,39.702339999891251],[-35.964369999875487,39.710300000045095],[-35.951230000064356,39.718100000015113],[-35.937930000069343,39.725719999778335],[-35.918020000122794,39.737209999941683],[-35.9114900002632,39.741140000410837],[-35.89852000019772,39.749110000126564],[-35.885719999877949,39.757240000026115],[-35.873090000203206,39.76553000010955],[-35.860619999813025,39.774000000399838],[-35.842220000252667,39.786989999588968],[-35.836270000160255,39.791510000286451],[-35.824559999744054,39.800730000089573],[-35.813269999810529,39.810370000375372],[-35.802309999806539,39.82035000015253],[-35.791599999640141,39.830570000205512],[-35.775789999908454,39.846159999684403],[-35.765409999671647,39.856720000128064],[-35.755039999895985,39.867279999672405],[-35.740059999769073,39.883710000116537],[-35.73512000038761,39.889239999726328],[-35.730519999598187,39.89510000016503],[-35.717219999603174,39.91320999984174],[-35.705169999695613,39.93256999960596],[-35.70132000021772,39.939190000018641],[-35.690950000442058,39.960220000352876],[-35.684590000328114,39.974809999581964],[-35.681580000016879,39.982270000060623],[-35.674549999582666,40.00665000019751],[-35.671039999596189,40.024089999554008],[-35.6686099999514,40.042610000151512],[-35.667190000118296,40.062139999661383],[-35.666439999706085,40.082340000390843],[-35.666269999960434,40.092480000351884],[-35.666439999706085,40.123399999910191],[-35.666940000280647,40.133370000125581],[-35.6686099999514,40.163119999688377],[-35.670120000337647,40.172089999653906],[-35.673040000095796,40.190109999676906],[-35.677060000218717,40.20703999979628],[-35.684590000328114,40.230929999819807],[-35.690950000442058,40.245510000386332],[-35.694469999990361,40.252459999829284],[-35.701650000147254,40.266209999891714],[-35.713120000287688,40.286159999884262],[-35.717470000340143,40.292270000160499],[-35.730519999598187,40.310629999674916],[-35.740059999769073,40.322030000184498],[-35.75002000042258,40.333010000211516],[-35.75520000007981,40.338289999983658],[-35.765500000224733,40.348929999619941],[-35.781390000048361,40.364430000344385],[-35.786910000096327,40.369380000186993],[-35.809420000332636,40.388739999951156],[-35.821299999595169,40.397799999570452],[-35.821470000240197,40.397629999824801],[-35.839709999616673,40.410780000097077],[-35.845989999638675,40.414969999965649],[-35.871169999795541,40.431659999809312],[-35.87769000009331,40.43559000027841],[-35.897609999601684,40.44706999998067],[-35.9114900002632,40.454109999976652],[-35.933580000016889,40.463420000332917],[-35.948809999981393,40.46911999968836],[-35.964449999967428,40.474400000359879],[-35.988640000335636,40.481610000101568],[-36.013310000356114,40.488300000145045],[-36.021600000439548,40.490479999952186],[-36.029960000153778,40.492579999667385],[-36.046779999697094,40.496690000343392],[-36.072469999990403,40.502389999698892],[-36.090209999691638,40.505569999755835],[-36.118230000414087,40.508919999558486],[-36.137810000431045,40.510269999760851],[-36.157970000215244,40.511020000173005],[-36.178560000043831,40.511350000102595],[-36.199390000148242,40.511439999756305],[-36.220309999906476,40.511439999756305],[-36.241140000010887,40.511350000102595],[-36.261720000277649,40.511020000173005],[-36.271680000031836,40.510519999598444],[-36.301460000078805,40.508930000019632],[-36.320209999591668,40.506739999751346],[-36.338030000284164,40.503639999786287],[-36.346389999998394,40.501549999632914],[-36.363210000441029,40.497439999856283],[-36.379439999756073,40.492750000312412],[-36.395420000132788,40.487799999570484],[-36.419009999811522,40.480010000061611],[-36.434660000258702,40.474730000289412],[-36.450059999968914,40.469199999780301],[-36.465200000279651,40.463420000332917],[-36.48729000003334,40.454109999976652],[-36.494229999914467,40.450590000428349],[-36.52109000020323,40.43559000027841],[-36.533969999715566,40.427539999571479],[-36.546609999851512,40.419250000387365],[-36.559069999780547,40.410780000097077],[-36.571370000425077,40.402149999622907],[-36.583420000332637,40.393259999749318],[-36.595129999849519,40.384050000407342],[-36.611950000292154,40.369460000278934],[-36.617390000248179,40.364430000344385],[-36.628179999607198,40.354290000383344],[-36.638969999865481,40.344150000422303],[-36.649929999869471,40.33418000020697],[-36.667000000149756,40.319850000377357],[-36.672939999781022,40.315329999679875],[-36.684909999596698,40.306359999714346],[-36.696960000403578,40.297480000301903],[-36.714860000288638,40.283980000077065],[-36.720630000174253,40.279289999633932],[-36.737449999717569,40.264709999966669],[-36.753590000278166,40.249450000417312],[-36.753599999839992,40.249450000417312],[-36.764140000260682,40.239059999719359],[-36.779949999992368,40.223470000240468],[-36.785389999948393,40.218440000305918],[-36.79634999995244,40.208470000090585],[-36.80765000034711,40.198829999804786],[-36.819359999863991,40.189610000001665],[-36.831320000117785,40.180640000036135],[-36.843370000025345,40.171759999724372],[-36.861269999910462,40.158260000398855],[-36.867050000257166,40.153569999955664],[-36.878340000190747,40.143940000131067],[-36.889309999756563,40.133960000353852],[-36.900019999922961,40.123729999839782],[-36.910560000343594,40.113340000041092],[-36.926200000329629,40.097590000378375],[-36.936739999851,40.087199999680365],[-36.942019999623142,40.082000000000164],[-36.952720000227714,40.071770000385357],[-36.963680000231705,40.061800000170024],[-36.974979999727111,40.052159999884225],[-36.986690000143255,40.042949999642929],[-36.998659999958932,40.033979999677399],[-37.010709999866492,40.025089999803811],[-37.028609999751552,40.011600000040119],[-37.034390000098313,40.006900000035102],[-37.045680000031837,39.997270000210506],[-37.056640000035827,39.987299999995173],[-37.067350000202225,39.977070000380365],[-37.077889999723595,39.96667000012053],[-37.093700000354602,39.951090000203521],[-37.110100000314617,39.936079999592437],[-37.115620000362583,39.931140000210974],[-37.121390000248198,39.92644999976784],[-37.133110000226225,39.917229999964661],[-37.145069999580699,39.908259999999132],[-37.163149999672612,39.894939999981148],[-37.175029999834521,39.885880000361851],[-37.186569999605695,39.876500000374847],[-37.19208999965366,39.871549999632919],[-37.203060000118796,39.861580000316906],[-37.213759999823992,39.851360000263924],[-37.224300000244682,39.840969999565971],[-37.234850000227198,39.830570000205512],[-37.245560000393596,39.82035000015253],[-37.256520000397586,39.810370000375372],[-37.26781000033111,39.800739999651398],[-37.279530000309137,39.791510000286451],[-37.291489999663611,39.782549999882747],[-37.303539999571228,39.773669999570984],[-37.321440000355608,39.760170000245466],[-37.327219999803049,39.755479999802276],[-37.338509999736573,39.745829999954708],[-37.354900000134762,39.730829999804769],[-37.365450000117278,39.720440000006136],[-37.370720000327651,39.715249999887703],[-37.38117999975708,39.704770000435303],[-37.391640000085829,39.694299999645409],[-37.407460000278661,39.678710000166518],[-37.412900000234686,39.673680000231968],[-37.423849999777531,39.66369999955549],[-37.435139999711112,39.654069999730837],[-37.446859999689138,39.644840000365889],[-37.458819999942932,39.635879999962185],[-37.470869999850493,39.626999999650423],[-37.482830000104286,39.618029999684893],[-37.500319999967928,39.6041200003379],[-37.505840000015894,39.599169999595972],[-37.516800000019884,39.589200000279959],[-37.532780000396599,39.5737799996474],[-37.538060000168741,39.568579999967199],[-37.548599999690111,39.558190000168509],[-37.564740000250708,39.542940000181034],[-37.5702699998605,39.537990000338368],[-37.593270000210225,39.519130000249447],[-37.599209999841491,39.514609999551965],[-37.605240000025844,39.510169999845743],[-37.617289999933405,39.501279999972155],[-37.629250000187255,39.492319999568451],[-37.646740000050841,39.478399999760313],[-37.652260000098806,39.47346000037885],[-37.663220000102797,39.463490000163517],[-37.679199999580192,39.448059999969189],[-37.684469999790565,39.442860000288931],[-37.695010000211198,39.432469999590978],[-37.705720000377596,39.422250000437316],[-37.716680000381587,39.412280000221983],[-37.733749999762551,39.39795000039237],[-37.739690000293137,39.393420000133062],[-37.757679999832021,39.380009999561992],[-37.763699999555229,39.37556999985577],[-37.775670000270168,39.366599999890241],[-37.787379999787049,39.357380000087062],[-37.804200000229685,39.342800000419857],[-37.820350000352107,39.327550000432325],[-37.825610000101278,39.322349999852747],[-37.830889999873477,39.317150000172489],[-37.846529999859513,39.301390000048627],[-37.851809999631655,39.296199999930195],[-37.862350000052345,39.285810000131562],[-37.878489999713622,39.270549999682885],[-37.884020000222733,39.265610000301422],[-37.901080000041873,39.251279999572489],[-37.907019999673139,39.246750000212501],[-37.918990000388078,39.237789999808797],[-37.942999999650169,39.219929999969679],[-37.954719999628139,39.210719999728326],[-37.96600999956172,39.201080000341904],[-37.982410000421055,39.186069999730876],[-37.987679999732109,39.180879999612443],[-37.998220000152742,39.17048999981381],[-38.008770000135257,39.16010000001512],[-38.01946999984051,39.149870000400369],[-38.035949999892466,39.134950000342371],[-38.041730000239227,39.130259999899238],[-38.059380000286637,39.116509999836751],[-38.065409999571727,39.112070000130529],[-38.077449999917462,39.103189999818767],[-38.089419999733082,39.094219999853237],[-38.101130000149283,39.085000000050115],[-38.112429999644633,39.075359999764316],[-38.123389999648623,39.065390000448303],[-38.139370000025338,39.049960000253975],[-38.144640000235711,39.044770000135543],[-38.155179999757081,39.03438000033691],[-38.176849999927413,39.01417999960745],[-38.182369999975379,39.009229999764841],[-38.188139999860994,39.00454000022097],[-38.19985999983902,38.995320000417848],[-38.211820000092814,38.986360000014145],[-38.223870000000375,38.977470000140556],[-38.235839999815994,38.968509999736852],[-38.258840000165776,38.949649999647932],[-38.258849999727602,38.949649999647932],[-38.275240000125791,38.934650000397369],[-38.280510000336108,38.929449999817791],[-38.291049999857478,38.919060000019158],[-38.306700000304659,38.903310000356385],[-38.311969999615656,38.898109999776807],[-38.327780000246719,38.88250999983677],[-38.333220000202743,38.877490000363366],[-38.3497000002547,38.862559999844279],[-38.355479999702084,38.857870000300409],[-38.367190000118285,38.848660000059112],[-38.379159999933904,38.839690000093583],[-38.397220000002903,38.826359999614453],[-38.403170000095315,38.821839999816291],[-38.414879999612197,38.812609999551967],[-38.426180000006866,38.80297999972737],[-38.437140000010857,38.793010000411357],[-38.447839999716109,38.78277999989723],[-38.463490000163233,38.767030000234456],[-38.468509999636638,38.761579999817286],[-38.487999999999886,38.739200000180006],[-38.496869999850503,38.727130000249474],[-38.512179999906948,38.70057000030539],[-38.518210000091301,38.685650000247449],[-38.522979999727113,38.66946999964091],[-38.526569999805531,38.652119999938179],[-38.52900000034964,38.63360999980182],[-38.530340000090803,38.614160000383833],[-38.530759999674103,38.594289999583964],[-38.530250000437036,38.574519999798326],[-38.529250000187233,38.565219999903206],[-38.525740000200756,38.537300000194989],[-38.52131000005636,38.520789999658916],[-38.51527999987195,38.50588000006212],[-38.507749999762552,38.492470000390369],[-38.498960000003876,38.480320000367897],[-38.489339999741048,38.468999999950199],[-38.479219999803036,38.458189999668889],[-38.474029999684603,38.452909999896747],[-38.463570000255174,38.44243000044429],[-38.442570000405055,38.421560000293937],[-38.437130000449031,38.416530000359387],[-38.42617000044504,38.406560000144054],[-38.414800000419575,38.396999999950197],[-38.396560000143779,38.383849999677864],[-38.376309999806551,38.372699999905194],[-38.346520000197756,38.360799999720371],[-38.346689999943408,38.360799999720371],[-38.323430000194207,38.353509999886739],[-38.308200000229704,38.349150000272459],[-38.293400000309646,38.345130000149538],[-38.26395000019221,38.338589999828798],[-38.256669999920462,38.33700000024993]]]},"properties":{"objectid":12,"stormname":"Cristobal","stormtype":"TD","basin":"AL","advdate":"900 AM GMT Thu Aug 13 2026","advisnum":"4","fcstprd":120,"stormnum":3,"idp_source":"al032026-004_5day_pgn","idp_filedate":1786613294000,"idp_ingestdate":1786613356000,"st_area(shape)":2.3948419042192666,"st_perimeter(shape)":7.468928068987549,"binnumber":"AT3"}}]}