{"type":"FeatureCollection","features":[{"type":"Feature","id":1689,"geometry":{"type":"LineString","coordinates":[[-16.400000000399586,10.999999999700378],[-17.099999999899921,10.999999999700378],[-17.800000000299633,10.999999999700378],[-18.499999999800025,10.999999999700378],[-19.299999999999898,11.200000000199964],[-20.600000000099783,11.799999999900194],[-21.999999999999886,12.299999999800264],[-23.600000000399575,12.900000000399814],[-24.699999999999875,13.299999999600459],[-26.900000000099794,13.500000000100044],[-29.000000000399552,13.500000000100044],[-30.999999999999886,13.199999999800298],[-33.100000000299644,13.199999999800298],[-35.300000000399564,13.40000000029994]]},"properties":{"objectid":1689,"stormtype":"DB","stormnum":4,"ss":0,"idp_source":"AL042026_lin","idp_filedate":1787929418000,"idp_ingestdate":1787929469000,"st_length(shape)":19.362800094836118,"binnumber":"AT4"}},{"type":"Feature","id":1690,"geometry":{"type":"LineString","coordinates":[[-35.300000000399564,13.40000000029994],[-37.499999999600163,13.500000000100044]]},"properties":{"objectid":1690,"stormtype":"TD","stormnum":4,"ss":0,"idp_source":"AL042026_lin","idp_filedate":1787929418000,"idp_ingestdate":1787929469000,"st_length(shape)":2.2022715537468716,"binnumber":"AT4"}},{"type":"Feature","id":1691,"geometry":{"type":"LineString","coordinates":[[-37.499999999600163,13.500000000100044],[-39.400000000299656,13.599999999900206],[-41.399999999899933,13.900000000200009],[-43.699999999800013,14.300000000299917],[-45.800000000099828,14.800000000199987]]},"properties":{"objectid":1691,"stormtype":"TD","stormnum":4,"ss":0,"idp_source":"AL042026_lin","idp_filedate":1787929418000,"idp_ingestdate":1787929469000,"st_length(shape)":8.4182314216621421,"binnumber":"AT4"}}]}