{"type":"FeatureCollection","features":[{"type":"Feature","id":215,"geometry":{"type":"Polygon","coordinates":[[[-41.498570000305165,13.253379999987146],[-41.475699999655149,13.250349999652883],[-41.45102999963467,13.248410000121567],[-41.424299999944935,13.247320000217996],[-41.39599999980004,13.24683000010458],[-41.36662000021272,13.24670999996664],[-41.336619999912955,13.24670999996664],[-41.306389999798512,13.24670999996664],[-41.2761500001223,13.24670999996664],[-41.245910000446031,13.24670999996664],[-41.215680000331645,13.24670999996664],[-41.185439999756056,13.24670999996664],[-41.155200000079844,13.24670999996664],[-41.124969999965401,13.24670999996664],[-41.094730000289189,13.24670999996664],[-41.064500000174746,13.24670999996664],[-41.034259999599158,13.24670999996664],[-41.004019999922946,13.24670999996664],[-40.973789999808503,13.24670999996664],[-40.943550000132291,13.24670999996664],[-40.913309999556702,13.24670999996664],[-40.883080000341636,13.24670999996664],[-40.852959999903931,13.24683000010458],[-40.823090000203251,13.247200000080056],[-40.793580000016846,13.247920000008151],[-40.764669999620651,13.249009999911721],[-40.751730000039345,13.250469999790823],[-40.724639999935903,13.252160000383867],[-40.698639999736088,13.2539799997773],[-40.673840000015844,13.25580000007011],[-40.650010000061343,13.25785999973931],[-40.640220000052864,13.258579999667404],[-40.616869999750577,13.261130000349397],[-40.593289999633669,13.264159999784283],[-40.568859999888957,13.267549999632934],[-40.543340000240676,13.270820000242963],[-40.516490000413057,13.27349000016352],[-40.488310000406102,13.275299999995127],[-40.459159999734084,13.276389999898697],[-40.429410000171231,13.276880000012113],[-40.399300000194728,13.277000000149997],[-40.369059999619139,13.277000000149997],[-40.338830000404073,13.277000000149997],[-40.308589999828484,13.277000000149997],[-40.278350000152273,13.277000000149997],[-40.248120000037829,13.277000000149997],[-40.217880000361617,13.277000000149997],[-40.187639999786029,13.277000000149997],[-40.157409999671643,13.277000000149997],[-40.127169999995374,13.277000000149997],[-40.096939999880988,13.277000000149997],[-40.066700000204719,13.277000000149997],[-40.036459999629187,13.277000000149997],[-40.006230000414064,13.277000000149997],[-39.97610000041459,13.277120000287937],[-39.946360000413563,13.277610000401353],[-39.917209999741601,13.278700000304923],[-39.888909999596706,13.280639999836239],[-39.861689999793555,13.283659999709357],[-39.835450000217236,13.287659999809307],[-39.809690000293131,13.292139999561471],[-39.783930000369082,13.29662999977478],[-39.757680000331618,13.300620000312904],[-39.730470000090293,13.303649999747847],[-39.702169999945397,13.305590000178483],[-39.673020000172755,13.306680000082054],[-39.643269999710583,13.30717000019547],[-39.613150000172254,13.30729000033341],[-39.582920000057811,13.30729000033341],[-39.552680000381599,13.30729000033341],[-39.522450000267156,13.30729000033341],[-39.492209999691624,13.30729000033341],[-39.461970000015356,13.30729000033341],[-39.431739999900969,13.30729000033341],[-39.401500000224701,13.30729000033341],[-39.371390000248198,13.307409999571973],[-39.341510000086316,13.307769999985624],[-39.311999999899967,13.308500000374863],[-39.283220000102801,13.309710000416317],[-39.25551999974806,13.31164999994769],[-39.243309999656617,13.313470000240443],[-39.217299999894976,13.31600999956197],[-39.178959999903952,13.32061999991322],[-39.167830000154254,13.32207000023044],[-39.143280000271659,13.325339999941207],[-39.118249999837474,13.328490000413353],[-39.092360000213716,13.331399999710356],[-39.0652799996721,13.333939999931204],[-39.036969999965379,13.335640000086073],[-39.007820000192737,13.336729999989643],[-38.978069999730565,13.337329999779797],[-38.947959999754062,13.337579999617446],[-38.917720000077793,13.337579999617446],[-38.887489999963407,13.337579999617446],[-38.857250000287138,13.337579999617446],[-38.827009999711606,13.337579999617446],[-38.796770000035337,13.337579999617446],[-38.766649999597689,13.33769999975533],[-38.736900000034836,13.33818000030692],[-38.70775999982402,13.33927000021049],[-38.679579999817008,13.341329999879747],[-38.652850000127273,13.344839999866224],[-38.627819999693088,13.350050000007627],[-38.604470000290178,13.3569600003039],[-38.582940000280644,13.365680000431837],[-38.553550000232178,13.381679999932203],[-38.544600000289677,13.38785000027741],[-38.518959999604192,13.407600000040134],[-38.503720000077806,13.422620000212987],[-38.489450000317163,13.438619999713353],[-38.476629999974421,13.45605999996917],[-38.465259999948898,13.474960000104033],[-38.450870000050315,13.50597999977731],[-38.446510000436035,13.516520000198],[-38.436360000013849,13.550800000020104],[-38.431760000123802,13.574309999606953],[-38.429340000040838,13.598049999907687],[-38.429710000016371,13.62167999963242],[-38.432970000165255,13.644820000143056],[-38.438769999635667,13.66711000012657],[-38.446999999650131,13.688190000068573],[-38.457279999772027,13.70793999983124],[-38.475179999657144,13.735439999956156],[-38.488479999652156,13.752399999660383],[-38.502750000312119,13.768389999598924],[-38.517510000186235,13.78389999988525],[-38.533230000264155,13.798440000405833],[-38.549920000107818,13.812010000261466],[-38.568310000106294,13.823879999962173],[-38.599870000400074,13.837690000093573],[-38.611120000287656,13.841570000055583],[-38.648130000099286,13.849929999769813],[-38.674010000161275,13.854290000283413],[-38.700019999922915,13.85852999975981],[-38.72577999984702,13.86301000041135],[-38.751419999633129,13.867610000301397],[-38.777179999557234,13.872099999615443],[-38.803429999594698,13.876090000153511],[-38.830639999836023,13.879119999588454],[-38.858939999980919,13.881060000019147],[-38.888080000191735,13.882149999922717],[-38.917840000215733,13.882640000036133],[-38.947959999754062,13.882760000174017],[-38.978189999868505,13.882760000174017],[-39.008430000444037,13.882760000174017],[-39.038540000420539,13.8828800003119],[-39.068289999983392,13.883359999964171],[-39.097439999756091,13.884449999867741],[-39.125739999900929,13.886390000298434],[-39.152950000142255,13.88941999973332],[-39.179200000179719,13.89341999983327],[-39.204960000103824,13.897899999585434],[-39.230720000027873,13.9023899997988],[-39.256970000065337,13.906380000336867],[-39.284180000306662,13.90940999977181],[-39.312479999552238,13.911350000202503],[-39.3416300002242,13.912440000106074],[-39.371379999787052,13.91293000021949],[-39.401500000224701,13.913050000357373],[-39.431730000339144,13.913050000357373],[-39.461970000015356,13.913050000357373],[-39.492209999691624,13.913050000357373],[-39.522439999806011,13.913050000357373],[-39.552680000381599,13.913050000357373],[-39.582909999596666,13.913050000357373],[-39.613150000172254,13.913050000357373],[-39.643260000148757,13.913169999595937],[-39.673020000172755,13.913650000147527],[-39.702160000383572,13.914740000051097],[-39.730470000090293,13.91667999958247],[-39.757680000331618,13.919709999916677],[-39.770989999888457,13.921530000209486],[-39.809690000293131,13.92818999976879],[-39.835450000217236,13.93267000042033],[-39.861689999793555,13.936669999620904],[-39.888909999596706,13.939699999955167],[-39.917209999741601,13.94164000038586],[-39.946360000413563,13.94273000028943],[-39.97610000041459,13.943209999941701],[-40.006219999952918,13.94333999964141],[-40.036459999629187,13.94333999964141],[-40.066689999743573,13.94333999964141],[-40.096930000319162,13.94333999964141],[-40.127160000433548,13.94333999964141],[-40.157400000109817,13.94333999964141],[-40.187639999786029,13.94333999964141],[-40.217749999762532,13.943459999779293],[-40.24750999978653,13.943940000330883],[-40.276659999559229,13.945030000234453],[-40.304950000142298,13.946969999765827],[-40.332169999945449,13.95000000010009],[-40.358410000421088,13.954000000199983],[-40.384170000345136,13.958479999952146],[-40.397000000249704,13.960779999897227],[-40.436180000306649,13.96695999980426],[-40.463389999648655,13.969990000138523],[-40.491700000254696,13.971929999669896],[-40.520839999566192,13.973019999573467],[-40.550590000028365,13.973500000125057],[-40.580709999566693,13.97362000026294],[-40.610939999681136,13.97362000026294],[-40.641180000256668,13.97362000026294],[-40.671299999795053,13.973749999962649],[-40.701050000257169,13.97422999961492],[-40.730189999568722,13.97532000041781],[-40.758500000174763,13.977259999949183],[-40.785710000416088,13.980290000283446],[-40.811959999554233,13.984279999922194],[-40.837720000377601,13.98877000013556],[-40.850539999821024,13.991070000080583],[-40.889719999877968,13.997249999987673],[-40.916939999681119,14.000280000321879],[-40.945239999826015,14.002219999853253],[-40.974389999598657,14.003309999756823],[-41.004019999922946,14.003910000446297],[-41.033650000247178,14.004519999798276],[-41.062800000019877,14.005609999701846],[-41.091089999703627,14.007550000132539],[-41.118310000406098,14.010579999567483],[-41.144549999982416,14.01457000010555],[-41.17032000036761,14.019049999857771],[-41.196080000291659,14.02354000007108],[-41.222330000329123,14.02754000017103],[-41.249539999671128,14.030569999605916],[-41.277839999816024,14.032499999575464],[-41.306870000350102,14.033720000078063],[-41.336140000260684,14.034689999843749],[-41.365160000333617,14.035899999885203],[-41.393459999579193,14.03782999985475],[-41.420680000281664,14.040860000189014],[-41.446919999857982,14.044860000288907],[-41.472690000243176,14.049340000041127],[-41.498439999706079,14.053830000254436],[-41.5246899997436,14.057830000354386],[-41.551779999846985,14.060979999927213],[-41.57960000033961,14.06340000001012],[-41.607660000208739,14.06557999981726],[-41.635479999802044,14.067999999900223],[-41.662569999905429,14.07115000037237],[-41.688810000381068,14.075149999572943],[-41.714570000305173,14.079630000224483],[-41.740330000229221,14.084109999976647],[-41.766460000128802,14.08823000021448],[-41.793189999818537,14.09174999976284],[-41.820400000059863,14.094780000097046],[-41.847610000301131,14.097810000431309],[-41.874339999990866,14.101320000417843],[-41.887519999847996,14.103259999949159],[-41.92622000025267,14.10992000040784],[-41.951860000038835,14.114520000297887],[-41.977619999962883,14.119009999611933],[-42.003749999862464,14.12312000028794],[-42.030109999576723,14.12700000024995],[-42.056240000375624,14.131119999588464],[-42.082000000299672,14.135600000239947],[-42.09483000020424,14.13790000018497],[-42.133290000333147,14.14480999958198],[-42.15903999979605,14.149290000233464],[-42.185169999695631,14.153409999571977],[-42.211539999870979,14.157290000433306],[-42.237660000208734,14.16140999977182],[-42.263420000132783,14.165890000423303],[-42.276239999576205,14.168190000368384],[-42.314220000052842,14.175580000316927],[-42.339369999725591,14.18067000032039],[-42.364649999997368,14.18564000018597],[-42.389930000269203,14.190610000051606],[-42.402510000336122,14.193150000272453],[-42.440240000075846,14.200779999597444],[-42.46540000020974,14.205869999600964],[-42.490549999882489,14.210959999604427],[-42.515830000154267,14.215930000369383],[-42.541110000426045,14.220889999773817],[-42.566269999660619,14.22597999977728],[-42.591420000232688,14.2310699997808],[-42.616580000366582,14.23615999978432],[-42.641739999601157,14.241249999787783],[-42.667010000311166,14.246210000091594],[-42.692289999683624,14.251179999957174],[-42.717449999817518,14.256269999960693],[-42.730029999884493,14.258819999743309],[-42.767759999624161,14.266449999967676],[-42.792919999758055,14.271539999971139],[-42.818200000029833,14.27650000027495],[-42.843480000301668,14.28147000014053],[-42.868629999974416,14.28656000014405],[-42.893779999647165,14.291650000147513],[-42.91893999978106,14.296729999689887],[-42.944099999914954,14.30181999969335],[-42.969380000186732,14.306789999558987],[-42.994649999997364,14.311760000323886],[-43.007230000064339,14.314299999645414],[-43.044970000265209,14.321929999869724],[-43.070119999937901,14.327019999873244],[-43.095280000071853,14.332109999876707],[-43.12056000034363,14.337079999742343],[-43.145839999716088,14.342040000046097],[-43.170870000150273,14.347250000187501],[-43.195660000308635,14.352710000166496],[-43.208000000099787,14.35548999976379],[-43.244519999798058,14.364339999591436],[-43.256609999751561,14.3673699999257],[-43.293030000234182,14.376330000329403],[-43.305240000325625,14.379239999626407],[-43.342370000275196,14.387480000102073],[-43.367399999810004,14.392690000243476],[-43.392680000081839,14.397649999647911],[-43.405389999848524,14.40008000019202],[-43.43052999995939,14.405159999734337],[-43.467789999608669,14.413280000072064],[-43.492340000390584,14.418980000326883],[-43.516649999997355,14.424910000396324],[-43.52875000041206,14.427939999831267],[-43.565149999972391,14.436909999796796],[-43.589699999854986,14.44259999959047],[-43.614490000013348,14.44805000000764],[-43.62694999994244,14.450719999928197],[-43.664810000281193,14.458230000014623],[-43.677509999586675,14.460650000097587],[-43.715120000087836,14.468410000021606],[-43.739910000246198,14.473860000438833],[-43.75225000003735,14.476649999597953],[-43.788780000196709,14.485489999863717],[-43.812969999665654,14.491549999632923],[-43.837280000171745,14.497479999702364],[-43.86183000005434,14.503179999957183],[-43.886620000212702,14.508630000374353],[-43.911660000208713,14.513839999616437],[-43.93693999958117,14.518810000381336],[-43.962210000291179,14.523769999785827],[-43.974790000358098,14.526319999568443],[-44.012040000445552,14.534439999906226],[-44.036590000328147,14.540129999699843],[-44.060910000396063,14.546070000230486],[-44.073000000349623,14.549099999665373],[-44.097189999818511,14.555149999872754],[-44.133949999792549,14.56374999986275],[-44.158750000412056,14.569209999841746],[-44.183779999946921,14.574419999983149],[-44.209060000218699,14.579380000286903],[-44.234339999591214,14.58435000015254],[-44.259379999587168,14.589560000293943],[-44.284169999745586,14.595009999811793],[-44.296499999974912,14.597799999870233],[-44.333030000134272,14.606640000136053],[-44.345120000087832,14.60966999957094],[-44.36930999955672,14.615730000239466],[-44.406079999991903,14.624330000229463],[-44.43087999971209,14.629779999747313],[-44.455910000146275,14.634989999888717],[-44.481190000418053,14.639959999754296],[-44.506469999790511,14.644929999619933],[-44.531500000224696,14.650139999761336],[-44.556290000383115,14.655590000178506],[-44.580840000265709,14.66127999997218],[-44.605160000333626,14.667219999603446],[-44.617250000287186,14.67024999993771],[-44.653529999709576,14.679329999579977],[-44.677729999639666,14.685390000248447],[-44.689819999593169,14.68841999968339],[-44.726099999914936,14.697509999786803],[-44.750290000283144,14.703559999994127],[-44.762389999798529,14.70659000032839],[-44.799160000233712,14.715190000318387],[-44.823939999930928,14.720639999836237],[-44.848979999926939,14.72584999997764],[-44.861559999993858,14.728399999760313],[-44.899539999571232,14.735789999708857],[-44.924579999567186,14.74099999985026],[-44.949369999725604,14.74645000026743],[-44.961699999954931,14.749240000325869],[-44.986129999699585,14.755050000257427],[-45.022419999583178,14.76414000036084],[-45.046730000089326,14.770070000430337],[-45.071279999971921,14.77576999978578],[-45.083619999763073,14.778559999844276],[-45.121110000126293,14.786430000344353],[-45.146390000398071,14.79140000020999],[-45.15908999970361,14.793820000292897],[-45.184240000275679,14.798910000296416],[-45.209160000133807,14.804239999676383],[-45.246049999807553,14.812720000427817],[-45.258259999898939,14.81562999972482],[-45.294540000220707,14.824719999828289],[-45.31886000028868,14.83064999989773],[-45.331070000380123,14.833560000094053],[-45.368200000329637,14.8417999996704],[-45.393229999864502,14.847009999811803],[-45.418519999698105,14.851970000115557],[-45.443790000408057,14.856939999981137],[-45.468830000404068,14.86215000012254],[-45.49361999966311,14.86759999964039],[-45.518170000445025,14.87329999989521],[-45.530390000098294,14.876199999630444],[-45.566670000420061,14.885289999733857],[-45.578769999935446,14.888320000068063],[-45.603199999680101,14.89412999999962],[-45.640320000067845,14.902369999575967],[-45.665360000063856,14.90757999971737],[-45.690640000335634,14.91254999958295],[-45.715919999708092,14.917520000347849],[-45.740959999704103,14.922729999589933],[-45.765749999862464,14.92818000000716],[-45.790299999745059,14.933869999800777],[-45.802509999836502,14.936779999997157],[-45.82670000020471,14.942839999766306],[-45.863110000226186,14.95180000017001],[-45.875320000317629,14.95471000036639],[-45.899990000338107,14.960280000022124],[-45.93749000026321,14.968160000084083],[-45.962769999635668,14.973120000387837],[-45.98804000034562,14.978090000253474],[-46.013199999580195,14.983180000256937],[-46.038350000152263,14.988270000260457],[-46.063510000286158,14.99336000026392],[-46.088670000420052,14.998450000267439],[-46.11394999979251,15.003409999671874],[-46.139219999603199,15.00838000043683],[-46.164379999737093,15.013470000440293],[-46.176959999804012,15.01600999976182],[-46.202119999937906,15.02109999976534],[-46.239849999677631,15.02872999998965],[-46.265129999949409,15.03369999985523],[-46.290410000221243,15.038669999720867],[-46.315559999893935,15.04375999972433],[-46.340720000027886,15.04884999972785],[-46.353300000094805,15.051389999948697],[-46.391029999834529,15.059020000173007],[-46.416310000106307,15.063990000038586],[-46.441590000378085,15.068959999904223],[-46.454159999983915,15.07150000012507],[-46.479320000117809,15.076590000128533],[-46.517049999857477,15.0842200003529],[-46.542209999991371,15.089310000356363],[-46.567490000263206,15.094280000221943],[-46.592769999635664,15.099250000087579],[-46.617920000207732,15.104329999629897],[-46.64319999958019,15.109300000394853],[-46.668720000127792,15.11402000042284],[-46.69448000005184,15.11850999973683],[-46.720600000389595,15.122629999974663],[-46.746969999665623,15.126500000374847],[-46.773099999565204,15.13061999971336],[-46.78604000004583,15.13280000041982],[-46.824500000174737,15.139709999816773],[-46.850139999960902,15.144309999706877],[-46.87589999988495,15.148799999920186],[-46.902029999784531,15.152920000158019],[-46.92839000039811,15.156789999658884],[-46.941579999817009,15.158730000089577],[-46.980269999760537,15.16538999964888],[-47.005799999869964,15.170120000138013],[-47.018500000074823,15.172540000220977],[-47.056229999814548,15.180170000445287],[-47.081510000086325,15.185140000310923],[-47.106779999896958,15.190110000176503],[-47.131940000030852,15.195200000180023],[-47.144520000097828,15.197740000400813],[-47.182249999837495,15.20536999972586],[-47.207409999971389,15.210459999729323],[-47.232690000243224,15.21542999959496],[-47.257969999615682,15.220400000359859],[-47.283120000187751,15.225479999902234],[-47.308399999560208,15.230449999767814],[-47.33392000010781,15.235180000256946],[-47.346739999551232,15.23748000020197],[-47.385800000369613,15.243780000246943],[-47.412169999645641,15.247660000209009],[-47.438289999983397,15.25176999998564],[-47.451229999564703,15.253949999792781],[-47.489569999555727,15.260980000226994],[-47.514849999827504,15.265950000092573],[-47.540009999961399,15.271040000096093],[-47.552590000028374,15.273580000316883],[-47.590560000043865,15.280970000265427],[-47.61572000017776,15.286060000268947],[-47.641000000449537,15.291030000134526],[-47.666520000097819,15.295750000162514],[-47.692280000021867,15.300240000375879],[-47.718409999921448,15.304359999714336],[-47.74476999963565,15.308230000114577],[-47.770889999973406,15.312350000352353],[-47.783840000015857,15.314530000159493],[-47.822300000144764,15.321439999556446],[-47.847939999930929,15.32604000034587],[-47.873699999854978,15.33052000009809],[-47.899820000192733,15.334640000335867],[-47.926190000368081,15.338520000297933],[-47.952309999806516,15.34263999963639],[-47.978069999730565,15.34712000028793],[-48.003590000278166,15.351849999877743],[-48.028869999650624,15.356810000181497],[-48.054029999784518,15.361900000185017],[-48.079299999595207,15.366870000050596],[-48.104579999866985,15.371839999916176],[-48.129740000000879,15.37692000035787],[-48.155009999811512,15.38189000022345],[-48.16771000001637,15.384319999868239],[-48.206290000283161,15.391099999565483],[-48.219229999864467,15.393280000271943],[-48.25879000035809,15.399099999765326],[-48.284909999796525,15.403210000441334],[-48.310669999720574,15.407699999755323],[-48.336190000268175,15.41241999978331],[-48.348889999573714,15.414839999866217],[-48.386629999774527,15.42247999965241],[-48.411899999585216,15.427439999956164],[-48.437179999856994,15.4324099998218],[-48.462330000429063,15.437499999825263],[-48.487609999801521,15.4424699996909],[-48.50031000000638,15.444889999773807],[-48.53889000027317,15.451679999932196],[-48.565020000172751,15.455789999708884],[-48.591390000348099,15.459669999670894],[-48.604570000205229,15.461610000101587],[-48.643269999710583,15.46826999966089],[-48.668790000258184,15.473000000150023],[-48.694069999630642,15.477959999554457],[-48.719220000202711,15.483049999557977],[-48.744499999575226,15.488020000322877],[-48.757199999780028,15.49044000040584],[-48.794939999980897,15.498080000191976],[-48.82020999979153,15.503039999596467],[-48.845730000339131,15.5077700000856],[-48.871490000263179,15.512249999837763],[-48.897609999701615,15.516370000075597],[-48.923979999876963,15.520250000037606],[-48.937159999734092,15.522180000007154],[-48.975869999700592,15.528850000027603],[-49.001390000248193,15.53357000005559],[-49.026660000058826,15.53853999992117],[-49.05182000019272,15.54362999992469],[-49.077099999565235,15.54859999979027],[-49.102379999837012,15.55356000009408],[-49.127530000409081,15.558650000097543],[-49.152809999781539,15.56361999996318],[-49.17833000032914,15.568339999991167],[-49.204090000253188,15.572830000204476],[-49.230220000152769,15.576950000442309],[-49.256579999866972,15.580819999943174],[-49.282709999766553,15.584940000181007],[-49.295650000247178,15.587119999988147],[-49.333979999777057,15.594150000422303],[-49.35926999961066,15.59912000028794],[-49.384420000182729,15.604199999830257],[-49.409699999555244,15.609169999695894],[-49.434970000265196,15.614139999561473],[-49.447550000332114,15.61667999978232],[-49.485409999771548,15.624200000329893],[-49.510930000319149,15.62892000035788],[-49.536690000243198,15.633400000110043],[-49.562820000142779,15.637520000347877],[-49.589179999856981,15.641400000309886],[-49.615300000194736,15.6455199996484],[-49.628239999776042,15.64770000035486],[-49.666590000228211,15.65472000032787],[-49.67929000043307,15.65714999997266],[-49.717020000172738,15.66478000019697],[-49.729600000239714,15.667329999979643],[-49.767579999817031,15.674719999928186],[-49.792730000389099,15.67980000036988],[-49.818009999761557,15.68477000023546],[-49.843530000309158,15.689499999825273],[-49.869290000233207,15.693979999577437],[-49.895409999671642,15.69809999981527],[-49.92177999984699,15.701970000215454],[-49.947909999746571,15.706089999553967],[-49.973660000108794,15.710579999767333],[-49.999179999757075,15.71529999979532],[-50.024460000028853,15.7202699996609],[-50.049620000162747,15.72535999966442],[-50.074900000434582,15.730319999968174],[-50.100170000245214,15.735289999833753],[-50.125330000379108,15.740379999837273],[-50.137910000446027,15.74292000005812],[-50.175640000185751,15.750559999844256],[-50.18822000025267,15.753100000065103],[-50.226070000130278,15.76061000015153],[-50.251359999963938,15.76558000001711],[-50.27650999963663,15.77067000002063],[-50.301669999770581,15.775760000024093],[-50.326829999904476,15.780839999566467],[-50.351979999577225,15.785929999569987],[-50.377259999849002,15.790900000334886],[-50.389960000053861,15.79332000041785],[-50.427689999793529,15.800960000203986],[-50.452970000065307,15.80591999960842],[-50.478489999713588,15.810650000097553],[-50.504249999637636,15.815129999849773],[-50.530380000436537,15.81925000008755],[-50.556740000150796,15.823130000049616],[-50.582859999589175,15.827250000287449],[-50.608629999974426,15.831730000039613],[-50.63414999962265,15.8364500000676],[-50.659420000332659,15.84141999993318],[-50.672000000399578,15.843969999715853],[-50.709859999839011,15.85147999980228],[-50.735140000110789,15.856440000106033],[-50.760169999645655,15.861650000247437],[-50.784959999804016,15.867110000226489],[-50.797299999595168,15.869889999823783],[-50.833820000192759,15.87873999965143],[-50.858009999661647,15.884789999858754],[-50.882320000167738,15.89073000038934],[-50.906879999612158,15.896420000183014],[-50.931669999770577,15.901880000162009],[-50.956709999766588,15.907090000303413],[-50.98197999957722,15.912049999707847],[-50.994679999782022,15.914480000251956],[-51.032419999982892,15.922109999576946],[-51.044989999588665,15.924649999797793],[-51.082729999789535,15.932280000022104],[-51.095309999856511,15.934829999804776],[-51.133159999734062,15.942339999891203],[-51.158449999567722,15.94730999975684],[-51.183600000139791,15.952390000198477],[-51.196169999745564,15.95493999998115],[-51.221329999879458,15.96002999998467],[-51.259059999619183,15.96766000020898],[-51.271639999686101,15.970200000429827],[-51.309620000162738,15.97759000037837],[-51.334780000296632,15.982680000381833],[-51.347360000363608,15.985230000164506],[-51.385090000103332,15.992860000388873],[-51.397670000170251,15.995399999710344],[-51.435529999609685,16.002920000257973],[-51.460800000319637,16.007879999662407],[-51.485840000315648,16.01308999980381],[-51.510640000035835,16.01854000022098],[-51.53518999991843,16.02423999957648],[-51.559500000424578,16.030169999645921],[-51.583689999893465,16.03623000031439],[-51.607989999938411,16.042169999945656],[-51.62020999959168,16.045080000142036],[-51.65734000044057,16.053319999718326],[-51.682369999975379,16.058529999859729],[-51.707659999809039,16.06349000016354],[-51.720349999552695,16.065910000246447],[-51.757969999615682,16.073670000170523],[-51.782759999774044,16.079119999688373],[-51.795099999565196,16.081909999746813],[-51.831620000162786,16.090750000012633],[-51.855809999631674,16.096809999781783],[-51.867910000046322,16.099840000116046],[-51.904679999582186,16.108440000106043],[-51.929469999740604,16.11388999962395],[-51.954500000174733,16.119099999765297],[-51.967080000241708,16.121639999986144],[-52.005059999819025,16.129040000395833],[-52.03009000025321,16.134249999637916],[-52.054889999973398,16.139700000055086],[-52.079439999855992,16.14538999984876],[-52.091660000408581,16.148300000045083],[-52.127939999831028,16.15737999968735],[-52.140040000245676,16.160410000021614],[-52.176800000219714,16.16901000001161],[-52.201590000378076,16.174469999990663],[-52.226630000374087,16.179680000132066],[-52.239210000441062,16.182220000352856],[-52.264609999951404,16.187070000080553],[-52.302219999553245,16.194820000442803],[-52.327009999711606,16.200269999960653],[-52.339350000402078,16.20306000001915],[-52.375879999662118,16.211900000284913],[-52.400059999569237,16.21796000005412],[-52.412159999983885,16.220990000388326],[-52.448930000419068,16.22959000037838],[-52.47371999967811,16.23503999989623],[-52.498750000112295,16.240250000037634],[-52.524030000384073,16.245219999903213],[-52.549309999756588,16.250189999768793],[-52.574460000328656,16.255270000210487],[-52.599619999563231,16.26036000021395],[-52.624779999697125,16.26545000021747],[-52.649930000269194,16.27054000022099],[-52.675220000102797,16.27551000008657],[-52.70048999991343,16.280470000390324],[-52.725520000347615,16.285679999632407],[-52.750320000067859,16.291130000049577],[-52.762659999859011,16.293920000108074],[-52.79919000001837,16.302769999935663],[-52.81127999997193,16.305800000269926],[-52.835470000340138,16.31184999957793],[-52.871749999762585,16.3209399996814],[-52.883839999716088,16.323970000015606],[-52.908039999646178,16.330020000222987],[-52.944319999967888,16.3391100003264],[-52.956409999921448,16.342139999761343],[-52.980839999666159,16.347960000154046],[-53.017969999615673,16.35619000016851],[-53.043009999611684,16.361400000309914],[-53.068280000321636,16.366370000175493],[-53.093570000155239,16.37134000004113],[-53.118599999690105,16.376550000182476],[-53.131059999619197,16.379209999641887],[-53.167939999731061,16.387699999955146],[-53.180160000283649,16.39059999969038],[-53.204349999752594,16.39666000035885],[-53.240630000074304,16.405749999562943],[-53.264820000442569,16.411799999770324],[-53.276919999957897,16.414830000104587],[-53.301110000326162,16.420889999873737],[-53.337389999748552,16.429979999977149],[-53.349490000163257,16.433010000311413],[-53.386250000137295,16.441610000301409],[-53.411040000295657,16.44705999981926],[-53.423500000224692,16.44972000017799],[-53.461359999664126,16.457239999826243],[-53.474050000307159,16.459659999909206],[-53.499210000441053,16.464749999912726],[-53.524130000299181,16.470080000192013],[-53.548800000319659,16.475649999847747],[-53.585320000017873,16.484490000113567],[-53.597420000432578,16.487520000447773],[-53.633699999854969,16.496609999651923],[-53.657890000223233,16.502670000320393],[-53.669980000176736,16.505699999755336],[-53.706270000060329,16.514780000296923],[-53.730460000428536,16.520840000066073],[-53.754770000035364,16.526779999697339],[-53.766989999688633,16.529680000331894],[-53.804119999638147,16.537919999908183],[-53.829150000072332,16.543130000049587],[-53.854430000344109,16.548099999915223],[-53.867129999649649,16.55051999999813],[-53.904749999712578,16.558279999922206],[-53.91720999964167,16.560940000280937],[-53.954089999753592,16.56942000013305],[-53.978400000259683,16.575359999764316],[-53.990490000213242,16.57839000009858],[-54.026780000096835,16.587469999740847],[-54.038870000050338,16.59050000007511],[-54.075150000372105,16.599590000178523],[-54.099339999840993,16.605649999947673],[-54.1235300002092,16.611700000154997],[-54.147839999816028,16.61763999978632],[-54.172389999698623,16.623329999579937],[-54.19719000031813,16.62878999955899],[-54.222230000314141,16.633999999700393],[-54.247500000124774,16.638960000004147],[-54.272780000396608,16.643929999869727],[-54.285359999564207,16.646470000090574],[-54.322609999651661,16.6545900004283],[-54.347160000433576,16.660289999783799],[-54.371470000040347,16.66621999985324],[-54.383559999993906,16.669250000187503],[-54.419849999877499,16.678340000290916],[-54.431939999831002,16.68136999972586],[-54.468220000152769,16.690450000267447],[-54.492420000082802,16.696510000036596],[-54.516609999551747,16.702569999805803],[-54.540790000358129,16.708629999574953],[-54.564979999827017,16.714679999782277],[-54.589170000195224,16.720739999551483],[-54.613359999664112,16.726800000219953],[-54.637550000032377,16.732859999989159],[-54.661859999639148,16.7387900000586],[-54.674069999730591,16.741700000254923],[-54.711199999680105,16.74993999983127],[-54.723659999609197,16.752609999751826],[-54.76151999994795,16.760119999838253],[-54.774220000152752,16.762539999921216],[-54.811829999754593,16.77029000028341],[-54.836619999912955,16.775750000262462],[-54.861180000256695,16.781440000056079],[-54.885489999863466,16.78737000012552],[-54.909680000231731,16.793429999894727],[-54.933860000138793,16.799489999663876],[-54.945959999654121,16.80251999999814],[-54.982239999975889,16.811599999640407],[-54.994340000390594,16.81462999997467],[-55.018520000297656,16.82068999974382],[-55.054810000181249,16.829779999847233],[-55.078990000088311,16.835830000054614],[-55.103190000018344,16.841889999823763],[-55.127380000386609,16.84794999959297],[-55.139470000340111,16.850979999927176],[-55.175749999762559,16.860070000030589],[-55.199940000130766,16.86612000023797],[-55.212039999646152,16.869149999672914],[-55.248319999967919,16.878239999776326],[-55.260420000382624,16.881270000110533],[-55.296699999805014,16.8903499997528],[-55.320879999712076,16.896410000421326],[-55.345079999642167,16.902470000190476],[-55.369270000010374,16.908529999959683],[-55.393460000378582,16.914580000167007],[-55.417640000285644,16.920639999936213],[-55.429739999801029,16.92367000027042],[-55.453930000169237,16.929730000039626],[-55.490209999591684,16.938809999681894],[-55.514399999959892,16.944870000350363],[-55.538590000328156,16.95093000011957],[-55.562779999797044,16.956989999888719],[-55.586970000165252,16.963040000096044],[-55.61115999963414,16.96909999986525],[-55.635350000002404,16.9751599996344],[-55.659529999909466,16.981220000302926],[-55.683720000277674,16.98726999961093],[-55.695819999793059,16.990299999945194],[-55.732100000114826,16.999390000048606],[-55.756289999583714,17.005449999817756],[-55.780479999951922,17.011509999586963],[-55.804659999858984,17.017559999794287],[-55.816760000273689,17.02059000012855],[-55.853039999696136,17.029680000231963],[-55.865140000110785,17.032709999666906],[-55.901420000432552,17.041790000208493],[-55.913519999947937,17.04481999964338],[-55.937710000316144,17.050880000311906],[-55.973989999738592,17.059970000415319],[-55.9981800001068,17.066019999723324],[-56.022369999575687,17.07208000039185],[-56.046559999943952,17.078140000161],[-56.058649999897455,17.081169999595943],[-56.082840000265662,17.087219999803267],[-56.119130000149255,17.096309999906737],[-56.143310000056317,17.102369999675886],[-56.167500000424582,17.108430000344356],[-56.19168999989347,17.114479999652417],[-56.203790000308175,17.117509999986623],[-56.227970000215237,17.12356999975583],[-56.26426000009883,17.132659999859243],[-56.288440000005892,17.138710000066567],[-56.312630000374099,17.144769999835773],[-56.324729999889485,17.147800000170037],[-56.360890000073312,17.157010000411333],[-56.372859999888988,17.16015999998416],[-56.408300000144777,17.17009000015355],[-56.420040000145775,17.173480000002144],[-56.443259999848976,17.1805100004363],[-56.4778499995777,17.191290000233437],[-56.489459999878989,17.194809999781796],[-56.524770000435069,17.20486000008907],[-56.536629999674631,17.20812999979978],[-56.560570000205246,17.214429999844754],[-56.596860000088839,17.223519999948167],[-56.608950000042341,17.22655000028243],[-56.645230000364108,17.235640000385843],[-56.669430000294142,17.241689999693847],[-56.693610000201261,17.247750000362373],[-56.705709999716589,17.250779999797317],[-56.741990000038356,17.259860000338904],[-56.766180000406564,17.265920000108054],[-56.778270000360124,17.268950000442317],[-56.814560000243716,17.27803999964641],[-56.838749999712604,17.284100000314879],[-56.850839999666164,17.287120000187997],[-56.887130000449019,17.29621000029141],[-56.911310000356139,17.302270000060616],[-56.935379999687143,17.30844999996765],[-56.959209999641644,17.314870000150506],[-56.982800000219697,17.321529999709867],[-57.006129999599693,17.32844000000614],[-57.029230000064331,17.335589999678859],[-57.040720000227736,17.339219999803277],[-57.075679999931936,17.349640000086083],[-57.099260000048844,17.356299999645387],[-57.123090000003401,17.362719999828244],[-57.147160000233725,17.368899999735333],[-57.159250000187228,17.371930000069597],[-57.195529999609676,17.38102000017301],[-57.219719999977883,17.387079999942159],[-57.231820000392588,17.390099999815277],[-57.268099999815036,17.39918999991869],[-57.280189999768538,17.402220000252953],[-57.316479999652131,17.41129999989522],[-57.340670000020395,17.41735999966437],[-57.352759999973898,17.420389999998633],[-57.376950000342106,17.42644999976784],[-57.400900000434547,17.432749999812756],[-57.436339999791016,17.442679999982147],[-57.459679999632158,17.44959000027842],[-57.471289999933447,17.453100000264953],[-57.494270000260201,17.460370000075557],[-57.517489999963402,17.46739999961045],[-57.540949999942427,17.474180000206957],[-57.57662999957472,17.483879999662406],[-57.600699999805045,17.490059999569439],[-57.624890000173252,17.49610999977682],[-57.636989999688637,17.499140000111083],[-57.673270000010405,17.508230000214496],[-57.697460000378612,17.51428000042182],[-57.721520000147791,17.52046000032891],[-57.745350000102292,17.526879999612447],[-57.768939999781026,17.533549999632896],[-57.780670000220198,17.536940000380866],[-57.815380000086805,17.54760000004012],[-57.838479999652122,17.55474999971284],[-57.850089999953411,17.558259999699374],[-57.873549999932436,17.565049999857763],[-57.909229999564729,17.57473999975133],[-57.921200000279669,17.577890000223476],[-57.957000000049845,17.58745999997916],[-57.980589999728579,17.594120000437783],[-57.992320000167751,17.597519999848259],[-58.01553999987101,17.60453999982127],[-58.050129999599676,17.615330000079553],[-58.061739999900965,17.618840000066086],[-58.097060000018871,17.62889000037336],[-58.108920000157752,17.632169999645896],[-58.144829999604667,17.641620000163016],[-58.156809999881489,17.644769999735843],[-58.18051000013628,17.651310000056583],[-58.215580000416594,17.661610000201506],[-58.227200000279652,17.665120000187983],[-58.261790000008375,17.675899999985177],[-58.285129999849516,17.682810000281449],[-58.308709999966425,17.689469999840753],[-58.320559999644161,17.692739999551463],[-58.356490000013366,17.702190000068583],[-58.380310000406098,17.70861000025144],[-58.403900000084832,17.715269999810801],[-58.427239999925916,17.722180000107073],[-58.438850000227205,17.72569000009355],[-58.473439999955929,17.736480000351889],[-58.485050000257218,17.739990000338366],[-58.520370000375124,17.750050000207466],[-58.544189999868479,17.756470000390323],[-58.56813999996092,17.762770000435296],[-58.591960000353595,17.769189999718833],[-58.615550000032385,17.775850000177513],[-58.63888999987347,17.782759999574466],[-58.661870000200224,17.790030000284446],[-58.684610000251212,17.797540000370873],[-58.707339999840997,17.80504999955798],[-58.718709999866462,17.808810000281426],[-58.752819999942915,17.820069999730833],[-58.764189999968437,17.82382999955496],[-58.787409999671638,17.83085000042729],[-58.822729999789544,17.84091000029639],[-58.846550000182276,17.847329999579983],[-58.87050000027466,17.8536299996249],[-58.894330000229218,17.860049999807757],[-58.906179999906954,17.863320000417843],[-58.941250000187267,17.87361999966339],[-58.95285999958918,17.877129999649924],[-58.986969999665632,17.888399999560477],[-58.998339999691098,17.892149999822777],[-59.021079999742085,17.899670000370349],[-59.055060000118772,17.911060000418843],[-59.077680000031876,17.918689999743833],[-59.100420000082806,17.92619999983026],[-59.123149999672648,17.933709999916687],[-59.145900000184724,17.941220000003113],[-59.157259999749101,17.944979999827297],[-59.19222000035262,17.955400000110046],[-59.203949999892473,17.958789999958697],[-59.239630000424086,17.968479999852264],[-59.26357999961715,17.974779999897237],[-59.287400000009882,17.981200000080094],[-59.310989999688616,17.987870000100543],[-59.334330000429077,17.99476999993567],[-59.357309999856511,18.00203999974633],[-59.380040000345616,18.009549999832757],[-59.402780000396604,18.017059999919184],[-59.414150000422069,18.02081999974331],[-59.447650000247222,18.032690000343393],[-59.469670000370115,18.040929999919683],[-59.480670000420048,18.045050000157516],[-59.513080000341631,18.058009999761794],[-59.534370000075342,18.066979999727323],[-59.545009999711624,18.071460000378863],[-59.566779999996868,18.079940000230977],[-59.588789999658616,18.088179999807267],[-59.622059999669148,18.100300000244943],[-59.633299999994904,18.104169999745807],[-59.656040000045834,18.11167999983229],[-59.690029999984404,18.123069999880727],[-59.712640000335625,18.130700000105037],[-59.724010000361091,18.13445999992922],[-59.758120000437543,18.145729999839773],[-59.780740000350647,18.153360000064083],[-59.803349999802549,18.16099000028845],[-59.814719999828014,18.164750000112576],[-59.848829999904467,18.176009999561984],[-59.860199999929932,18.17977000028543],[-59.894060000168736,18.191279999572487],[-59.916789999758578,18.198789999658914],[-59.939540000270711,18.20629999974534],[-59.95089999983503,18.210059999569467],[-59.973399999610194,18.217809999931717],[-60.007500000124764,18.22907999984227],[-60.030240000175752,18.236589999928697],[-60.052860000088799,18.244220000153007],[-60.064109999976381,18.248100000115073],[-60.098209999591688,18.259370000025626],[-60.120830000404055,18.267000000249936],[-60.132080000291694,18.270880000212003],[-60.1650999995652,18.283240000026126],[-60.176110000076335,18.287360000263959],[-60.197869999900433,18.295840000116073],[-60.219159999634144,18.3047999996204],[-60.251330000179223,18.318009999961646],[-60.273219999703088,18.326369999675876],[-60.284230000214222,18.330489999913709],[-60.30623999987597,18.338719999928173],[-60.340100000114774,18.35023000011455],[-60.351470000140296,18.353989999938676],[-60.374210000191226,18.361500000025103],[-60.408079999991912,18.37301000021148],[-60.430809999581697,18.380520000297906],[-60.442179999607163,18.384280000122033],[-60.476170000445052,18.39565999970938],[-60.498790000358099,18.403300000394836],[-60.521519999947941,18.410809999581943],[-60.544139999860988,18.41843999980631],[-60.55538999974857,18.42231999976832],[-60.577400000309638,18.430560000243929],[-60.599409999971385,18.43879000025845],[-60.631819999892969,18.451760000323873],[-60.642469999990396,18.456240000076093],[-60.674639999636156,18.469450000417339],[-60.69653000005934,18.477799999670367],[-60.70753000010933,18.4819199999082],[-60.740800000119805,18.494040000345876],[-60.752040000445561,18.49790999984674],[-60.774779999597172,18.505430000394369],[-60.797519999648159,18.512939999581477],[-60.820009999861497,18.52068999994367],[-60.842749999912428,18.528200000030097],[-60.876739999850997,18.53959000007859],[-60.898989999788569,18.547590000278433],[-60.921009999911462,18.555829999854723],[-60.932009999961394,18.559950000092556],[-60.964419999882978,18.57290999969689],[-60.975069999980406,18.577390000348373],[-61.007230000064339,18.5905999997903],[-61.029130000049349,18.598960000403849],[-61.051139999711097,18.607199999980139],[-61.062150000222232,18.611309999756827],[-61.08464000043557,18.619069999680903],[-61.107379999587181,18.62657999976733],[-61.140880000311654,18.638450000367357],[-61.151889999923469,18.64256999970587],[-61.184780000396586,18.655049999657876],[-61.206310000406063,18.663769999785814],[-61.216959999604171,18.668250000437297],[-61.238239999776056,18.677220000402826],[-61.271019999673115,18.689819999593453],[-61.282019999723104,18.693939999831287],[-61.315280000171754,18.70604999980776],[-61.337900000084801,18.713689999593953],[-61.349270000110323,18.717439999856254],[-61.382769999935419,18.729309999556961],[-61.393780000446554,18.733429999794794],[-61.415790000108302,18.74167000027046],[-61.448200000029885,18.754640000335883],[-61.458839999666111,18.759120000088046],[-61.491019999773073,18.772319999968147],[-61.512910000196257,18.780679999682377],[-61.534919999858005,18.788920000158043],[-61.557169999795519,18.796920000357886],[-61.568419999683101,18.80078999985875],[-61.591159999734089,18.808310000406323],[-61.625140000110775,18.81968999999367],[-61.647760000023879,18.827329999779806],[-61.67050000007481,18.834839999866233],[-61.693119999987914,18.842470000090543],[-61.715369999925429,18.850470000290443],[-61.737379999587176,18.858709999866733],[-61.759279999572186,18.867069999580963],[-61.770160000383612,18.871309999956679],[-61.802089999753548,18.884750000112547],[-61.823619999763082,18.89347999980231],[-61.834499999675131,18.897720000178026],[-61.867519999848014,18.910079999992149],[-61.889769999785528,18.918069999730847],[-61.90101999967311,18.921949999692856],[-61.935129999749563,18.933219999603466],[-61.957740000100785,18.940849999827776],[-61.968989999988423,18.944729999789786],[-62.003100000064819,18.955990000138513],[-62.014470000090341,18.959749999962696],[-62.047969999915438,18.971619999663403],[-62.058980000426573,18.975739999901236],[-62.09187000000037,18.988219999853243],[-62.113400000009904,18.99693999998118],[-62.134689999743557,19.005909999946653],[-62.156219999753091,19.01463000007459],[-62.178110000176275,19.02298999978882],[-62.189119999788034,19.027110000026596],[-62.222369999775538,19.039220000003127],[-62.244989999688642,19.046859999789319],[-62.256359999714107,19.05061000005162],[-62.290340000090794,19.062000000100056],[-62.312960000003898,19.069630000324423],[-62.324330000029363,19.073390000148549],[-62.358310000406107,19.08476999973584],[-62.369560000293689,19.08864999969785],[-62.402579999567195,19.10101000041135],[-62.424469999990379,19.109370000125523],[-62.43536000036363,19.11360999960192],[-62.456639999636138,19.122570000005624],[-62.4888199997431,19.13578000034687],[-62.499699999655149,19.140019999823267],[-62.532710000266206,19.15237999963739],[-62.543719999877965,19.156499999875223],[-62.566219999653129,19.164250000237473],[-62.588959999704116,19.1717600003239],[-62.623060000218743,19.183030000234453],[-62.634430000244208,19.186790000058579],[-62.657649999947409,19.19381000003159],[-62.692970000065316,19.203869999900689],[-62.704830000204254,19.207139999611456],[-62.740859999789052,19.216469999990636],[-62.765170000295143,19.222400000060077],[-62.777389999948412,19.225310000256457],[-62.814519999897982,19.233549999832746],[-62.83955000033211,19.23875999997415],[-62.864840000165771,19.243729999839786],[-62.890109999976403,19.248699999705366],[-62.915270000110297,19.253780000147003],[-62.940539999920929,19.25875000001264],[-62.953249999687614,19.261170000095547],[-62.992420000182733,19.267350000002637],[-63.005729999739572,19.269170000295389],[-63.047940000130779,19.272319999868216],[-63.077089999903478,19.273409999771786],[-63.10684999992742,19.273899999885202],[-63.136959999903979,19.274009999561997],[-63.167190000018365,19.274009999561997],[-63.197429999694634,19.274009999561997],[-63.227670000270166,19.274009999561997],[-63.257900000384609,19.274009999561997],[-63.288140000060821,19.274009999561997],[-63.318259999599206,19.273890000323377],[-63.348010000061322,19.273409999771786],[-63.377150000272195,19.272319999868216],[-63.405459999978916,19.2703800003369],[-63.432670000220241,19.267350000002637],[-63.458920000257706,19.263349999902687],[-63.484560000043871,19.25875000001264],[-63.509840000315648,19.253780000147003],[-63.534989999988397,19.248699999705366],[-63.560270000260175,19.243729999839786],[-63.585430000394069,19.238639999836266],[-63.610089999953402,19.233070000180476],[-63.634280000321667,19.227010000411326],[-63.657990000138284,19.220470000090586],[-63.681089999703602,19.213320000417809],[-63.703820000192763,19.205810000331383],[-63.72656999980552,19.198300000244956],[-63.749180000156741,19.1906599995595],[-63.771439999656138,19.182669999820803],[-63.793450000217206,19.174430000244456],[-63.81533999974107,19.166069999630906],[-63.836869999750604,19.1573399999412],[-63.858149999922432,19.148380000436816],[-63.879679999931966,19.139660000308879],[-63.901459999779036,19.131179999557446],[-63.923100000364627,19.122570000005624],[-63.944630000374104,19.113849999877743],[-63.965909999646669,19.104890000373359],[-63.986480000351605,19.095190000018647],[-64.015870000400071,19.079200000080107],[-64.034729999589672,19.067810000031614],[-64.053359999863972,19.056179999707354],[-64.062670000220237,19.050369999775796],[-64.090850000227192,19.033169999795803],[-64.100399999959905,19.027589999678867],[-64.119639999586184,19.016569999605963],[-64.138750000412074,19.005419999833293],[-64.157359999764083,18.993790000408353],[-64.175510000386112,18.981669999970677],[-64.193179999557231,18.96906999988073],[-64.210340000390602,18.955990000138513],[-64.227400000209741,18.942790000258469],[-64.244700000304647,18.92982000019299],[-64.270819999743082,18.91055999964442],[-64.288239999975929,18.897720000178026],[-64.30539999990998,18.884629999974663],[-64.330080000391604,18.86391000044631],[-64.338059999669156,18.856770000335359],[-64.353790000208221,18.842229999814776],[-64.369020000172782,18.827209999641923],[-64.384270000160257,18.812179999907187],[-64.399259999848994,18.796920000357886],[-64.414509999836525,18.78188999972383],[-64.429500000424582,18.76663000017453],[-64.444499999675145,18.751369999725853],[-64.459009999711611,18.735609999601934],[-64.473280000371631,18.719619999663394],[-64.486819999743091,18.70290000023499],[-64.4998800003616,18.68570000025494],[-64.512699999805022,18.668250000437297],[-64.52552999970959,18.65081000018148],[-64.538350000052333,18.633369999925719],[-64.551409999771579,18.616160000383843],[-64.571239999626187,18.5905999997903],[-64.577770000385101,18.581999999800303],[-64.596889999873497,18.555709999716839],[-64.603180000356645,18.54685999988925],[-64.615509999686651,18.528930000419336],[-64.627610000101299,18.510759999774336],[-64.645260000148767,18.483020000272916],[-64.651070000080324,18.473689999893736],[-64.662449999667615,18.45478000019699],[-64.673320000017895,18.435400000409857],[-64.683720000277674,18.41552999960993],[-64.694130000099335,18.39565999970938],[-64.704279999622145,18.375550000432327],[-64.713959999953943,18.354959999704363],[-64.723629999824539,18.334360000313893],[-64.733069999880456,18.313519999748337],[-64.741780000446568,18.291960000154006],[-64.749999999999886,18.269910000446316],[-64.758219999553205,18.24785999983925],[-64.76596000035363,18.225320000018144],[-64.777210000241212,18.191160000333866],[-64.780959999604192,18.17977000028543],[-64.788449999667648,18.1569900001885],[-64.795480000101804,18.1337300004393],[-64.805510000386107,18.098359999814306],[-64.811920000107818,18.074489999813807],[-64.81807999999188,18.050380000436803],[-64.824019999623147,18.026029999884713],[-64.829590000178257,18.001310000256467],[-64.834549999582691,17.97598999993869],[-64.838660000258699,17.949829999554993],[-64.841680000131817,17.922569999705843],[-64.843610000101307,17.894219999953179],[-64.844700000004877,17.865019999673393],[-64.845179999657148,17.835219999603453],[-64.845310000256177,17.80504999955798],[-64.845310000256177,17.774760000273943],[-64.845310000256177,17.744470000090587],[-64.845310000256177,17.714190000368376],[-64.845310000256177,17.68390000018502],[-64.845310000256177,17.653610000001663],[-64.845310000256177,17.62331999981825],[-64.845179999657148,17.593149999772834],[-64.844700000004877,17.563349999702837],[-64.843610000101307,17.53415000032237],[-64.841689999693642,17.505799999670387],[-64.838649999797553,17.478550000282439],[-64.834660000158749,17.452260000198976],[-64.830060000268702,17.426569999905723],[-64.825110000426093,17.401249999587947],[-64.820029999984399,17.37605000030743],[-64.81506000011882,17.350729999989653],[-64.809999999700096,17.32552999980976],[-64.804430000044363,17.300819999743339],[-64.798390000298184,17.276579999767307],[-64.791720000277678,17.252959999604457],[-64.787729999739611,17.241809999831787],[-64.776120000337642,17.208009999661897],[-64.76765999960918,17.186209999791799],[-64.762939999581192,17.175790000408313],[-64.749039999796025,17.144290000183503],[-64.739360000363604,17.123689999893713],[-64.724369999775547,17.093279999572474],[-64.719279999772084,17.083230000164519],[-64.709239999925956,17.062990000288437],[-64.694119999638133,17.032709999666906],[-64.689049999657641,17.022649999797807],[-64.679009999811512,17.00242000038287],[-64.668980000426586,16.982190000068613],[-64.658689999843489,16.962200000030123],[-64.648280000021884,16.942330000129516],[-64.637649999947428,16.922699999605413],[-64.626529999759555,16.903560000094046],[-64.615019999573235,16.884780000097066],[-64.597370000425087,16.857039999696383],[-64.591320000217706,16.84794999959297],[-64.572939999781056,16.820930000019644],[-64.56035999971408,16.803250000387322],[-64.54754999983254,16.78579999967036],[-64.541019999972889,16.777199999680363],[-64.521179999657136,16.751630000424313],[-64.508119999937946,16.73443000044432],[-64.495299999595204,16.716979999727357],[-64.482480000151781,16.69954000037086],[-64.469650000247213,16.682089999653897],[-64.456580000066822,16.664889999673903],[-64.443039999796042,16.648170000245443],[-64.428770000035342,16.632180000306903],[-64.414010000161284,16.616670000020633],[-64.398530000359131,16.601890000123547],[-64.382570000005387,16.58758999987873],[-64.357280000171784,16.567479999702357],[-64.348709999766584,16.560940000280937],[-64.331290000433057,16.548099999915223],[-64.313870000200211,16.535260000448773],[-64.296690000243188,16.522170000245467],[-64.280009999961408,16.508600000389833],[-64.263790000208246,16.494549999982667],[-64.247600000039881,16.480499999575443],[-64.231380000286663,16.46643999960645],[-64.214690000443056,16.452869999750817],[-64.197529999609685,16.439790000008657],[-64.179870000000392,16.42718999991871],[-64.16195999965413,16.414830000104587],[-64.143820000392566,16.402720000128056],[-64.12543000039409,16.390839999966147],[-64.106809999681616,16.379209999641887],[-64.078270000160273,16.3623700000756],[-64.058690000143258,16.351710000416347],[-64.038849999827505,16.34129000013354],[-64.028930000119317,16.336079999992137],[-64.00885000042706,16.325899999985154],[-63.988529999559717,16.315969999815763],[-63.968460000328662,16.305789999808781],[-63.938219999753073,16.290650000397363],[-63.928059999769062,16.285679999632407],[-63.907980000076805,16.27551000008657],[-63.88790999994643,16.265330000079587],[-63.857060000018862,16.250789999558947],[-63.846779999896967,16.245939999831251],[-63.815219999603187,16.23212999969985],[-63.804450000267195,16.22777000008557],[-63.782439999706128,16.219540000071106],[-63.748699999605208,16.20790000018502],[-63.737210000341122,16.204270000060603],[-63.701890000223216,16.194210000191504],[-63.678069999830541,16.187790000008647],[-63.653999999600217,16.181610000101557],[-63.629680000431563,16.175680000032116],[-63.605140000110794,16.169979999777297],[-63.592800000319642,16.167200000180003],[-63.555309999956421,16.159320000118043],[-63.530029999684643,16.154359999814289],[-63.504750000312129,16.149389999948653],[-63.479590000178234,16.14429999994519],[-63.454439999606166,16.13920999994167],[-63.429280000371591,16.134119999938207],[-63.404129999799522,16.129040000395833],[-63.391549999732604,16.12648999971384],[-63.353570000155287,16.119099999765297],[-63.328410000021393,16.114009999761834],[-63.303260000348644,16.108919999758314],[-63.290680000281668,16.106380000436786],[-63.252940000080855,16.098750000212476],[-63.227659999809021,16.093780000346896],[-63.214970000065364,16.091360000263933],[-63.177229999864494,16.083719999578477],[-63.152080000191745,16.078640000036103],[-63.126920000057851,16.07355000003264],[-63.114339999990875,16.071000000249967],[-63.076479999652122,16.06349000016354],[-63.05120999984149,16.058529999859729],[-63.038629999774571,16.055980000077057],[-63.000889999573701,16.048349999852746],[-62.975739999900952,16.043259999849226],[-62.950579999767058,16.038169999845763],[-62.937999999700139,16.035629999624916],[-62.900020000122822,16.028239999676373],[-62.887449999617672,16.0256899998937],[-62.849590000178239,16.018179999807273],[-62.82408000009184,16.013459999779286],[-62.798320000167735,16.008969999565977],[-62.77219000026821,16.004859999789289],[-62.745820000092806,16.00097999982728],[-62.719699999755051,15.996859999589446],[-62.693939999831002,15.992379999837283],[-62.668420000182778,15.98765000024747],[-62.643139999910943,15.982680000381833],[-62.617979999777049,15.97759000037837],[-62.592700000404591,15.97263000007456],[-62.567429999694639,15.96766000020898],[-62.542269999560745,15.96257000020546],[-62.517110000326113,15.957480000201997],[-62.491959999754044,15.952399999760303],[-62.46679999962015,15.94730999975684],[-62.441520000247692,15.942339999891203],[-62.416239999975915,15.937370000025624],[-62.403670000370084,15.934829999804776],[-62.365930000169271,15.927199999580466],[-62.340770000035377,15.922109999576946],[-62.315609999901483,15.917019999573483],[-62.290340000090794,15.912049999707847],[-62.265059999819016,15.907090000303413],[-62.239910000146267,15.902000000299893],[-62.227330000079348,15.8994499996179],[-62.189589999878478,15.89182000029291],[-62.16444000020573,15.886730000289447],[-62.151860000138811,15.8841900000686],[-62.113879999662117,15.876800000120056],[-62.088729999989368,15.871710000116536],[-62.063580000316676,15.866620000113073],[-62.03840999972158,15.861530000109553],[-62.025829999654661,15.858989999888706],[-61.987979999777053,15.85147999980228],[-61.975279999572194,15.849050000157547],[-61.937549999832527,15.84141999993318],[-61.912389999698632,15.836329999929717],[-61.887229999564738,15.831239999926197],[-61.862079999891989,15.826160000383823],[-61.849490000263188,15.823609999701887],[-61.811520000247697,15.816219999753343],[-61.786360000113802,15.811129999749824],[-61.773780000046827,15.808590000428296],[-61.736050000307159,15.800949999742841],[-61.710890000173265,15.795870000200466],[-61.698319999668115,15.79332000041785],[-61.660340000090798,15.785929999569987],[-61.635190000418049,15.780839999566467],[-61.61001999982301,15.775760000024093],[-61.584870000150261,15.77067000002063],[-61.559719999578192,15.76558000001711],[-61.534440000205734,15.76061000015153],[-61.509159999933956,15.75564000028595],[-61.483999999800062,15.750559999844256],[-61.458850000127313,15.745469999840736],[-61.433689999993419,15.740379999837273],[-61.40854000032067,15.735289999833753],[-61.383260000048836,15.730319999968174],[-61.370550000282151,15.72789999988521],[-61.332819999643164,15.7202699996609],[-61.307540000270706,15.71529999979532],[-61.282019999723104,15.710579999767333],[-61.256259999799056,15.706089999553967],[-61.23014000036062,15.701970000215454],[-61.203770000185273,15.69809999981527],[-61.177640000285692,15.693979999577437],[-61.164699999805009,15.691799999770296],[-61.139069999580727,15.687190000318424],[-61.10109000000341,15.67980000036988],[-61.075929999869459,15.674719999928186],[-61.050660000058826,15.669750000062606],[-61.025379999787049,15.66478000019697],[-61.012799999720073,15.66223999997618],[-60.97506000041858,15.654600000189987],[-60.949909999846511,15.64951999974835],[-60.924749999712617,15.64442999974483],[-60.912169999645641,15.641879999962157],[-60.8867700001353,15.637039999796286],[-60.849040000395576,15.629409999571976],[-60.823760000123798,15.62443999970634],[-60.798239999576197,15.619710000116527],[-60.785420000132774,15.617410000171503],[-60.746360000213713,15.61111000012653],[-60.719990000038365,15.60723000016452],[-60.69386999970061,15.603120000387833],[-60.668109999776561,15.598630000174524],[-60.64259000012828,15.593910000146536],[-60.617309999856502,15.5889400002809],[-60.592149999722608,15.583850000277437],[-60.566879999911976,15.5788800004118],[-60.541599999640141,15.573920000108046],[-60.516440000405566,15.568830000104583],[-60.491169999695614,15.563860000238947],[-60.478470000390075,15.56144000015604],[-60.439879999662139,15.55464999999765],[-60.413760000223704,15.550529999759817],[-60.387390000048356,15.546660000258953],[-60.361269999710601,15.54254000002112],[-60.335509999786552,15.538060000268956],[-60.309870000000387,15.533449999917707],[-60.284230000214222,15.528850000027603],[-60.258459999829029,15.524370000275439],[-60.232340000390593,15.520250000037606],[-60.205970000215245,15.516370000075597],[-60.17984999987749,15.512249999837763],[-60.154089999953442,15.5077700000856],[-60.128450000167277,15.503159999734351],[-60.102810000381112,15.498559999844247],[-60.077049999557744,15.494080000092083],[-60.050930000119308,15.48995999985425],[-60.024559999943904,15.48607999989224],[-60.011380000086831,15.484140000360867],[-59.972670000120274,15.477479999902187],[-59.947030000334109,15.47288000001214],[-59.921389999648625,15.46826999966089],[-59.908570000205259,15.465969999715867],[-59.869510000286198,15.459669999670894],[-59.843140000110793,15.455789999708884],[-59.817019999773038,15.451679999932196],[-59.804080000191732,15.449500000125056],[-59.765620000062825,15.442589999828783],[-59.739849999677631,15.438110000076563],[-59.713730000239195,15.433989999838786],[-59.686999999650141,15.430470000290427],[-59.659790000308135,15.427439999956164],[-59.63258000006681,15.424420000083103],[-59.605850000377075,15.420899999635424],[-59.579730000039376,15.41678000029691],[-59.554079999792066,15.412180000406806],[-59.541379999587207,15.409760000323899],[-59.503649999847482,15.402119999638387],[-59.47838000003685,15.397160000233953],[-59.465679999831991,15.394729999689901],[-59.427939999631178,15.387100000364853],[-59.415359999564203,15.384560000144006],[-59.377019999573236,15.37752999970985],[-59.3509000001348,15.373410000371337],[-59.324170000445065,15.36990000038486],[-59.29696000020374,15.366870000050596],[-59.269740000400589,15.363839999716333],[-59.256200000129809,15.362259999699347],[-59.216890000373098,15.356210000391343],[-59.19113000044905,15.351720000177977],[-59.165489999763565,15.34712000028793],[-59.139720000277691,15.34263999963639],[-59.113599999939936,15.338520000297933],[-59.087229999764588,15.334640000335867],[-59.061110000326153,15.33052000009809],[-59.035350000402104,15.32604000034587],[-59.009700000154794,15.321439999556446],[-58.996890000273197,15.319139999611423],[-58.95781999989299,15.312839999566449],[-58.944640000035861,15.310900000035133],[-58.90387999996193,15.306289999683884],[-58.876669999720605,15.303269999810766],[-58.849949999592695,15.299750000262463],[-58.823810000131289,15.29563000002463],[-58.798059999769066,15.29115000027241],[-58.785240000325643,15.288850000327386],[-58.746649999597707,15.282060000168997],[-58.720530000159272,15.277939999931164],[-58.694159999983924,15.274070000430299],[-58.668039999646169,15.269950000192466],[-58.642270000160238,15.265470000440303],[-58.629460000278698,15.263160000034134],[-58.590869999550705,15.25638000033689],[-58.564759999674152,15.252260000099056],[-58.538020000422591,15.24875000011258],[-58.524480000151755,15.247170000095593],[-58.483599999939941,15.242690000343373],[-58.456870000250206,15.239180000356896],[-58.43074999991245,15.235060000119063],[-58.404980000426576,15.230569999905697],[-58.379219999603208,15.226090000153533],[-58.353100000164773,15.2219699999157],[-58.326369999575718,15.218459999929166],[-58.299160000233712,15.21542999959496],[-58.271949999992387,15.212400000160017],[-58.258400000159781,15.210829999704856],[-58.219090000403071,15.204769999935706],[-58.206149999922445,15.202590000128566],[-58.167569999655655,15.195799999970177],[-58.141439999756074,15.191679999732344],[-58.114710000066339,15.18816999974581],[-58.087499999825013,15.185140000310923],[-58.060289999583688,15.18210999997666],[-58.033559999893953,15.178599999990126],[-58.007439999556198,15.17447999975235],[-57.981670000070324,15.17000000000013],[-57.955910000146275,15.165520000247966],[-57.929669999670637,15.161520000148016],[-57.902579999567195,15.15836999967587],[-57.87475999997389,15.155940000031137],[-57.846700000104818,15.153760000223997],[-57.832669999720622,15.15267000032037],[-57.791790000408071,15.148189999668887],[-57.765549999932432,15.144189999568937],[-57.739780000446558,15.139709999816773],[-57.714030000084335,15.13523000006461],[-57.687900000184754,15.131109999826776],[-57.6611699995957,15.127590000278417],[-57.633960000253694,15.124570000405356],[-57.620290000283148,15.123109999626934],[-57.580020000322634,15.118019999623414],[-57.553890000423053,15.1139000002849],[-57.52814000006083,15.109419999633417],[-57.502369999675636,15.104939999881253],[-57.476130000099317,15.100939999781303],[-57.449039999995875,15.097790000208477],[-57.42122000040257,15.09537000012557],[-57.393159999634179,15.093190000318373],[-57.365340000040874,15.09075999977432],[-57.351549999932445,15.089429999594927],[-57.311999999899967,15.083610000101544],[-57.286250000437065,15.07913000034938],[-57.273430000094322,15.076830000404357],[-57.23423000001435,15.070649999597947],[-57.20715000037211,15.06750000002512],[-57.193360000263681,15.066169999845727],[-57.151270000010356,15.062900000135016],[-57.123450000417051,15.06048000005211],[-57.096360000313666,15.057329999579963],[-57.070110000276202,15.053330000379333],[-57.044350000352097,15.04884999972785],[-57.031530000009354,15.046540000221],[-56.992470000090293,15.040240000176027],[-56.965740000400558,15.036730000189493],[-56.93853000015929,15.03369999985523],[-56.911319999917964,15.030670000420344],[-56.884590000228229,15.02716000043381],[-56.858460000328648,15.023040000195977],[-56.8327000004046,15.018560000443813],[-56.806939999581175,15.014070000230447],[-56.78069000044303,15.010070000130554],[-56.753600000339645,15.006930000119553],[-56.72577999984702,15.004499999575444],[-56.697719999977892,15.002319999768304],[-56.669900000384587,14.999899999685397],[-56.656119999837983,14.998570000405323],[-56.616569999805506,14.99275000001262],[-56.590809999881458,14.988270000260457],[-56.577990000438035,14.985970000315376],[-56.538799999919945,14.979790000408343],[-56.511709999816503,14.976639999936197],[-56.483890000223198,14.974210000291407],[-56.455830000354126,14.972029999584947],[-56.428020000322647,14.96961000040136],[-56.400919999758059,14.966459999929214],[-56.374680000181741,14.962459999829264],[-56.348920000257692,14.9579800000771],[-56.323160000333644,14.95350000032488],[-56.297039999995889,14.949380000087046],[-56.270299999845008,14.94587000010057],[-56.243089999603683,14.942839999766306],[-56.215880000261677,14.939810000331363],[-56.189149999672622,14.936300000344886],[-56.163019999773041,14.932180000107053],[-56.137270000310139,14.927689999893744],[-56.111499999924945,14.923210000141523],[-56.085260000348626,14.91921000004163],[-56.058170000245184,14.916059999569484],[-56.030349999752559,14.91364000038584],[-56.002289999883487,14.91145999967938],[-55.974470000290182,14.909039999596416],[-55.94738000018674,14.905890000023646],[-55.921130000149276,14.901889999923696],[-55.895379999787053,14.897410000171533],[-55.869610000301179,14.892919999958167],[-55.843360000263658,14.888930000319419],[-55.830060000268702,14.88711000002661],[-55.788460000128794,14.883350000202483],[-55.760400000259665,14.881170000395343],[-55.73257999976704,14.87875000031238],[-55.718789999658668,14.877420000133043],[-55.679250000087336,14.87159999974034],[-55.653479999702085,14.86711999998812],[-55.627719999778037,14.862629999774811],[-55.601600000339602,14.858519999998123],[-55.574869999750547,14.8549999995505],[-55.547660000408598,14.851970000115557],[-55.520450000167273,14.848950000242439],[-55.493719999578218,14.845429999794817],[-55.467589999678637,14.841309999556984],[-55.441829999754589,14.836829999804763],[-55.41606999983054,14.8323500000526],[-55.389819999793019,14.82834999995265],[-55.362729999689634,14.82520000037988],[-55.334910000096329,14.822780000296916],[-55.3068500002272,14.820599999590456],[-55.279029999734576,14.818169999945667],[-55.251950000092336,14.81502000037284],[-55.225700000054871,14.811020000272947],[-55.199940000130766,14.806539999621407],[-55.174180000206718,14.802059999869243],[-55.148059999868963,14.79793999963141],[-55.121330000179228,14.794429999644933],[-55.094119999937959,14.79140000020999],[-55.066900000134808,14.788369999875727],[-55.040170000445073,14.78485999988925],[-55.026989999688624,14.782920000357876],[-54.98829000018327,14.77625000033737],[-54.962519999798019,14.771769999685887],[-54.93640000035964,14.767650000347373],[-54.909680000231731,14.76414000036084],[-54.88246000042858,14.761110000026633],[-54.855250000187254,14.75807999969237],[-54.8285199995982,14.754569999705836],[-54.802400000159764,14.75045000036738],[-54.77662999977457,14.74596999971584],[-54.750869999850522,14.74148000040185],[-54.724750000412087,14.737360000164017],[-54.698019999823032,14.733850000177483],[-54.670809999581707,14.730819999843277],[-54.643589999778555,14.727790000408334],[-54.630050000407095,14.726219999953173],[-54.603680000231691,14.722339999991163],[-54.577800000169759,14.717980000376826],[-54.539219999902969,14.711190000218494],[-54.51298000032665,14.70719999968037],[-54.485879999762062,14.704050000107543],[-54.458069999730583,14.701619999563491],[-54.430009999861511,14.699439999756351],[-54.402190000268206,14.697019999673387],[-54.375100000164764,14.69387000010056],[-54.3488500001273,14.68987000000061],[-54.323090000203251,14.685390000248447],[-54.310269999860509,14.683090000303423],[-54.271080000241682,14.676910000396333],[-54.243990000138297,14.673759999924187],[-54.216180000106817,14.67133999984128],[-54.202149999722621,14.67024999993771],[-54.160299999745064,14.66673000038935],[-54.133209999641679,14.663590000378349],[-54.106959999604157,14.659590000278456],[-54.081199999680109,14.65510000006509],[-54.068380000236687,14.652800000120067],[-54.02930999985648,14.646500000075093],[-54.002589999728571,14.64299000008856],[-53.97536999992542,14.639959999754296],[-53.948159999684151,14.63693000031941],[-53.934609999851489,14.635350000302424],[-53.895309999656661,14.629300000095043],[-53.86954000017073,14.624809999881734],[-53.843789999808507,14.620330000129513],[-53.817659999908926,14.616209999891737],[-53.790930000219191,14.612699999905203],[-53.763719999977923,14.60966999957094],[-53.736500000174772,14.606640000136053],[-53.709780000046862,14.60313000014952],[-53.683650000147281,14.599009999911686],[-53.657890000223233,14.594530000159523],[-53.632130000299185,14.590039999946157],[-53.605880000261664,14.586050000307409],[-53.578799999720104,14.582899999835263],[-53.550969999665654,14.580470000190473],[-53.52292000025767,14.578290000383333],[-53.495099999765046,14.575870000300426],[-53.46800999966166,14.57271999982828],[-53.441759999624139,14.56871999972833],[-53.415999999700091,14.564239999976166],[-53.390239999776043,14.559760000223946],[-53.363989999738578,14.555760000124053],[-53.336910000096339,14.552609999651906],[-53.309080000041831,14.550180000007117],[-53.281029999734585,14.548000000199977],[-53.25321000014128,14.54558000011707],[-53.226120000037838,14.542429999644924],[-53.199870000000374,14.538430000444293],[-53.174110000076325,14.53394999979281],[-53.148350000152277,14.52947000004059],[-53.122109999676638,14.525469999940697],[-53.095010000011371,14.52232000036787],[-53.067199999979891,14.519900000284906],[-53.03914000011082,14.517719999578446],[-53.011319999618195,14.515289999933714],[-52.984230000414072,14.512140000360887],[-52.957980000376608,14.508140000260937],[-52.93221999955324,14.503659999609454],[-52.919400000109817,14.501359999664373],[-52.880209999591671,14.49517999975734],[-52.853120000387605,14.492030000184513],[-52.825310000356126,14.48961000010155],[-52.797249999587677,14.48743000029441],[-52.769429999994372,14.485010000211503],[-52.742339999890987,14.481859999739356],[-52.716089999853523,14.477859999639406],[-52.690329999929418,14.473379999887243],[-52.664570000005369,14.468889999673877],[-52.638319999967905,14.464889999573984],[-52.611240000325665,14.461740000001157],[-52.583410000271158,14.459319999918193],[-52.555359999963912,14.457140000111053],[-52.527540000370607,14.45472000002809],[-52.500450000267165,14.451569999556],[-52.474209999791526,14.44757000035537],[-52.448440000305652,14.443089999703886],[-52.422680000381604,14.43860000038984],[-52.396549999582703,14.434480000152007],[-52.383369999725574,14.432550000182516],[-52.342609999651643,14.427939999831267],[-52.315400000309637,14.424910000396324],[-52.288669999720582,14.421400000409847],[-52.262550000282147,14.417280000172013],[-52.236790000358098,14.41280000041985],[-52.21103000043405,14.40831999976831],[-52.184780000396586,14.404319999668417],[-52.15757000015526,14.401290000233473],[-52.129390000148248,14.399229999664897],[-52.100720000027877,14.397649999647911],[-52.07206999993042,14.39608000009207],[-52.043880000361639,14.394020000422813],[-52.016670000120314,14.39099000008855],[-51.990429999644675,14.386989999988657],[-51.964660000158744,14.382510000236437],[-51.938900000234696,14.378029999584953],[-51.912659999759057,14.374030000384323],[-51.885569999655615,14.370879999912177],[-51.85775000006231,14.36845999982927],[-51.829690000193239,14.36628000002213],[-51.801869999700614,14.36385000037734],[-51.774779999597172,14.360699999905194],[-51.748540000020853,14.356699999805301],[-51.722769999635659,14.35222000005308],[-51.697009999711611,14.347740000300917],[-51.670759999674146,14.343740000200967],[-51.64368000003185,14.34058999972882],[-51.615849999977399,14.338169999645913],[-51.587799999670153,14.335989999838773],[-51.559980000076848,14.333560000193984],[-51.532889999973406,14.330409999721837],[-51.506650000397087,14.32642000008309],[-51.480880000011894,14.321929999869724],[-51.455120000087845,14.31745000011756],[-51.428870000050324,14.31345000001761],[-51.401659999809056,14.310419999683404],[-51.373479999802043,14.308369999575973],[-51.344820000142761,14.306789999558987],[-51.31615000002239,14.305220000003146],[-51.287979999577203,14.303160000333889],[-51.260759999774052,14.300129999999626],[-51.234520000197733,14.296129999899733],[-51.208749999812539,14.291650000147513],[-51.182989999888491,14.287159999934204],[-51.156750000312172,14.283170000295399],[-51.12966000020873,14.280019999823253],[-51.101839999716105,14.27759000017852],[-51.073779999846977,14.27541000037138],[-51.045960000253672,14.272990000288416],[-51.018870000150287,14.26983999981627],[-51.005559999694128,14.268020000422837],[-50.966860000188717,14.261359999964156],[-50.941100000264669,14.256880000211993],[-50.91485999978903,14.252880000112043],[-50.887760000123762,14.249729999639897],[-50.85995000009234,14.247299999995164],[-50.831890000223211,14.245120000188024],[-50.804080000191732,14.24270000010506],[-50.77699000008829,14.239549999632914],[-50.750740000050826,14.23555000043234],[-50.724980000126777,14.2310699997808],[-50.712150000222209,14.228769999835777],[-50.672970000165265,14.222589999928687],[-50.645759999923939,14.219559999594424],[-50.617579999916927,14.217499999925167],[-50.588909999796556,14.215930000369383],[-50.560250000137273,14.214350000352397],[-50.532070000130261,14.21228999978382],[-50.504859999888993,14.209260000348877],[-50.491550000332154,14.20744999961795],[-50.452849999927423,14.200779999597444],[-50.427090000003375,14.19629999984528],[-50.40083999996591,14.19229999974533],[-50.373749999862468,14.189150000172503],[-50.345930000269163,14.186730000089597],[-50.317879999961917,14.1845500002824],[-50.290060000368612,14.182130000199493],[-50.26297000026517,14.178970000165521],[-50.236720000227706,14.174979999627396],[-50.210960000303658,14.170490000313407],[-50.185200000379609,14.166009999661867],[-50.158950000342145,14.162009999561974],[-50.13174000010082,14.158989999688856],[-50.103560000093808,14.156930000019599],[-50.074900000434582,14.155350000002613],[-50.046230000314154,14.153780000446829],[-50.018050000307142,14.151719999878253],[-50.004140000060829,14.150500000274917],[-49.964590000028352,14.14469000034336],[-49.938839999666129,14.140209999691876],[-49.913070000180255,14.13572000037783],[-49.900129999699629,14.13353999967137],[-49.859609999901465,14.12870000040482],[-49.831440000355599,14.126639999836243],[-49.802770000235228,14.125059999819257],[-49.774109999676625,14.123490000263416],[-49.745929999669613,14.121429999694897],[-49.718709999866462,14.118400000259953],[-49.705409999871506,14.116579999967144],[-49.666710000366095,14.10992000040784],[-49.640950000442047,14.1054399997563],[-49.614700000404582,14.101439999656407],[-49.587490000163257,14.098410000221463],[-49.559310000156245,14.096349999652887],[-49.530640000035874,14.094769999635901],[-49.51625000013729,14.094049999707863],[-49.473800000369579,14.091140000410803],[-49.44659000012831,14.088110000076597],[-49.420340000090789,14.084109999976647],[-49.394580000166741,14.079630000224483],[-49.368820000242692,14.075149999572943],[-49.342579999767054,14.07115000037237],[-49.315359999963903,14.068120000038107],[-49.287190000418093,14.06606000036885],[-49.258520000297665,14.06448999991369],[-49.229859999739062,14.062909999896704],[-49.201679999732107,14.060850000227447],[-49.174459999928956,14.057830000354386],[-49.148220000352637,14.053830000254436],[-49.122460000428532,14.049340000041127],[-49.096690000043338,14.044860000288907],[-49.0704499995677,14.040860000189014],[-49.043240000225694,14.03782999985475],[-49.015049999757593,14.035770000185494],[-48.986390000098311,14.034199999730333],[-48.957730000439028,14.032619999713347],[-48.929550000432073,14.030569999605916],[-48.902340000190748,14.02754000017103],[-48.876090000153283,14.02354000007108],[-48.850330000229235,14.019060000318916],[-48.82457000030513,14.01457000010555],[-48.798320000267665,14.010579999567483],[-48.77111000002634,14.007550000132539],[-48.742930000019385,14.005489999563963],[-48.714259999898957,14.003910000446297],[-48.685600000239674,14.002339999991136],[-48.657420000232719,14.000280000321879],[-48.630209999991393,13.997249999987673],[-48.603970000415075,13.993249999887723],[-48.591020000372623,13.991070000080583],[-48.552440000105776,13.984290000383339],[-48.526190000068311,13.980290000283446],[-48.498990000288188,13.977259999949183],[-48.485069999580674,13.97604999990773],[-48.442140000160748,13.97362000026294],[-48.413479999602202,13.97204999980778],[-48.385290000033365,13.969990000138523],[-48.358079999792039,13.96695999980426],[-48.344770000235201,13.965140000410827],[-48.306080000291672,13.958479999952146],[-48.280309999906478,13.954000000199983],[-48.254070000330159,13.95000000010009],[-48.226860000088834,13.946969999765827],[-48.198550000382113,13.945030000234453],[-48.169530000309123,13.943820000193],[-48.140260000398598,13.942850000427313],[-48.111240000325665,13.94164000038586],[-48.08294000018077,13.939699999955167],[-48.055720000377619,13.936669999620904],[-48.029470000340154,13.93267000042033],[-48.003719999977875,13.92818999976879],[-47.977949999592681,13.923710000016627],[-47.965010000011375,13.921530000209486],[-47.924490000213211,13.91667999958247],[-47.896319999768082,13.914619999913214],[-47.867649999647654,13.913050000357373],[-47.838989999988371,13.911470000340387],[-47.810809999981416,13.90940999977181],[-47.783590000178265,13.906380000336867],[-47.757349999702626,13.9023899997988],[-47.731589999778578,13.897899999585434],[-47.705829999854473,13.89341999983327],[-47.679579999817008,13.88941999973332],[-47.652369999575683,13.886390000298434],[-47.624070000330107,13.884449999867741],[-47.595039999796029,13.883239999826287],[-47.565769999885447,13.882270000060601],[-47.536749999812514,13.881060000019147],[-47.508449999667619,13.879119999588454],[-47.481229999864468,13.876090000153511],[-47.454990000288149,13.872099999615443],[-47.429219999902955,13.867610000301397],[-47.403470000440052,13.863129999649914],[-47.377209999941442,13.859130000449284],[-47.350119999838,13.855979999977137],[-47.322309999806521,13.85355999989423],[-47.294249999937449,13.85138000008709],[-47.266430000344144,13.848960000004126],[-47.239340000240702,13.8458100004313],[-47.213099999765063,13.841810000331407],[-47.187339999841015,13.837329999679866],[-47.161570000355141,13.832840000365877],[-47.13532000031762,13.828849999827753],[-47.108119999638177,13.825820000392866],[-47.079930000069339,13.82375999982429],[-47.051270000410057,13.822179999807304],[-47.022609999851511,13.820610000251463],[-46.994429999844499,13.818549999682887],[-46.967219999603174,13.815520000247943],[-46.953910000046335,13.81369999995519],[-46.915209999641661,13.80704000039583],[-46.889449999717613,13.802559999744346],[-46.863199999680148,13.798559999644397],[-46.835990000338143,13.795530000209453],[-46.807810000331131,13.793469999640934],[-46.779140000210703,13.791889999623947],[-46.750479999652157,13.790320000068107],[-46.722299999645145,13.78826000039885],[-46.695090000303139,13.785230000064587],[-46.668849999827501,13.781229999964637],[-46.643080000341627,13.776750000212473],[-46.617320000417578,13.77226999956099],[-46.591070000380114,13.76827000036036],[-46.563869999700614,13.765240000026097],[-46.535680000131777,13.763180000356897],[-46.507019999573231,13.761609999901737],[-46.478359999913948,13.76002999988475],[-46.450170000345111,13.757970000215494],[-46.436260000098798,13.756760000173983],[-46.396710000066321,13.750950000242483],[-46.370959999704098,13.746460000029117],[-46.345190000218224,13.741980000276953],[-46.318949999742586,13.737980000177004],[-46.291729999939434,13.73494999984274],[-46.263560000393568,13.732890000173484],[-46.234890000273197,13.731319999718323],[-46.206229999714594,13.729739999701337],[-46.178049999707582,13.727680000032137],[-46.150829999904431,13.72466000015902],[-46.137529999909475,13.722839999866267],[-46.098830000404064,13.716180000306906],[-46.073069999580696,13.71169000009354],[-46.046820000442551,13.707699999555473],[-46.019730000339109,13.70454000042082],[-45.991909999846484,13.702120000337857],[-45.963849999977413,13.699939999631397],[-45.936039999945933,13.69752000044781],[-45.908940000280666,13.694369999975663],[-45.882699999805027,13.690369999875713],[-45.856930000319153,13.68589000012355],[-45.83117999995693,13.681410000371386],[-45.804929999919466,13.677410000271436],[-45.777719999678141,13.674379999937173],[-45.763810000331148,13.67316999989572],[-45.7208699995507,13.67074000025093],[-45.692209999891475,13.66916999979577],[-45.664029999884463,13.66711000012657],[-45.636819999643137,13.664079999792307],[-45.623510000086299,13.662260000398817],[-45.584809999681625,13.655599999940193],[-45.571990000238202,13.65329999999517],[-45.532810000181257,13.64712000008808],[-45.50570999961667,13.643969999615933],[-45.47789999958519,13.641550000432289],[-45.449839999716119,13.63936999972583],[-45.422020000122814,13.636940000081097],[-45.394930000019372,13.63378999960895],[-45.368679999981907,13.629799999970146],[-45.342929999619685,13.625309999756837],[-45.317160000133754,13.620830000004617],[-45.290919999658115,13.616829999904724],[-45.263699999854964,13.61379999957046],[-45.235519999848009,13.611739999901204],[-45.206860000188726,13.610170000345363],[-45.178199999630181,13.608590000328377],[-45.150019999623169,13.6065299997598],[-45.136110000276176,13.605319999718347],[-45.096560000243699,13.59950999978679],[-45.07080000031965,13.595019999573481],[-45.045040000395602,13.59053999982126],[-45.032090000353094,13.58836000001412],[-44.991700000254696,13.58339000014854],[-44.963879999762071,13.580970000065577],[-44.935819999892942,13.578790000258437],[-44.908000000299637,13.57637000017553],[-44.880910000196252,13.573219999703383],[-44.867610000201239,13.571400000309893],[-44.828909999796508,13.56473999985127],[-44.803140000310634,13.560249999637904],[-44.776899999834995,13.556259999999156],[-44.74980999973161,13.553110000426329],[-44.721990000138305,13.55067999988222],[-44.693930000269177,13.54850000007508],[-44.666109999776552,13.546079999992116],[-44.63901999967311,13.542930000419346],[-44.612780000096791,13.538930000319397],[-44.587020000172743,13.534449999667913],[-44.561260000248694,13.529960000353867],[-44.53501000021123,13.5259699998158],[-44.507920000107788,13.522820000242973],[-44.480099999615163,13.520389999698864],[-44.452039999746091,13.518209999891724],[-44.424220000152786,13.51578999980876],[-44.397130000049344,13.512640000235933],[-44.370889999573706,13.50864000013604],[-44.345120000087832,13.504160000383877],[-44.319369999725609,13.499679999732336],[-44.293119999688145,13.495679999632443],[-44.265910000346139,13.4926500001975],[-44.237719999877982,13.490589999628924],[-44.209060000218699,13.489020000073083],[-44.180399999660153,13.487440000056097],[-44.152219999653141,13.48538000038684],[-44.125010000311136,13.482350000052577],[-44.111699999854977,13.480529999759824],[-44.073000000349623,13.473870000200463],[-44.047240000425575,13.4693900004483],[-44.034299999944949,13.46720999974184],[-43.993900000284668,13.462239999876203],[-43.966090000253189,13.459819999793297],[-43.938030000384117,13.457639999986156],[-43.910209999891435,13.455219999903193],[-43.88311999978805,13.452059999869221],[-43.856869999750586,13.448070000230473],[-43.84393000016928,13.445890000423333],[-43.805340000340607,13.439100000264943],[-43.779099999864968,13.435100000164994],[-43.765799999869955,13.433290000333386],[-43.723709999616688,13.430019999723356],[-43.709439999855988,13.429170000095553],[-43.666390000298179,13.426870000150529],[-43.638210000291167,13.424809999581953],[-43.610989999588696,13.42178000014701],[-43.584750000012377,13.417780000047117],[-43.558979999627184,13.413300000294896],[-43.533219999703078,13.408810000081587],[-43.506969999665614,13.404820000442783],[-43.479760000323665,13.401790000108576],[-43.45146000017877,13.399849999677883],[-43.42244000010578,13.39863999963643],[-43.393170000195255,13.397669999870743],[-43.36413999966112,13.39645999982929],[-43.33584999997737,13.394520000297916],[-43.308630000174276,13.391489999963653],[-43.282380000136754,13.38748999986376],[-43.256620000212706,13.38301000011154],[-43.230860000288658,13.378530000359376],[-43.204610000251193,13.374530000259426],[-43.177400000009868,13.37149999992522],[-43.149220000002856,13.369440000255963],[-43.12056000034363,13.367860000238977],[-43.091899999785028,13.366289999783817],[-43.06371000021619,13.36423000011456],[-43.036499999974922,13.361199999780297],[-43.0102499999374,13.357199999680404],[-42.984499999575178,13.352719999928183],[-42.958730000089304,13.34824000017602],[-42.932489999613665,13.34424000007607],[-42.905269999810514,13.341209999741807],[-42.876969999665619,13.33927000021049],[-42.847819999892977,13.33818000030692],[-42.818070000330124,13.33769999975533],[-42.788079999592185,13.337449999917681],[-42.758330000029332,13.33697000026541],[-42.72918000025669,13.33588000036184],[-42.714790000358107,13.335149999972657],[-42.673669999870469,13.33090999959694],[-42.647419999833005,13.326919999958193],[-42.634480000251699,13.324729999689851],[-42.595899999984908,13.317949999992663],[-42.569649999947444,13.313949999892714],[-42.542439999706119,13.31091999955845],[-42.514139999561223,13.308980000027134],[-42.484989999788525,13.307890000123564],[-42.455240000225729,13.307409999571973],[-42.425130000249169,13.30729000033341],[-42.394889999673637,13.30729000033341],[-42.364649999997368,13.30729000033341],[-42.33452999955972,13.30717000019547],[-42.304789999558693,13.306680000082054],[-42.275630000224226,13.305590000178483],[-42.247339999641156,13.303649999747847],[-42.220119999838005,13.300620000312904],[-42.193880000261686,13.29662999977478],[-42.168120000337638,13.292139999561471],[-42.142349999952444,13.287659999809307],[-42.129410000371081,13.28548000000211],[-42.088900000134799,13.280639999836239],[-42.060590000428078,13.278700000304923],[-42.046199999630176,13.277969999915683],[-42.00169999975509,13.277120000287937],[-41.971580000216704,13.277000000149997],[-41.941350000102318,13.277000000149997],[-41.911110000426049,13.277000000149997],[-41.880869999850518,13.277000000149997],[-41.850639999736075,13.277000000149997],[-41.820400000059863,13.277000000149997],[-41.790160000383594,13.277000000149997],[-41.759930000269151,13.277000000149997],[-41.729689999693619,13.277000000149997],[-41.699579999717116,13.276880000012113],[-41.669819999693118,13.276389999898697],[-41.640910000196243,13.275299999995127],[-41.61334000044053,13.273370000025636],[-41.587579999617162,13.270339999691373],[-41.563749999662662,13.266339999591423],[-41.541619999862974,13.26185999983926],[-41.530980000226691,13.25955000033241],[-41.498570000305165,13.253379999987146]]]},"properties":{"objectid":215,"stormname":"Dolly","stormtype":"TS","basin":"AL","advdate":"1100 AM AST Thu Aug 27 2026","advisnum":"1","fcstprd":120,"stormnum":4,"idp_source":"al042026-001_5day_pgn","idp_filedate":1787846560000,"idp_ingestdate":1787846569000,"st_area(shape)":46.92381419409493,"st_perimeter(shape)":55.810525660623661,"binnumber":"AT4"}}]}