{"type":"FeatureCollection","features":[{"type":"Feature","id":223,"geometry":{"type":"LineString","coordinates":[[-42.299999999899967,13.800000000399848],[-45.700000000299667,14.300000000299917],[-50.200000000299667,15.200000000299895],[-54.700000000299667,15.999999999600448],[-58.999999999800025,16.700000000000159],[-62.999999999899956,17.000000000299906]]},"properties":{"objectid":223,"stormname":"Dolly","stormtype":"TS","basin":"AL","advdate":"1100 PM AST Thu Aug 27 2026","advisnum":"3","fcstprd":120,"stormnum":4,"idp_source":"al042026-003_5day_lin","idp_filedate":1787887376000,"idp_ingestdate":1787887428000,"st_length(shape)":20.964081976668325,"binnumber":"AT4"}}]}