{"type": "FeatureCollection", "features": [{"type": "Feature", "id": 1685, "geometry": {"type": "Point", "coordinates": [-38.699999999899944, 13.599999999900206]}, "properties": {"objectid": 1685, "stormname": "Tropical Storm Dolly", "stormtype": "TS", "dvlbl": "S", "basin": "AL", "advdate": "1100 AM AST Thu Aug 27 2026", "advisnum": "1", "fcstprd": 120, "gust": 45, "maxwind": 35, "mslp": 1007, "ssnum": 0, "datelbl": "11:00 AM Thu", "tcdvlp": "Tropical Storm", "tcdir": 275, "tcspd": 21, "fldatelbl": "2026-08-27 8:00 AM Thu AST", "lat": 14, "lon": -39, "stormnum": 4, "stormsrc": "Tropical Cyclone", "tau": 0, "timezone": "AST", "validtime": "27/1200", "idp_source": "al042026-001_5day_pts", "idp_filedate": 1787846560000, "idp_ingestdate": 1787846573000, "binnumber": "AT4", "MAXWIND": 35, "VALIDTIME": "27/1200"}}, {"type": "Feature", "id": 1686, "geometry": {"type": "Point", "coordinates": [-41.99999999960016, 13.699999999700367]}, "properties": {"objectid": 1686, "stormname": "Tropical Storm Dolly", "stormtype": "TS", "dvlbl": "S", "basin": "AL", "advdate": "1100 AM AST Thu Aug 27 2026", "advisnum": "1", "fcstprd": 120, "gust": 50, "maxwind": 40, "mslp": 9999, "ssnum": 0, "datelbl": "8:00 PM Thu", "tcdvlp": "Tropical Storm", "tcdir": 9999, "tcspd": 9999, "fldatelbl": "2026-08-27 8:00 PM Thu AST", "lat": 14, "lon": -42, "stormnum": 4, "stormsrc": "Tropical Cyclone", "tau": 12, "timezone": "AST", "validtime": "28/0000", "idp_source": "al042026-001_5day_pts", "idp_filedate": 1787846560000, "idp_ingestdate": 1787846573000, "binnumber": "AT4", "MAXWIND": 40, "VALIDTIME": "28/0000"}}, {"type": "Feature", "id": 1687, "geometry": {"type": "Point", "coordinates": [-46.39999999980006, 14.400000000100079]}, "properties": {"objectid": 1687, "stormname": "Tropical Storm Dolly", "stormtype": "TS", "dvlbl": "S", "basin": "AL", "advdate": "1100 AM AST Thu Aug 27 2026", "advisnum": "1", "fcstprd": 120, "gust": 50, "maxwind": 40, "mslp": 9999, "ssnum": 0, "datelbl": "8:00 AM Fri", "tcdvlp": "Tropical Storm", "tcdir": 9999, "tcspd": 9999, "fldatelbl": "2026-08-28 8:00 AM Fri AST", "lat": 14, "lon": -46, "stormnum": 4, "stormsrc": "Tropical Cyclone", "tau": 24, "timezone": "AST", "validtime": "28/1200", "idp_source": "al042026-001_5day_pts", "idp_filedate": 1787846560000, "idp_ingestdate": 1787846573000, "binnumber": "AT4", "MAXWIND": 40, "VALIDTIME": "28/1200"}}, {"type": "Feature", "id": 1688, "geometry": {"type": "Point", "coordinates": [-51.100000000299644, 15.099999999600414]}, "properties": {"objectid": 1688, "stormname": "Tropical Storm Dolly", "stormtype": "TS", "dvlbl": "S", "basin": "AL", "advdate": "1100 AM AST Thu Aug 27 2026", "advisnum": "1", "fcstprd": 120, "gust": 50, "maxwind": 40, "mslp": 9999, "ssnum": 0, "datelbl": "8:00 PM Fri", "tcdvlp": "Tropical Storm", "tcdir": 9999, "tcspd": 9999, "fldatelbl": "2026-08-28 8:00 PM Fri AST", "lat": 15, "lon": -51, "stormnum": 4, "stormsrc": "Tropical Cyclone", "tau": 36, "timezone": "AST", "validtime": "29/0000", "idp_source": "al042026-001_5day_pts", "idp_filedate": 1787846560000, "idp_ingestdate": 1787846573000, "binnumber": "AT4", "MAXWIND": 40, "VALIDTIME": "29/0000"}}, {"type": "Feature", "id": 1689, "geometry": {"type": "Point", "coordinates": [-55.600000000299644, 15.899999999800286]}, "properties": {"objectid": 1689, "stormname": "Tropical Storm Dolly", "stormtype": "TS", "dvlbl": "S", "basin": "AL", "advdate": "1100 AM AST Thu Aug 27 2026", "advisnum": "1", "fcstprd": 120, "gust": 50, "maxwind": 40, "mslp": 9999, "ssnum": 0, "datelbl": "8:00 AM Sat", "tcdvlp": "Tropical Storm", "tcdir": 9999, "tcspd": 9999, "fldatelbl": "2026-08-29 8:00 AM Sat AST", "lat": 16, "lon": -56, "stormnum": 4, "stormsrc": "Tropical Cyclone", "tau": 48, "timezone": "AST", "validtime": "29/1200", "idp_source": "al042026-001_5day_pts", "idp_filedate": 1787846560000, "idp_ingestdate": 1787846573000, "binnumber": "AT4", "MAXWIND": 40, "VALIDTIME": "29/1200"}}, {"type": "Feature", "id": 1690, "geometry": {"type": "Point", "coordinates": [-59.499999999700094, 16.70000000000016]}, "properties": {"objectid": 1690, "stormname": "Tropical Storm Dolly", "stormtype": "STS", "dvlbl": "S", "basin": "AL", "advdate": "1100 AM AST Thu Aug 27 2026", "advisnum": "1", "fcstprd": 120, "gust": 45, "maxwind": 35, "mslp": 9999, "ssnum": 0, "datelbl": "8:00 PM Sat", "tcdvlp": "Subtropical Storm", "tcdir": 9999, "tcspd": 9999, "fldatelbl": "2026-08-29 8:00 PM Sat AST", "lat": 17, "lon": -60, "stormnum": 4, "stormsrc": "Post-Tropical Cyclone", "tau": 60, "timezone": "AST", "validtime": "30/0000", "idp_source": "al042026-001_5day_pts", "idp_filedate": 1787846560000, "idp_ingestdate": 1787846573000, "binnumber": "AT4", "MAXWIND": 35, "VALIDTIME": "30/0000"}}, {"type": "Feature", "id": 1691, "geometry": {"type": "Point", "coordinates": [-63.2000000003996, 17.699999999800298]}, "properties": {"objectid": 1691, "stormname": "Tropical Storm Dolly", "stormtype": "STS", "dvlbl": "S", "basin": "AL", "advdate": "1100 AM AST Thu Aug 27 2026", "advisnum": "1", "fcstprd": 120, "gust": 45, "maxwind": 35, "mslp": 9999, "ssnum": 0, "datelbl": "8:00 AM Sun", "tcdvlp": "Subtropical Storm", "tcdir": 9999, "tcspd": 9999, "fldatelbl": "2026-08-30 8:00 AM Sun AST", "lat": 18, "lon": -63, "stormnum": 4, "stormsrc": "Post-Tropical Cyclone", "tau": 72, "timezone": "AST", "validtime": "30/1200", "idp_source": "al042026-001_5day_pts", "idp_filedate": 1787846560000, "idp_ingestdate": 1787846573000, "binnumber": "AT4", "MAXWIND": 35, "VALIDTIME": "30/1200"}}]}