{"type":"FeatureCollection","features":[{"type":"Feature","id":7740,"geometry":{"type":"Point","coordinates":[-16.400000000399586,10.999999999700378]},"properties":{"objectid":7740,"stormname":"GENESIS011","stormtype":"DB","stormnum":4,"intensity":15,"basin":"al","mslp":0,"dtg":2026082400,"year":2026,"month":"08","day":24,"hhmm":"0000","lat":11,"lon":-16,"ss":0,"idp_source":"AL042026_pts","idp_filedate":1787887376000,"idp_ingestdate":1787887411000,"binnumber":"AT4"}},{"type":"Feature","id":7741,"geometry":{"type":"Point","coordinates":[-17.099999999899921,10.999999999700378]},"properties":{"objectid":7741,"stormname":"GENESIS011","stormtype":"DB","stormnum":4,"intensity":15,"basin":"al","mslp":0,"dtg":2026082406,"year":2026,"month":"08","day":24,"hhmm":"0600","lat":11,"lon":-17,"ss":0,"idp_source":"AL042026_pts","idp_filedate":1787887376000,"idp_ingestdate":1787887411000,"binnumber":"AT4"}},{"type":"Feature","id":7742,"geometry":{"type":"Point","coordinates":[-17.800000000299633,10.999999999700378]},"properties":{"objectid":7742,"stormname":"GENESIS011","stormtype":"DB","stormnum":4,"intensity":15,"basin":"al","mslp":0,"dtg":2026082412,"year":2026,"month":"08","day":24,"hhmm":"1200","lat":11,"lon":-18,"ss":0,"idp_source":"AL042026_pts","idp_filedate":1787887376000,"idp_ingestdate":1787887411000,"binnumber":"AT4"}},{"type":"Feature","id":7743,"geometry":{"type":"Point","coordinates":[-18.499999999800025,10.999999999700378]},"properties":{"objectid":7743,"stormname":"INVEST","stormtype":"DB","stormnum":4,"intensity":20,"basin":"al","mslp":1010,"dtg":2026082418,"year":2026,"month":"08","day":24,"hhmm":"1800","lat":11,"lon":-18,"ss":0,"idp_source":"AL042026_pts","idp_filedate":1787887376000,"idp_ingestdate":1787887411000,"binnumber":"AT4"}},{"type":"Feature","id":7744,"geometry":{"type":"Point","coordinates":[-19.299999999999898,11.200000000199964]},"properties":{"objectid":7744,"stormname":"INVEST","stormtype":"DB","stormnum":4,"intensity":20,"basin":"al","mslp":1010,"dtg":2026082500,"year":2026,"month":"08","day":25,"hhmm":"0000","lat":11,"lon":-19,"ss":0,"idp_source":"AL042026_pts","idp_filedate":1787887376000,"idp_ingestdate":1787887411000,"binnumber":"AT4"}},{"type":"Feature","id":7745,"geometry":{"type":"Point","coordinates":[-20.600000000099783,11.799999999900194]},"properties":{"objectid":7745,"stormname":"INVEST","stormtype":"DB","stormnum":4,"intensity":25,"basin":"al","mslp":1010,"dtg":2026082506,"year":2026,"month":"08","day":25,"hhmm":"0600","lat":12,"lon":-21,"ss":0,"idp_source":"AL042026_pts","idp_filedate":1787887376000,"idp_ingestdate":1787887411000,"binnumber":"AT4"}},{"type":"Feature","id":7746,"geometry":{"type":"Point","coordinates":[-21.999999999999886,12.299999999800264]},"properties":{"objectid":7746,"stormname":"INVEST","stormtype":"DB","stormnum":4,"intensity":25,"basin":"al","mslp":1009,"dtg":2026082512,"year":2026,"month":"08","day":25,"hhmm":"1200","lat":12,"lon":-22,"ss":0,"idp_source":"AL042026_pts","idp_filedate":1787887376000,"idp_ingestdate":1787887411000,"binnumber":"AT4"}},{"type":"Feature","id":7747,"geometry":{"type":"Point","coordinates":[-23.600000000399575,12.900000000399814]},"properties":{"objectid":7747,"stormname":"INVEST","stormtype":"DB","stormnum":4,"intensity":25,"basin":"al","mslp":1009,"dtg":2026082518,"year":2026,"month":"08","day":25,"hhmm":"1800","lat":13,"lon":-24,"ss":0,"idp_source":"AL042026_pts","idp_filedate":1787887376000,"idp_ingestdate":1787887411000,"binnumber":"AT4"}},{"type":"Feature","id":7748,"geometry":{"type":"Point","coordinates":[-24.699999999999875,13.299999999600459]},"properties":{"objectid":7748,"stormname":"INVEST","stormtype":"DB","stormnum":4,"intensity":25,"basin":"al","mslp":1010,"dtg":2026082600,"year":2026,"month":"08","day":26,"hhmm":"0000","lat":13,"lon":-25,"ss":0,"idp_source":"AL042026_pts","idp_filedate":1787887376000,"idp_ingestdate":1787887411000,"binnumber":"AT4"}},{"type":"Feature","id":7749,"geometry":{"type":"Point","coordinates":[-26.900000000099794,13.500000000100044]},"properties":{"objectid":7749,"stormname":"INVEST","stormtype":"DB","stormnum":4,"intensity":30,"basin":"al","mslp":1008,"dtg":2026082606,"year":2026,"month":"08","day":26,"hhmm":"0600","lat":14,"lon":-27,"ss":0,"idp_source":"AL042026_pts","idp_filedate":1787887376000,"idp_ingestdate":1787887411000,"binnumber":"AT4"}},{"type":"Feature","id":7750,"geometry":{"type":"Point","coordinates":[-29.000000000399552,13.500000000100044]},"properties":{"objectid":7750,"stormname":"INVEST","stormtype":"DB","stormnum":4,"intensity":30,"basin":"al","mslp":1009,"dtg":2026082612,"year":2026,"month":"08","day":26,"hhmm":"1200","lat":14,"lon":-29,"ss":0,"idp_source":"AL042026_pts","idp_filedate":1787887376000,"idp_ingestdate":1787887411000,"binnumber":"AT4"}},{"type":"Feature","id":7751,"geometry":{"type":"Point","coordinates":[-30.999999999999886,13.199999999800298]},"properties":{"objectid":7751,"stormname":"INVEST","stormtype":"DB","stormnum":4,"intensity":30,"basin":"al","mslp":1007,"dtg":2026082618,"year":2026,"month":"08","day":26,"hhmm":"1800","lat":13,"lon":-31,"ss":0,"idp_source":"AL042026_pts","idp_filedate":1787887376000,"idp_ingestdate":1787887411000,"binnumber":"AT4"}},{"type":"Feature","id":7752,"geometry":{"type":"Point","coordinates":[-33.100000000299644,13.199999999800298]},"properties":{"objectid":7752,"stormname":"INVEST","stormtype":"DB","stormnum":4,"intensity":30,"basin":"al","mslp":1008,"dtg":2026082700,"year":2026,"month":"08","day":27,"hhmm":"0000","lat":13,"lon":-33,"ss":0,"idp_source":"AL042026_pts","idp_filedate":1787887376000,"idp_ingestdate":1787887411000,"binnumber":"AT4"}},{"type":"Feature","id":7753,"geometry":{"type":"Point","coordinates":[-35.300000000399564,13.40000000029994]},"properties":{"objectid":7753,"stormname":"INVEST","stormtype":"TD","stormnum":4,"intensity":30,"basin":"al","mslp":1008,"dtg":2026082706,"year":2026,"month":"08","day":27,"hhmm":"0600","lat":13,"lon":-35,"ss":0,"idp_source":"AL042026_pts","idp_filedate":1787887376000,"idp_ingestdate":1787887411000,"binnumber":"AT4"}},{"type":"Feature","id":7754,"geometry":{"type":"Point","coordinates":[-37.499999999600163,13.500000000100044]},"properties":{"objectid":7754,"stormname":"DOLLY","stormtype":"TS","stormnum":4,"intensity":35,"basin":"al","mslp":1007,"dtg":2026082712,"year":2026,"month":"08","day":27,"hhmm":"1200","lat":14,"lon":-38,"ss":0,"idp_source":"AL042026_pts","idp_filedate":1787887376000,"idp_ingestdate":1787887411000,"binnumber":"AT4"}},{"type":"Feature","id":7755,"geometry":{"type":"Point","coordinates":[-39.400000000299656,13.599999999900206]},"properties":{"objectid":7755,"stormname":"DOLLY","stormtype":"TS","stormnum":4,"intensity":35,"basin":"al","mslp":1007,"dtg":2026082718,"year":2026,"month":"08","day":27,"hhmm":"1800","lat":14,"lon":-39,"ss":0,"idp_source":"AL042026_pts","idp_filedate":1787887376000,"idp_ingestdate":1787887411000,"binnumber":"AT4"}},{"type":"Feature","id":7756,"geometry":{"type":"Point","coordinates":[-41.399999999899933,13.699999999700367]},"properties":{"objectid":7756,"stormname":"DOLLY","stormtype":"TS","stormnum":4,"intensity":35,"basin":"al","mslp":1007,"dtg":2026082800,"year":2026,"month":"08","day":28,"hhmm":"0000","lat":14,"lon":-41,"ss":0,"idp_source":"AL042026_pts","idp_filedate":1787887376000,"idp_ingestdate":1787887411000,"binnumber":"AT4"}}]}