{"type":"FeatureCollection","features":[{"type":"Feature","id":9164,"geometry":{"type":"Point","coordinates":[-87.299999999899967,29.600000000299929]},"properties":{"objectid":9164,"stormname":"GENESIS014","stormtype":"DB","stormnum":5,"intensity":20,"basin":"al","mslp":1015,"dtg":2026082818,"year":2026,"month":"08","day":28,"hhmm":"1800","lat":30,"lon":-87,"ss":0,"idp_source":"AL052026_pts","idp_filedate":1788192160000,"idp_ingestdate":1788192175000,"binnumber":"AT5"}},{"type":"Feature","id":9165,"geometry":{"type":"Point","coordinates":[-87.299999999899967,29.399999999800286]},"properties":{"objectid":9165,"stormname":"GENESIS014","stormtype":"DB","stormnum":5,"intensity":20,"basin":"al","mslp":1015,"dtg":2026082900,"year":2026,"month":"08","day":29,"hhmm":"0000","lat":29,"lon":-87,"ss":0,"idp_source":"AL052026_pts","idp_filedate":1788192160000,"idp_ingestdate":1788192175000,"binnumber":"AT5"}},{"type":"Feature","id":9166,"geometry":{"type":"Point","coordinates":[-87.699999999999875,28.999999999700378]},"properties":{"objectid":9166,"stormname":"GENESIS014","stormtype":"DB","stormnum":5,"intensity":20,"basin":"al","mslp":1015,"dtg":2026082906,"year":2026,"month":"08","day":29,"hhmm":"0600","lat":29,"lon":-88,"ss":0,"idp_source":"AL052026_pts","idp_filedate":1788192160000,"idp_ingestdate":1788192175000,"binnumber":"AT5"}},{"type":"Feature","id":9167,"geometry":{"type":"Point","coordinates":[-87.500000000399609,28.800000000100056]},"properties":{"objectid":9167,"stormname":"GENESIS014","stormtype":"DB","stormnum":5,"intensity":15,"basin":"al","mslp":1015,"dtg":2026082912,"year":2026,"month":"08","day":29,"hhmm":"1200","lat":29,"lon":-88,"ss":0,"idp_source":"AL052026_pts","idp_filedate":1788192160000,"idp_ingestdate":1788192175000,"binnumber":"AT5"}},{"type":"Feature","id":9168,"geometry":{"type":"Point","coordinates":[-87.200000000099806,28.800000000100056]},"properties":{"objectid":9168,"stormname":"INVEST","stormtype":"DB","stormnum":5,"intensity":20,"basin":"al","mslp":1015,"dtg":2026082918,"year":2026,"month":"08","day":29,"hhmm":"1800","lat":29,"lon":-87,"ss":0,"idp_source":"AL052026_pts","idp_filedate":1788192160000,"idp_ingestdate":1788192175000,"binnumber":"AT5"}},{"type":"Feature","id":9169,"geometry":{"type":"Point","coordinates":[-87.899999999600197,28.300000000199987]},"properties":{"objectid":9169,"stormname":"INVEST","stormtype":"DB","stormnum":5,"intensity":20,"basin":"al","mslp":1015,"dtg":2026083000,"year":2026,"month":"08","day":30,"hhmm":"0000","lat":28,"lon":-88,"ss":0,"idp_source":"AL052026_pts","idp_filedate":1788192160000,"idp_ingestdate":1788192175000,"binnumber":"AT5"}},{"type":"Feature","id":9170,"geometry":{"type":"Point","coordinates":[-88.69999999980007,27.99999999990024]},"properties":{"objectid":9170,"stormname":"INVEST","stormtype":"DB","stormnum":5,"intensity":20,"basin":"al","mslp":1014,"dtg":2026083006,"year":2026,"month":"08","day":30,"hhmm":"0600","lat":28,"lon":-89,"ss":0,"idp_source":"AL052026_pts","idp_filedate":1788192160000,"idp_ingestdate":1788192175000,"binnumber":"AT5"}},{"type":"Feature","id":9171,"geometry":{"type":"Point","coordinates":[-89.300000000399621,27.900000000100079]},"properties":{"objectid":9171,"stormname":"INVEST","stormtype":"DB","stormnum":5,"intensity":20,"basin":"al","mslp":1013,"dtg":2026083012,"year":2026,"month":"08","day":30,"hhmm":"1200","lat":28,"lon":-89,"ss":0,"idp_source":"AL052026_pts","idp_filedate":1788192160000,"idp_ingestdate":1788192175000,"binnumber":"AT5"}},{"type":"Feature","id":9172,"geometry":{"type":"Point","coordinates":[-89.499999999999886,27.699999999600436]},"properties":{"objectid":9172,"stormname":"INVEST","stormtype":"LO","stormnum":5,"intensity":20,"basin":"al","mslp":1013,"dtg":2026083018,"year":2026,"month":"08","day":30,"hhmm":"1800","lat":28,"lon":-90,"ss":0,"idp_source":"AL052026_pts","idp_filedate":1788192160000,"idp_ingestdate":1788192175000,"binnumber":"AT5"}},{"type":"Feature","id":9173,"geometry":{"type":"Point","coordinates":[-89.80000000029969,27.500000000000171]},"properties":{"objectid":9173,"stormname":"INVEST","stormtype":"LO","stormnum":5,"intensity":25,"basin":"al","mslp":1012,"dtg":2026083100,"year":2026,"month":"08","day":31,"hhmm":"0000","lat":28,"lon":-90,"ss":0,"idp_source":"AL052026_pts","idp_filedate":1788192160000,"idp_ingestdate":1788192175000,"binnumber":"AT5"}},{"type":"Feature","id":9174,"geometry":{"type":"Point","coordinates":[-90.300000000199759,27.300000000399848]},"properties":{"objectid":9174,"stormname":"INVEST","stormtype":"LO","stormnum":5,"intensity":30,"basin":"al","mslp":1012,"dtg":2026083106,"year":2026,"month":"08","day":31,"hhmm":"0600","lat":27,"lon":-90,"ss":0,"idp_source":"AL052026_pts","idp_filedate":1788192160000,"idp_ingestdate":1788192175000,"binnumber":"AT5"}},{"type":"Feature","id":9175,"geometry":{"type":"Point","coordinates":[-90.800000000099828,27.599999999800275]},"properties":{"objectid":9175,"stormname":"FIVE","stormtype":"LO","stormnum":5,"intensity":30,"basin":"al","mslp":1013,"dtg":2026083112,"year":2026,"month":"08","day":31,"hhmm":"1200","lat":28,"lon":-91,"ss":0,"idp_source":"AL052026_pts","idp_filedate":1788192160000,"idp_ingestdate":1788192175000,"binnumber":"AT5"}}]}