{"type": "FeatureCollection", "features": [{"type": "Feature", "id": 2653, "geometry": {"type": "Point", "coordinates": [-94.19999999960021, 30.20000000000016]}, "properties": {"objectid": 2653, "stormname": "Tropical Storm Edouard", "stormtype": "TS", "dvlbl": "S", "basin": "AL", "advdate": "700 PM CDT Tue Sep 01 2026", "advisnum": "6A", "fcstprd": 120, "gust": 55, "maxwind": 40, "mslp": 1000, "ssnum": 0, "datelbl": "7:00 PM Tue", "tcdvlp": "Tropical Storm", "tcdir": 305, "tcspd": 6, "fldatelbl": "2026-09-01 4:00 PM Tue CDT", "lat": 30, "lon": -94, "stormnum": 5, "stormsrc": "Tropical Cyclone", "tau": 0, "timezone": "CDT", "validtime": "01/2100", "idp_source": "al052026-006A_5day_pts", "idp_filedate": 1788310959000, "idp_ingestdate": 1788310984000, "binnumber": "AT5", "MAXWIND": 40, "VALIDTIME": "01/2100"}}, {"type": "Feature", "id": 2654, "geometry": {"type": "Point", "coordinates": [-94.80000000019976, 30.69999999990023]}, "properties": {"objectid": 2654, "stormname": "Tropical Storm Edouard", "stormtype": "TD", "dvlbl": "D", "basin": "AL", "advdate": "700 PM CDT Tue Sep 01 2026", "advisnum": "6A", "fcstprd": 120, "gust": 40, "maxwind": 30, "mslp": 9999, "ssnum": 0, "datelbl": "1:00 AM Wed", "tcdvlp": "Tropical Depression", "tcdir": 9999, "tcspd": 9999, "fldatelbl": "2026-09-02 1:00 AM Wed CDT", "lat": 31, "lon": -95, "stormnum": 5, "stormsrc": "Tropical Cyclone", "tau": 12, "timezone": "CDT", "validtime": "02/0600", "idp_source": "al052026-006A_5day_pts", "idp_filedate": 1788310959000, "idp_ingestdate": 1788310984000, "binnumber": "AT5", "MAXWIND": 30, "VALIDTIME": "02/0600"}}, {"type": "Feature", "id": 2655, "geometry": {"type": "Point", "coordinates": [-95.70000000019974, 31.599999999900206]}, "properties": {"objectid": 2655, "stormname": "Tropical Storm Edouard", "stormtype": "STD", "dvlbl": "D", "basin": "AL", "advdate": "700 PM CDT Tue Sep 01 2026", "advisnum": "6A", "fcstprd": 120, "gust": 35, "maxwind": 25, "mslp": 9999, "ssnum": 0, "datelbl": "1:00 PM Wed", "tcdvlp": "Subtropical Depression", "tcdir": 9999, "tcspd": 9999, "fldatelbl": "2026-09-02 1:00 PM Wed CDT", "lat": 32, "lon": -96, "stormnum": 5, "stormsrc": "Post-Tropical Cyclone", "tau": 24, "timezone": "CDT", "validtime": "02/1800", "idp_source": "al052026-006A_5day_pts", "idp_filedate": 1788310959000, "idp_ingestdate": 1788310984000, "binnumber": "AT5", "MAXWIND": 25, "VALIDTIME": "02/1800"}}]}