{"type":"FeatureCollection","features":[{"type":"Feature","id":299,"geometry":{"type":"Polygon","coordinates":[[[-91.701569999655646,28.14923000006462],[-91.684469999790565,28.146419999983152],[-91.666070000230206,28.144550000082575],[-91.635710000416111,28.143150000272442],[-91.624969999765597,28.142959999604443],[-91.591630000124326,28.143150000272442],[-91.569300000094813,28.143990000338363],[-91.547529999809512,28.145579999917231],[-91.526890000373101,28.148300000344875],[-91.507460000078822,28.152229999914709],[-91.489150000172287,28.15727999987223],[-91.471970000215208,28.163450000217495],[-91.45571999997793,28.170559999844272],[-91.440019999922981,28.178230000114581],[-91.424890000073333,28.186469999690871],[-91.410509999736576,28.195450000117546],[-91.396870000250203,28.205180000057112],[-91.377899999585225,28.22127999967239],[-91.366880000411584,28.233629999924688],[-91.356799999620193,28.246909999896729],[-91.347459999679131,28.260949999842751],[-91.33887000015028,28.275729999739838],[-91.331019999673117,28.291269999610961],[-91.323549999632689,28.307169999895734],[-91.314019999922948,28.332709999566987],[-91.309070000080339,28.350960000303928],[-91.305529999609689,28.37005000020747],[-91.303650000147286,28.389880000062078],[-91.303650000147286,28.41009999991519],[-91.304780000096798,28.419550000432309],[-91.309070000080339,28.449019999673396],[-91.314030000384093,28.467270000410338],[-91.317380000186745,28.475590000078569],[-91.327290000333164,28.500759999774289],[-91.3349300001193,28.516479999852265],[-91.343149999672619,28.53164000018603],[-91.352130000099294,28.546050000107584],[-91.361849999577714,28.559709999616928],[-91.37239999956023,28.57252999995967],[-91.383980000276665,28.584319999568493],[-91.396500000274671,28.595169999895745],[-91.409580000016888,28.605459999579466],[-91.422929999619669,28.615480000301943],[-91.436389999798564,28.625390000448306],[-91.449740000300665,28.635410000271463],[-91.462909999696649,28.645610000301417],[-91.482709999966403,28.660860000288949],[-91.489440000055879,28.665819999693383],[-91.502880000211746,28.675729999839746],[-91.516340000390585,28.685650000447311],[-91.529790000108335,28.695570000155499],[-91.543139999711116,28.70558000041683],[-91.556319999568245,28.715780000446784],[-91.569489999863492,28.725979999577476],[-91.58284000036565,28.73598999983875],[-91.596299999645169,28.745910000446315],[-91.616469999890455,28.760789999558995],[-91.623099999865019,28.765840000415835],[-91.642619999813064,28.781369999825756],[-91.648890000273184,28.786800000219955],[-91.667659999809018,28.803080000042087],[-91.673919999808049,28.808510000436343],[-91.686609999551763,28.819170000095596],[-91.699690000193243,28.829459999779317],[-91.713059999819052,28.839479999602418],[-91.733230000064339,28.854350000052591],[-91.739960000153758,28.859310000356402],[-91.753309999756596,28.869330000179502],[-91.766489999613668,28.879519999748311],[-91.779650000347146,28.889719999778322],[-91.799739999601172,28.904690000343408],[-91.806460000128823,28.909649999747842],[-91.819920000307661,28.91957000035535],[-91.840089999653685,28.934450000367349],[-91.853349999602699,28.944550000282447],[-91.859889999923439,28.949700000354881],[-91.879699999755076,28.964950000342412],[-91.886429999844495,28.969909999746847],[-91.899959999654186,28.979739999801268],[-91.920609999551743,28.994140000160996],[-91.927610000401103,28.998820000143041],[-91.948619999813047,29.012860000089063],[-91.962630000174272,29.022209999591951],[-91.976460000328643,29.031760000223983],[-91.983280000071829,29.036620000412825],[-91.996829999904492,29.046449999567983],[-92.016819999942925,29.061509999786779],[-92.029899999685142,29.071800000369876],[-92.036529999659649,29.076859999889223],[-92.056610000251226,29.091829999554989],[-92.063340000340645,29.096780000296917],[-92.076779999597193,29.106700000005162],[-92.09013000009935,29.116719999828263],[-92.103220000302656,29.12701000041136],[-92.115919999608195,29.137679999632439],[-92.128439999606201,29.148529999959692],[-92.14721999960318,29.164809999781824],[-92.153659999809065,29.170050000407343],[-92.1667299999894,29.180340000091064],[-92.180099999615209,29.190350000352396],[-92.193539999771076,29.200270000060584],[-92.206890000273177,29.210289999883742],[-92.21997999957722,29.220579999567462],[-92.232679999782079,29.231240000126036],[-92.245199999780084,29.242100000015114],[-92.257719999778089,29.252950000342366],[-92.270419999982892,29.26361000000162],[-92.283490000163283,29.273910000146543],[-92.303569999855483,29.288879999812309],[-92.317030000034379,29.298800000419817],[-92.323749999662652,29.303759999824251],[-92.337109999726579,29.313770000085583],[-92.356829999904448,29.329109999726825],[-92.370089999853519,29.339220000103069],[-92.376819999942938,29.344180000406823],[-92.390260000098806,29.354100000115068],[-92.410430000344149,29.368969999665921],[-92.417069999880482,29.374030000084588],[-92.436580000266702,29.389560000393828],[-92.442849999827502,29.394989999888708],[-92.455369999825507,29.40584000021596],[-92.467880000261687,29.416689999643893],[-92.480590000028371,29.427359999764349],[-92.493669999770589,29.437650000347389],[-92.507020000272689,29.447659999709344],[-92.527189999618713,29.462539999721344],[-92.547270000210233,29.477510000286429],[-92.547279999772059,29.477510000286429],[-92.560439999606217,29.487710000316383],[-92.586980000426593,29.507919999708349],[-92.60714999977256,29.522790000158523],[-92.613879999861979,29.527760000024102],[-92.634059999669148,29.542629999574956],[-92.640689999643655,29.547680000431797],[-92.653850000377133,29.557879999562488],[-92.667019999773061,29.568079999592442],[-92.680370000275218,29.578089999853773],[-92.693829999554737,29.588009999561962],[-92.707289999733575,29.597930000169526],[-92.720629999774587,29.607940000430801],[-92.733719999977893,29.618239999676405],[-92.746420000182752,29.628900000234978],[-92.765200000179789,29.64518000005711],[-92.771449999717618,29.650609999551989],[-92.784160000383622,29.661279999672388],[-92.797229999664637,29.671570000255429],[-92.81058999972862,29.681579999617441],[-92.837490000063326,29.701419999933194],[-92.844220000152802,29.706380000236948],[-92.850850000127309,29.711430000194468],[-92.870559999844033,29.726769999835767],[-92.877180000256715,29.731830000254433],[-92.890549999882467,29.741839999616445],[-92.904010000061362,29.751760000223953],[-92.917450000217229,29.761670000370373],[-92.930810000281213,29.771690000193473],[-92.943879999562228,29.781979999877251],[-92.956499999675145,29.792739999651417],[-92.968729999789559,29.803870000300435],[-92.98077999969712,29.815200000279958],[-92.99282999960468,29.826519999798279],[-93.00507000018024,29.837650000447297],[-93.017679999832012,29.848410000221463],[-93.030750000012404,29.858699999905241],[-93.050840000165749,29.873680000032095],[-93.057570000255225,29.878640000335906],[-93.070919999858006,29.888649999697861],[-93.083999999600223,29.898940000280959],[-93.102779999597203,29.915220000103091],[-93.108840000265673,29.920829999804766],[-93.12089000017329,29.93215999978429],[-93.13294000008085,29.943480000201987],[-93.145170000195264,29.954609999951685],[-93.170870000050343,29.975660000308892],[-93.177500000024907,29.980719999828295],[-93.18421999965318,29.985680000132049],[-93.197679999832019,29.995590000278412],[-93.211039999896002,30.005610000101569],[-93.224110000076337,30.01589999978529],[-93.236719999728109,30.026659999559456],[-93.248960000303668,30.037790000208474],[-93.260999999750084,30.049109999726852],[-93.273049999657644,30.060439999706375],[-93.285290000233204,30.071570000355393],[-93.297899999884976,30.082330000129559],[-93.324339999691119,30.102630000074612],[-93.337779999846987,30.1125499997828],[-93.35113999991097,30.122569999605957],[-93.364230000114333,30.132860000188998],[-93.38317999985702,30.148950000242451],[-93.389430000294169,30.15437999973733],[-93.401950000292175,30.165230000064582],[-93.414660000058859,30.175900000184981],[-93.434369999775583,30.19123999982628],[-93.441090000303177,30.196200000130034],[-93.45454000002087,30.206119999838279],[-93.467900000084853,30.216130000099554],[-93.480970000265188,30.226419999783332],[-93.493590000378106,30.237179999557497],[-93.511889999823552,30.253930000369337],[-93.523850000077346,30.265350000002627],[-93.529920000307641,30.27095999970436],[-93.542150000422055,30.282090000353378],[-93.554769999635653,30.292850000127544],[-93.56785000027719,30.30315000027241],[-93.587920000407564,30.318119999938176],[-93.60137999968714,30.328039999646421],[-93.608009999661647,30.333089999603942],[-93.621090000303184,30.343380000186983],[-93.633780000046841,30.354050000307438],[-93.646309999606672,30.364899999735371],[-93.658820000042851,30.375759999624449],[-93.671529999809536,30.386420000183023],[-93.69796999961568,30.406729999689901],[-93.704679999682128,30.411689999993655],[-93.711409999771547,30.416650000297409],[-93.72476999983553,30.426659999659421],[-93.737849999577691,30.436950000242462],[-93.750449999667637,30.447710000016627],[-93.768770000035374,30.464459999929204],[-93.774660000058873,30.470260000298936],[-93.786420000082842,30.481860000139022],[-93.798189999668637,30.493470000440311],[-93.81014999992243,30.504879999612456],[-93.822389999598727,30.516010000261474],[-93.841440000355647,30.53200999976184],[-93.848070000330154,30.537059999719361],[-93.86143000039408,30.547080000441838],[-93.87488000011183,30.557000000150026],[-93.894870000150263,30.572060000368879],[-93.901310000356148,30.577300000095079],[-93.913929999569746,30.588059999869245],[-93.92615999968416,30.599189999618943],[-93.938110000376128,30.610610000151553],[-93.949890000423068,30.62220999999164],[-93.961650000447037,30.633820000292928],[-93.973600000239742,30.645230000364393],[-93.985850000377127,30.656360000114034],[-94.004900000234727,30.672359999614457],[-94.01153999977106,30.677409999571978],[-94.018260000298653,30.682369999875732],[-94.038349999552736,30.697350000002643],[-94.051700000054836,30.707360000263918],[-94.071220000002882,30.722889999673896],[-94.077390000348146,30.728409999721862],[-94.089630000024385,30.73954000037088],[-94.107460000278707,30.756760000373845],[-94.113339999841003,30.762559999844257],[-94.125030000234233,30.774259999799312],[-94.142580000166788,30.791760000124043],[-94.148379999637143,30.797650000147542],[-94.160059999569228,30.80935000010254],[-94.177519999848016,30.826940000081095],[-94.189290000333131,30.838539999921181],[-94.195080000241717,30.84442999994468],[-94.206760000173745,30.856129999899736],[-94.224219999553213,30.873719999878233],[-94.230100000014886,30.879520000247965],[-94.241779999946914,30.891220000202964],[-94.253450000317173,30.902909999696874],[-94.265139999811026,30.91460999965193],[-94.276810000181285,30.926300000045103],[-94.288479999652168,30.938000000000159],[-94.300170000045341,30.949699999955158],[-94.3118400004156,30.961390000348388],[-94.323520000347628,30.973090000303444],[-94.33518999981851,30.984779999797297],[-94.352750000212211,31.002280000122028],[-94.364330000029383,31.01406999973085],[-94.376099999615178,31.025669999570994],[-94.38189999998491,31.031570000055581],[-94.393570000355112,31.043260000448811],[-94.405239999826051,31.054960000403867],[-94.416839999666138,31.066750000012632],[-94.428220000152805,31.078719999828252],[-94.439340000340621,31.090980000426839],[-94.450069999630671,31.103610000101583],[-94.465390000148261,31.123359999864249],[-94.475300000294681,31.13682999960497],[-94.480250000137289,31.143570000155535],[-94.490149999822506,31.157039999896199],[-94.500140000060867,31.170419999983153],[-94.510329999629676,31.183619999863254],[-94.520509999636658,31.196810000181529],[-94.535460000178773,31.216929999919728],[-94.540309999906469,31.223760000124059],[-94.549930000169297,31.237510000186489],[-94.559359999764069,31.251450000017655],[-94.57337999968712,31.272500000374862],[-94.578050000107339,31.279520000347873],[-94.587390000048345,31.293560000293894],[-94.596729999989407,31.307589999778827],[-94.606069999930469,31.321629999724848],[-94.615320000217707,31.335760000223956],[-94.624370000275178,31.350070000030598],[-94.633260000148766,31.364569999605919],[-94.641849999677618,31.379359999964151],[-94.654079999792032,31.402189999668906],[-94.658099999914953,31.409859999939215],[-94.666029999584737,31.425299999695369],[-94.673790000408076,31.440930000119579],[-94.681539999871006,31.456550000082586],[-94.689480000001879,31.47198999983874],[-94.697509999786575,31.487339999941184],[-94.705730000239214,31.502489999813804],[-94.714319999768065,31.517280000172036],[-94.723209999641654,31.531779999747357],[-94.732170000045357,31.546189999668911],[-94.736649999797578,31.553389999848775],[-94.750009999861504,31.575100000065106],[-94.754210000191279,31.582579999667416],[-94.766830000304196,31.605040000295901],[-94.774860000088836,31.620390000398345],[-94.782789999758563,31.635830000154556],[-94.790549999682639,31.651450000117563],[-94.79830000004489,31.667079999642397],[-94.80614000006085,31.682609999951694],[-94.813899999984926,31.698229999914702],[-94.821659999908945,31.713860000338912],[-94.829499999924963,31.729389999748832],[-94.837250000287156,31.745020000172985],[-94.845010000211232,31.76064000013605],[-94.852859999789075,31.776180000007116],[-94.860610000151269,31.791799999970181],[-94.868350000052374,31.807430000394334],[-94.876299999745072,31.822859999689399],[-94.884339999990914,31.838209999791786],[-94.888529999859486,31.845699999855242],[-94.901149999972404,31.868150000022638],[-94.905629999724624,31.875359999764328],[-94.91898999978855,31.897060000418833],[-94.93244000040562,31.918669999620931],[-94.936829999604697,31.925980000376853],[-94.941020000372589,31.933459999979164],[-94.953639999586187,31.955919999708385],[-94.961670000270203,31.971260000248947],[-94.965679999931922,31.978940000081082],[-94.97774999986251,32.001949999992632],[-94.981950000192228,32.009440000056088],[-94.990349999952457,32.024409999721854],[-95.003429999694617,32.046400000259951],[-95.012490000213234,32.060710000066592],[-95.026410000021372,32.081859999639391],[-95.031080000441591,32.088870000050633],[-95.040420000382596,32.102909999996655],[-95.049760000323658,32.116940000380851],[-95.059100000264721,32.130980000326872],[-95.068440000205726,32.14502000027295],[-95.077869999800555,32.158960000104059],[-95.087490000063326,32.172710000166546],[-95.102430000144295,32.192829999904689],[-95.11290000003487,32.205739999901198],[-95.11840999962169,32.211919999808288],[-95.129529999809563,32.224169999945673],[-95.140930000319145,32.236150000222494],[-95.152499999675115,32.24793999983126],[-95.1641799996072,32.259639999786316],[-95.175860000438547,32.271330000179489],[-95.187529999909486,32.283030000134545],[-95.199300000394601,32.294629999974688],[-95.211259999749075,32.306049999607922],[-95.223489999863489,32.31718000025694],[-95.236109999976406,32.327940000031106],[-95.255810000131305,32.343279999672404],[-95.262540000220724,32.348239999976158],[-95.282709999566748,32.363119999988157],[-95.289439999656167,32.368080000291911],[-95.309420000132775,32.383139999611444],[-95.315959999554252,32.388289999683877],[-95.329240000425557,32.398389999598919],[-95.349779999747113,32.412899999635442],[-95.363979999877017,32.422069999830796],[-95.37873000018925,32.430680000281939],[-95.40172000007783,32.44275000021247],[-95.409370000325168,32.446770000335391],[-95.432719999728079,32.458470000290447],[-95.440570000205241,32.462299999745312],[-95.456070000030365,32.470170000245446],[-95.471589999878518,32.478030000284434],[-95.487269999910438,32.485699999655424],[-95.502780000196765,32.493559999694355],[-95.518280000021889,32.501419999733344],[-95.534160000283691,32.508900000234974],[-95.550050000107319,32.516390000298429],[-95.566120000137801,32.52368000013206],[-95.582740000350611,32.530430000244451],[-95.599749999662663,32.536779999897249],[-95.616739999851006,32.543140000011135],[-95.642900000234704,32.552029999884724],[-95.660459999729085,32.557830000254455],[-95.669239999925935,32.560739999551458],[-95.686800000319636,32.56653999992119],[-95.704729999789549,32.571959999854244],[-95.722849999927462,32.577199999580444],[-95.741159999833997,32.582259999999167],[-95.759649999947442,32.587120000188008],[-95.778329999829509,32.591800000169997],[-95.797200000379632,32.596290000383362],[-95.826250000037362,32.602279999622453],[-95.836060000068869,32.604150000422351],[-95.856050000107302,32.607520000247973],[-95.886590000128308,32.612009999561963],[-95.896770000135291,32.613510000386327],[-95.916760000173781,32.616880000212007],[-95.936560000443592,32.620430000244482],[-95.956359999814026,32.623989999838784],[-95.976349999852516,32.627350000102581],[-96.007640000285676,32.631100000364881],[-96.018389999598696,32.632030000084569],[-96.052020000022878,32.633440000355904],[-96.063419999633197,32.633719999778293],[-96.098260000098833,32.633910000446292],[-96.121599999939917,32.633910000446292],[-96.144870000150263,32.63381000033138],[-96.156269999760582,32.633530000009614],[-96.190350000252181,32.632600000289926],[-96.212219999753074,32.631100000364881],[-96.222490000313144,32.629699999655429],[-96.243229999864525,32.627080000241961],[-96.273390000348115,32.622209999591973],[-96.293200000179752,32.618659999559497],[-96.313099999665155,32.615200000080108],[-96.333269999910442,32.612009999561963],[-96.343440000355656,32.610509999636918],[-96.373809999731577,32.605829999654929],[-96.393600000439562,32.602279999622453],[-96.413040000295666,32.598350000052619],[-96.432099999715092,32.594049999607932],[-96.460210000091308,32.587120000188008],[-96.469449999917458,32.584689999643899],[-96.487850000377136,32.579730000239465],[-96.506069999730585,32.574580000167032],[-96.524000000099818,32.569160000233978],[-96.532600000089815,32.566069999830745],[-96.55856999980557,32.55699999975036],[-96.575479999901972,32.550540000420824],[-96.59210000011484,32.543799999870259],[-96.608540000120797,32.536880000012161],[-96.62516999989549,32.530140000360859],[-96.64197999987698,32.523589999578974],[-96.65870000020476,32.516939999581439],[-96.675320000417571,32.510210000391339],[-96.691760000423585,32.503289999633921],[-96.707639999786068,32.495799999570465],[-96.722869999750571,32.487660000109088],[-96.737629999624687,32.479049999657889],[-96.75929000023325,32.465680000032137],[-96.773680000131776,32.456699999605462],[-96.780960000403581,32.452290000383357],[-96.795629999724611,32.443590000278448],[-96.810489999713639,32.435070000380335],[-96.832719999628182,32.422259999599419],[-96.839999999899987,32.417859999939196],[-96.854480000351657,32.408970000065608],[-96.875870000200223,32.395309999656888],[-96.882870000150263,32.3906299996749],[-96.896800000419603,32.3811800000571],[-96.917339999741102,32.366679999582459],[-96.923969999715609,32.361629999624938],[-96.937059999918972,32.351330000379335],[-96.949669999570744,32.340569999705849],[-96.967960000353628,32.323819999793272],[-96.979740000400625,32.312219999953186],[-96.991520000447565,32.300620000113042],[-97.003089999803535,32.288829999604957],[-97.020659999759062,32.271330000179489],[-97.026440000105822,32.265440000156048],[-97.032330000129321,32.259639999786316],[-97.044010000061348,32.24793999983126],[-97.061390000248196,32.230260000198996],[-97.07258999962869,32.218090000153552],[-97.08360999970165,32.205739999901198],[-97.094070000030399,32.192829999904689],[-97.104160000383615,32.179540000370878],[-97.118639999935965,32.158960000104059],[-97.123400000009894,32.152029999784816],[-97.132739999950957,32.13800000029994],[-97.142079999891962,32.123960000353861],[-97.15143000029417,32.109929999969665],[-97.160770000235232,32.095890000023644],[-97.170099999715092,32.081859999639391],[-97.184020000422606,32.060710000066592],[-97.188600000289682,32.053600000439815],[-97.197570000255212,32.039200000080086],[-97.206339999990917,32.024600000389853],[-97.214750000212234,32.009620000262942],[-97.226430000144262,31.986229999914713],[-97.230259999599184,31.978369999875724],[-97.237550000332135,31.962279999822272],[-97.247450000017409,31.937110000126552],[-97.250630000074352,31.928599999790322],[-97.259600000039882,31.902489999913712],[-97.26501000041111,31.884529999959682],[-97.270150000022397,31.86628000012206],[-97.275099999865006,31.847850000077585],[-97.277530000409115,31.838579999767319],[-97.284439999806068,31.810419999783335],[-97.286679999682121,31.800970000165535],[-97.292560000143794,31.771780000346894],[-97.295749999762563,31.751570000055608],[-97.29714000001087,31.741280000371887],[-97.299560000093834,31.708619999713335],[-97.300400000159755,31.686070000330403],[-97.300779999697113,31.66304999995765],[-97.3008700002502,31.639759999724333],[-97.3008700002502,31.616359999814279],[-97.3008700002502,31.592970000365369],[-97.3008700002502,31.56958000001714],[-97.300779999697113,31.546280000221998],[-97.300420000182783,31.52327000031039],[-97.299849999977425,31.512130000099546],[-97.29808000019176,31.478820000043129],[-97.296680000381627,31.468530000359351],[-97.292560000143794,31.4375600002939],[-97.288729999789552,31.418000000299912],[-97.284439999806068,31.39891000039637],[-97.279859999938935,31.380110000376362],[-97.27509000030318,31.361489999663888],[-97.270139999561252,31.343050000057588],[-97.26501000041111,31.324809999781792],[-97.259589999578736,31.306840000265936],[-97.256509999636648,31.298240000275939],[-97.25052999995944,31.280829999604919],[-97.240909999696612,31.255379999587433],[-97.233900000184747,31.239010000111534],[-97.226430000144262,31.223100000264935],[-97.218670000220243,31.207480000301928],[-97.210560000343662,31.192219999853251],[-97.206159999784063,31.184930000019619],[-97.197479999702125,31.170230000214474],[-97.184020000422606,31.148620000113056],[-97.174770000135311,31.134489999613947],[-97.165439999756074,31.120460000129071],[-97.156099999815012,31.106420000182993],[-97.146759999874007,31.092389999798797],[-97.137419999932945,31.078349999852776],[-97.128079999991883,31.064320000367843],[-97.118639999935965,31.050379999637414],[-97.109019999673137,31.036620000013158],[-97.09911999998792,31.023150000272437],[-97.088839999866025,31.010049999607929],[-97.07810000011483,30.99741000037136],[-97.066990000388103,30.985160000233975],[-97.055589999878464,30.973179999957154],[-97.044010000061348,30.961390000348388],[-97.032330000129321,30.949699999955158],[-97.020659999759062,30.938000000000159],[-97.008970000265208,30.926300000045103],[-96.997299999895006,30.91460999965193],[-96.985630000424067,30.902909999696874],[-96.973859999938952,30.89130999985673],[-96.961899999685158,30.879890000223497],[-96.949669999570744,30.868759999574479],[-96.937050000357146,30.857999999800313],[-96.923969999715609,30.847710000116535],[-96.910620000112829,30.837699999855261],[-96.897170000395079,30.827780000147015],[-96.883810000331152,30.817769999885741],[-96.870740000150761,30.807469999740817],[-96.858039999945959,30.796810000081564],[-96.839259999948922,30.780530000259432],[-96.832999999949948,30.775099999865233],[-96.820290000183263,30.764429999744834],[-96.807210000441046,30.754140000061113],[-96.793859999938945,30.744129999799782],[-96.780410000221252,30.734210000091593],[-96.767050000157269,30.724199999830262],[-96.753970000415109,30.713910000146541],[-96.741370000325162,30.703150000372375],[-96.729129999749603,30.692010000161531],[-96.717159999933926,30.680600000090067],[-96.705410000371103,30.668989999788778],[-96.687740000300664,30.65158999957896],[-96.681670000070369,30.645979999877227],[-96.669430000394129,30.634839999666383],[-96.650390000098298,30.618840000166017],[-96.643749999662646,30.613790000208496],[-96.630400000059865,30.603779999947164],[-96.616950000342115,30.593860000238976],[-96.603590000278189,30.583849999977645],[-96.590520000097797,30.573560000293924],[-96.577899999984936,30.562799999620438],[-96.565669999870522,30.551660000308914],[-96.553619999962905,30.540339999891216],[-96.541559999594199,30.529020000372839],[-96.529330000379105,30.517880000161995],[-96.516719999828013,30.507120000387829],[-96.497010000111288,30.491779999847267],[-96.490280000021869,30.486820000442833],[-96.476839999866002,30.476899999835268],[-96.463479999802075,30.466889999573937],[-96.450409999621684,30.456599999890216],[-96.431629999624704,30.440320000068084],[-96.425549999832526,30.434699999905206],[-96.413510000386111,30.423380000386828],[-96.401459999579231,30.412059999969188],[-96.383060000018872,30.395399999710378],[-96.376599999790074,30.390170000445323],[-96.363540000070827,30.3798700003004],[-96.350170000445075,30.369860000039125],[-96.336719999828006,30.35994000033088],[-96.323370000225225,30.349930000069605],[-96.310289999583688,30.339640000385828],[-96.291319999818029,30.323550000332375],[-96.285059999819055,30.318119999938176],[-96.266299999844989,30.301840000116044],[-96.25983999961619,30.296600000389844],[-96.246779999897001,30.286309999806804],[-96.233410000271192,30.276289999983646],[-96.219959999654179,30.266379999837284],[-96.206509999936429,30.256460000129039],[-96.193160000333648,30.246449999867764],[-96.179979999577199,30.236249999837753],[-96.166819999743097,30.226049999807799],[-96.146729999589695,30.211080000142033],[-96.140000000399596,30.206119999838279],[-96.126560000243728,30.196200000130034],[-96.106380000436559,30.181320000118035],[-96.099749999562732,30.176270000160514],[-96.093219999703138,30.171129999649906],[-96.073409999871501,30.155870000100549],[-96.053319999718099,30.14090000043484],[-96.039689999793552,30.131169999595954],[-96.018859999689141,30.116950000342399],[-96.011859999739102,30.112270000360354],[-95.997850000277197,30.102919999958203],[-95.983830000354146,30.09355999999417],[-95.969819999992922,30.084200000030137],[-95.962809999581737,30.079520000048092],[-95.941800000169792,30.065489999663896],[-95.927780000246685,30.056129999699863],[-95.91376999988546,30.046780000196975],[-95.892759999574196,30.032740000250953],[-95.88575000006233,30.028060000268965],[-95.878750000112291,30.02338000028692],[-95.857730000239201,30.009349999902724],[-95.843719999877976,29.999989999938691],[-95.822700000004886,29.985959999554495],[-95.815700000054846,29.98127999957245],[-95.808689999643661,29.976599999590462],[-95.787669999770571,29.962570000105586],[-95.773669999870492,29.953210000141553],[-95.759649999947442,29.94385000017752],[-95.745639999586217,29.934499999775312],[-95.731630000124312,29.925139999811279],[-95.717619999763087,29.915779999847246],[-95.703610000301182,29.906419999883212],[-95.689599999939958,29.897070000380381],[-95.675589999578733,29.887710000416348],[-95.661580000116828,29.878349999552995],[-95.654569999705643,29.87366999957095],[-95.633560000293699,29.859640000086074],[-95.619540000370591,29.850280000122041],[-95.605530000009367,29.840929999719833],[-95.591519999648142,29.8315699997558],[-95.57732999997944,29.822399999560503],[-95.562940000080857,29.813420000033091],[-95.548369999975421,29.804619999813269],[-95.533619999663131,29.796010000261447],[-95.518659999559247,29.787589999578984],[-95.511280000071849,29.783290000033617],[-95.489329999579695,29.770190000268428],[-95.474950000142314,29.761209999841753],[-95.460750000012411,29.752039999646399],[-95.446750000112331,29.742679999682366],[-95.432730000189281,29.733319999718333],[-95.418719999828056,29.723970000215502],[-95.404710000366094,29.714610000251469],[-95.383319999618209,29.700949999842749],[-95.376109999876519,29.69645999962944],[-95.361550000232228,29.687660000308938],[-95.346799999919938,29.679049999857739],[-95.3318500002772,29.670639999636421],[-95.317090000403084,29.662030000084599],[-95.295329999679666,29.648739999651411],[-95.288130000399121,29.644250000337365],[-95.273739999601219,29.63526999991069],[-95.259349999702636,29.62627999992219],[-95.244790000058345,29.617490000163514],[-95.229849999977432,29.60907000038037],[-95.214530000359105,29.601019999673383],[-95.199209999841514,29.592969999865772],[-95.176219999952934,29.580899999935184],[-95.168560000143771,29.576879999812263],[-95.153629999624684,29.56846000002912],[-95.139049999957422,29.559659999809298],[-95.124660000058839,29.550680000281943],[-95.103099999565245,29.537200000080077],[-95.095900000284701,29.532709999866768],[-95.088620000012895,29.528319999768314],[-95.066379999637149,29.515500000324892],[-95.043409999771598,29.50343000039436],[-95.035749999962434,29.499399999810294],[-95.020419999882961,29.491359999564452],[-95.005109999826516,29.483309999756841],[-94.990160000183778,29.474889999973641],[-94.975590000078341,29.466089999753819],[-94.961200000179758,29.457110000226464],[-94.946819999843001,29.448129999799789],[-94.925160000133815,29.434749999712835],[-94.917859999839038,29.430350000052613],[-94.895259999948962,29.417910000146549],[-94.887600000139798,29.413890000023628],[-94.872279999622208,29.40584000021596],[-94.856779999797027,29.397980000177029],[-94.833330000279204,29.386380000336885],[-94.825579999916954,29.382449999867731],[-94.810069999630684,29.3745899998288],[-94.794380000036881,29.366909999996665],[-94.771209999941448,29.355029999834755],[-94.763550000132284,29.351009999711835],[-94.748229999614693,29.342959999904224],[-94.733290000433044,29.334540000121024],[-94.718720000327664,29.325739999901202],[-94.704339999990907,29.316760000373847],[-94.689950000092324,29.307779999947172],[-94.675569999755567,29.298800000419817],[-94.653520000047877,29.285790000308396],[-94.646050000007392,29.281580000416852],[-94.638399999760054,29.277560000293931],[-94.61542000033262,29.265490000363343],[-94.59991000004635,29.257630000324411],[-94.584209999991401,29.249960000054102],[-94.568710000166277,29.242100000015114],[-94.545350000302165,29.230400000060115],[-94.537510000286204,29.226560000144048],[-94.521999999999878,29.218700000105059],[-94.506500000174753,29.210840000066071],[-94.490800000119805,29.203169999795819],[-94.475300000294681,29.19530999975683],[-94.451949999992394,29.18362000026292],[-94.444100000414608,29.179780000346909],[-94.428590000128281,29.171920000307921],[-94.413090000303157,29.164060000268933],[-94.397399999810034,29.156389999998623],[-94.38189999998491,29.148529999959692],[-94.36638999969864,29.140669999920704],[-94.358540000120797,29.136830000004636],[-94.33518999981851,29.125139999611463],[-94.319680000431561,29.117279999572474],[-94.303989999938437,29.109610000201485],[-94.288479999652168,29.101750000162497],[-94.265139999811026,29.090050000207498],[-94.257279999772095,29.08621000029143],[-94.241779999946914,29.078350000252442],[-94.22628000012179,29.07049000021351],[-94.210589999628667,29.062819999943201],[-94.187329999879466,29.051030000334379],[-94.179580000416593,29.047099999865225],[-94.163880000361644,29.039429999594972],[-94.148379999637143,29.031569999555984],[-94.132870000250193,29.023710000416315],[-94.109430000294196,29.012109999676909],[-94.101679999931946,29.008180000107075],[-94.086169999645676,29.000320000068086],[-94.070480000051873,28.992649999797777],[-94.054980000226749,28.984789999758846],[-94.039460000378597,28.976929999719857],[-94.015639999985922,28.965699999855246],[-94.007699999854992,28.961960000054091],[-93.991640000285656,28.954659999759315],[-93.9750099996117,28.94792000010807],[-93.958190000068328,28.941370000225447],[-93.941569999855517,28.934640000136028],[-93.916440000205739,28.92472000042784],[-93.908130000099334,28.921349999702841],[-93.892060000068852,28.914050000307384],[-93.876190000268195,28.906569999805811],[-93.860120000237714,28.899270000410354],[-93.844239999975912,28.891780000346898],[-93.82816999994543,28.884480000052122],[-93.81154999973262,28.877749999962646],[-93.794730000189247,28.87120000008008],[-93.778109999976436,28.864460000428835],[-93.761290000433064,28.857909999646893],[-93.744479999552254,28.851359999764327],[-93.719819999992922,28.840969999965694],[-93.711589999978401,28.837509999586928],[-93.686380000236738,28.827689999993652],[-93.677970000015364,28.824409999821796],[-93.661349999802553,28.81767999973232],[-93.644530000259181,28.811129999849754],[-93.619510000286198,28.801119999588479],[-93.611280000271677,28.797660000109033],[-93.594829999804517,28.790729999789789],[-93.578030000284173,28.784179999907224],[-93.561209999841537,28.777630000024601],[-93.54458999962867,28.770890000373356],[-93.527770000085354,28.764339999591471],[-93.510960000103807,28.757789999708848],[-93.49452000009785,28.75086999985075],[-93.478089999653662,28.743949999992651],[-93.461270000110289,28.737400000110085],[-93.444460000128799,28.730850000227463],[-93.427830000354106,28.724109999676898],[-93.402610000151299,28.714290000083565],[-93.385989999938431,28.70755000043232],[-93.377759999923967,28.704090000053611],[-93.361330000379098,28.697159999734367],[-93.344509999936463,28.690609999851745],[-93.327699999954916,28.684059999969179],[-93.31107000018028,28.67732999987976],[-93.294249999737588,28.670779999997137],[-93.269229999764548,28.660769999735862],[-93.260999999750084,28.657299999795271],[-93.244570000205215,28.650379999937172],[-93.22774999976258,28.643830000054606],[-93.210750000012411,28.637469999940663],[-93.193750000262185,28.631100000264951],[-93.176379999637163,28.62511000012654],[-93.150129999599699,28.616320000367864],[-93.141439999955935,28.6133300000796],[-93.124449999767592,28.606960000403831],[-93.10743999955622,28.600600000289944],[-93.090640000035876,28.594050000407321],[-93.074189999568716,28.587129999649903],[-93.057749999562702,28.580200000229979],[-93.040939999581212,28.573650000347357],[-93.015439999955959,28.564110000176527],[-93.006940000080817,28.560930000119527],[-92.98955999989397,28.554939999981173],[-92.972000000399589,28.549139999611441],[-92.945759999923951,28.540340000290939],[-92.937070000280187,28.537350000002618],[-92.919500000324661,28.531549999632944],[-92.89315999973411,28.522850000427297],[-92.884380000436579,28.5199499997928],[-92.858229999614707,28.511050000357386],[-92.849439999856031,28.508149999722832],[-92.831889999923476,28.502350000252477],[-92.814330000429095,28.496549999882745],[-92.796950000242191,28.49057000020548],[-92.77060999965164,28.481859999639425],[-92.761830000354109,28.478959999904191],[-92.735580000316645,28.470170000145515],[-92.726900000234707,28.467170000295425],[-92.709339999841006,28.461369999925694],[-92.69176999988548,28.455569999555962],[-92.665530000309161,28.446779999797286],[-92.656850000227223,28.443779999947196],[-92.639280000271697,28.437979999577465],[-92.613039999796058,28.429180000256963],[-92.604350000152294,28.426189999968642],[-92.578840000065838,28.416649999797812],[-92.570340000190754,28.413469999740812],[-92.55353999977109,28.406919999858246],[-92.53709000020325,28.399990000438322],[-92.520659999759062,28.393069999680904],[-92.503849999777572,28.386519999798281],[-92.4868399995662,28.380159999684395],[-92.469839999816031,28.373790000008626],[-92.452470000090329,28.367799999870215],[-92.426130000399098,28.359099999765306],[-92.417339999741102,28.356200000030128],[-92.399979999577226,28.350220000352863],[-92.382420000082845,28.344410000421306],[-92.364850000127319,28.338610000051631],[-92.33860999965168,28.329809999831753],[-92.329920000007917,28.326820000442808],[-92.303569999855483,28.318120000337899],[-92.294800000119835,28.315219999703345],[-92.268550000082314,28.306420000382843],[-92.25986000043855,28.303430000094579],[-92.233519999847999,28.29472999998967],[-92.224739999651149,28.291830000254436],[-92.207180000156768,28.286020000322878],[-92.180660000258683,28.277509999986648],[-92.171690000293154,28.27480000002015],[-92.14441000042109,28.267029999634929],[-92.126009999961411,28.262070000230494],[-92.116759999674116,28.259639999686385],[-92.098079999792049,28.25495999970434],[-92.079399999909981,28.250279999722352],[-92.060720000027857,28.245599999740364],[-92.042040000145789,28.240919999758319],[-92.014109999976426,28.233810000131541],[-91.995699999954923,28.228860000288932],[-91.986560000243742,28.226329999629911],[-91.968440000105829,28.221089999903711],[-91.941630000324153,28.212859999889247],[-91.932750000012391,28.210049999807779],[-91.914830000104303,28.2046200003129],[-91.896700000404564,28.19937999968738],[-91.87838999959871,28.19432999972986],[-91.859889999923439,28.189459999979135],[-91.841210000041372,28.184789999558973],[-91.822530000159304,28.180109999576985],[-91.803939999930947,28.17542999959494],[-91.785630000024355,28.170749999612951],[-91.767790000208265,28.166069999630906],[-91.75059999979004,28.161389999648918],[-91.734070000130316,28.156900000334872],[-91.709689999993429,28.15101000031143],[-91.701569999655646,28.14923000006462]]]},"properties":{"objectid":299,"stormname":"Edouard","stormtype":"TS","basin":"AL","advdate":"700 PM CDT Mon Aug 31 2026","advisnum":"2A","fcstprd":120,"stormnum":5,"idp_source":"al052026-002A_5day_pgn","idp_filedate":1788221279000,"idp_ingestdate":1788221317000,"st_area(shape)":9.9895936850895914,"st_perimeter(shape)":15.691883336269088,"binnumber":"AT5"}}]}