{"type":"FeatureCollection","features":[{"type":"Feature","id":1901,"geometry":{"type":"LineString","coordinates":[[-87.299999999899967,29.600000000299929],[-87.299999999899967,29.399999999800286],[-87.699999999999875,28.999999999700378],[-87.500000000399609,28.800000000100056],[-87.200000000099806,28.800000000100056],[-87.899999999600197,28.300000000199987],[-88.69999999980007,27.99999999990024],[-89.300000000399621,27.900000000100079],[-89.499999999999886,27.699999999600436]]},"properties":{"objectid":1901,"stormtype":"DB","stormnum":5,"ss":0,"idp_source":"AL052026_lin","idp_filedate":1788192160000,"idp_ingestdate":1788192169000,"st_length(shape)":3.9542800049967299,"binnumber":"AT5"}},{"type":"Feature","id":1902,"geometry":{"type":"LineString","coordinates":[[-89.499999999999886,27.699999999600436],[-89.80000000029969,27.500000000000171],[-90.300000000199759,27.300000000399848],[-90.800000000099828,27.599999999800275]]},"properties":{"objectid":1902,"stormtype":"DB","stormnum":5,"ss":0,"idp_source":"AL052026_lin","idp_filedate":1788192160000,"idp_ingestdate":1788192169000,"st_length(shape)":1.4821667971367107,"binnumber":"AT5"}}]}