{"type":"FeatureCollection","features":[{"type":"Feature","id":368,"geometry":{"type":"LineString","coordinates":[[-94.760000000099808,29.380000000199971],[-94.390000000299665,29.539999999700342],[-93.839999999600195,29.690000000299904],[-93.299999999600175,29.780000000299935],[-92.609999999899969,29.589999999600423],[-92.039999999600184,29.589999999600423]]},"properties":{"objectid":368,"stormname":"Edouard","stormtype":"TS","basin":"AL","advdate":"100 PM CDT Tue Sep 01 2026","advisnum":"5A","fcstprd":120,"stormnum":5,"tcww":"TWR","idp_source":"al052026-005A_ww_wwlin","idp_filedate":1788285769000,"idp_ingestdate":1788285786000,"st_length(shape)":2.8063307217419631,"binnumber":"AT5"}}]}