{"type":"FeatureCollection","features":[{"type":"Feature","id":294,"geometry":{"type":"LineString","coordinates":[[-91.49999999960022,28.200000000399825],[-92.399999999600197,28.800000000100056],[-93.800000000399621,29.600000000299929],[-95.200000000299667,30.600000000100067],[-96.100000000299644,31.599999999900206]]},"properties":{"objectid":294,"stormname":"Five","stormtype":"TD","basin":"AL","advdate":"400 PM CDT Mon Aug 31 2026","advisnum":"2","fcstprd":120,"stormnum":5,"idp_source":"al052026-002_5day_lin","idp_filedate":1788211379000,"idp_ingestdate":1788211505000,"st_length(shape)":5.7599443906956864,"binnumber":"AT5"}}]}