{"type":"FeatureCollection","features":[{"type":"Feature","id":2099,"geometry":{"type":"LineString","coordinates":[[-34.000000000299679,32.099999999800275],[-34.199999999899944,32.400000000100079],[-34.199999999899944,32.599999999700344],[-34.199999999899944,32.800000000199987],[-34.100000000099783,32.900000000000148]]},"properties":{"objectid":2099,"stormtype":"DB","stormnum":6,"ss":0,"idp_source":"AL062026_lin","idp_filedate":1790586177000,"idp_ingestdate":1790586302000,"st_length(shape)":0.90197648362872074,"binnumber":"AT1"}},{"type":"Feature","id":2100,"geometry":{"type":"LineString","coordinates":[[-34.100000000099783,32.900000000000148],[-34.000000000299679,32.800000000199987],[-33.899999999600197,32.599999999700344],[-33.600000000199714,32.599999999700344],[-33.600000000199714,32.49999999990024]]},"properties":{"objectid":2100,"stormtype":"LO","stormnum":6,"ss":0,"idp_source":"AL062026_lin","idp_filedate":1790586177000,"idp_ingestdate":1790586302000,"st_length(shape)":0.76502815366493304,"binnumber":"AT1"}},{"type":"Feature","id":2101,"geometry":{"type":"LineString","coordinates":[[-33.600000000199714,32.49999999990024],[-33.500000000399552,32.700000000399825],[-33.299999999899967,33.09999999960047],[-33.200000000099806,33.499999999700378]]},"properties":{"objectid":2101,"stormtype":"TD","stormnum":6,"ss":0,"idp_source":"AL062026_lin","idp_filedate":1790586177000,"idp_ingestdate":1790586302000,"st_length(shape)":1.0831309557260889,"binnumber":"AT1"}},{"type":"Feature","id":2102,"geometry":{"type":"LineString","coordinates":[[-33.200000000099806,33.499999999700378],[-33.100000000299644,33.999999999600448],[-32.799999999999898,34.20000000010009],[-32.099999999600186,34.20000000010009],[-31.999999999800025,33.999999999600448],[-31.899999999999864,33.499999999700378],[-32.099999999600186,33.300000000100056],[-32.700000000199736,32.599999999700344],[-33.399999999700128,32.099999999800275],[-34.100000000099783,31.40000000029994]]},"properties":{"objectid":2102,"stormtype":"TS","stormnum":6,"ss":0,"idp_source":"AL062026_lin","idp_filedate":1790586177000,"idp_ingestdate":1790586302000,"st_length(shape)":5.3589450071867857,"binnumber":"AT1"}},{"type":"Feature","id":2103,"geometry":{"type":"LineString","coordinates":[[-34.100000000099783,31.40000000029994],[-34.799999999600175,31.000000000199975],[-35.699999999600152,30.600000000100067]]},"properties":{"objectid":2103,"stormtype":"TD","stormnum":6,"ss":0,"idp_source":"AL062026_lin","idp_filedate":1790586177000,"idp_ingestdate":1790586302000,"st_length(shape)":1.7911115546658363,"binnumber":"AT1"}},{"type":"Feature","id":2104,"geometry":{"type":"LineString","coordinates":[[-35.699999999600152,30.600000000100067],[-36.999999999700094,30.399999999600425],[-37.899999999700128,30.29999999980032],[-38.799999999700105,30.100000000199998]]},"properties":{"objectid":2104,"stormtype":"LO","stormnum":6,"ss":0,"idp_source":"AL062026_lin","idp_filedate":1790586177000,"idp_ingestdate":1790586302000,"st_length(shape)":3.1427876034056101,"binnumber":"AT1"}},{"type":"Feature","id":2105,"geometry":{"type":"LineString","coordinates":[[-38.799999999700105,30.100000000199998],[-39.599999999899978,29.799999999900194]]},"properties":{"objectid":2105,"stormtype":"TD","stormnum":6,"ss":0,"idp_source":"AL062026_lin","idp_filedate":1790586177000,"idp_ingestdate":1790586302000,"st_length(shape)":0.85440037482416786,"binnumber":"AT1"}},{"type":"Feature","id":2106,"geometry":{"type":"LineString","coordinates":[[-39.599999999899978,29.799999999900194],[-40.199999999600209,29.899999999700356],[-40.599999999700117,29.899999999700356],[-41.099999999600186,30.000000000399837],[-41.499999999700094,30.100000000199998],[-41.899999999800059,30.100000000199998],[-42.299999999899967,30.100000000199998],[-42.799999999800036,29.799999999900194],[-43.100000000099783,30.000000000399837],[-43.500000000199748,30.000000000399837]]},"properties":{"objectid":2106,"stormtype":"TS","stormnum":6,"ss":0,"idp_source":"AL062026_lin","idp_filedate":1790586177000,"idp_ingestdate":1790586302000,"st_length(shape)":4.0741390847357568,"binnumber":"AT1"}},{"type":"Feature","id":2107,"geometry":{"type":"LineString","coordinates":[[-43.500000000199748,30.000000000399837],[-43.699999999800013,30.000000000399837],[-43.900000000299656,29.899999999700356],[-43.900000000299656,29.799999999900194],[-43.900000000299656,29.70000000010009],[-43.900000000299656,29.499999999600448],[-43.900000000299656,29.100000000399859],[-43.699999999800013,28.700000000299895],[-43.799999999600175,28.300000000199987]]},"properties":{"objectid":2107,"stormtype":"TS","stormnum":6,"ss":0,"idp_source":"AL062026_lin","idp_filedate":1790586177000,"idp_ingestdate":1790586302000,"st_length(shape)":2.0831309558334912,"binnumber":"AT1"}}]}