{"type":"FeatureCollection","features":[{"type":"Feature","id":239,"geometry":{"type":"Polygon","coordinates":[[[-48.82599000013829,22.614329999729819],[-48.808309999606706,22.613409999571957],[-48.790019999723086,22.614329999729819],[-48.770800000119777,22.616789999858725],[-48.750669999920433,22.620170000145549],[-48.729610000001401,22.62386000033888],[-48.707640000385595,22.627239999726328],[-48.684649999597696,22.629799999970146],[-48.672490000013397,22.630410000221502],[-48.648370000175248,22.631839999616432],[-48.611479999602182,22.633269999910681],[-48.586949999742558,22.634299999745338],[-48.56303000013429,22.635930000269411],[-48.54004000024571,22.63848999961391],[-48.51787000040008,22.641869999900734],[-48.496200000229692,22.645760000323889],[-48.474839999965923,22.649959999754344],[-48.453579999817009,22.654260000198974],[-48.43221999955324,22.658459999629429],[-48.41086999975056,22.662650000397321],[-48.389709999716615,22.6670500000576],[-48.368760000373584,22.671660000408849],[-48.348010000361114,22.676470000090546],[-48.327470000140295,22.681489999563951],[-48.307139999711126,22.686710000166499],[-48.286999999949899,22.692139999661379],[-48.267069999980379,22.697770000285402],[-48.247349999802509,22.703600000239987],[-48.237740000000883,22.706780000296931],[-48.208719999927951,22.716089999753819],[-48.189509999886468,22.722440000305937],[-48.180000000199755,22.725719999578473],[-48.161089999603689,22.732369999575951],[-48.132989999688618,22.742609999651904],[-48.114490000013348,22.749669999670914],[-48.096300000244696,22.757039999596429],[-48.078320000267695,22.764609999751826],[-48.060129999599667,22.771990000138544],[-48.041730000039365,22.779150000272409],[-48.023429999694599,22.786420000083069],[-48.005139999811036,22.793689999893729],[-47.986849999927415,22.800959999704389],[-47.968959999604181,22.808640000435787],[-47.951489999763567,22.816719999828251],[-47.934010000361127,22.824809999681861],[-47.916539999621193,22.83290000043479],[-47.899060000218697,22.840979999827255],[-47.881180000356608,22.84865999965939],[-47.862790000358132,22.855830000254457],[-47.844180000106803,22.862790000158498],[-47.825380000086795,22.869540000270945],[-47.806270000160282,22.875999999600424],[-47.796759999574192,22.879270000210511],[-47.768349999752559,22.889200000379844],[-47.749749999962432,22.896160000283942],[-47.731250000287162,22.90322999986472],[-47.71305999961919,22.910599999790293],[-47.704069999630633,22.91437999963739],[-47.676889999873481,22.925539999871262],[-47.658490000313122,22.932709999566953],[-47.640200000429559,22.939980000276933],[-47.630999999750088,22.943559999894205],[-47.603510000086317,22.954410000221458],[-47.585320000317665,22.96178000014703],[-47.567329999879462,22.969359999864253],[-47.558139999661137,22.972940000380845],[-47.53064000043554,22.983800000269923],[-47.512039999746094,22.990749999712875],[-47.493239999726086,22.997510000286411],[-47.474129999799516,23.003960000054121],[-47.455019999873002,23.010409999821775],[-47.445719999977882,23.013890000223455],[-47.426910000396106,23.020649999897728],[-47.399109999926452,23.031190000318418],[-47.380920000157744,23.038560000243933],[-47.362940000180743,23.046139999961156],[-47.344739999950946,23.053509999886728],[-47.326349999952413,23.06067000002065],[-47.308060000068849,23.067939999831253],[-47.289759999724083,23.075209999641913],[-47.280559999943932,23.078799999720331],[-47.253179999956899,23.089750000162496],[-47.235190000418072,23.097320000317893],[-47.216999999750044,23.104690000243465],[-47.198600000189742,23.111859999939213],[-47.180310000306179,23.119129999749816],[-47.162020000422558,23.126399999560476],[-47.143720000077849,23.133670000270456],[-47.125840000215703,23.141339999641389],[-47.108359999913944,23.149430000394318],[-47.09089000007333,23.157520000247928],[-47.073420000232716,23.165610000101537],[-47.055939999930956,23.173690000393321],[-47.038049999607665,23.181370000225456],[-47.019759999724101,23.188640000036116],[-47.001469999840481,23.195909999846776],[-46.983170000395091,23.203170000095554],[-46.964879999612151,23.210450000367359],[-46.946990000188237,23.218119999738349],[-46.929520000347622,23.226209999591958],[-46.920829999804539,23.230300000244938],[-46.894980000226724,23.242789999758827],[-46.878010000061352,23.251389999748824],[-46.8608500001273,23.259790000408316],[-46.843469999940453,23.267980000376838],[-46.826000000099782,23.276070000230447],[-46.808109999776548,23.283739999601437],[-46.789819999892984,23.291010000311417],[-46.780720000227689,23.294699999605427],[-46.753229999664654,23.30554999993268],[-46.734939999781034,23.31281999974334],[-46.717059999918945,23.320499999575475],[-46.699579999617185,23.328579999867259],[-46.682209999891484,23.336769999835781],[-46.665040000395607,23.345169999595953],[-46.648070000230234,23.35376999958595],[-46.630999999949893,23.362259999899209],[-46.61394000013081,23.370759999774293],[-46.597079999642176,23.379459999879259],[-46.563760000023876,23.397270000110552],[-46.547620000362599,23.406690000143556],[-46.531769999685594,23.416420000083065],[-46.508159999983889,23.431159999934209],[-46.5002999999449,23.436069999730819],[-46.484459999729097,23.445799999670385],[-46.468309999606674,23.455219999703388],[-46.451750000362097,23.46422999971486],[-46.434989999988375,23.473029999934681],[-46.41813000039906,23.48173000003959],[-46.401060000118775,23.490229999914732],[-46.384000000299636,23.498720000227991],[-46.367030000134264,23.507320000217987],[-46.349959999853979,23.515820000093072],[-46.33290000003484,23.524319999968156],[-46.307659999809005,23.537419999733345],[-46.299269999610658,23.541820000292944],[-46.28271000036608,23.550830000304416],[-46.26656999980554,23.560250000337362],[-46.25072999958968,23.569969999815783],[-46.234990000388109,23.579799999870261],[-46.219250000287161,23.589629999924682],[-46.203410000071301,23.599359999864248],[-46.187369999625673,23.608880000012107],[-46.171109999826513,23.618190000368372],[-46.154870000050323,23.627510000286406],[-46.13882000004287,23.637030000434322],[-46.12297999982701,23.646749999912686],[-46.107250000187264,23.656579999967164],[-46.091510000086316,23.666410000021642],[-46.075660000308631,23.676130000399326],[-46.059619999863003,23.685649999647922],[-46.043369999625668,23.694969999565956],[-46.027120000287653,23.704279999922221],[-46.011079999842025,23.713809999631906],[-45.995239999626165,23.723530000009646],[-45.979500000424537,23.733360000064067],[-45.963760000323646,23.743190000118545],[-45.94790999964664,23.752909999596966],[-45.931879999662158,23.762429999744825],[-45.915630000324143,23.771749999662916],[-45.883330000079297,23.79058000016704],[-45.867489999863494,23.800310000106549],[-45.851860000338604,23.81024000027594],[-45.83641999968313,23.820369999775835],[-45.821089999603657,23.830609999851731],[-45.805760000423561,23.840849999927684],[-45.790430000344145,23.851090000003637],[-45.767439999556188,23.866440000106081],[-45.759770000185256,23.871559999694398],[-45.744549999782521,23.881899999885206],[-45.729520000047842,23.892440000305896],[-45.714709999666638,23.903189999618917],[-45.700089999953434,23.914149999622907],[-45.68568000003188,23.925300000294897],[-45.65665999995889,23.947419999633439],[-45.6492999995952,23.952839999566493],[-45.641840000015861,23.958169999845779],[-45.626819999843008,23.968710000266412],[-45.611589999878447,23.979049999557958],[-45.596259999799031,23.989289999633911],[-45.580929999719615,23.999529999709864],[-45.550679999582201,24.020410000321419],[-45.550670000020375,24.020410000321419],[-45.535859999639172,24.03115999963444],[-45.513990000138278,24.047639999686396],[-45.506839999566182,24.05327000031042],[-45.492429999644628,24.064429999644915],[-45.463099999665133,24.086230000414332],[-45.463099999665133,24.086239999976158],[-45.448379999837016,24.097079999842265],[-45.426510000336123,24.113570000355367],[-45.419459999878995,24.119300000194983],[-45.398709999866469,24.136910000196508],[-45.385019999872952,24.148779999897215],[-45.37816999964565,24.154720000427801],[-45.357220000302675,24.172119999738356],[-45.349969999615666,24.177650000247468],[-45.335349999902462,24.188610000251458],[-45.313269999710599,24.204879999612444],[-45.306019999922967,24.210410000121556],[-45.291710000116268,24.221669999570963],[-45.270969999665624,24.239279999572489],[-45.250419999882979,24.257089999803782],[-45.243580000116822,24.263030000334368],[-45.236529999659638,24.268760000173984],[-45.222219999852996,24.280030000084594],[-45.207600000139792,24.290979999627439],[-45.192889999873501,24.301829999954691],[-45.178279999722065,24.312780000396856],[-45.163960000353597,24.324050000307409],[-45.150170000245168,24.335819999893204],[-45.136790000158271,24.34800000039985],[-45.123699999954908,24.360489999913682],[-45.098049999707598,24.385979999977167],[-45.085270000310175,24.398780000296938],[-45.05931999971807,24.423959999554484],[-45.045930000069347,24.436140000061073],[-45.032139999960918,24.447909999646924],[-45.017819999693131,24.459169999995652],[-45.003210000441072,24.470129999999642],[-44.9738799995622,24.49192999986974],[-44.959569999755558,24.503190000218467],[-44.939030000434059,24.521010000011643],[-44.919299999795044,24.539640000285942],[-44.906429999844477,24.552330000029599],[-44.887319999917963,24.571580000117081],[-44.868100000314655,24.590719999628448],[-44.868109999876481,24.590719999628448],[-44.855329999579681,24.603519999948162],[-44.842559999744083,24.616309999806788],[-44.829780000346602,24.629110000126559],[-44.80423999977603,24.654709999866725],[-44.797799999570202,24.661049999957697],[-44.778689999643632,24.680300000045122],[-44.765910000246208,24.693089999903691],[-44.746700000204726,24.71223999987626],[-44.72757999981701,24.731480000401859],[-44.70846999989044,24.750729999589964],[-44.69559999993993,24.763420000232941],[-44.689259999849014,24.769870000000651],[-44.670049999807532,24.789010000411338],[-44.650939999880961,24.808259999599443],[-44.638159999584218,24.821059999919214],[-44.625389999748563,24.833849999777783],[-44.61261000035114,24.846650000097554],[-44.587069999780567,24.872240000275951],[-44.574290000383087,24.885039999696346],[-44.555179999557197,24.904289999783828],[-44.548740000250689,24.910629999874743],[-44.535970000415091,24.923430000194514],[-44.523190000118291,24.936229999614909],[-44.510409999821491,24.949020000372855],[-44.497740000100805,24.961919999908218],[-44.473110000126269,24.988430000244477],[-44.461359999664126,25.002249999937703],[-44.450120000237689,25.016590000228462],[-44.444600000189723,25.023860000039122],[-44.428349999952445,25.045969999815782],[-44.417420000432571,25.060609999551957],[-44.40616999964567,25.074940000280947],[-44.394420000082846,25.088759999974172],[-44.369799999670136,25.115270000310431],[-44.36979000010831,25.115270000310431],[-44.357120000387567,25.128169999845738],[-44.34434999965265,25.14097000016551],[-44.331570000255169,25.153769999585961],[-44.318899999635164,25.166659999559499],[-44.300299999844981,25.186419999783311],[-44.282520000097804,25.20700000005013],[-44.271279999772048,25.221329999879742],[-44.260339999791029,25.235969999615918],[-44.249510000386067,25.250710000366382],[-44.238570000405048,25.265350000102558],[-44.227330000079348,25.279679999932171],[-44.221609999801558,25.286750000412326],[-44.21567999973206,25.293610000201511],[-44.191969999915443,25.321039999796312],[-44.180319999568212,25.33495999960445],[-44.174600000189741,25.342030000084605],[-44.158140000160756,25.363930000069615],[-44.14732000031762,25.378680000381848],[-44.136380000336601,25.393320000118081],[-44.125130000449019,25.407649999947694],[-44.113480000101788,25.421569999755832],[-44.101630000424052,25.435290000233465],[-44.07811999993794,25.462929999619917],[-44.072399999660149,25.469989999638926],[-44.055950000092309,25.491900000085082],[-44.045119999788028,25.506639999936169],[-44.034279999921921,25.521379999787314],[-44.023350000402104,25.536020000422809],[-44.01221000019126,25.550459999929217],[-44.001069999980416,25.564889999873742],[-43.990139999561222,25.579529999609917],[-43.979399999810028,25.594369999575974],[-43.968880000311628,25.609420000232944],[-43.958549999682646,25.624670000220476],[-43.948329999629664,25.640029999884746],[-43.938109999576682,25.655379999987133],[-43.927790000308164,25.67064000043581],[-43.917269999910445,25.685690000193517],[-43.90653000015925,25.700530000159517],[-43.895599999740057,25.715169999895693],[-43.884460000428533,25.729599999840275],[-43.873329999779571,25.744040000245946],[-43.867809999731605,25.751310000056606],[-43.851650000047357,25.773519999948178],[-43.841129999649638,25.788569999705885],[-43.830810000381121,25.803830000154505],[-43.820590000328139,25.819180000256949],[-43.810370000275157,25.834539999921219],[-43.800150000222231,25.849890000023606],[-43.78993000016925,25.865249999687876],[-43.779710000116268,25.88059999979032],[-43.769590000178255,25.896059999569445],[-43.759680000031835,25.911719999578452],[-43.749970000115297,25.927590000278428],[-43.74046999999041,25.94366000030891],[-43.73117000009529,25.959940000131041],[-43.721870000200227,25.976219999953173],[-43.712359999614193,25.992289999983655],[-43.702649999697599,26.008159999784311],[-43.692839999666148,26.02391999990823],[-43.683029999634641,26.039689999593975],[-43.673319999718103,26.055560000293895],[-43.663819999593215,26.071630000324376],[-43.654519999698095,26.087910000146508],[-43.645210000241207,26.104180000406814],[-43.635719999678145,26.120250000437295],[-43.62600999976155,26.136129999799778],[-43.6161999997301,26.151889999923696],[-43.606380000136767,26.167650000047615],[-43.596679999782054,26.183519999848272],[-43.587270000210196,26.199699999555492],[-43.578280000221696,26.21627999972236],[-43.5694899995637,26.233069999680879],[-43.560699999805024,26.249859999639398],[-43.551910000046348,26.266649999597973],[-43.542920000057848,26.283229999764842],[-43.533520000047872,26.299410000371381],[-43.523799999670132,26.315280000172038],[-43.514000000099827,26.3310400002959],[-43.50419000006832,26.346809999981645],[-43.494480000151782,26.362670000220476],[-43.48508000014175,26.378849999927695],[-43.476079999692104,26.395430000094564],[-43.467300000394573,26.412220000053082],[-43.45860999985149,26.42911000012657],[-43.450129999999376,26.446209999991652],[-43.441639999686117,26.463300000294907],[-43.433059999719092,26.480300000045133],[-43.424670000420065,26.497500000025127],[-43.416499999575194,26.514900000234945],[-43.40842000018273,26.532399999660413],[-43.400760000373623,26.550319999568444],[-43.393509999686614,26.568650000397326],[-43.3862500003371,26.586969999865744],[-43.378999999650148,26.605290000233481],[-43.371740000300633,26.623620000163044],[-43.364070000030381,26.641529999609929],[-43.356000000199742,26.659040000395862],[-43.347830000254191,26.676439999706361],[-43.339449999617671,26.693639999686354],[-43.335150000072304,26.702139999561496],[-43.322480000351618,26.727829999854748],[-43.314299999944922,26.745239999626449],[-43.306230000114283,26.762739999951179],[-43.298570000305176,26.780659999859267],[-43.291410000171254,26.79908000034186],[-43.284459999828982,26.81770999971684],[-43.277720000177737,26.83654999978279],[-43.27127999997191,26.855690000193476],[-43.268110000376112,26.86532000001813],[-43.258089999653635,26.893669999770793],[-43.251149999772565,26.912309999606919],[-43.244089999753555,26.930839999766306],[-43.236739999851011,26.949060000019131],[-43.229180000156759,26.967080000042131],[-43.221819999793013,26.985300000294899],[-43.214770000235205,27.003829999554966],[-43.207819999892934,27.022459999829266],[-43.201069999780543,27.04129000033339],[-43.194629999574715,27.060440000305903],[-43.18829000038312,27.079690000393327],[-43.181959999853973,27.098930000019607],[-43.175829999554708,27.118380000336913],[-43.170010000061325,27.138139999661405],[-43.164380000336621,27.158100000115041],[-43.158969999965393,27.178270000360385],[-43.153650000147252,27.198539999821264],[-43.148230000214198,27.218699999605462],[-43.142619999613146,27.238669999620925],[-43.136789999658617,27.258420000282911],[-43.130760000373584,27.277980000276955],[-43.124730000189231,27.297529999809797],[-43.118900000234703,27.317290000033609],[-43.113280000071825,27.337249999587925],[-43.107860000138771,27.357419999833269],[-43.102649999997368,27.377790000308437],[-43.097640000085789,27.398369999675879],[-43.092949999642656,27.419250000287434],[-43.088650000097289,27.440540000021144],[-43.084770000135279,27.462250000237475],[-43.081300000194744,27.484360000014135],[-43.078029999584714,27.50667000002062],[-43.074550000082297,27.528790000258425],[-43.0707700002352,27.550590000128523],[-43.066879999812045,27.572289999883708],[-43.063099999964891,27.594100000215008],[-43.059730000139268,27.61631000010658],[-43.057180000356595,27.639349999602928],[-43.055540000270696,27.663299999695369],[-43.054519999997865,27.687869999600935],[-43.053699999954915,27.71265000019747],[-43.052679999682141,27.737220000103093],[-43.051039999596185,27.761170000195477],[-43.048489999813512,27.784209999691882],[-43.04511999998789,27.806419999583454],[-43.041340000140792,27.828229999914697],[-43.037560000293638,27.850029999784795],[-43.03418000000687,27.872239999676367],[-43.031630000224197,27.895280000072091],[-43.029990000138298,27.919230000164532],[-43.029080000441525,27.94390000018501],[-43.028659999958904,27.969089999903701],[-43.028559999843992,27.994579999967186],[-43.028559999843992,28.020170000145527],[-43.028559999843992,28.045760000323924],[-43.028559999843992,28.071360000064089],[-43.028559999843992,28.096950000242487],[-43.028559999843992,28.122540000420827],[-43.028659999958904,28.148029999584935],[-43.029069999980379,28.173220000203003],[-43.029990000138298,28.197890000223481],[-43.031630000224197,28.221840000315922],[-43.033159999734096,28.233099999765329],[-43.037560000293638,28.267089999703842],[-43.041340000140792,28.288900000035142],[-43.043179999557196,28.299849999577987],[-43.046650000397108,28.321960000253966],[-43.05105000005733,28.355950000192479],[-43.052679999682141,28.379909999846745],[-43.053089999703616,28.392289999683896],[-43.054519999997865,28.429249999887702],[-43.055540000270696,28.453819999793325],[-43.057180000356595,28.477769999885709],[-43.059730000139268,28.500799999820288],[-43.063110000426036,28.523020000173005],[-43.06689000027319,28.544829999604929],[-43.068729999689594,28.555780000047093],[-43.074149999622648,28.588740000151006],[-43.077110000326115,28.611369999625936],[-43.079669999670614,28.634399999560458],[-43.080990000288182,28.645860000139066],[-43.085169999695609,28.680059999869229],[-43.087119999688127,28.690910000196482],[-43.09294000008083,28.723460000278919],[-43.095400000209736,28.733799999570465],[-43.100200000329608,28.754589999628934],[-43.105210000241186,28.775160000333869],[-43.110320000267677,28.795639999586456],[-43.117980000076841,28.826350000252432],[-43.123090000103275,28.846819999943193],[-43.125650000347093,28.857060000019146],[-43.130859999589177,28.877429999594938],[-43.138830000204223,28.907839999916234],[-43.144450000367101,28.927800000369871],[-43.147519999847987,28.937530000309437],[-43.15681999974305,28.966599999990137],[-43.163669999970409,28.985330000379349],[-43.170819999643129,29.003760000423824],[-43.178480000351612,29.021669999870767],[-43.182570000105329,29.030380000436821],[-43.194740000150773,29.056579999967141],[-43.203119999887974,29.073779999947192],[-43.211699999855,29.090770000135535],[-43.220179999707113,29.107870000000617],[-43.228659999559227,29.124969999865755],[-43.23735000010231,29.141859999939186],[-43.246139999860986,29.158649999897705],[-43.255229999964399,29.175129999949661],[-43.264939999880994,29.190990000188492],[-43.275269999610657,29.20624999973785],[-43.286209999591676,29.220890000373345],[-43.297850000377082,29.234810000181483],[-43.310020000422583,29.248219999853234],[-43.328820000442533,29.267779999847278],[-43.335150000072304,29.274229999614931],[-43.347930000369104,29.287020000372877],[-43.367239999626179,29.306059999769332],[-43.373889999623657,29.312199999630423],[-43.401070000280185,29.336160000184009],[-43.415369999625682,29.347419999633416],[-43.429990000238206,29.358370000075581],[-43.459320000217701,29.380180000406824],[-43.473630000024343,29.391439999856232],[-43.487429999694598,29.403210000341403],[-43.507450000217204,29.421540000270966],[-43.514000000099827,29.427780000246969],[-43.5271799999569,29.440169999645889],[-43.554359999714109,29.46411999973833],[-43.56867000042007,29.475380000087057],[-43.575929999769528,29.480909999696848],[-43.583390000248187,29.486230000414309],[-43.606179999906942,29.501799999870229],[-43.614050000407076,29.506709999666896],[-43.63805999966911,29.521040000395828],[-43.663609999801508,29.53383999981628],[-43.681500000124799,29.541519999648415],[-43.690590000228212,29.54520000027992],[-43.719920000207708,29.554210000291448],[-43.740670000220234,29.559019999973145],[-43.762340000390566,29.562710000166533],[-43.784820000142759,29.564959999604469],[-43.807819999593164,29.565680000431826],[-43.81885000012727,29.565159999834293],[-43.852880000111782,29.562300000145058],[-43.874040000145783,29.558099999815283],[-43.894070000230215,29.552570000205492],[-43.912870000250166,29.545809999631899],[-43.930659999559225,29.538040000146054],[-43.947820000392596,29.529640000385825],[-43.964379999637174,29.520630000374354],[-43.980219999852977,29.51090999999667],[-43.995449999817538,29.500569999805805],[-44.009959999854004,29.489509999686902],[-44.030090000053349,29.471290000333397],[-44.048290000283146,29.451120000088054],[-44.05921999980302,29.436480000351878],[-44.069129999949439,29.420820000342871],[-44.077919999708115,29.404030000384353],[-44.085280000071805,29.385810000131528],[-44.091099999565188,29.366049999907716],[-44.095500000124787,29.344860000288918],[-44.098459999928934,29.322229999914725],[-44.100100000014891,29.298480000052109],[-44.100610000151278,29.274220000053106],[-44.100300000244715,29.262339999891253],[-44.098560000043847,29.226110000076574],[-44.097029999634628,29.214849999727846],[-44.094069999830481,29.192220000252973],[-44.090289999983383,29.170420000382876],[-44.083639999985905,29.138679999882243],[-44.078639999636152,29.11811000007657],[-44.073520000047836,29.09762999992472],[-44.071079999941901,29.087289999733855],[-44.066270000260204,29.066510000136532],[-44.061869999700605,29.045319999618414],[-44.056659999559201,29.013179999557451],[-44.055029999934447,28.991069999780791],[-44.055029999934447,28.968750000212481],[-44.056659999559201,28.946640000435821],[-44.059729999939407,28.92493000021949],[-44.063810000131298,28.90363999958646],[-44.068519999698083,28.882759999874224],[-44.073520000047836,28.862179999607463],[-44.078739999751065,28.841810000031614],[-44.084150000122293,28.821639999786328],[-44.089770000285171,28.801680000231954],[-44.095600000239699,28.781920000008142],[-44.101729999639645,28.762469999690893],[-44.10806999973056,28.743219999603468],[-44.114400000259707,28.723970000415306],[-44.120740000350622,28.704729999889707],[-44.12390999994642,28.695109999626936],[-44.133610000301132,28.666440000405828],[-44.139950000392105,28.647199999880229],[-44.146289999583701,28.627949999792804],[-44.152729999789528,28.608810000281437],[-44.159169999995413,28.589660000308925],[-44.165499999625183,28.570419999783326],[-44.171839999716099,28.551169999695844],[-44.178279999921926,28.532030000184477],[-44.184720000127811,28.512880000211965],[-44.191049999757581,28.493639999686366],[-44.197389999848497,28.474389999598941],[-44.203830000054325,28.455250000087574],[-44.210270000260209,28.436109999676887],[-44.216599999889979,28.416859999589462],[-44.223040000095807,28.397720000078095],[-44.229779999747052,28.378880000012146],[-44.236730000089324,28.360249999737846],[-44.243790000108277,28.341719999578459],[-44.251140000010878,28.323500000224954],[-44.258710000166275,28.30548000020201],[-44.266060000068819,28.287259999949185],[-44.273220000202741,28.26882999990471],[-44.280469999990373,28.250510000436293],[-44.287730000239208,28.232190000068613],[-44.294989999588665,28.21386000013905],[-44.302650000297149,28.195940000230962],[-44.310720000127787,28.178439999906232],[-44.318800000419571,28.160930000019619],[-44.322779999597174,28.152129999799797],[-44.334949999642674,28.125919999808275],[-44.342610000351101,28.108010000361389],[-44.34986000013879,28.089680000431827],[-44.357120000387567,28.071360000064089],[-44.364479999851994,28.053130000249439],[-44.372040000445566,28.035119999788321],[-44.380219999952942,28.017719999578446],[-44.38910999982653,28.00102999973484],[-44.398509999836506,27.984859999589446],[-44.408219999753044,27.968989999788789],[-44.418029999784551,27.953220000103045],[-44.427739999701089,27.937350000302388],[-44.437139999711121,27.921180000157051],[-44.446140000160767,27.9045900004283],[-44.454929999919443,27.887810000031607],[-44.463710000116293,27.871009999611942],[-44.472499999874969,27.854230000114569],[-44.48148999986347,27.837640000385875],[-44.490900000334648,27.821470000240481],[-44.500610000251186,27.805600000439824],[-44.510420000282693,27.78982999985476],[-44.520230000314143,27.774069999730841],[-44.529940000230681,27.758199999930184],[-44.539440000355626,27.742129999899703],[-44.548740000250689,27.725850000077571],[-44.558040000145752,27.709579999817265],[-44.567540000270697,27.693500000224958],[-44.57725999974906,27.677639999986127],[-44.58716999989548,27.661970000415351],[-44.597289999833492,27.64650999973685],[-44.607509999886474,27.631159999634406],[-44.617729999939399,27.615799999970193],[-44.627940000430556,27.600449999867749],[-44.638159999584218,27.585090000203479],[-44.648379999637143,27.569740000101092],[-44.658710000266183,27.554479999652415],[-44.669240000225727,27.539429999894708],[-44.679959999953894,27.524589999928708],[-44.690899999934913,27.509950000192475],[-44.702040000145757,27.49552000024795],[-44.713169999895456,27.481079999842279],[-44.724109999876475,27.466440000106047],[-44.734940000180757,27.451700000254959],[-44.745780000046864,27.436960000403815],[-44.756610000351145,27.422219999653407],[-44.767550000332108,27.407579999917232],[-44.778689999643632,27.39314999997265],[-44.78982000029265,27.378709999566979],[-44.800760000273669,27.364069999830747],[-44.806180000206723,27.356699999905231],[-44.817009999611685,27.341960000054087],[-44.833359999963932,27.319950000392339],[-44.844600000289688,27.305619999663406],[-44.856349999852512,27.291799999970181],[-44.868519999897956,27.27839000029843],[-44.880879999712079,27.265179999957184],[-44.880890000173224,27.265179999957184],[-44.905409999571702,27.238559999944187],[-44.917160000033846,27.224740000250961],[-44.928400000359602,27.210410000421348],[-44.939329999879476,27.195769999785796],[-44.950169999745583,27.181029999934708],[-44.955589999678637,27.173660000009136],[-44.972350000052359,27.152060000368863],[-44.978070000330149,27.144989999888708],[-44.996269999660626,27.124830000104566],[-45.008729999589718,27.111730000339378],[-45.015069999680634,27.105279999672405],[-45.027740000300639,27.092380000137041],[-45.034170000045322,27.08602999958498],[-45.053279999971892,27.066780000396818],[-45.0724999995752,27.047639999986131],[-45.078839999666116,27.041190000218478],[-45.098049999707598,27.022049999807791],[-45.104389999798514,27.015600000040138],[-45.110820000442573,27.00925000038734],[-45.123599999839996,26.996459999629394],[-45.149250000087306,26.970960000004141],[-45.149250000087306,26.970969999565966],[-45.175720000377623,26.946289999983662],[-45.189509999586676,26.934520000397868],[-45.218440000005899,26.912309999606919],[-45.225800000369588,26.906880000112039],[-45.23315000027219,26.90144999971784],[-45.247760000423568,26.890500000174995],[-45.262079999792036,26.879239999826268],[-45.282620000012855,26.861429999594975],[-45.289260000448564,26.855289999733827],[-45.302440000305637,26.842900000334907],[-45.322270000160245,26.82437000017552],[-45.329020000272692,26.818330000429341],[-45.342810000381121,26.806550000382344],[-45.371730000339141,26.784339999591452],[-45.386450000167258,26.77349000016352],[-45.401060000318637,26.762539999721355],[-45.415370000125279,26.751280000271947],[-45.442959999903962,26.727729999739836],[-45.456660000358625,26.715849999577983],[-45.470560000143792,26.704180000107044],[-45.484860000388608,26.692919999758317],[-45.499580000216724,26.682070000330384],[-45.514600000389578,26.671529999909694],[-45.529830000354139,26.661189999718829],[-45.545160000433555,26.650949999642933],[-45.568150000322134,26.635589999978663],[-45.583280000171726,26.625149999672885],[-45.590739999751065,26.619829999854744],[-45.605559999694094,26.609079999642404],[-45.620169999845473,26.598130000099559],[-45.648989999688638,26.575809999631929],[-45.663599999840017,26.564849999627938],[-45.678419999783046,26.554100000314918],[-45.693450000417045,26.543559999894228],[-45.70866999992046,26.533219999703363],[-45.724009999561702,26.522990000088555],[-45.739330000079349,26.512750000012659],[-45.754660000158765,26.502509999936706],[-45.769990000238181,26.492280000321898],[-45.785320000317654,26.482040000245945],[-45.80065000039707,26.471800000169992],[-45.815990000038369,26.461560000094096],[-45.831309999656639,26.451320000018143],[-45.854310000006365,26.435969999915699],[-45.861969999815528,26.430850000327382],[-45.877299999894944,26.420610000251429],[-45.892629999974417,26.410379999737359],[-45.907960000053833,26.400139999661405],[-45.923290000133306,26.389899999585452],[-45.946280000021886,26.374550000382328],[-45.954050000407051,26.369530000009661],[-45.985529999709627,26.34988000036185],[-46.001670000270167,26.340460000328903],[-46.018230000414064,26.331450000317375],[-46.034989999888467,26.322650000097553],[-46.06012999999939,26.309439999756307],[-46.085069999880488,26.296030000084556],[-46.101210000441029,26.28661000005161],[-46.117060000218714,26.27688999967387],[-46.132789999858517,26.267059999619448],[-46.148529999959408,26.25722999956497],[-46.164379999737093,26.24751000008655],[-46.180520000297633,26.238090000053603],[-46.197069999980386,26.229080000042131],[-46.213839999915933,26.220270000260427],[-46.230700000404568,26.211570000155518],[-46.247860000338619,26.203179999957172],[-46.265239999626147,26.19498999998865],[-46.274030000284142,26.1909899998887],[-46.300599999790052,26.179220000302905],[-46.318889999673615,26.171949999592925],[-46.337179999557236,26.164679999782322],[-46.355479999901945,26.157420000432808],[-46.373869999900478,26.15024999983774],[-46.392070000130275,26.142879999912225],[-46.410059999669159,26.135309999756828],[-46.42825000033713,26.12793000026943],[-46.446640000335606,26.120770000135565],[-46.464930000219226,26.113500000324905],[-46.483229999664616,26.106229999614925],[-46.501619999663149,26.099059999919177],[-46.528809999881446,26.087910000146508],[-46.537799999870003,26.084119999838265],[-46.555989999638655,26.076749999912693],[-46.574490000213245,26.069680000331914],[-46.593090000003372,26.062720000427817],[-46.611890000023379,26.055970000315426],[-46.630999999949893,26.049519999648396],[-46.650219999553201,26.043169999995655],[-46.669330000379091,26.036720000227945],[-46.678940000180773,26.033549999732827],[-46.707650000347144,26.02391999990823],[-46.726860000388569,26.017579999817258],[-46.746079999991878,26.011230000164517],[-46.76549999982501,26.005090000303426],[-46.78522000000288,25.999249999887752],[-46.8051499999724,25.993620000162991],[-46.825280000171745,25.988200000229995],[-46.845509999586682,25.982869999950651],[-46.865650000247172,25.977450000017654],[-46.885569999755546,25.971820000292894],[-46.905300000394561,25.96597999987722],[-46.915010000311156,25.962910000396334],[-46.944340000290651,25.953900000384863],[-46.964070000030347,25.948070000430334],[-46.983990000438041,25.942439999806311],[-47.004119999738066,25.937010000311432],[-47.024459999729061,25.931789999708883],[-47.044999999949937,25.926770000235479],[-47.065749999962406,25.921959999654405],[-47.086700000204701,25.917350000202475],[-47.107860000238702,25.912949999642933],[-47.129210000041326,25.908759999774304],[-47.150570000305152,25.904560000343906],[-47.171730000339153,25.900159999784307],[-47.192679999682127,25.895550000332378],[-47.213420000132771,25.890739999751304],[-47.233960000353591,25.885720000277956],[-47.254399999560235,25.88059999979032],[-47.2749500002422,25.875589999878741],[-47.295800000369582,25.870880000311899],[-47.317150000172262,25.866679999982182],[-47.339130000249213,25.863100000364852],[-47.361710000116318,25.860130000099559],[-47.384700000004898,25.857569999855741],[-47.407700000354623,25.855009999611923],[-47.430289999783554,25.85204000024595],[-47.452360000413591,25.848559999844269],[-47.47412000023769,25.844779999997172],[-47.495900000084816,25.840989999688873],[-47.518069999930447,25.837610000301424],[-47.541070000280172,25.835050000057606],[-47.564980000326614,25.83340999997165],[-47.58961000030115,25.832489999813788],[-47.614750000412073,25.832079999792313],[-47.640200000429559,25.831979999677401],[-47.665650000447044,25.831870000000663],[-47.690789999658648,25.831459999979131],[-47.715419999633184,25.830550000282415],[-47.739329999679626,25.828910000196515],[-47.762330000029351,25.826349999952697],[-47.784499999874981,25.822969999665872],[-47.806270000160282,25.819180000256949],[-47.828029999984381,25.815400000409852],[-47.850210000291156,25.812020000123027],[-47.873209999741562,25.809459999879209],[-47.897130000249206,25.80781999979331],[-47.92174999976254,25.806899999635391],[-47.946889999873463,25.80648000005209],[-47.972339999890949,25.806379999937178],[-47.997890000023347,25.806379999937178],[-48.023440000155745,25.806379999937178],[-48.048990000288143,25.806379999937178],[-48.074540000420541,25.806379999937178],[-48.100089999653619,25.806379999937178],[-48.125630000224191,25.806379999937178],[-48.151189999918472,25.806379999937178],[-48.176729999589668,25.806379999937178],[-48.202279999722066,25.806379999937178],[-48.227829999854464,25.806379999937178],[-48.253379999986919,25.806379999937178],[-48.278930000119317,25.806379999937178],[-48.304480000251715,25.806379999937178],[-48.330030000384113,25.806379999937178],[-48.355579999617191,25.806379999937178],[-48.381129999749589,25.806379999937178],[-48.406570000205249,25.806279999822266],[-48.431710000316173,25.805869999800791],[-48.443869999900471,25.805260000448811],[-48.480259999898976,25.803309999556973],[-48.503249999787556,25.800750000212474],[-48.525430000094332,25.797369999925706],[-48.547200000379576,25.793579999617407],[-48.568960000203731,25.78979999977031],[-48.591139999611187,25.786420000382861],[-48.614130000399086,25.783860000139043],[-48.638050000007354,25.782220000053087],[-48.662670000420064,25.781299999895225],[-48.687820000092813,25.78088999987375],[-48.700589999928411,25.78088999987375],[-48.738809999781552,25.780789999758838],[-48.76435999991395,25.780789999758838],[-48.789910000046348,25.780789999758838],[-48.815460000178746,25.780789999758838],[-48.841010000311144,25.780789999758838],[-48.86646000032863,25.780689999643926],[-48.891600000439553,25.780279999622451],[-48.903760000023851,25.779659999809269],[-48.940139999561211,25.777720000277952],[-48.963130000349111,25.775160000034134],[-48.985309999756566,25.771779999747309],[-49.007080000041867,25.767990000338386],[-49.028850000327111,25.764209999591969],[-49.050920000057829,25.760719999628407],[-49.073510000386079,25.757759999824259],[-49.096500000274659,25.755199999580441],[-49.119499999725065,25.752640000235942],[-49.14207999959217,25.749669999970649],[-49.164050000107295,25.746090000353377],[-49.185419999932947,25.741890000023602],[-49.206259999599183,25.737179999557497],[-49.226799999820003,25.732160000084093],[-49.247239999925966,25.727050000057602],[-49.267680000031874,25.721929999569966],[-49.288120000137781,25.716809999981649],[-49.308560000243688,25.711690000393332],[-49.328900000234682,25.706469999790784],[-49.348930000319115,25.700940000180992],[-49.368550000382072,25.694999999650406],[-49.387760000423555,25.688659999559491],[-49.40646000032865,25.681799999770305],[-49.424759999774039,25.674529999959645],[-49.44304999965766,25.667260000149042],[-49.461450000117281,25.66010000001512],[-49.479740000000902,25.652819999743315],[-49.498040000345611,25.645560000393857],[-49.516330000229232,25.638289999683877],[-49.534210000091321,25.630609999851742],[-49.55169000039308,25.622519999998133],[-49.569060000118782,25.614339999591436],[-49.586229999614659,25.605939999831264],[-49.594710000366092,25.601640000285954],[-49.62025999959917,25.588839999966183],[-49.637329999879455,25.580349999652924],[-49.654300000044827,25.57174999966287],[-49.671359999863967,25.563249999787786],[-49.696909999996365,25.550459999929217],[-49.705289999733566,25.546049999807792],[-49.722050000107288,25.537249999587971],[-49.738610000251185,25.528239999576442],[-49.754749999912462,25.518820000442815],[-49.778470000190225,25.504179999807263],[-49.80166000030863,25.489029999934701],[-49.816990000388103,25.478789999858748],[-49.832319999568199,25.46856000024394],[-49.847649999647672,25.458320000167987],[-49.862979999727088,25.448089999653916],[-49.878309999806504,25.437849999577963],[-49.893539999771065,25.427510000286418],[-49.908559999943918,25.416960000303902],[-49.923279999772035,25.40610999997665],[-49.937580000016851,25.394849999627922],[-49.958129999799553,25.377040000295892],[-49.977950000092335,25.358510000136562],[-49.984490000413075,25.352259999699356],[-49.991129999949408,25.346119999838265],[-50.004519999598187,25.333940000230996],[-50.018320000167762,25.322169999745824],[-50.032620000412578,25.310910000296417],[-50.061859999838987,25.288999999850262],[-50.076160000083803,25.277740000400854],[-50.096500000074855,25.259720000377854],[-50.114489999613681,25.239349999902743],[-50.125720000377612,25.225020000073073],[-50.136669999920457,25.210380000336897],[-50.147600000339651,25.195739999701345],[-50.158839999766087,25.181409999871732],[-50.170590000228231,25.167590000178507],[-50.170599999790056,25.167590000178507],[-50.182760000273674,25.15417000004561],[-50.207490000363123,25.127759999824264],[-50.231400000409565,25.100529999559967],[-50.242639999836001,25.086199999730354],[-50.253470000140283,25.07145999987921],[-50.264000000099827,25.056410000121559],[-50.274320000267664,25.041160000134028],[-50.284440000205734,25.025700000354902],[-50.294359999913922,25.010040000345896],[-50.304060000268692,24.994169999645919],[-50.313469999840493,24.9779899999387],[-50.322459999828993,24.961409999771831],[-50.331249999587669,24.944619999813256],[-50.339940000130809,24.927729999739825],[-50.348419999982923,24.910629999874743],[-50.35689999983498,24.893539999571487],[-50.365479999802005,24.876539999821262],[-50.373970000115321,24.859450000417326],[-50.382449999967434,24.842349999652924],[-50.39102999993446,24.825360000363844],[-50.399409999671605,24.80816000038385],[-50.407590000078301,24.790760000174032],[-50.415659999908939,24.773250000287419],[-50.423319999718103,24.755330000379331],[-50.430479999851968,24.736909999896739],[-50.43743000019424,24.718279999622439],[-50.444169999845485,24.699439999556489],[-50.45061000005137,24.680289999583977],[-50.456950000142285,24.661049999957697],[-50.463279999772055,24.641799999870216],[-50.469410000071321,24.622349999552966],[-50.475240000025849,24.6025999997903],[-50.480869999750553,24.582629999774838],[-50.486280000121781,24.56246999999064],[-50.491490000263184,24.542100000414848],[-50.496500000174763,24.52152000014803],[-50.501200000179722,24.500640000435794],[-50.505490000163263,24.479340000240938],[-50.509370000125273,24.457639999586434],[-50.51284999962769,24.435529999809773],[-50.51612000023772,24.413210000241463],[-50.519590000178255,24.391099999565483],[-50.523379999587178,24.36929000013356],[-50.527260000448564,24.347590000378375],[-50.531040000295661,24.325780000047132],[-50.534410000121284,24.303570000155503],[-50.536970000365102,24.280540000220981],[-50.538599999989913,24.256579999667395],[-50.539420000032862,24.232009999761829],[-50.539420000032862,24.207239999626438],[-50.538599999989913,24.182669999720872],[-50.536970000365102,24.158710000066606],[-50.53543999995594,24.147449999717878],[-50.531040000295661,24.113459999779309],[-50.527260000448564,24.091659999909211],[-50.52347999970209,24.069849999577968],[-50.52000000019973,24.047739999801308],[-50.517040000395582,24.025119999888204],[-50.514480000151764,24.002080000391857],[-50.511930000369091,23.979049999557958],[-50.508969999665624,23.956429999644911],[-50.505390000048351,23.934419999983163],[-50.501209999741604,23.913019999673395],[-50.498749999612699,23.902680000381849],[-50.491490000263184,23.871559999694398],[-50.486280000121781,23.85119000011855],[-50.480860000188727,23.831019999873263],[-50.477999999600172,23.821089999703872],[-50.472280000221701,23.801230000264468],[-50.460119999738083,23.76223000041432],[-50.453779999647168,23.742980000326895],[-50.440900000134775,23.704689999943696],[-50.43743000019424,23.695379999587431],[-50.430479999851968,23.676750000212508],[-50.423319999718103,23.658320000168032],[-50.415659999908939,23.64040999982177],[-50.411579999717105,23.631700000155035],[-50.395319999917945,23.59679999962043],[-50.39102999993446,23.588299999745345],[-50.382449999967434,23.571299999995119],[-50.373970000115321,23.554209999691864],[-50.369669999670634,23.545709999816779],[-50.35689999983498,23.520119999638439],[-50.348419999982923,23.503019999773301],[-50.344120000437556,23.494530000359362],[-50.335539999571211,23.477529999709873],[-50.322459999828993,23.452250000337415],[-50.317859999938946,23.444060000368836],[-50.299260000148763,23.411499999825253],[-50.294350000352097,23.403619999763293],[-50.284440000205734,23.387959999754344],[-50.279330000179243,23.380279999922209],[-50.264000000099827,23.35724999998763],[-50.248159999883967,23.33471999972835],[-50.242650000297147,23.327460000378835],[-50.231400000409565,23.313129999649902],[-50.219750000062334,23.299200000279939],[-50.207900000384598,23.285479999802305],[-50.196040000245716,23.271769999785818],[-50.184389999898485,23.257840000415854],[-50.178869999850519,23.25058000016702],[-50.162220000052855,23.228869999950689],[-50.151380000186748,23.214130000099544],[-50.140449999767554,23.199490000363369],[-50.129199999879972,23.185159999634436],[-50.117450000317149,23.17133999994121],[-50.105289999833531,23.157930000269459],[-50.092820000342613,23.144820000043126],[-50.080049999607695,23.1320300001845],[-50.060330000329145,23.1133999999102],[-50.053580000216698,23.107360000164022],[-50.032730000089316,23.089850000277409],[-50.025469999840482,23.084319999768297],[-49.996139999860986,23.0625199998982],[-49.988780000396559,23.057090000403321],[-49.981529999709608,23.051559999894209],[-49.953320000117799,23.0286300000746],[-49.939630000124282,23.016760000373836],[-49.92592999966962,23.004880000211983],[-49.912029999884453,22.993209999841781],[-49.88300999981152,22.971100000065064],[-49.875550000232181,22.965769999785778],[-49.867989999638667,22.960550000082605],[-49.845099999864999,22.945099999865249],[-49.829769999785526,22.934859999789296],[-49.806770000335121,22.919500000125026],[-49.791440000255704,22.909269999610956],[-49.791440000255704,22.90926000004913],[-49.760679999981903,22.888889999573962],[-49.752909999596682,22.883879999662383],[-49.72921000024121,22.869239999926208],[-49.721230000064338,22.864430000244454],[-49.713060000118787,22.859819999893205],[-49.679739999601168,22.842009999661911],[-49.662880000011853,22.833309999557002],[-49.65440000015974,22.829010000011635],[-49.637229999764543,22.820610000251463],[-49.611779999747057,22.80770999981678],[-49.594719999927918,22.79922000040284],[-49.586130000399066,22.795020000073066],[-49.560680000381581,22.782119999638439],[-49.543509999986384,22.773730000339413],[-49.534829999904446,22.76963000012455],[-49.517449999717599,22.761440000156028],[-49.490780000096834,22.749769999785826],[-49.472390000098301,22.742609999651904],[-49.453779999846972,22.735649999747807],[-49.444479999951909,22.732159999784301],[-49.415869999900451,22.722440000305937],[-49.396659999858969,22.716089999753819],[-49.387050000057343,22.712920000158022],[-49.358020000422584,22.703600000239987],[-49.338300000244715,22.697770000285402],[-49.328390000098295,22.694900000135021],[-49.29824000007585,22.686710000166499],[-49.277900000084799,22.681489999563951],[-49.257359999863979,22.676470000090546],[-49.236620000312655,22.671660000408849],[-49.215670000070304,22.667059999619426],[-49.19451000003636,22.662650000397321],[-49.173149999772534,22.658450000067603],[-49.151790000408084,22.654260000198974],[-49.130539999820996,22.649959999754344],[-49.109179999557227,22.645769999885715],[-49.087510000286159,22.64188000036188],[-49.065329999979383,22.638500000075112],[-49.054089999653627,22.636960000104068],[-49.018419999583216,22.634299999745338],[-48.993900000184738,22.633269999910681],[-48.969170000095289,22.632449999867731],[-48.944839999566227,22.631429999594957],[-48.921539999771028,22.62979000040832],[-48.899770000385104,22.627239999726328],[-48.879640000185759,22.62386000033888],[-48.870340000290639,22.622120000138011],[-48.834369999875491,22.6155599997943],[-48.82599000013829,22.614329999729819]]]},"properties":{"objectid":239,"stormname":"Fay","stormtype":"TD","basin":"AL","advdate":"300 PM GMT Sun Sep 27 2026","advisnum":"30","fcstprd":120,"stormnum":6,"idp_source":"al062026-030_5day_pgn","idp_filedate":1790521349000,"idp_ingestdate":1790521381000,"st_area(shape)":20.718661736655978,"st_perimeter(shape)":22.594255046127234,"binnumber":"AT1"}}]}