{"type":"FeatureCollection","features":[{"type":"Feature","id":297,"geometry":{"type":"LineString","coordinates":[[-44.599999999800048,27.099999999900206],[-45.499999999800025,26.000000000299906],[-47.199999999999875,24.600000000399859],[-48.900000000199725,23.400000000100079],[-50.899999999800059,23.099999999800275]]},"properties":{"objectid":297,"stormname":"Fay","stormtype":"TD","basin":"AL","advdate":"300 PM GMT Mon Sep 28 2026","advisnum":"34","fcstprd":120,"stormnum":6,"idp_source":"al062026-034_5day_lin","idp_filedate":1790607748000,"idp_ingestdate":1790607754000,"st_length(shape)":7.726778640960605,"binnumber":"AT1"}}]}