{"type": "FeatureCollection", "features": [{"type": "Feature", "id": 2052, "geometry": {"type": "Point", "coordinates": [-43.799999999600175, 29.300000000000125]}, "properties": {"objectid": 2052, "stormname": "Tropical Depression Fay", "stormtype": "TD", "dvlbl": "D", "basin": "AL", "advdate": "300 PM GMT Sun Sep 27 2026", "advisnum": "30", "fcstprd": 120, "gust": 40, "maxwind": 30, "mslp": 1010, "ssnum": 0, "datelbl": "3:00 PM Sun", "tcdvlp": "Tropical Depression", "tcdir": 160, "tcspd": 3, "fldatelbl": "2026-09-27 12:00 PM Sun GMT", "lat": 29, "lon": -44, "stormnum": 6, "stormsrc": "Tropical Cyclone", "tau": 0, "timezone": "GMT", "validtime": "27/1200", "idp_source": "al062026-030_5day_pts", "idp_filedate": 1790521349000, "idp_ingestdate": 1790521389000, "binnumber": "AT1", "MAXWIND": 30, "VALIDTIME": "27/1200"}}, {"type": "Feature", "id": 2053, "geometry": {"type": "Point", "coordinates": [-43.59999999999991, 28.800000000100056]}, "properties": {"objectid": 2053, "stormname": "Tropical Depression Fay", "stormtype": "TD", "dvlbl": "D", "basin": "AL", "advdate": "300 PM GMT Sun Sep 27 2026", "advisnum": "30", "fcstprd": 120, "gust": 40, "maxwind": 30, "mslp": 9999, "ssnum": 0, "datelbl": "12:00 AM Mon", "tcdvlp": "Tropical Depression", "tcdir": 9999, "tcspd": 9999, "fldatelbl": "2026-09-28 12:00 AM Mon GMT", "lat": 29, "lon": -44, "stormnum": 6, "stormsrc": "Tropical Cyclone", "tau": 12, "timezone": "GMT", "validtime": "28/0000", "idp_source": "al062026-030_5day_pts", "idp_filedate": 1790521349000, "idp_ingestdate": 1790521389000, "binnumber": "AT1", "MAXWIND": 30, "VALIDTIME": "28/0000"}}, {"type": "Feature", "id": 2054, "geometry": {"type": "Point", "coordinates": [-43.799999999600175, 27.599999999800275]}, "properties": {"objectid": 2054, "stormname": "Tropical Depression Fay", "stormtype": "TD", "dvlbl": "D", "basin": "AL", "advdate": "300 PM GMT Sun Sep 27 2026", "advisnum": "30", "fcstprd": 120, "gust": 40, "maxwind": 30, "mslp": 9999, "ssnum": 0, "datelbl": "12:00 PM Mon", "tcdvlp": "Tropical Depression", "tcdir": 9999, "tcspd": 9999, "fldatelbl": "2026-09-28 12:00 PM Mon GMT", "lat": 28, "lon": -44, "stormnum": 6, "stormsrc": "Tropical Cyclone", "tau": 24, "timezone": "GMT", "validtime": "28/1200", "idp_source": "al062026-030_5day_pts", "idp_filedate": 1790521349000, "idp_ingestdate": 1790521389000, "binnumber": "AT1", "MAXWIND": 30, "VALIDTIME": "28/1200"}}, {"type": "Feature", "id": 2055, "geometry": {"type": "Point", "coordinates": [-44.499999999999886, 26.400000000399814]}, "properties": {"objectid": 2055, "stormname": "Tropical Depression Fay", "stormtype": "TD", "dvlbl": "D", "basin": "AL", "advdate": "300 PM GMT Sun Sep 27 2026", "advisnum": "30", "fcstprd": 120, "gust": 40, "maxwind": 30, "mslp": 9999, "ssnum": 0, "datelbl": "12:00 AM Tue", "tcdvlp": "Tropical Depression", "tcdir": 9999, "tcspd": 9999, "fldatelbl": "2026-09-29 12:00 AM Tue GMT", "lat": 26, "lon": -44, "stormnum": 6, "stormsrc": "Tropical Cyclone", "tau": 36, "timezone": "GMT", "validtime": "29/0000", "idp_source": "al062026-030_5day_pts", "idp_filedate": 1790521349000, "idp_ingestdate": 1790521389000, "binnumber": "AT1", "MAXWIND": 30, "VALIDTIME": "29/0000"}}, {"type": "Feature", "id": 2056, "geometry": {"type": "Point", "coordinates": [-45.70000000029967, 25.299999999900194]}, "properties": {"objectid": 2056, "stormname": "Tropical Depression Fay", "stormtype": "TD", "dvlbl": "D", "basin": "AL", "advdate": "300 PM GMT Sun Sep 27 2026", "advisnum": "30", "fcstprd": 120, "gust": 40, "maxwind": 30, "mslp": 9999, "ssnum": 0, "datelbl": "12:00 PM Tue", "tcdvlp": "Tropical Depression", "tcdir": 9999, "tcspd": 9999, "fldatelbl": "2026-09-29 12:00 PM Tue GMT", "lat": 25, "lon": -46, "stormnum": 6, "stormsrc": "Tropical Cyclone", "tau": 48, "timezone": "GMT", "validtime": "29/1200", "idp_source": "al062026-030_5day_pts", "idp_filedate": 1790521349000, "idp_ingestdate": 1790521389000, "binnumber": "AT1", "MAXWIND": 30, "VALIDTIME": "29/1200"}}, {"type": "Feature", "id": 2057, "geometry": {"type": "Point", "coordinates": [-47.100000000199714, 24.60000000039986]}, "properties": {"objectid": 2057, "stormname": "Tropical Depression Fay", "stormtype": "TD", "dvlbl": "D", "basin": "AL", "advdate": "300 PM GMT Sun Sep 27 2026", "advisnum": "30", "fcstprd": 120, "gust": 40, "maxwind": 30, "mslp": 9999, "ssnum": 0, "datelbl": "12:00 AM Wed", "tcdvlp": "Tropical Depression", "tcdir": 9999, "tcspd": 9999, "fldatelbl": "2026-09-30 12:00 AM Wed GMT", "lat": 25, "lon": -47, "stormnum": 6, "stormsrc": "Tropical Cyclone", "tau": 60, "timezone": "GMT", "validtime": "30/0000", "idp_source": "al062026-030_5day_pts", "idp_filedate": 1790521349000, "idp_ingestdate": 1790521389000, "binnumber": "AT1", "MAXWIND": 30, "VALIDTIME": "30/0000"}}, {"type": "Feature", "id": 2058, "geometry": {"type": "Point", "coordinates": [-48.800000000399564, 24.200000000299895]}, "properties": {"objectid": 2058, "stormname": "Tropical Depression Fay", "stormtype": "STD", "dvlbl": "D", "basin": "AL", "advdate": "300 PM GMT Sun Sep 27 2026", "advisnum": "30", "fcstprd": 120, "gust": 35, "maxwind": 25, "mslp": 9999, "ssnum": 0, "datelbl": "12:00 PM Wed", "tcdvlp": "Subtropical Depression", "tcdir": 9999, "tcspd": 9999, "fldatelbl": "2026-09-30 12:00 PM Wed GMT", "lat": 24, "lon": -49, "stormnum": 6, "stormsrc": "Post-Tropical Cyclone", "tau": 72, "timezone": "GMT", "validtime": "30/1200", "idp_source": "al062026-030_5day_pts", "idp_filedate": 1790521349000, "idp_ingestdate": 1790521389000, "binnumber": "AT1", "MAXWIND": 25, "VALIDTIME": "30/1200"}}]}