{"type":"FeatureCollection","features":[{"type":"Feature","id":8647,"geometry":{"type":"Point","coordinates":[-34.000000000299679,32.099999999800275]},"properties":{"objectid":8647,"stormname":"GENESIS017","stormtype":"DB","stormnum":6,"intensity":15,"basin":"al","mslp":1018,"dtg":2026091712,"year":2026,"month":"09","day":17,"hhmm":"1200","lat":32,"lon":-34,"ss":0,"idp_source":"AL062026_pts","idp_filedate":1790544463000,"idp_ingestdate":1790544532000,"binnumber":"AT1"}},{"type":"Feature","id":8648,"geometry":{"type":"Point","coordinates":[-34.199999999899944,32.400000000100079]},"properties":{"objectid":8648,"stormname":"GENESIS017","stormtype":"DB","stormnum":6,"intensity":20,"basin":"al","mslp":1018,"dtg":2026091718,"year":2026,"month":"09","day":17,"hhmm":"1800","lat":32,"lon":-34,"ss":0,"idp_source":"AL062026_pts","idp_filedate":1790544463000,"idp_ingestdate":1790544532000,"binnumber":"AT1"}},{"type":"Feature","id":8649,"geometry":{"type":"Point","coordinates":[-34.199999999899944,32.599999999700344]},"properties":{"objectid":8649,"stormname":"GENESIS017","stormtype":"DB","stormnum":6,"intensity":20,"basin":"al","mslp":1018,"dtg":2026091800,"year":2026,"month":"09","day":18,"hhmm":"0000","lat":33,"lon":-34,"ss":0,"idp_source":"AL062026_pts","idp_filedate":1790544463000,"idp_ingestdate":1790544532000,"binnumber":"AT1"}},{"type":"Feature","id":8650,"geometry":{"type":"Point","coordinates":[-34.199999999899944,32.800000000199987]},"properties":{"objectid":8650,"stormname":"GENESIS017","stormtype":"DB","stormnum":6,"intensity":25,"basin":"al","mslp":1017,"dtg":2026091806,"year":2026,"month":"09","day":18,"hhmm":"0600","lat":33,"lon":-34,"ss":0,"idp_source":"AL062026_pts","idp_filedate":1790544463000,"idp_ingestdate":1790544532000,"binnumber":"AT1"}},{"type":"Feature","id":8651,"geometry":{"type":"Point","coordinates":[-34.100000000099783,32.900000000000148]},"properties":{"objectid":8651,"stormname":"INVEST","stormtype":"LO","stormnum":6,"intensity":25,"basin":"al","mslp":1017,"dtg":2026091812,"year":2026,"month":"09","day":18,"hhmm":"1200","lat":33,"lon":-34,"ss":0,"idp_source":"AL062026_pts","idp_filedate":1790544463000,"idp_ingestdate":1790544532000,"binnumber":"AT1"}},{"type":"Feature","id":8652,"geometry":{"type":"Point","coordinates":[-34.000000000299679,32.800000000199987]},"properties":{"objectid":8652,"stormname":"INVEST","stormtype":"LO","stormnum":6,"intensity":25,"basin":"al","mslp":1016,"dtg":2026091818,"year":2026,"month":"09","day":18,"hhmm":"1800","lat":33,"lon":-34,"ss":0,"idp_source":"AL062026_pts","idp_filedate":1790544463000,"idp_ingestdate":1790544532000,"binnumber":"AT1"}},{"type":"Feature","id":8653,"geometry":{"type":"Point","coordinates":[-33.899999999600197,32.599999999700344]},"properties":{"objectid":8653,"stormname":"INVEST","stormtype":"LO","stormnum":6,"intensity":30,"basin":"al","mslp":1015,"dtg":2026091900,"year":2026,"month":"09","day":19,"hhmm":"0000","lat":33,"lon":-34,"ss":0,"idp_source":"AL062026_pts","idp_filedate":1790544463000,"idp_ingestdate":1790544532000,"binnumber":"AT1"}},{"type":"Feature","id":8654,"geometry":{"type":"Point","coordinates":[-33.600000000199714,32.599999999700344]},"properties":{"objectid":8654,"stormname":"INVEST","stormtype":"LO","stormnum":6,"intensity":30,"basin":"al","mslp":1015,"dtg":2026091906,"year":2026,"month":"09","day":19,"hhmm":"0600","lat":33,"lon":-34,"ss":0,"idp_source":"AL062026_pts","idp_filedate":1790544463000,"idp_ingestdate":1790544532000,"binnumber":"AT1"}},{"type":"Feature","id":8655,"geometry":{"type":"Point","coordinates":[-33.600000000199714,32.49999999990024]},"properties":{"objectid":8655,"stormname":"SIX","stormtype":"TD","stormnum":6,"intensity":30,"basin":"al","mslp":1009,"dtg":2026091912,"year":2026,"month":"09","day":19,"hhmm":"1200","lat":32,"lon":-34,"ss":0,"idp_source":"AL062026_pts","idp_filedate":1790544463000,"idp_ingestdate":1790544532000,"binnumber":"AT1"}},{"type":"Feature","id":8656,"geometry":{"type":"Point","coordinates":[-33.500000000399552,32.700000000399825]},"properties":{"objectid":8656,"stormname":"SIX","stormtype":"TD","stormnum":6,"intensity":30,"basin":"al","mslp":1007,"dtg":2026091918,"year":2026,"month":"09","day":19,"hhmm":"1800","lat":33,"lon":-34,"ss":0,"idp_source":"AL062026_pts","idp_filedate":1790544463000,"idp_ingestdate":1790544532000,"binnumber":"AT1"}},{"type":"Feature","id":8657,"geometry":{"type":"Point","coordinates":[-33.299999999899967,33.09999999960047]},"properties":{"objectid":8657,"stormname":"SIX","stormtype":"TD","stormnum":6,"intensity":30,"basin":"al","mslp":1007,"dtg":2026092000,"year":2026,"month":"09","day":20,"hhmm":"0000","lat":33,"lon":-33,"ss":0,"idp_source":"AL062026_pts","idp_filedate":1790544463000,"idp_ingestdate":1790544532000,"binnumber":"AT1"}},{"type":"Feature","id":8658,"geometry":{"type":"Point","coordinates":[-33.200000000099806,33.499999999700378]},"properties":{"objectid":8658,"stormname":"SIX","stormtype":"TS","stormnum":6,"intensity":35,"basin":"al","mslp":1006,"dtg":2026092006,"year":2026,"month":"09","day":20,"hhmm":"0600","lat":34,"lon":-33,"ss":0,"idp_source":"AL062026_pts","idp_filedate":1790544463000,"idp_ingestdate":1790544532000,"binnumber":"AT1"}},{"type":"Feature","id":8659,"geometry":{"type":"Point","coordinates":[-33.100000000299644,33.999999999600448]},"properties":{"objectid":8659,"stormname":"FAY","stormtype":"TS","stormnum":6,"intensity":50,"basin":"al","mslp":1004,"dtg":2026092012,"year":2026,"month":"09","day":20,"hhmm":"1200","lat":34,"lon":-33,"ss":0,"idp_source":"AL062026_pts","idp_filedate":1790544463000,"idp_ingestdate":1790544532000,"binnumber":"AT1"}},{"type":"Feature","id":8660,"geometry":{"type":"Point","coordinates":[-32.799999999999898,34.20000000010009]},"properties":{"objectid":8660,"stormname":"FAY","stormtype":"TS","stormnum":6,"intensity":55,"basin":"al","mslp":999,"dtg":2026092018,"year":2026,"month":"09","day":20,"hhmm":"1800","lat":34,"lon":-33,"ss":0,"idp_source":"AL062026_pts","idp_filedate":1790544463000,"idp_ingestdate":1790544532000,"binnumber":"AT1"}},{"type":"Feature","id":8661,"geometry":{"type":"Point","coordinates":[-32.099999999600186,34.20000000010009]},"properties":{"objectid":8661,"stormname":"FAY","stormtype":"TS","stormnum":6,"intensity":60,"basin":"al","mslp":995,"dtg":2026092100,"year":2026,"month":"09","day":21,"hhmm":"0000","lat":34,"lon":-32,"ss":0,"idp_source":"AL062026_pts","idp_filedate":1790544463000,"idp_ingestdate":1790544532000,"binnumber":"AT1"}},{"type":"Feature","id":8662,"geometry":{"type":"Point","coordinates":[-31.999999999800025,33.999999999600448]},"properties":{"objectid":8662,"stormname":"FAY","stormtype":"TS","stormnum":6,"intensity":55,"basin":"al","mslp":997,"dtg":2026092106,"year":2026,"month":"09","day":21,"hhmm":"0600","lat":34,"lon":-32,"ss":0,"idp_source":"AL062026_pts","idp_filedate":1790544463000,"idp_ingestdate":1790544532000,"binnumber":"AT1"}},{"type":"Feature","id":8663,"geometry":{"type":"Point","coordinates":[-31.899999999999864,33.499999999700378]},"properties":{"objectid":8663,"stormname":"FAY","stormtype":"TS","stormnum":6,"intensity":45,"basin":"al","mslp":1000,"dtg":2026092112,"year":2026,"month":"09","day":21,"hhmm":"1200","lat":34,"lon":-32,"ss":0,"idp_source":"AL062026_pts","idp_filedate":1790544463000,"idp_ingestdate":1790544532000,"binnumber":"AT1"}},{"type":"Feature","id":8664,"geometry":{"type":"Point","coordinates":[-32.099999999600186,33.300000000100056]},"properties":{"objectid":8664,"stormname":"FAY","stormtype":"TS","stormnum":6,"intensity":40,"basin":"al","mslp":1004,"dtg":2026092118,"year":2026,"month":"09","day":21,"hhmm":"1800","lat":33,"lon":-32,"ss":0,"idp_source":"AL062026_pts","idp_filedate":1790544463000,"idp_ingestdate":1790544532000,"binnumber":"AT1"}},{"type":"Feature","id":8665,"geometry":{"type":"Point","coordinates":[-32.700000000199736,32.599999999700344]},"properties":{"objectid":8665,"stormname":"FAY","stormtype":"TS","stormnum":6,"intensity":35,"basin":"al","mslp":1008,"dtg":2026092200,"year":2026,"month":"09","day":22,"hhmm":"0000","lat":33,"lon":-33,"ss":0,"idp_source":"AL062026_pts","idp_filedate":1790544463000,"idp_ingestdate":1790544532000,"binnumber":"AT1"}},{"type":"Feature","id":8666,"geometry":{"type":"Point","coordinates":[-33.399999999700128,32.099999999800275]},"properties":{"objectid":8666,"stormname":"FAY","stormtype":"TS","stormnum":6,"intensity":35,"basin":"al","mslp":1009,"dtg":2026092206,"year":2026,"month":"09","day":22,"hhmm":"0600","lat":32,"lon":-33,"ss":0,"idp_source":"AL062026_pts","idp_filedate":1790544463000,"idp_ingestdate":1790544532000,"binnumber":"AT1"}},{"type":"Feature","id":8667,"geometry":{"type":"Point","coordinates":[-34.100000000099783,31.40000000029994]},"properties":{"objectid":8667,"stormname":"FAY","stormtype":"TD","stormnum":6,"intensity":30,"basin":"al","mslp":1010,"dtg":2026092212,"year":2026,"month":"09","day":22,"hhmm":"1200","lat":31,"lon":-34,"ss":0,"idp_source":"AL062026_pts","idp_filedate":1790544463000,"idp_ingestdate":1790544532000,"binnumber":"AT1"}},{"type":"Feature","id":8668,"geometry":{"type":"Point","coordinates":[-34.799999999600175,31.000000000199975]},"properties":{"objectid":8668,"stormname":"FAY","stormtype":"TD","stormnum":6,"intensity":30,"basin":"al","mslp":1010,"dtg":2026092218,"year":2026,"month":"09","day":22,"hhmm":"1800","lat":31,"lon":-35,"ss":0,"idp_source":"AL062026_pts","idp_filedate":1790544463000,"idp_ingestdate":1790544532000,"binnumber":"AT1"}},{"type":"Feature","id":8669,"geometry":{"type":"Point","coordinates":[-35.699999999600152,30.600000000100067]},"properties":{"objectid":8669,"stormname":"FAY","stormtype":"LO","stormnum":6,"intensity":30,"basin":"al","mslp":1011,"dtg":2026092300,"year":2026,"month":"09","day":23,"hhmm":"0000","lat":31,"lon":-36,"ss":0,"idp_source":"AL062026_pts","idp_filedate":1790544463000,"idp_ingestdate":1790544532000,"binnumber":"AT1"}},{"type":"Feature","id":8670,"geometry":{"type":"Point","coordinates":[-36.999999999700094,30.399999999600425]},"properties":{"objectid":8670,"stormname":"FAY","stormtype":"LO","stormnum":6,"intensity":30,"basin":"al","mslp":1011,"dtg":2026092306,"year":2026,"month":"09","day":23,"hhmm":"0600","lat":30,"lon":-37,"ss":0,"idp_source":"AL062026_pts","idp_filedate":1790544463000,"idp_ingestdate":1790544532000,"binnumber":"AT1"}},{"type":"Feature","id":8671,"geometry":{"type":"Point","coordinates":[-37.899999999700128,30.29999999980032]},"properties":{"objectid":8671,"stormname":"FAY","stormtype":"LO","stormnum":6,"intensity":30,"basin":"al","mslp":1011,"dtg":2026092312,"year":2026,"month":"09","day":23,"hhmm":"1200","lat":30,"lon":-38,"ss":0,"idp_source":"AL062026_pts","idp_filedate":1790544463000,"idp_ingestdate":1790544532000,"binnumber":"AT1"}},{"type":"Feature","id":8672,"geometry":{"type":"Point","coordinates":[-38.799999999700105,30.100000000199998]},"properties":{"objectid":8672,"stormname":"FAY","stormtype":"TD","stormnum":6,"intensity":30,"basin":"al","mslp":1011,"dtg":2026092318,"year":2026,"month":"09","day":23,"hhmm":"1800","lat":30,"lon":-39,"ss":0,"idp_source":"AL062026_pts","idp_filedate":1790544463000,"idp_ingestdate":1790544532000,"binnumber":"AT1"}},{"type":"Feature","id":8673,"geometry":{"type":"Point","coordinates":[-39.599999999899978,29.799999999900194]},"properties":{"objectid":8673,"stormname":"FAY","stormtype":"TS","stormnum":6,"intensity":35,"basin":"al","mslp":1010,"dtg":2026092400,"year":2026,"month":"09","day":24,"hhmm":"0000","lat":30,"lon":-40,"ss":0,"idp_source":"AL062026_pts","idp_filedate":1790544463000,"idp_ingestdate":1790544532000,"binnumber":"AT1"}},{"type":"Feature","id":8674,"geometry":{"type":"Point","coordinates":[-40.199999999600209,29.899999999700356]},"properties":{"objectid":8674,"stormname":"FAY","stormtype":"TS","stormnum":6,"intensity":35,"basin":"al","mslp":1010,"dtg":2026092406,"year":2026,"month":"09","day":24,"hhmm":"0600","lat":30,"lon":-40,"ss":0,"idp_source":"AL062026_pts","idp_filedate":1790544463000,"idp_ingestdate":1790544532000,"binnumber":"AT1"}},{"type":"Feature","id":8675,"geometry":{"type":"Point","coordinates":[-40.599999999700117,29.899999999700356]},"properties":{"objectid":8675,"stormname":"FAY","stormtype":"TS","stormnum":6,"intensity":45,"basin":"al","mslp":1005,"dtg":2026092412,"year":2026,"month":"09","day":24,"hhmm":"1200","lat":30,"lon":-41,"ss":0,"idp_source":"AL062026_pts","idp_filedate":1790544463000,"idp_ingestdate":1790544532000,"binnumber":"AT1"}},{"type":"Feature","id":8676,"geometry":{"type":"Point","coordinates":[-41.099999999600186,30.000000000399837]},"properties":{"objectid":8676,"stormname":"FAY","stormtype":"TS","stormnum":6,"intensity":45,"basin":"al","mslp":1005,"dtg":2026092418,"year":2026,"month":"09","day":24,"hhmm":"1800","lat":30,"lon":-41,"ss":0,"idp_source":"AL062026_pts","idp_filedate":1790544463000,"idp_ingestdate":1790544532000,"binnumber":"AT1"}},{"type":"Feature","id":8677,"geometry":{"type":"Point","coordinates":[-41.499999999700094,30.100000000199998]},"properties":{"objectid":8677,"stormname":"FAY","stormtype":"TS","stormnum":6,"intensity":45,"basin":"al","mslp":1005,"dtg":2026092500,"year":2026,"month":"09","day":25,"hhmm":"0000","lat":30,"lon":-42,"ss":0,"idp_source":"AL062026_pts","idp_filedate":1790544463000,"idp_ingestdate":1790544532000,"binnumber":"AT1"}},{"type":"Feature","id":8678,"geometry":{"type":"Point","coordinates":[-41.899999999800059,30.100000000199998]},"properties":{"objectid":8678,"stormname":"FAY","stormtype":"TS","stormnum":6,"intensity":45,"basin":"al","mslp":1004,"dtg":2026092506,"year":2026,"month":"09","day":25,"hhmm":"0600","lat":30,"lon":-42,"ss":0,"idp_source":"AL062026_pts","idp_filedate":1790544463000,"idp_ingestdate":1790544532000,"binnumber":"AT1"}},{"type":"Feature","id":8679,"geometry":{"type":"Point","coordinates":[-42.299999999899967,30.100000000199998]},"properties":{"objectid":8679,"stormname":"FAY","stormtype":"TS","stormnum":6,"intensity":50,"basin":"al","mslp":1002,"dtg":2026092512,"year":2026,"month":"09","day":25,"hhmm":"1200","lat":30,"lon":-42,"ss":0,"idp_source":"AL062026_pts","idp_filedate":1790544463000,"idp_ingestdate":1790544532000,"binnumber":"AT1"}},{"type":"Feature","id":8680,"geometry":{"type":"Point","coordinates":[-42.799999999800036,29.799999999900194]},"properties":{"objectid":8680,"stormname":"FAY","stormtype":"TS","stormnum":6,"intensity":45,"basin":"al","mslp":1004,"dtg":2026092518,"year":2026,"month":"09","day":25,"hhmm":"1800","lat":30,"lon":-43,"ss":0,"idp_source":"AL062026_pts","idp_filedate":1790544463000,"idp_ingestdate":1790544532000,"binnumber":"AT1"}},{"type":"Feature","id":8681,"geometry":{"type":"Point","coordinates":[-43.100000000099783,30.000000000399837]},"properties":{"objectid":8681,"stormname":"FAY","stormtype":"TS","stormnum":6,"intensity":35,"basin":"al","mslp":1006,"dtg":2026092600,"year":2026,"month":"09","day":26,"hhmm":"0000","lat":30,"lon":-43,"ss":0,"idp_source":"AL062026_pts","idp_filedate":1790544463000,"idp_ingestdate":1790544532000,"binnumber":"AT1"}},{"type":"Feature","id":8682,"geometry":{"type":"Point","coordinates":[-43.500000000199748,30.000000000399837]},"properties":{"objectid":8682,"stormname":"FAY","stormtype":"TD","stormnum":6,"intensity":30,"basin":"al","mslp":1009,"dtg":2026092606,"year":2026,"month":"09","day":26,"hhmm":"0600","lat":30,"lon":-44,"ss":0,"idp_source":"AL062026_pts","idp_filedate":1790544463000,"idp_ingestdate":1790544532000,"binnumber":"AT1"}},{"type":"Feature","id":8683,"geometry":{"type":"Point","coordinates":[-43.699999999800013,30.000000000399837]},"properties":{"objectid":8683,"stormname":"FAY","stormtype":"TD","stormnum":6,"intensity":30,"basin":"al","mslp":1009,"dtg":2026092612,"year":2026,"month":"09","day":26,"hhmm":"1200","lat":30,"lon":-44,"ss":0,"idp_source":"AL062026_pts","idp_filedate":1790544463000,"idp_ingestdate":1790544532000,"binnumber":"AT1"}},{"type":"Feature","id":8684,"geometry":{"type":"Point","coordinates":[-43.900000000299656,29.899999999700356]},"properties":{"objectid":8684,"stormname":"FAY","stormtype":"TD","stormnum":6,"intensity":30,"basin":"al","mslp":1009,"dtg":2026092618,"year":2026,"month":"09","day":26,"hhmm":"1800","lat":30,"lon":-44,"ss":0,"idp_source":"AL062026_pts","idp_filedate":1790544463000,"idp_ingestdate":1790544532000,"binnumber":"AT1"}},{"type":"Feature","id":8685,"geometry":{"type":"Point","coordinates":[-43.900000000299656,29.799999999900194]},"properties":{"objectid":8685,"stormname":"FAY","stormtype":"TD","stormnum":6,"intensity":30,"basin":"al","mslp":1010,"dtg":2026092700,"year":2026,"month":"09","day":27,"hhmm":"0000","lat":30,"lon":-44,"ss":0,"idp_source":"AL062026_pts","idp_filedate":1790544463000,"idp_ingestdate":1790544532000,"binnumber":"AT1"}},{"type":"Feature","id":8686,"geometry":{"type":"Point","coordinates":[-43.900000000299656,29.70000000010009]},"properties":{"objectid":8686,"stormname":"FAY","stormtype":"TD","stormnum":6,"intensity":30,"basin":"al","mslp":1010,"dtg":2026092706,"year":2026,"month":"09","day":27,"hhmm":"0600","lat":30,"lon":-44,"ss":0,"idp_source":"AL062026_pts","idp_filedate":1790544463000,"idp_ingestdate":1790544532000,"binnumber":"AT1"}},{"type":"Feature","id":8687,"geometry":{"type":"Point","coordinates":[-43.900000000299656,29.499999999600448]},"properties":{"objectid":8687,"stormname":"FAY","stormtype":"TD","stormnum":6,"intensity":30,"basin":"al","mslp":1010,"dtg":2026092712,"year":2026,"month":"09","day":27,"hhmm":"1200","lat":30,"lon":-44,"ss":0,"idp_source":"AL062026_pts","idp_filedate":1790544463000,"idp_ingestdate":1790544532000,"binnumber":"AT1"}},{"type":"Feature","id":8688,"geometry":{"type":"Point","coordinates":[-43.900000000299656,29.100000000399859]},"properties":{"objectid":8688,"stormname":"FAY","stormtype":"TD","stormnum":6,"intensity":30,"basin":"al","mslp":1011,"dtg":2026092718,"year":2026,"month":"09","day":27,"hhmm":"1800","lat":29,"lon":-44,"ss":0,"idp_source":"AL062026_pts","idp_filedate":1790544463000,"idp_ingestdate":1790544532000,"binnumber":"AT1"}}]}