{"type":"FeatureCollection","features":[{"type":"Feature","id":163,"geometry":{"type":"LineString","coordinates":[[-24.870000000199752,14.850000000100067],[-23.589999999700126,15.099999999600414],[-22.97000000039958,15.309999999900242]]},"properties":{"objectid":163,"stormname":"Gonzalo","stormtype":"TS","basin":"AL","advdate":"500 PM CVT Fri Sep 25 2026","advisnum":"3A","fcstprd":120,"stormnum":7,"tcww":"TWR","idp_source":"al072026-003A_ww_wwlin","idp_filedate":1790359359000,"idp_ingestdate":1790359411000,"st_length(shape)":1.9587846834084774,"binnumber":"AT2"}},{"type":"Feature","id":164,"geometry":{"type":"LineString","coordinates":[[-25.410000000199716,17.220000000399864],[-24.110000000099774,16.479999999900201],[-22.570000000299672,15.999999999600448],[-23.03000000009979,16.97999999980027]]},"properties":{"objectid":164,"stormname":"Gonzalo","stormtype":"TS","basin":"AL","advdate":"500 PM CVT Fri Sep 25 2026","advisnum":"3A","fcstprd":120,"stormnum":7,"tcww":"TWR","idp_source":"al072026-003A_ww_wwlin","idp_filedate":1790359359000,"idp_ingestdate":1790359411000,"st_length(shape)":4.1915220487658473,"binnumber":"AT2"}}]}