{"type":"FeatureCollection","features":[{"type":"Feature","id":4827,"geometry":{"type":"Point","coordinates":[-13.499999999899956,8.0000000002999059]},"properties":{"objectid":4827,"stormname":"GENESIS018","stormtype":"DB","stormnum":7,"intensity":15,"basin":"al","mslp":0,"dtg":2026092218,"year":2026,"month":"09","day":22,"hhmm":"1800","lat":8,"lon":-14,"ss":0,"idp_source":"AL072026_pts","idp_filedate":1790391751000,"idp_ingestdate":1790391856000,"binnumber":"AT2"}},{"type":"Feature","id":4828,"geometry":{"type":"Point","coordinates":[-13.999999999800025,8.0000000002999059]},"properties":{"objectid":4828,"stormname":"GENESIS018","stormtype":"DB","stormnum":7,"intensity":15,"basin":"al","mslp":0,"dtg":2026092300,"year":2026,"month":"09","day":23,"hhmm":"0000","lat":8,"lon":-14,"ss":0,"idp_source":"AL072026_pts","idp_filedate":1790391751000,"idp_ingestdate":1790391856000,"binnumber":"AT2"}},{"type":"Feature","id":4829,"geometry":{"type":"Point","coordinates":[-15.500000000399552,8.5000000001999751]},"properties":{"objectid":4829,"stormname":"GENESIS018","stormtype":"DB","stormnum":7,"intensity":15,"basin":"al","mslp":0,"dtg":2026092306,"year":2026,"month":"09","day":23,"hhmm":"0600","lat":8,"lon":-16,"ss":0,"idp_source":"AL072026_pts","idp_filedate":1790391751000,"idp_ingestdate":1790391856000,"binnumber":"AT2"}},{"type":"Feature","id":4830,"geometry":{"type":"Point","coordinates":[-16.500000000199748,9.300000000399848]},"properties":{"objectid":4830,"stormname":"INVEST","stormtype":"DB","stormnum":7,"intensity":25,"basin":"al","mslp":1009,"dtg":2026092312,"year":2026,"month":"09","day":23,"hhmm":"1200","lat":9,"lon":-16,"ss":0,"idp_source":"AL072026_pts","idp_filedate":1790391751000,"idp_ingestdate":1790391856000,"binnumber":"AT2"}},{"type":"Feature","id":4831,"geometry":{"type":"Point","coordinates":[-17.199999999700083,9.9999999999002398]},"properties":{"objectid":4831,"stormname":"INVEST","stormtype":"DB","stormnum":7,"intensity":25,"basin":"al","mslp":1008,"dtg":2026092318,"year":2026,"month":"09","day":23,"hhmm":"1800","lat":10,"lon":-17,"ss":0,"idp_source":"AL072026_pts","idp_filedate":1790391751000,"idp_ingestdate":1790391856000,"binnumber":"AT2"}},{"type":"Feature","id":4832,"geometry":{"type":"Point","coordinates":[-18.999999999700094,10.999999999700378]},"properties":{"objectid":4832,"stormname":"INVEST","stormtype":"DB","stormnum":7,"intensity":25,"basin":"al","mslp":1008,"dtg":2026092400,"year":2026,"month":"09","day":24,"hhmm":"0000","lat":11,"lon":-19,"ss":0,"idp_source":"AL072026_pts","idp_filedate":1790391751000,"idp_ingestdate":1790391856000,"binnumber":"AT2"}},{"type":"Feature","id":4833,"geometry":{"type":"Point","coordinates":[-20.199999999999875,11.499999999600448]},"properties":{"objectid":4833,"stormname":"INVEST","stormtype":"DB","stormnum":7,"intensity":25,"basin":"al","mslp":1007,"dtg":2026092406,"year":2026,"month":"09","day":24,"hhmm":"0600","lat":12,"lon":-20,"ss":0,"idp_source":"AL072026_pts","idp_filedate":1790391751000,"idp_ingestdate":1790391856000,"binnumber":"AT2"}},{"type":"Feature","id":4834,"geometry":{"type":"Point","coordinates":[-20.799999999700105,11.899999999700356]},"properties":{"objectid":4834,"stormname":"INVEST","stormtype":"DB","stormnum":7,"intensity":25,"basin":"al","mslp":1007,"dtg":2026092412,"year":2026,"month":"09","day":24,"hhmm":"1200","lat":12,"lon":-21,"ss":0,"idp_source":"AL072026_pts","idp_filedate":1790391751000,"idp_ingestdate":1790391856000,"binnumber":"AT2"}},{"type":"Feature","id":4835,"geometry":{"type":"Point","coordinates":[-21.400000000299656,12.399999999600425]},"properties":{"objectid":4835,"stormname":"INVEST","stormtype":"DB","stormnum":7,"intensity":30,"basin":"al","mslp":1007,"dtg":2026092418,"year":2026,"month":"09","day":24,"hhmm":"1800","lat":12,"lon":-21,"ss":0,"idp_source":"AL072026_pts","idp_filedate":1790391751000,"idp_ingestdate":1790391856000,"binnumber":"AT2"}},{"type":"Feature","id":4836,"geometry":{"type":"Point","coordinates":[-21.999999999999886,12.900000000399814]},"properties":{"objectid":4836,"stormname":"GONZALO","stormtype":"TS","stormnum":7,"intensity":40,"basin":"al","mslp":1004,"dtg":2026092500,"year":2026,"month":"09","day":25,"hhmm":"0000","lat":13,"lon":-22,"ss":0,"idp_source":"AL072026_pts","idp_filedate":1790391751000,"idp_ingestdate":1790391856000,"binnumber":"AT2"}},{"type":"Feature","id":4837,"geometry":{"type":"Point","coordinates":[-22.300000000299633,13.699999999700367]},"properties":{"objectid":4837,"stormname":"GONZALO","stormtype":"TS","stormnum":7,"intensity":40,"basin":"al","mslp":1004,"dtg":2026092506,"year":2026,"month":"09","day":25,"hhmm":"0600","lat":14,"lon":-22,"ss":0,"idp_source":"AL072026_pts","idp_filedate":1790391751000,"idp_ingestdate":1790391856000,"binnumber":"AT2"}},{"type":"Feature","id":4838,"geometry":{"type":"Point","coordinates":[-22.499999999899956,14.599999999700344]},"properties":{"objectid":4838,"stormname":"GONZALO","stormtype":"TS","stormnum":7,"intensity":45,"basin":"al","mslp":1000,"dtg":2026092512,"year":2026,"month":"09","day":25,"hhmm":"1200","lat":15,"lon":-22,"ss":0,"idp_source":"AL072026_pts","idp_filedate":1790391751000,"idp_ingestdate":1790391856000,"binnumber":"AT2"}},{"type":"Feature","id":4839,"geometry":{"type":"Point","coordinates":[-22.599999999700117,15.700000000199964]},"properties":{"objectid":4839,"stormname":"GONZALO","stormtype":"TS","stormnum":7,"intensity":45,"basin":"al","mslp":1000,"dtg":2026092518,"year":2026,"month":"09","day":25,"hhmm":"1800","lat":16,"lon":-23,"ss":0,"idp_source":"AL072026_pts","idp_filedate":1790391751000,"idp_ingestdate":1790391856000,"binnumber":"AT2"}},{"type":"Feature","id":4840,"geometry":{"type":"Point","coordinates":[-22.499999999899956,16.500000000399837]},"properties":{"objectid":4840,"stormname":"GONZALO","stormtype":"TS","stormnum":7,"intensity":40,"basin":"al","mslp":1002,"dtg":2026092600,"year":2026,"month":"09","day":26,"hhmm":"0000","lat":16,"lon":-22,"ss":0,"idp_source":"AL072026_pts","idp_filedate":1790391751000,"idp_ingestdate":1790391856000,"binnumber":"AT2"}}]}