{"type":"FeatureCollection","features":[{"type":"Feature","id":161,"geometry":{"type":"Polygon","coordinates":[[[-22.780759999674103,15.949060000418797],[-22.761990000138269,15.946110000176532],[-22.741400000309625,15.944389999998634],[-22.719079999841995,15.943569999955685],[-22.695749999562679,15.943569999955685],[-22.684080000091797,15.944080000092072],[-22.648570000205211,15.946110000176532],[-22.626149999622669,15.949060000418797],[-22.605160000233695,15.95342999959496],[-22.585569999755535,15.959220000402809],[-22.567520000147738,15.966539999821293],[-22.550879999911956,15.975279999972145],[-22.535360000063804,15.98513999961142],[-22.520850000027338,15.996009999961643],[-22.507360000263702,16.007899999685378],[-22.488489999713579,16.027109999726861],[-22.477130000149259,16.041129999649911],[-22.462109999976406,16.064199999630432],[-22.453389999848469,16.080859999889242],[-22.446079999991866,16.098950000442301],[-22.440299999645163,16.118560000044113],[-22.435940000030826,16.139599999940174],[-22.433000000249706,16.162059999669395],[-22.431269999610663,16.185739999901216],[-22.430359999913946,16.210229999714841],[-22.429949999892472,16.235229999664909],[-22.429849999777559,16.260529999959658],[-22.429849999777559,16.285939999931202],[-22.429849999777559,16.311340000340863],[-22.429849999777559,16.336750000312406],[-22.429849999777559,16.362149999822748],[-22.429849999777559,16.387559999794291],[-22.429849999777559,16.412960000204009],[-22.429849999777559,16.438370000175496],[-22.429849999777559,16.46378000014704],[-22.429849999777559,16.489179999657381],[-22.429849999777559,16.514580000067099],[-22.429849999777559,16.539990000038586],[-22.429849999777559,16.565400000010129],[-22.429849999777559,16.590800000419847],[-22.429849999777559,16.616210000391334],[-22.429849999777559,16.641609999901732],[-22.429849999777559,16.667019999873219],[-22.429849999777559,16.692420000282937],[-22.429849999777559,16.705119999588476],[-22.429849999777559,16.743229999764822],[-22.429849999777559,16.768639999736365],[-22.429849999777559,16.794040000146026],[-22.429849999777559,16.81945000011757],[-22.429849999777559,16.844849999627911],[-22.429849999777559,16.870259999599455],[-22.429849999777559,16.895660000009116],[-22.429849999777559,16.921069999980659],[-22.429849999777559,16.946479999952203],[-22.429849999777559,16.971880000361864],[-22.429849999777559,16.997290000333408],[-22.429849999777559,17.022689999843749],[-22.429849999777559,17.048099999815292],[-22.429849999777559,17.073500000224954],[-22.429849999777559,17.098910000196497],[-22.429849999777559,17.124309999706838],[-22.429849999777559,17.149719999678382],[-22.429949999892472,17.175019999973188],[-22.430359999913946,17.2000199999232],[-22.431269999610663,17.224509999736824],[-22.432900000134794,17.248290000083557],[-22.43442000008281,17.2594700003404],[-22.43877999969709,17.29321000044132],[-22.44252999995939,17.314850000127535],[-22.446289999783517,17.336500000274953],[-22.449630000024342,17.358549999982642],[-22.452170000245189,17.381419999733339],[-22.453790000308118,17.405189999618926],[-22.454709999566717,17.429689999893696],[-22.455110000026366,17.454689999843765],[-22.455210000141278,17.479990000138514],[-22.455210000141278,17.505389999648912],[-22.455210000141278,17.530799999620399],[-22.455310000256191,17.556099999915205],[-22.455720000277665,17.581099999865216],[-22.456629999974382,17.605589999678898],[-22.458259999599193,17.629370000025631],[-22.460790000258157,17.652239999776327],[-22.464140000060809,17.674290000383337],[-22.467890000323109,17.695930000069609],[-22.471650000147235,17.717580000216969],[-22.474999999949887,17.739629999924716],[-22.476009999761573,17.751320000317889],[-22.479149999772574,17.786269999560943],[-22.480069999930436,17.81076999983577],[-22.480470000390085,17.835769999785782],[-22.480680000181735,17.860969999965675],[-22.481079999742065,17.885969999915687],[-22.481999999899926,17.910459999729369],[-22.483619999962912,17.934240000076102],[-22.485139999910928,17.945420000332888],[-22.489500000424528,17.979149999972662],[-22.493260000248711,18.000800000120023],[-22.497009999611691,18.02245000026744],[-22.500360000313663,18.04449999997513],[-22.502999999750045,18.067260000049089],[-22.50502000027268,18.090630000374347],[-22.506850000127258,18.114209999591935],[-22.507969999615682,18.125790000308427],[-22.511519999648158,18.160339999991152],[-22.514870000350129,18.182400000160044],[-22.51861999971311,18.204039999846259],[-22.52236999997541,18.225689999993619],[-22.525719999778062,18.247739999701366],[-22.528360000113764,18.270499999775325],[-22.530390000198224,18.293879999662408],[-22.532209999591657,18.317450000217491],[-22.534239999676117,18.340830000104575],[-22.536880000011877,18.363590000178533],[-22.540229999814528,18.385639999886223],[-22.543980000076829,18.407279999572438],[-22.547730000339129,18.428929999719855],[-22.551180000256693,18.450880000211953],[-22.554120000037869,18.473339999941174],[-22.55666000025866,18.496200000130045],[-22.559199999580187,18.519069999880742],[-22.560819999643115,18.53013999956147],[-22.565590000178247,18.563480000102061],[-22.569340000440548,18.585119999788276],[-22.573100000264674,18.606769999935693],[-22.57643999960618,18.628819999643383],[-22.579079999941939,18.651579999717342],[-22.581110000026342,18.674959999604425],[-22.582939999880978,18.698530000159508],[-22.584969999965381,18.721910000046591],[-22.586489999913454,18.733090000303434],[-22.590949999642646,18.766719999828297],[-22.594710000366092,18.788360000413832],[-22.598459999729073,18.810009999661872],[-22.601810000431044,18.832060000268939],[-22.604340000190746,18.854930000019635],[-22.604950000442045,18.867019999973138],[-22.606880000411536,18.903200000179993],[-22.607279999971922,18.928200000130062],[-22.607489999763573,18.953400000309898],[-22.607890000223222,18.978400000259967],[-22.608810000381084,19.002890000073592],[-22.610430000444012,19.026670000420324],[-22.612960000203714,19.049529999709875],[-22.616310000006365,19.071580000316885],[-22.620069999830491,19.093229999564983],[-22.623820000092792,19.114879999712343],[-22.627169999895443,19.13693000031941],[-22.62971000011629,19.159789999608961],[-22.631330000179219,19.183569999955694],[-22.632239999875992,19.208059999769318],[-22.632649999897467,19.23305999971933],[-22.632750000012379,19.258369999575962],[-22.632750000012379,19.283769999985623],[-22.632750000012379,19.309179999957166],[-22.632750000012379,19.334580000366884],[-22.632750000012379,19.359990000338371],[-22.632750000012379,19.385389999848769],[-22.632750000012379,19.410799999820256],[-22.632750000012379,19.436200000229974],[-22.632750000012379,19.46161000020146],[-22.632750000012379,19.487009999711859],[-22.632640000335641,19.51231999956849],[-22.632239999875992,19.537320000417822],[-22.631319999718073,19.561810000231446],[-22.629699999655145,19.585589999678859],[-22.627169999895443,19.60844999986773],[-22.623820000092792,19.630499999575477],[-22.620069999830491,19.652149999722837],[-22.616310000006365,19.673790000308429],[-22.612969999765539,19.695849999577945],[-22.610430000444012,19.718709999766816],[-22.608909999596676,19.742389999998636],[-22.608400000359609,19.766469999790786],[-22.608909999596676,19.790560000044081],[-22.610430000444012,19.814240000275959],[-22.612960000203714,19.837099999565453],[-22.616310000006365,19.859150000172519],[-22.620069999830491,19.88080000031988],[-22.623820000092792,19.902440000006152],[-22.627169999895443,19.924500000174987],[-22.62971000011629,19.947360000363858],[-22.631330000179219,19.971139999811271],[-22.632239999875992,19.995629999624896],[-22.632750000012379,20.020530000359372],[-22.633249999687621,20.045430000194472],[-22.634169999845483,20.069920000008153],[-22.635789999908468,20.093689999893741],[-22.637309999856484,20.104870000150527],[-22.641670000370084,20.138610000251447],[-22.64543000019421,20.160260000398864],[-22.649279999672103,20.181799999970167],[-22.653040000395549,20.203439999656382],[-22.656490000313113,20.225399999710362],[-22.659730000439026,20.247550000432341],[-22.66318000035659,20.269500000025118],[-22.666929999719571,20.291150000172536],[-22.670889999773522,20.312589999628926],[-22.675050000057354,20.333829999754812],[-22.679309999556722,20.35496000020396],[-22.683469999840497,20.376200000329902],[-22.687730000239185,20.397340000340876],[-22.692399999760028,20.418070000330374],[-22.697469999740576,20.438399999860223],[-22.702949999742543,20.458309999806772],[-22.706089999753544,20.467860000438804],[-22.715230000364102,20.49683000000465],[-22.72151999994793,20.515930000369337],[-22.727799999969875,20.535040000295908],[-22.734200000129761,20.55403999964642],[-22.740589999828501,20.573039999896196],[-22.746880000311648,20.592149999822766],[-22.753169999895476,20.611250000187511],[-22.75955999959416,20.630259999999168],[-22.769090000203221,20.658809999981656],[-22.772239999776048,20.668370000175514],[-22.778530000259195,20.687469999640939],[-22.784919999957879,20.706469999890714],[-22.788070000430025,20.716019999623427],[-22.794460000128765,20.735030000334405],[-22.800749999712593,20.754129999799773],[-22.810180000206742,20.782790000358375],[-22.813019999872949,20.79264999999765],[-22.821639999885974,20.822120000138057],[-22.826720000327612,20.84244000010608],[-22.831389999848511,20.863170000095579],[-22.835650000247199,20.884310000106552],[-22.839699999954917,20.905450000117526],[-22.843559999893955,20.926180000107081],[-22.846800000019869,20.946500000075105],[-22.848930000219184,20.966320000367887],[-22.849340000240716,20.985419999833255],[-22.848529999759535,20.995280000371849],[-22.84376000012378,21.022310000406321],[-22.841019999673108,21.031659999909209],[-22.830779999597155,21.057479999902228],[-22.822860000388573,21.074750000412337],[-22.81880000021971,21.083390000448276],[-22.80601999992291,21.108689999843762],[-22.797600000139767,21.125660000009134],[-22.789180000356623,21.142630000174506],[-22.784919999957879,21.151069999980677],[-22.768279999722097,21.185209999641927],[-22.760169999845516,21.202489999713862],[-22.748599999590169,21.229009999611947],[-22.741500000424537,21.24730000039483],[-22.73459999969009,21.265800000070101],[-22.727909999646613,21.284499999975139],[-22.72151999994793,21.303500000224972],[-22.715230000364102,21.322599999690397],[-22.708830000204216,21.341610000401317],[-22.699299999595155,21.370160000383862],[-22.696150000022385,21.379710000116575],[-22.693010000011384,21.389270000310432],[-22.686720000427556,21.4083699997758],[-22.677490000163232,21.437229999664908],[-22.671709999816528,21.456849999727865],[-22.666129999699592,21.476659999559445],[-22.660749999812538,21.496680000082051],[-22.655570000155251,21.516899999935163],[-22.650600000289671,21.537329999579981],[-22.645940000330597,21.55805999956948],[-22.64167999993191,21.579199999580453],[-22.637819999992871,21.600740000051076],[-22.634370000075307,21.62268999964391],[-22.631120000387568,21.644840000365889],[-22.62768000003183,21.666789999958667],[-22.623920000207704,21.688440000106084],[-22.620069999830491,21.709979999677387],[-22.616310000006365,21.731629999824747],[-22.612969999765539,21.753680000431814],[-22.610430000444012,21.77655000018251],[-22.608810000381084,21.800329999629923],[-22.607890000223222,21.824820000342868],[-22.607489999763573,21.849820000292937],[-22.60738999964866,21.875119999688366],[-22.60738999964866,21.900529999659909],[-22.60738999964866,21.92593000006957],[-22.60738999964866,21.951340000041114],[-22.60738999964866,21.976739999551455],[-22.60738999964866,22.002150000422318],[-22.60738999964866,22.027549999932717],[-22.60738999964866,22.052959999904203],[-22.60738999964866,22.078360000313921],[-22.60738999964866,22.103770000285408],[-22.60738999964866,22.129180000256952],[-22.60738999964866,22.154579999767293],[-22.60738999964866,22.179989999738837],[-22.607489999763573,22.205290000033642],[-22.607890000223222,22.230289999983654],[-22.608810000381084,22.254779999797279],[-22.610430000444012,22.278549999682866],[-22.612960000203714,22.301420000332882],[-22.616310000006365,22.323470000040629],[-22.620169999945404,22.345020000073077],[-22.624330000229179,22.366260000198963],[-22.628589999728604,22.387389999748848],[-22.632750000012379,22.408629999874734],[-22.636910000296155,22.429870000000619],[-22.641269999910435,22.450909999896737],[-22.645840000215685,22.471740000001148],[-22.648269999860474,22.482000000100072],[-22.655570000155251,22.51278999995867],[-22.660749999812538,22.533020000272927],[-22.666120000137767,22.553039999896214],[-22.671700000254702,22.57284999972785],[-22.677490000163232,22.592469999790808],[-22.683569999955409,22.611770000385377],[-22.686720000427556,22.621329999679858],[-22.693010000011384,22.640430000044603],[-22.702439999606156,22.669089999703885],[-22.708830000204216,22.688089999953661],[-22.711979999777043,22.697650000147519],[-22.718370000375103,22.716650000397351],[-22.727909999646613,22.745200000379839],[-22.73459999969009,22.763900000284934],[-22.741500000424537,22.782399999960148],[-22.745149999672606,22.791439999556474],[-22.75255999964412,22.80942999999462],[-22.760269999960428,22.827109999626941],[-22.768279999722097,22.844489999813788],[-22.776600000289648,22.861560000094073],[-22.789180000356623,22.887070000180529],[-22.793339999741079,22.89559999964041],[-22.80601999992291,22.921009999611954],[-22.818809999781536,22.946309999906703],[-22.822959999604166,22.954849999827786],[-22.827220000002853,22.963280000072075],[-22.839900000184741,22.988690000043619],[-22.848319999967885,23.005660000208991],[-22.85675000021223,23.022630000374363],[-22.86110999982651,23.03095999960442],[-22.869729999839478,23.047730000439287],[-22.883020000272666,23.072530000159531],[-22.897120000287657,23.096509999836769],[-22.906859999789049,23.11216000028395],[-22.906959999903961,23.112060000169038],[-22.916899999635177,23.127499999925192],[-22.932019999922943,23.150469999790801],[-22.937089999903435,23.158089999553965],[-22.947240000325621,23.173340000440817],[-22.962450000267154,23.196199999730368],[-22.967529999809528,23.203820000392852],[-22.982850000327119,23.226590000028636],[-22.993289999733577,23.241519999648403],[-23.00395000029215,23.256260000398868],[-23.014799999720083,23.270789999558986],[-23.025859999838985,23.285120000287918],[-23.042390000398086,23.306659999859221],[-23.047770000285141,23.313980000177025],[-23.058530000059307,23.328610000351375],[-23.069280000271647,23.343250000087551],[-23.080129999699579,23.357780000147045],[-23.091289999933451,23.372009999861746],[-23.102960000303653,23.385719999878233],[-23.121119999588188,23.405640000285928],[-23.133699999655107,23.418450000167525],[-23.139990000138255,23.42485000032741],[-23.152670000320143,23.437549999632893],[-23.178029999784542,23.462959999604436],[-23.190709999966373,23.475659999809295],[-23.209790000308146,23.494660000059071],[-23.216079999891974,23.501069999780782],[-23.228760000073805,23.513769999985641],[-23.247729999839521,23.532870000350385],[-23.260510000136264,23.545470000440332],[-23.266799999720092,23.551880000162043],[-23.279479999901923,23.564580000366846],[-23.292160000083811,23.577279999672385],[-23.311229999964382,23.596279999922217],[-23.317619999663123,23.60257999996719],[-23.330609999751573,23.614979999827256],[-23.34390000018476,23.627080000241961],[-23.36459000012826,23.644449999967662],[-23.37179999986995,23.649940000430831],[-23.400909999596706,23.671589999678872],[-23.408220000352628,23.676969999565983],[-23.415519999748085,23.682359999914183],[-23.437229999964416,23.698719999828256],[-23.444330000029368,23.704310000406338],[-23.47314000031065,23.726259999999115],[-23.495060000318631,23.742419999683364],[-23.502359999714088,23.747799999570475],[-23.516969999865466,23.758569999805786],[-23.531479999901933,23.769449999717835],[-23.545780000146749,23.78052000029794],[-23.575000000449563,23.802070000330389],[-23.590210000391096,23.812230000314401],[-23.621860000338643,23.831329999779825],[-23.637999999999863,23.840580000067064],[-23.653920000307664,23.850029999684864],[-23.685269999910417,23.869439999956171],[-23.716620000412547,23.888850000227478],[-23.732650000397086,23.898199999730366],[-23.765720000177737,23.91588000026195],[-23.782459999629168,23.924520000297889],[-23.799400000209744,23.93296000010406],[-23.807920000107799,23.937120000387836],[-23.833180000356606,23.949930000269433],[-23.841600000139749,23.954200000229946],[-23.867070000180263,23.966789999858747],[-23.88390999974655,23.975329999779831],[-23.900850000327125,23.983769999585945],[-23.909370000225181,23.987929999869721],[-23.934629999574668,24.000739999751318],[-23.951670000270155,24.009069999880751],[-23.968919999857974,24.017199999780303],[-23.986269999560704,24.025229999564942],[-24.004019999723084,24.032850000227484],[-24.022280000021851,24.039959999854261],[-24.031510000286175,24.04342000023297],[-24.059409999971422,24.053580000216982],[-24.078379999737081,24.059980000376868],[-24.097449999617652,24.066280000421841],[-24.116420000282687,24.072690000143552],[-24.135399999610172,24.079090000303438],[-24.154470000390063,24.085390000348355],[-24.173540000270691,24.091690000393328],[-24.19251000003635,24.098089999653894],[-24.211479999802009,24.104489999813779],[-24.230549999682637,24.110789999858753],[-24.249630000024354,24.117100000364871],[-24.268699999904925,24.123400000409845],[-24.287979999577203,24.129489999763791],[-24.307559999594162,24.135279999672377],[-24.327339999841001,24.140870000250459],[-24.347320000317609,24.146259999699396],[-24.357360000163737,24.148900000035098],[-24.387900000184743,24.156419999683408],[-24.408490000013387,24.161199999780308],[-24.429289999633625,24.165770000085558],[-24.450290000383063,24.170140000161041],[-24.471489999563687,24.174310000006642],[-24.492700000104776,24.178470000290417],[-24.513800000069807,24.182740000250931],[-24.535000000149751,24.186910000096589],[-24.556510000136257,24.190770000035627],[-24.578419999683092,24.194230000414336],[-24.600840000265691,24.197170000195513],[-24.623660000408563,24.199710000416303],[-24.646490000113317,24.20224999973783],[-24.66890999979654,24.205199999980152],[-24.690820000242695,24.208649999897716],[-24.712430000344114,24.212409999721842],[-24.734040000445532,24.216180000007114],[-24.756059999669105,24.219529999809765],[-24.778879999812034,24.222070000030612],[-24.802620000112768,24.223699999655423],[-24.82706999988045,24.224610000251459],[-24.85202999978452,24.225020000272934],[-24.877290000033327,24.225120000387847],[-24.902650000397102,24.225120000387847],[-24.928009999861501,24.225120000387847],[-24.95337000022522,24.225120000387847],[-24.978729999689619,24.225120000387847],[-25.004099999615164,24.225120000387847],[-25.029459999978883,24.225120000387847],[-25.054820000342602,24.225120000387847],[-25.080179999807001,24.225120000387847],[-25.10554000017072,24.225120000387847],[-25.130910000096321,24.225120000387847],[-25.156170000345128,24.225009999811789],[-25.181119999788052,24.224610000251459],[-25.193189999718584,24.22400000000016],[-25.229309999856468,24.222070000030612],[-25.252139999561223,24.219529999809765],[-25.27415000012229,24.216180000007114],[-25.295760000223709,24.212409999721842],[-25.317370000325127,24.208649999897716],[-25.339279999871962,24.205199999980152],[-25.350640000335602,24.203880000261961],[-25.384530000159259,24.199710000416303],[-25.407350000302131,24.197170000195513],[-25.418410000421034,24.195550000132528],[-25.451689999993391,24.190770000035627],[-25.473190000418072,24.186910000096589],[-25.494389999598695,24.182740000250931],[-25.515500000024872,24.178470000290417],[-25.536700000104815,24.174310000006642],[-25.557900000184759,24.170140000161041],[-25.578900000034821,24.165770000085558],[-25.599699999655115,24.161199999780308],[-25.620290000383079,24.156419999683408],[-25.640679999981899,24.151440000255946],[-25.660870000250213,24.146259999699396],[-25.680849999827501,24.140870000250459],[-25.700639999636167,24.135279999672377],[-25.720219999653125,24.129489999763791],[-25.739489999763578,24.123389999948699],[-25.758559999644149,24.117089999903726],[-25.777639999985865,24.110789999858753],[-25.796709999866493,24.104489999813779],[-25.806140000360585,24.10124000012604],[-25.834650000297131,24.091690000393328],[-25.853720000177759,24.085390000348355],[-25.863160000233677,24.082139999761296],[-25.89136000026366,24.072280000122078],[-25.909819999892932,24.065369999825748],[-25.928189999868493,24.058360000313883],[-25.94624000037561,24.051039999996135],[-25.964100000214728,24.043520000347883],[-25.98216000028367,24.036200000030135],[-26.000419999683118,24.029090000403357],[-26.018579999866972,24.021870000200465],[-26.036740000050827,24.014659999559456],[-26.045759999624181,24.010999999850242],[-26.072650000397061,23.999819999593456],[-26.090000000099792,23.991789999808759],[-26.107240000125785,23.983659999909207],[-26.124290000383098,23.975329999779831],[-26.141129999949442,23.966789999858747],[-26.158069999630641,23.958359999614459],[-26.175010000211216,23.949930000269433],[-26.191749999662647,23.941290000233494],[-26.208389999898429,23.932550000082585],[-26.224820000342618,23.923609999701853],[-26.240850000327157,23.914260000198965],[-26.256570000405077,23.904599999890252],[-26.27219999992991,23.894849999927715],[-26.287819999892974,23.885090000403352],[-26.30355000043204,23.875439999656408],[-26.319469999840521,23.865990000038607],[-26.335599999939916,23.856739999751312],[-26.351730000039367,23.847490000363393],[-26.367659999908938,23.838039999846274],[-26.383379999986857,23.828389999998649],[-26.398910000296155,23.818530000359374],[-26.421829999654619,23.80339000004858],[-26.429439999855958,23.798309999606943],[-26.444660000258693,23.788149999622931],[-26.47510000016473,23.767820000093081],[-26.475089999703584,23.767820000093081],[-26.490310000106319,23.75766000010907],[-26.505430000394085,23.74739000044832],[-26.520339999990881,23.736930000119571],[-26.53495000014226,23.726159999884203],[-26.549150000272164,23.714979999627417],[-26.562849999827506,23.703290000133563],[-26.576140000260693,23.691200000180004],[-26.589220000002854,23.678900000434794],[-26.615599999740084,23.654509999836762],[-26.629300000194746,23.642829999904734],[-26.64350000032465,23.631649999647891],[-26.657999999899971,23.620769999735842],[-26.672619999613175,23.61000000039985],[-26.69432000026768,23.593639999586458],[-26.715019999773062,23.576269999860756],[-26.728310000206193,23.564170000345371],[-26.741289999833498,23.551780000047131],[-26.754079999692124,23.539179999957184],[-26.779440000055843,23.513769999985641],[-26.792120000237674,23.501069999780782],[-26.817479999702073,23.475659999809295],[-26.830059999769048,23.462860000388844],[-26.854510000436051,23.436530000259438],[-26.866179999906933,23.42282000024295],[-26.882820000142772,23.401370000325414],[-26.898939999781021,23.37941999983326],[-26.904319999668132,23.372100000414832],[-26.920959999903971,23.350669999620948],[-26.926640000135762,23.34364999964788],[-26.938409999721557,23.330039999746305],[-26.94429000018323,23.323229999564944],[-26.961940000230697,23.302799999920182],[-26.973299999795017,23.288779999997132],[-26.984259999799008,23.274350000052607],[-26.994809999781523,23.25951000008655],[-27.005160000433534,23.244469999890725],[-27.015309999956401,23.229230000364339],[-27.030519999897933,23.20635999971438],[-27.040670000320119,23.191120000187993],[-27.045740000300668,23.183489999963683],[-27.060959999804027,23.160629999774812],[-27.066029999784519,23.153010000011648],[-27.075970000415055,23.137559999794291],[-27.090479999552201,23.113990000138529],[-27.095250000087333,23.106059999569482],[-27.109140000310617,23.081870000100594],[-27.113709999716605,23.073749999762811],[-27.127809999731596,23.049759999624428],[-27.137450000017338,23.034009999961654],[-27.142319999768063,23.026189999968665],[-27.152060000168774,23.010540000420804],[-27.161790000108283,22.99488999997368],[-27.1758999996851,22.970910000296442],[-27.180460000428525,22.962769999935688],[-27.197099999765044,22.928630000274438],[-27.197309999556694,22.928829999604943],[-27.208870000250215,22.902309999706858],[-27.216070000430079,22.884119999938207],[-27.223280000171769,22.865930000169499],[-27.234030000384109,22.838590000228464],[-27.237580000416585,22.829449999617907],[-27.241130000449061,22.820300000344901],[-27.248639999636168,22.802419999583435],[-27.259699999755071,22.775390000448283],[-27.266699999705111,22.756989999988662],[-27.270149999622674,22.747750000162512],[-27.277039999895976,22.729249999587978],[-27.286680000181718,22.70079000015852],[-27.289829999754545,22.691240000425807],[-27.302509999936433,22.653130000249462],[-27.302610000051345,22.653230000364374],[-27.312039999646117,22.624580000266917],[-27.318330000129265,22.605470000340404],[-27.321479999702092,22.595919999708372],[-27.330600000289678,22.566959999704352],[-27.336080000291645,22.547040000195977],[-27.341159999834019,22.526720000227954],[-27.345830000254182,22.505990000238455],[-27.350080000191724,22.484850000227482],[-27.35423999957618,22.463610000101539],[-27.35851000043607,22.442470000090566],[-27.3626600002587,22.42122999996468],[-27.366620000312651,22.399789999608913],[-27.370369999675631,22.378149999922698],[-27.373819999593195,22.35620000032992],[-27.377070000180254,22.334040000046116],[-27.380520000097818,22.312089999553962],[-27.384270000360118,22.290449999867747],[-27.388130000299157,22.268899999835241],[-27.391879999662137,22.247260000149026],[-27.395230000364108,22.225199999980134],[-27.39776000012381,22.20233999979132],[-27.399389999748564,22.178560000343907],[-27.4003000003446,22.154069999630906],[-27.40069999990493,22.129069999680894],[-27.400809999581668,22.103770000285408],[-27.400809999581668,22.078360000313921],[-27.400809999581668,22.052959999904203],[-27.400809999581668,22.027549999932717],[-27.400809999581668,22.002150000422318],[-27.400809999581668,21.976739999551455],[-27.400809999581668,21.951340000041114],[-27.400809999581668,21.92593000006957],[-27.400710000366075,21.900629999774821],[-27.4003000003446,21.875629999824753],[-27.399389999748564,21.851140000011128],[-27.397769999685636,21.827359999664395],[-27.395230000364108,21.804489999913699],[-27.391879999662137,21.782440000206009],[-27.388130000299157,21.760799999620417],[-27.384270000360118,21.739249999587969],[-27.380520000097818,21.717609999901697],[-27.377070000180254,21.695660000308919],[-27.373819999593195,21.673500000025115],[-27.370369999675631,21.651550000432337],[-27.366620000312651,21.629909999846745],[-27.3626600002587,21.608470000390355],[-27.35851000043607,21.587230000264469],[-27.35423999957618,21.566090000253439],[-27.350080000191724,21.544850000127553],[-27.345819999793036,21.523719999678406],[-27.341159999834019,21.502980000127025],[-27.336089999853471,21.482660000159001],[-27.330600000289678,21.462739999751307],[-27.327460000278677,21.453190000018651],[-27.321479999702092,21.433779999747344],[-27.312039999646117,21.405120000088061],[-27.308899999635173,21.395570000355349],[-27.302509999936433,21.376559999644428],[-27.292969999765546,21.348009999661883],[-27.286680000181718,21.328899999735313],[-27.283429999594659,21.31945000011757],[-27.273589999978412,21.291199999580442],[-27.270140000060849,21.281959999754349],[-27.263149999672635,21.263560000193991],[-27.255939999930945,21.245370000425339],[-27.244879999812042,21.218340000390867],[-27.241329999779566,21.209190000218484],[-27.226930000319157,21.172809999781805],[-27.223280000171769,21.16377000018548],[-27.216070000430079,21.145580000416828],[-27.212420000282634,21.136539999921183],[-27.204910000196207,21.118649999597949],[-27.193150000172238,21.092329999929689],[-27.18471999992795,21.075359999764316],[-27.180160000083788,21.067229999864765],[-27.166559999744095,21.042740000051083],[-27.156929999919441,21.026990000388366],[-27.14719000041805,21.011339999941185],[-27.142319999768063,21.00351000038637],[-27.123040000095784,20.972010000161504],[-27.118380000136767,20.963980000376864],[-27.1091499998725,20.947819999793296],[-27.095250000087333,20.923639999886234],[-27.090479999552201,20.91571000021645],[-27.080840000165779,20.899959999654413],[-27.070999999650155,20.884410000221465],[-27.060959999804027,20.869069999680903],[-27.05081000028116,20.853819999693371],[-27.040670000320119,20.838580000167042],[-27.030519999897933,20.823339999741336],[-27.020379999936949,20.808089999753804],[-27.015300000394575,20.800469999990639],[-26.999979999876984,20.777709999916681],[-26.994709999666611,20.770290000383341],[-26.978879999911953,20.748040000445826],[-26.968029999584701,20.733499999925186],[-26.956970000365118,20.719179999657399],[-26.945919999808041,20.704849999827786],[-26.935059999918963,20.690319999768292],[-26.924309999706622,20.675680000032116],[-26.9135499999324,20.661049999857767],[-26.89721999960318,20.639299999595437],[-26.891540000270652,20.632290000083572],[-26.867799999969918,20.6052600000491],[-26.861709999716595,20.598650000097564],[-26.84912999964962,20.585849999777793],[-26.836549999582701,20.573039999896196],[-26.82377000018522,20.560439999806306],[-26.804800000419561,20.541340000340881],[-26.792120000237674,20.528629999674877],[-26.779440000055843,20.515930000369337],[-26.766759999873955,20.503230000164535],[-26.747689999993383,20.484229999914703],[-26.735109999926408,20.471420000033106],[-26.728720000227725,20.465119999988133],[-26.703350000302123,20.439719999578472],[-26.69695999970412,20.433409999971673],[-26.684379999637144,20.420609999651901],[-26.677989999938404,20.414309999606928],[-26.652629999574685,20.388899999635441],[-26.639850000177262,20.376300000444814],[-26.633459999579202,20.370000000399841],[-26.620270000160247,20.357810000331369],[-26.613569999655624,20.35180999973187],[-26.592879999712068,20.334440000006111],[-26.571170000395057,20.318080000092095],[-26.563859999639135,20.312689999743839],[-26.541950000092299,20.29653000005959],[-26.534649999797523,20.291150000172536],[-26.520239999875969,20.280170000145517],[-26.513139999811017,20.274579999567493],[-26.491629999824511,20.258020000322915],[-26.484330000429054,20.252629999974658],[-26.462210000191249,20.23668000008206],[-26.447199999580164,20.226310000306398],[-26.424369999875466,20.211069999880749],[-26.409150000372108,20.200900000334912],[-26.393940000430575,20.1907400003509],[-26.386330000229179,20.185659999909205],[-26.371109999826501,20.175499999925194],[-26.355890000323143,20.165339999941182],[-26.340480000151786,20.155380000186994],[-26.324849999727576,20.145619999763312],[-26.301010000211193,20.131399999610437],[-26.293000000449524,20.126719999628392],[-26.276770000235217,20.117570000355386],[-26.260740000250678,20.108230000414324],[-26.2371000000648,20.093799999570479],[-26.221480000101792,20.084040000046116],[-26.221469999640647,20.084040000046116],[-26.190120000037837,20.064629999774809],[-26.17409999961518,20.055280000271921],[-26.157670000070311,20.046339999891245],[-26.141029999834473,20.037599999740337],[-26.132710000166242,20.033229999664911],[-26.107240000125785,20.020629999574965],[-26.090000000099792,20.012499999675413],[-26.072650000397061,20.004469999890716],[-26.054900000234682,19.996850000127552],[-26.036740000050827,19.989629999924716],[-26.027609999901472,19.98607999989224],[-26.009549999832529,19.978759999574436],[-25.98216000028367,19.968090000353357],[-25.964100000214728,19.960770000035609],[-25.955170000295141,19.957010000211483],[-25.928180000306668,19.945930000069609],[-25.909830000354134,19.938919999658424],[-25.89136000026366,19.932010000261471],[-25.872700000404564,19.925309999756848],[-25.853729999739585,19.918909999596963],[-25.834650000297131,19.912609999551989],[-25.815679999632152,19.906199999830278],[-25.796709999866493,19.899799999670392],[-25.777639999985865,19.893499999625419],[-25.758559999644149,19.887199999580446],[-25.739489999763578,19.880900000434792],[-25.720219999653125,19.874799999720324],[-25.700639999636167,19.869009999811794],[-25.680860000288646,19.863420000133033],[-25.660870000250213,19.858029999784776],[-25.640679999981899,19.852850000127546],[-25.620290000383079,19.847869999800764],[-25.599699999655115,19.843089999703864],[-25.578900000034821,19.838520000297933],[-25.557900000184759,19.834150000222451],[-25.536700000104815,19.829989999938675],[-25.515500000024872,19.825820000093074],[-25.494400000059841,19.821550000132561],[-25.473190000418072,19.817380000286903],[-25.451790000108304,19.813420000232952],[-25.430180000006885,19.809660000408826],[-25.408259999998847,19.806209999591943],[-25.386150000222187,19.802959999904203],[-25.364239999776032,19.799500000424814],[-25.342629999674614,19.795739999701368],[-25.321119999688108,19.79187999976233],[-25.299509999586689,19.788119999938203],[-25.277499999924942,19.784759999674407],[-25.254670000220187,19.782220000352879],[-25.230929999919454,19.780600000289894],[-25.206489999713597,19.779680000132032],[-25.181529999809527,19.779279999672383],[-25.15626999956072,19.779169999995645],[-25.130910000096321,19.779169999995645],[-25.105549999732602,19.779169999995645],[-25.080179999807001,19.779169999995645],[-25.054820000342602,19.779169999995645],[-25.029459999978883,19.779169999995645],[-25.004099999615164,19.779169999995645],[-24.978729999689619,19.779169999995645],[-24.95337000022522,19.779169999995645],[-24.928009999861501,19.779169999995645],[-24.902650000397102,19.779169999995645],[-24.877290000033327,19.779169999995645],[-24.851920000107782,19.779169999995645],[-24.826559999744063,19.779169999995645],[-24.801300000394576,19.779279999672383],[-24.776339999591187,19.779680000132032],[-24.75190000028465,19.780600000289894],[-24.728159999983859,19.782220000352879],[-24.705430000394074,19.784659999559494],[-24.683820000292656,19.787609999801816],[-24.663229999564692,19.790350000252431],[-24.643650000447053,19.792079999992154],[-24.625089999803549,19.791979999877242],[-24.607330000079287,19.789439999656395],[-24.598199999929932,19.787099999665372],[-24.581670000270151,19.780899999735311],[-24.565740000400581,19.772869999950672],[-24.54261000035109,19.758749999912709],[-24.534900000034838,19.753769999585927],[-24.512070000330141,19.738530000059598],[-24.504469999690627,19.733440000056078],[-24.481639999985873,19.718199999630428],[-24.474029999784534,19.713120000088054],[-24.451209999641662,19.697879999662405],[-24.435990000138247,19.687719999678393],[-24.420769999735569,19.677559999694381],[-24.405550000232211,19.667390000148544],[-24.390340000290678,19.657230000164532],[-24.382730000089282,19.652149999722837],[-24.359900000384584,19.636910000196508],[-24.352290000183245,19.631820000192988],[-24.337080000241713,19.621660000208976],[-24.321859999838978,19.611500000224964],[-24.314349999752551,19.606319999668415],[-24.284830000004376,19.585080000441792],[-24.277629999824512,19.57958999997868],[-24.270729999989385,19.573800000070094],[-24.250840000065807,19.555610000301385],[-24.244660000158774,19.549099999565442],[-24.23278999955869,19.535589999778779],[-24.221929999669612,19.521059999719341],[-24.211989999938396,19.505610000401362],[-24.202859999789041,19.489349999702881],[-24.194640000235722,19.472180000207004],[-24.187239999826033,19.454189999768801],[-24.176780000396548,19.426550000382349],[-24.173540000270691,19.417099999865229],[-24.167149999672631,19.398090000053571],[-24.160759999973891,19.379089999803796],[-24.154060000368588,19.3603899998987],[-24.147159999634141,19.341899999785312],[-24.140159999684101,19.323500000224954],[-24.132960000403557,19.305309999556982],[-24.125760000223693,19.287119999788274],[-24.118959999604158,19.268529999559973],[-24.112670000020387,19.249419999633403],[-24.106690000343121,19.230010000261416],[-24.100800000319623,19.210499999875253],[-24.094819999743095,19.191089999603946],[-24.088530000159267,19.171990000138521],[-24.081730000439052,19.153390000348395],[-24.074530000259188,19.135199999680367],[-24.067330000079323,19.117009999911716],[-24.060319999668138,19.098619999913183],[-24.053430000294156,19.080120000237969],[-24.050179999707098,19.070669999720849],[-24.037189999618647,19.032870000350385],[-24.034049999607646,19.023319999718353],[-24.027659999908963,19.004309999906695],[-24.021270000210222,18.98530999965692],[-24.014979999727075,18.96619999973035],[-24.011730000039336,18.95675000011255],[-24.001890000423032,18.928499999575479],[-23.994989999688585,18.910010000361353],[-23.987989999738545,18.891609999901732],[-23.984240000375564,18.882670000420319],[-23.973180000256662,18.855640000385847],[-23.965879999961885,18.837549999832788],[-23.955220000302631,18.810109999776785],[-23.951570000155243,18.801070000180516],[-23.944369999975379,18.782880000411808],[-23.940719999827991,18.773830000354394],[-23.929559999594176,18.746900000434835],[-23.921540000270682,18.729529999809756],[-23.909370000225181,18.703620000163028],[-23.905109999826493,18.695180000356856],[-23.900850000327125,18.686739999651422],[-23.888170000145237,18.661340000141024],[-23.88390999974655,18.65290000033491],[-23.866970000065351,18.619060000119077],[-23.867070000180263,18.618960000004108],[-23.854389999998375,18.593559999594447],[-23.845859999639174,18.576690000443307],[-23.837439999855974,18.559720000277935],[-23.824759999674143,18.534310000306391],[-23.820500000174718,18.525880000062102],[-23.812080000391575,18.50890999989673],[-23.803659999709112,18.491939999731358],[-23.795139999810999,18.475069999680898],[-23.786720000027856,18.458100000414845],[-23.774039999845968,18.432690000443301],[-23.7697800003466,18.424260000199013],[-23.761359999664137,18.40729000003364],[-23.752939999880937,18.390310000306386],[-23.740150000022368,18.365010000011637],[-23.736000000199738,18.356479999652379],[-23.727569999955392,18.339499999925181],[-23.719059999619162,18.322640000335866],[-23.710630000274193,18.305659999709349],[-23.702209999591673,18.288690000443296],[-23.693689999693618,18.271820000392836],[-23.685269999910417,18.254850000227464],[-23.676850000127274,18.237880000062091],[-23.664069999830474,18.212579999767343],[-23.659910000446018,18.204039999846259],[-23.651489999763555,18.187069999680887],[-23.6429699998655,18.170199999630427],[-23.634550000082299,18.153230000364374],[-23.626130000299156,18.136260000199002],[-23.617610000401044,18.119390000148542],[-23.609180000156755,18.102419999983169],[-23.600769999935437,18.085449999817797],[-23.592239999576179,18.068579999767337],[-23.583819999793036,18.051609999601965],[-23.575400000009893,18.034640000335912],[-23.56688000011178,18.017770000285452],[-23.558460000328637,18.000800000120023],[-23.550039999646117,17.983829999954651],[-23.541519999748061,17.966959999904191],[-23.533099999964918,17.949989999738818],[-23.524680000181718,17.933019999573446],[-23.511899999884974,17.907709999716872],[-23.507739999601199,17.899180000256933],[-23.499319999817999,17.882210000091561],[-23.490799999919943,17.865340000041101],[-23.482380000136743,17.848369999875729],[-23.4739600003536,17.831390000148531],[-23.465439999556224,17.814529999659896],[-23.457119999887937,17.797449999817786],[-23.44900000044953,17.780180000206997],[-23.440989999788542,17.76280000002015],[-23.429719999877989,17.735970000215502],[-23.426169999845513,17.726829999604945],[-23.422519999698125,17.717780000446794],[-23.411770000385104,17.690450000067585],[-23.404559999744095,17.672260000298934],[-23.396960000003844,17.654470000090555],[-23.38893999978103,17.637100000364853],[-23.380829999904449,17.619820000292918],[-23.372510000236218,17.602750000012634],[-23.36397999987696,17.585879999962174],[-23.355669999770555,17.568809999681889],[-23.351609999601692,17.560169999645893],[-23.339539999671103,17.53415000032237],[-23.331930000369084,17.516369999675874],[-23.324830000304132,17.49807999979231],[-23.317929999569685,17.479580000117039],[-23.311229999964382,17.460880000212001],[-23.308089999953381,17.451329999579968],[-23.298549999782551,17.422779999597424],[-23.292160000083811,17.403769999785823],[-23.285770000385071,17.38477000043531],[-23.279479999901923,17.365670000070565],[-23.273190000318152,17.346560000144052],[-23.266899999835005,17.327459999779308],[-23.260809999581681,17.308149999622913],[-23.255030000134298,17.288529999559955],[-23.249450000017362,17.268719999728319],[-23.244079999692133,17.248700000105032],[-23.238900000034846,17.228480000251977],[-23.233830000054354,17.208149999822751],[-23.228760000073805,17.187829999854728],[-23.223679999632168,17.167500000324878],[-23.218609999651619,17.147180000356855],[-23.213439999556215,17.126959999604424],[-23.208059999669103,17.106939999981137],[-23.202479999552224,17.087119999688355],[-23.196700000104784,17.0675100000866],[-23.190709999966373,17.048099999815292],[-23.184719999828019,17.028690000443305],[-23.178940000380578,17.009079999942173],[-23.173360000263699,16.989259999649391],[-23.167989999938413,16.969240000026105],[-23.162810000281183,16.949020000172993],[-23.157840000415547,16.928589999628912],[-23.155509999986407,16.91821999985325],[-23.148510000036367,16.887129999649915],[-23.14415000042203,16.866089999753797],[-23.139990000138255,16.844860000089056],[-23.135829999854479,16.823619999963171],[-23.131470000240199,16.80258000006711],[-23.126899999934949,16.781749999962642],[-23.122130000299137,16.761120000088056],[-23.117160000433557,16.740690000443294],[-23.112089999553689,16.720369999575951],[-23.107019999573197,16.700040000046101],[-23.101949999592705,16.679720000078078],[-23.09687000005033,16.659400000110054],[-23.091800000069838,16.639069999680885],[-23.08673000008929,16.618749999712861],[-23.081660000108798,16.598420000183012],[-23.076579999667103,16.578100000214988],[-23.071509999686612,16.557769999785819],[-23.06643999970612,16.537449999817795],[-23.063900000384592,16.527289999833783],[-23.056290000183253,16.496800000319922],[-23.051220000202704,16.476469999890696],[-23.046150000222212,16.456149999922673],[-23.041080000241664,16.435829999954649],[-23.035999999800026,16.4155000004248],[-23.030929999819534,16.395179999557456],[-23.025859999838985,16.374859999589432],[-23.020789999858494,16.354530000059583],[-23.015710000316119,16.334210000091559],[-23.013179999657154,16.324039999646402],[-23.005669999570671,16.293459999579454],[-23.000899999934916,16.272829999704868],[-22.996340000090811,16.251999999600457],[-22.991970000015385,16.230959999704339],[-22.989939999930925,16.22028999958394],[-22.983550000232185,16.18857999956748],[-22.978890000273168,16.167849999577982],[-22.973709999716561,16.14762999972487],[-22.967830000154265,16.128120000237971],[-22.964079999891965,16.119170000295412],[-22.953019999773062,16.09214000026094],[-22.944089999853475,16.075680000231955],[-22.934050000007346,16.060339999691394],[-22.922989999888443,16.046009999861724],[-22.905029999934413,16.025890000123525],[-22.898540000120761,16.019690000193521],[-22.871759999923938,15.995909999846731],[-22.857760000023859,15.98513999961142],[-22.850860000188732,15.979950000392364],[-22.836459999829003,15.970599999990156],[-22.821749999562712,15.962479999652373],[-22.806220000152734,15.95596999981575],[-22.780759999674103,15.949060000418797]]]},"properties":{"objectid":161,"stormname":"Gonzalo","stormtype":"TS","basin":"AL","advdate":"800 PM CVT Fri Sep 25 2026","advisnum":"4","fcstprd":120,"stormnum":7,"idp_source":"al072026-004_5day_pgn","idp_filedate":1790370170000,"idp_ingestdate":1790370287000,"st_area(shape)":21.748172290960479,"st_perimeter(shape)":22.087881494612532,"binnumber":"AT2"}}]}