{"type":"FeatureCollection","features":[{"type":"Feature","id":129,"geometry":{"type":"LineString","coordinates":[[-22.099999999800048,13.199999999800298],[-22.599999999700117,14.199999999600436],[-23.200000000299667,15.600000000399859],[-23.499999999700094,17.199999999900228],[-23.899999999800002,18.699999999600436],[-24.200000000099806,19.800000000100056],[-24.399999999700128,20.200000000199964],[-24.899999999600197,20.899999999700356],[-26.400000000199725,21.699999999900228]]},"properties":{"objectid":129,"stormname":"Gonzalo","stormtype":"TS","basin":"AL","advdate":"200 AM CVT Fri Sep 25 2026","advisnum":"1","fcstprd":120,"stormnum":7,"idp_source":"al072026-001_5day_lin","idp_filedate":1790305351000,"idp_ingestdate":1790305441000,"st_length(shape)":9.9691096869739599,"binnumber":"AT2"}}]}