{"type":"FeatureCollection","features":[{"type":"Feature","id":761,"geometry":{"type":"LineString","coordinates":[[-13.499999999899956,8.0000000002999059],[-13.999999999800025,8.0000000002999059],[-15.500000000399552,8.5000000001999751],[-16.500000000199748,9.300000000399848],[-17.199999999700083,9.9999999999002398],[-18.999999999700094,10.999999999700378],[-20.199999999999875,11.499999999600448],[-20.799999999700105,11.899999999700356],[-21.400000000299656,12.399999999600425],[-21.999999999999886,12.900000000399814]]},"properties":{"objectid":761,"stormtype":"DB","stormnum":7,"ss":0,"idp_source":"AL072026_lin","idp_filedate":1790326983000,"idp_ingestdate":1790327173000,"st_length(shape)":9.9939993900282413,"binnumber":"AT2"}},{"type":"Feature","id":762,"geometry":{"type":"LineString","coordinates":[[-21.999999999999886,12.900000000399814],[-22.300000000299633,13.699999999700367]]},"properties":{"objectid":762,"stormtype":"DB","stormnum":7,"ss":0,"idp_source":"AL072026_lin","idp_filedate":1790326983000,"idp_ingestdate":1790327173000,"st_length(shape)":0.85440037398208868,"binnumber":"AT2"}}]}