{"type": "FeatureCollection", "features": [{"type": "Feature", "id": 1228, "geometry": {"type": "Point", "coordinates": [-22.400000000099794, 14.199999999600436]}, "properties": {"objectid": 1228, "stormname": "Tropical Storm Gonzalo", "stormtype": "TS", "dvlbl": "S", "basin": "AL", "advdate": "800 AM CVT Fri Sep 25 2026", "advisnum": "2", "fcstprd": 120, "gust": 50, "maxwind": 40, "mslp": 1004, "ssnum": 0, "datelbl": "8:00 AM Fri", "tcdvlp": "Tropical Storm", "tcdir": 340, "tcspd": 8, "fldatelbl": "2026-09-25 5:00 AM Fri CVT", "lat": 14, "lon": -22, "stormnum": 7, "stormsrc": "Tropical Cyclone", "tau": 0, "timezone": "CVT", "validtime": "25/0600", "idp_source": "al072026-002_5day_pts", "idp_filedate": 1790326983000, "idp_ingestdate": 1790327130000, "binnumber": "AT2", "MAXWIND": 40, "VALIDTIME": "25/0600"}}, {"type": "Feature", "id": 1229, "geometry": {"type": "Point", "coordinates": [-22.800000000199702, 15.399999999900217]}, "properties": {"objectid": 1229, "stormname": "Tropical Storm Gonzalo", "stormtype": "TS", "dvlbl": "S", "basin": "AL", "advdate": "800 AM CVT Fri Sep 25 2026", "advisnum": "2", "fcstprd": 120, "gust": 55, "maxwind": 45, "mslp": 9999, "ssnum": 0, "datelbl": "5:00 PM Fri", "tcdvlp": "Tropical Storm", "tcdir": 9999, "tcspd": 9999, "fldatelbl": "2026-09-25 5:00 PM Fri CVT", "lat": 15, "lon": -23, "stormnum": 7, "stormsrc": "Tropical Cyclone", "tau": 12, "timezone": "CVT", "validtime": "25/1800", "idp_source": "al072026-002_5day_pts", "idp_filedate": 1790326983000, "idp_ingestdate": 1790327130000, "binnumber": "AT2", "MAXWIND": 45, "VALIDTIME": "25/1800"}}, {"type": "Feature", "id": 1230, "geometry": {"type": "Point", "coordinates": [-23.200000000299667, 17.000000000299906]}, "properties": {"objectid": 1230, "stormname": "Tropical Storm Gonzalo", "stormtype": "TS", "dvlbl": "S", "basin": "AL", "advdate": "800 AM CVT Fri Sep 25 2026", "advisnum": "2", "fcstprd": 120, "gust": 55, "maxwind": 45, "mslp": 9999, "ssnum": 0, "datelbl": "5:00 AM Sat", "tcdvlp": "Tropical Storm", "tcdir": 9999, "tcspd": 9999, "fldatelbl": "2026-09-26 5:00 AM Sat CVT", "lat": 17, "lon": -23, "stormnum": 7, "stormsrc": "Tropical Cyclone", "tau": 24, "timezone": "CVT", "validtime": "26/0600", "idp_source": "al072026-002_5day_pts", "idp_filedate": 1790326983000, "idp_ingestdate": 1790327130000, "binnumber": "AT2", "MAXWIND": 45, "VALIDTIME": "26/0600"}}, {"type": "Feature", "id": 1231, "geometry": {"type": "Point", "coordinates": [-23.700000000199736, 18.500000000000114]}, "properties": {"objectid": 1231, "stormname": "Tropical Storm Gonzalo", "stormtype": "TS", "dvlbl": "S", "basin": "AL", "advdate": "800 AM CVT Fri Sep 25 2026", "advisnum": "2", "fcstprd": 120, "gust": 45, "maxwind": 35, "mslp": 9999, "ssnum": 0, "datelbl": "5:00 PM Sat", "tcdvlp": "Tropical Storm", "tcdir": 9999, "tcspd": 9999, "fldatelbl": "2026-09-26 5:00 PM Sat CVT", "lat": 18, "lon": -24, "stormnum": 7, "stormsrc": "Tropical Cyclone", "tau": 36, "timezone": "CVT", "validtime": "26/1800", "idp_source": "al072026-002_5day_pts", "idp_filedate": 1790326983000, "idp_ingestdate": 1790327130000, "binnumber": "AT2", "MAXWIND": 35, "VALIDTIME": "26/1800"}}, {"type": "Feature", "id": 1232, "geometry": {"type": "Point", "coordinates": [-24.200000000099806, 19.800000000100056]}, "properties": {"objectid": 1232, "stormname": "Tropical Storm Gonzalo", "stormtype": "TD", "dvlbl": "D", "basin": "AL", "advdate": "800 AM CVT Fri Sep 25 2026", "advisnum": "2", "fcstprd": 120, "gust": 40, "maxwind": 30, "mslp": 9999, "ssnum": 0, "datelbl": "5:00 AM Sun", "tcdvlp": "Tropical Depression", "tcdir": 9999, "tcspd": 9999, "fldatelbl": "2026-09-27 5:00 AM Sun CVT", "lat": 20, "lon": -24, "stormnum": 7, "stormsrc": "Tropical Cyclone", "tau": 48, "timezone": "CVT", "validtime": "27/0600", "idp_source": "al072026-002_5day_pts", "idp_filedate": 1790326983000, "idp_ingestdate": 1790327130000, "binnumber": "AT2", "MAXWIND": 30, "VALIDTIME": "27/0600"}}, {"type": "Feature", "id": 1233, "geometry": {"type": "Point", "coordinates": [-24.299999999899967, 20.499999999600448]}, "properties": {"objectid": 1233, "stormname": "Tropical Storm Gonzalo", "stormtype": "STD", "dvlbl": "D", "basin": "AL", "advdate": "800 AM CVT Fri Sep 25 2026", "advisnum": "2", "fcstprd": 120, "gust": 35, "maxwind": 25, "mslp": 9999, "ssnum": 0, "datelbl": "5:00 PM Sun", "tcdvlp": "Subtropical Depression", "tcdir": 9999, "tcspd": 9999, "fldatelbl": "2026-09-27 5:00 PM Sun CVT", "lat": 20, "lon": -24, "stormnum": 7, "stormsrc": "Post-Tropical Cyclone", "tau": 60, "timezone": "CVT", "validtime": "27/1800", "idp_source": "al072026-002_5day_pts", "idp_filedate": 1790326983000, "idp_ingestdate": 1790327130000, "binnumber": "AT2", "MAXWIND": 25, "VALIDTIME": "27/1800"}}, {"type": "Feature", "id": 1234, "geometry": {"type": "Point", "coordinates": [-24.39999999970013, 21.000000000399837]}, "properties": {"objectid": 1234, "stormname": "Tropical Storm Gonzalo", "stormtype": "STD", "dvlbl": "D", "basin": "AL", "advdate": "800 AM CVT Fri Sep 25 2026", "advisnum": "2", "fcstprd": 120, "gust": 30, "maxwind": 20, "mslp": 9999, "ssnum": 0, "datelbl": "5:00 AM Mon", "tcdvlp": "Subtropical Depression", "tcdir": 9999, "tcspd": 9999, "fldatelbl": "2026-09-28 5:00 AM Mon CVT", "lat": 21, "lon": -24, "stormnum": 7, "stormsrc": "Post-Tropical Cyclone", "tau": 72, "timezone": "CVT", "validtime": "28/0600", "idp_source": "al072026-002_5day_pts", "idp_filedate": 1790326983000, "idp_ingestdate": 1790327130000, "binnumber": "AT2", "MAXWIND": 20, "VALIDTIME": "28/0600"}}, {"type": "Feature", "id": 1235, "geometry": {"type": "Point", "coordinates": [-24.500000000399552, 22.000000000199975]}, "properties": {"objectid": 1235, "stormname": "Tropical Storm Gonzalo", "stormtype": "STD", "dvlbl": "D", "basin": "AL", "advdate": "800 AM CVT Fri Sep 25 2026", "advisnum": "2", "fcstprd": 120, "gust": 30, "maxwind": 20, "mslp": 9999, "ssnum": 0, "datelbl": "5:00 AM Tue", "tcdvlp": "Subtropical Depression", "tcdir": 9999, "tcspd": 9999, "fldatelbl": "2026-09-29 5:00 AM Tue CVT", "lat": 22, "lon": -24, "stormnum": 7, "stormsrc": "Post-Tropical Cyclone", "tau": 96, "timezone": "CVT", "validtime": "29/0600", "idp_source": "al072026-002_5day_pts", "idp_filedate": 1790326983000, "idp_ingestdate": 1790327130000, "binnumber": "AT2", "MAXWIND": 20, "VALIDTIME": "29/0600"}}, {"type": "Feature", "id": 1236, "geometry": {"type": "Point", "coordinates": [-25.699999999800013, 22.199999999800298]}, "properties": {"objectid": 1236, "stormname": "Tropical Storm Gonzalo", "stormtype": "STD", "dvlbl": "D", "basin": "AL", "advdate": "800 AM CVT Fri Sep 25 2026", "advisnum": "2", "fcstprd": 120, "gust": 30, "maxwind": 20, "mslp": 9999, "ssnum": 0, "datelbl": "5:00 AM Wed", "tcdvlp": "Subtropical Depression", "tcdir": 9999, "tcspd": 9999, "fldatelbl": "2026-09-30 5:00 AM Wed CVT", "lat": 22, "lon": -26, "stormnum": 7, "stormsrc": "Post-Tropical Cyclone", "tau": 120, "timezone": "CVT", "validtime": "30/0600", "idp_source": "al072026-002_5day_pts", "idp_filedate": 1790326983000, "idp_ingestdate": 1790327130000, "binnumber": "AT2", "MAXWIND": 20, "VALIDTIME": "30/0600"}}]}