{"type":"FeatureCollection","features":[{"type":"Feature","id":2351,"geometry":{"type":"LineString","coordinates":[[-58.300000000299633,27.500000000000171],[-58.199999999600209,29.100000000399859],[-57.999999999999886,31.199999999800298],[-57.299999999600175,32.900000000000148],[-56.100000000199714,34.399999999700356],[-54.999999999700094,35.699999999800298],[-53.099999999899978,36.300000000399848],[-51.299999999899967,36.699999999600436]]},"properties":{"objectid":2351,"stormtype":"DB","stormnum":8,"ss":0,"idp_source":"AL082026_lin","idp_filedate":1790629356000,"idp_ingestdate":1790629505000,"st_length(shape)":13.011372579795957,"binnumber":"AT3"}},{"type":"Feature","id":2352,"geometry":{"type":"LineString","coordinates":[[-51.299999999899967,36.699999999600436],[-49.599999999700117,36.599999999800275]]},"properties":{"objectid":2352,"stormtype":"DB","stormnum":8,"ss":0,"idp_source":"AL082026_lin","idp_filedate":1790629356000,"idp_ingestdate":1790629505000,"st_length(shape)":1.7029386367804105,"binnumber":"AT3"}}]}