{"type":"FeatureCollection","features":[{"type":"Feature","id":393,"geometry":{"type":"LineString","coordinates":[[-43.599999999999909,33.700000000200021],[-42.799999999800036,33.600000000399859],[-41.399999999899933,34.100000000299929],[-39.400000000299656,34.700000000000159],[-36.800000000099828,35.400000000399871],[-34.100000000099783,36.099999999900206],[-31.499999999899956,36.599999999800275]]},"properties":{"objectid":393,"stormname":"Hanna","stormtype":"TS","basin":"AL","advdate":"300 AM GMT Wed Sep 30 2026","advisnum":"7","fcstprd":120,"stormnum":8,"idp_source":"al082026-007_5day_lin","idp_filedate":1790737353000,"idp_ingestdate":1790737384000,"st_length(shape)":12.510381950007814,"binnumber":"AT3"}}]}