{"type": "FeatureCollection", "features": [{"type": "Feature", "id": 2998, "geometry": {"type": "Point", "coordinates": [-45.499999999800025, 34.6000000002]}, "properties": {"objectid": 2998, "stormname": "Tropical Storm Hanna", "stormtype": "TS", "dvlbl": "S", "basin": "AL", "advdate": "1100 AM AST Tue Sep 29 2026", "advisnum": "5", "fcstprd": 120, "gust": 45, "maxwind": 35, "mslp": 1004, "ssnum": 0, "datelbl": "11:00 AM Tue", "tcdvlp": "Tropical Storm", "tcdir": 125, "tcspd": 10, "fldatelbl": "2026-09-29 8:00 AM Tue AST", "lat": 35, "lon": -46, "stormnum": 8, "stormsrc": "Tropical Cyclone", "tau": 0, "timezone": "AST", "validtime": "29/1200", "idp_source": "al082026-005_5day_pts", "idp_filedate": 1790715751000, "idp_ingestdate": 1790715773000, "binnumber": "AT3", "MAXWIND": 35, "VALIDTIME": "29/1200"}}, {"type": "Feature", "id": 2999, "geometry": {"type": "Point", "coordinates": [-43.50000000019975, 33.49999999970038]}, "properties": {"objectid": 2999, "stormname": "Tropical Storm Hanna", "stormtype": "TS", "dvlbl": "S", "basin": "AL", "advdate": "1100 AM AST Tue Sep 29 2026", "advisnum": "5", "fcstprd": 120, "gust": 45, "maxwind": 35, "mslp": 9999, "ssnum": 0, "datelbl": "2:00 AM Wed", "tcdvlp": "Tropical Storm", "tcdir": 9999, "tcspd": 9999, "fldatelbl": "2026-09-30 2:00 AM Wed AST", "lat": 34, "lon": -44, "stormnum": 8, "stormsrc": "Tropical Cyclone", "tau": 12, "timezone": "AST", "validtime": "30/0600", "idp_source": "al082026-005_5day_pts", "idp_filedate": 1790715751000, "idp_ingestdate": 1790715773000, "binnumber": "AT3", "MAXWIND": 35, "VALIDTIME": "30/0600"}}, {"type": "Feature", "id": 3000, "geometry": {"type": "Point", "coordinates": [-42.39999999970013, 33.899999999800286]}, "properties": {"objectid": 3000, "stormname": "Tropical Storm Hanna", "stormtype": "TD", "dvlbl": "D", "basin": "AL", "advdate": "1100 AM AST Tue Sep 29 2026", "advisnum": "5", "fcstprd": 120, "gust": 40, "maxwind": 30, "mslp": 9999, "ssnum": 0, "datelbl": "2:00 PM Wed", "tcdvlp": "Tropical Depression", "tcdir": 9999, "tcspd": 9999, "fldatelbl": "2026-09-30 2:00 PM Wed AST", "lat": 34, "lon": -42, "stormnum": 8, "stormsrc": "Tropical Cyclone", "tau": 24, "timezone": "AST", "validtime": "30/1800", "idp_source": "al082026-005_5day_pts", "idp_filedate": 1790715751000, "idp_ingestdate": 1790715773000, "binnumber": "AT3", "MAXWIND": 30, "VALIDTIME": "30/1800"}}, {"type": "Feature", "id": 3001, "geometry": {"type": "Point", "coordinates": [-40.59999999970012, 34.50000000039984]}, "properties": {"objectid": 3001, "stormname": "Tropical Storm Hanna", "stormtype": "STD", "dvlbl": "D", "basin": "AL", "advdate": "1100 AM AST Tue Sep 29 2026", "advisnum": "5", "fcstprd": 120, "gust": 40, "maxwind": 30, "mslp": 9999, "ssnum": 0, "datelbl": "2:00 AM Thu", "tcdvlp": "Subtropical Depression", "tcdir": 9999, "tcspd": 9999, "fldatelbl": "2026-10-01 2:00 AM Thu AST", "lat": 34, "lon": -41, "stormnum": 8, "stormsrc": "Post-Tropical Cyclone", "tau": 36, "timezone": "AST", "validtime": "01/0600", "idp_source": "al082026-005_5day_pts", "idp_filedate": 1790715751000, "idp_ingestdate": 1790715773000, "binnumber": "AT3", "MAXWIND": 30, "VALIDTIME": "01/0600"}}, {"type": "Feature", "id": 3002, "geometry": {"type": "Point", "coordinates": [-38.199999999999875, 35.40000000039987]}, "properties": {"objectid": 3002, "stormname": "Tropical Storm Hanna", "stormtype": "STD", "dvlbl": "D", "basin": "AL", "advdate": "1100 AM AST Tue Sep 29 2026", "advisnum": "5", "fcstprd": 120, "gust": 40, "maxwind": 30, "mslp": 9999, "ssnum": 0, "datelbl": "2:00 PM Thu", "tcdvlp": "Subtropical Depression", "tcdir": 9999, "tcspd": 9999, "fldatelbl": "2026-10-01 2:00 PM Thu AST", "lat": 35, "lon": -38, "stormnum": 8, "stormsrc": "Post-Tropical Cyclone", "tau": 48, "timezone": "AST", "validtime": "01/1800", "idp_source": "al082026-005_5day_pts", "idp_filedate": 1790715751000, "idp_ingestdate": 1790715773000, "binnumber": "AT3", "MAXWIND": 30, "VALIDTIME": "01/1800"}}, {"type": "Feature", "id": 3003, "geometry": {"type": "Point", "coordinates": [-35.499999999999886, 36.19999999970037]}, "properties": {"objectid": 3003, "stormname": "Tropical Storm Hanna", "stormtype": "STD", "dvlbl": "D", "basin": "AL", "advdate": "1100 AM AST Tue Sep 29 2026", "advisnum": "5", "fcstprd": 120, "gust": 35, "maxwind": 25, "mslp": 9999, "ssnum": 0, "datelbl": "2:00 AM Fri", "tcdvlp": "Subtropical Depression", "tcdir": 9999, "tcspd": 9999, "fldatelbl": "2026-10-02 2:00 AM Fri AST", "lat": 36, "lon": -36, "stormnum": 8, "stormsrc": "Post-Tropical Cyclone", "tau": 60, "timezone": "AST", "validtime": "02/0600", "idp_source": "al082026-005_5day_pts", "idp_filedate": 1790715751000, "idp_ingestdate": 1790715773000, "binnumber": "AT3", "MAXWIND": 25, "VALIDTIME": "02/0600"}}, {"type": "Feature", "id": 3004, "geometry": {"type": "Point", "coordinates": [-32.8999999998, 36.80000000029992]}, "properties": {"objectid": 3004, "stormname": "Tropical Storm Hanna", "stormtype": "STD", "dvlbl": "D", "basin": "AL", "advdate": "1100 AM AST Tue Sep 29 2026", "advisnum": "5", "fcstprd": 120, "gust": 35, "maxwind": 25, "mslp": 9999, "ssnum": 0, "datelbl": "2:00 PM Fri", "tcdvlp": "Subtropical Depression", "tcdir": 9999, "tcspd": 9999, "fldatelbl": "2026-10-02 2:00 PM Fri AST", "lat": 37, "lon": -33, "stormnum": 8, "stormsrc": "Post-Tropical Cyclone", "tau": 72, "timezone": "AST", "validtime": "02/1800", "idp_source": "al082026-005_5day_pts", "idp_filedate": 1790715751000, "idp_ingestdate": 1790715773000, "binnumber": "AT3", "MAXWIND": 25, "VALIDTIME": "02/1800"}}]}