{"type":"FeatureCollection","features":[{"type":"Feature","id":10483,"geometry":{"type":"Point","coordinates":[-58.300000000299633,27.500000000000171]},"properties":{"objectid":10483,"stormname":"GENESIS021","stormtype":"DB","stormnum":8,"intensity":20,"basin":"al","mslp":1016,"dtg":2026092618,"year":2026,"month":"09","day":26,"hhmm":"1800","lat":28,"lon":-58,"ss":0,"idp_source":"AL082026_pts","idp_filedate":1790609284000,"idp_ingestdate":1790609310000,"binnumber":"AT3"}},{"type":"Feature","id":10484,"geometry":{"type":"Point","coordinates":[-58.199999999600209,29.100000000399859]},"properties":{"objectid":10484,"stormname":"GENESIS021","stormtype":"DB","stormnum":8,"intensity":20,"basin":"al","mslp":1016,"dtg":2026092700,"year":2026,"month":"09","day":27,"hhmm":"0000","lat":29,"lon":-58,"ss":0,"idp_source":"AL082026_pts","idp_filedate":1790609284000,"idp_ingestdate":1790609310000,"binnumber":"AT3"}},{"type":"Feature","id":10485,"geometry":{"type":"Point","coordinates":[-57.999999999999886,31.199999999800298]},"properties":{"objectid":10485,"stormname":"GENESIS021","stormtype":"DB","stormnum":8,"intensity":25,"basin":"al","mslp":1015,"dtg":2026092706,"year":2026,"month":"09","day":27,"hhmm":"0600","lat":31,"lon":-58,"ss":0,"idp_source":"AL082026_pts","idp_filedate":1790609284000,"idp_ingestdate":1790609310000,"binnumber":"AT3"}},{"type":"Feature","id":10486,"geometry":{"type":"Point","coordinates":[-57.299999999600175,32.900000000000148]},"properties":{"objectid":10486,"stormname":"INVEST","stormtype":"DB","stormnum":8,"intensity":30,"basin":"al","mslp":1014,"dtg":2026092712,"year":2026,"month":"09","day":27,"hhmm":"1200","lat":33,"lon":-57,"ss":0,"idp_source":"AL082026_pts","idp_filedate":1790609284000,"idp_ingestdate":1790609310000,"binnumber":"AT3"}},{"type":"Feature","id":10487,"geometry":{"type":"Point","coordinates":[-56.100000000199714,34.399999999700356]},"properties":{"objectid":10487,"stormname":"INVEST","stormtype":"DB","stormnum":8,"intensity":30,"basin":"al","mslp":1013,"dtg":2026092718,"year":2026,"month":"09","day":27,"hhmm":"1800","lat":34,"lon":-56,"ss":0,"idp_source":"AL082026_pts","idp_filedate":1790609284000,"idp_ingestdate":1790609310000,"binnumber":"AT3"}},{"type":"Feature","id":10488,"geometry":{"type":"Point","coordinates":[-54.999999999700094,35.699999999800298]},"properties":{"objectid":10488,"stormname":"INVEST","stormtype":"DB","stormnum":8,"intensity":30,"basin":"al","mslp":1013,"dtg":2026092800,"year":2026,"month":"09","day":28,"hhmm":"0000","lat":36,"lon":-55,"ss":0,"idp_source":"AL082026_pts","idp_filedate":1790609284000,"idp_ingestdate":1790609310000,"binnumber":"AT3"}},{"type":"Feature","id":10489,"geometry":{"type":"Point","coordinates":[-53.099999999899978,36.300000000399848]},"properties":{"objectid":10489,"stormname":"INVEST","stormtype":"DB","stormnum":8,"intensity":30,"basin":"al","mslp":1013,"dtg":2026092806,"year":2026,"month":"09","day":28,"hhmm":"0600","lat":36,"lon":-53,"ss":0,"idp_source":"AL082026_pts","idp_filedate":1790609284000,"idp_ingestdate":1790609310000,"binnumber":"AT3"}},{"type":"Feature","id":10490,"geometry":{"type":"Point","coordinates":[-51.299999999899967,36.699999999600436]},"properties":{"objectid":10490,"stormname":"HANNA","stormtype":"TS","stormnum":8,"intensity":40,"basin":"al","mslp":1006,"dtg":2026092812,"year":2026,"month":"09","day":28,"hhmm":"1200","lat":37,"lon":-51,"ss":0,"idp_source":"AL082026_pts","idp_filedate":1790609284000,"idp_ingestdate":1790609310000,"binnumber":"AT3"}}]}