{"type":"FeatureCollection","features":[{"type":"Feature","id":311,"geometry":{"type":"Polygon","coordinates":[[[-43.43631000030615,33.06532000021798],[-43.427380000386563,33.063860000338877],[-43.408230000414051,33.061910000346359],[-43.376659999659125,33.060449999567993],[-43.365389999748572,33.060159999684402],[-43.342170000045371,33.059960000353897],[-43.318280000021844,33.059960000353897],[-43.29408000009181,33.059960000353897],[-43.269800000069836,33.059960000353897],[-43.245509999586716,33.059960000353897],[-43.221220000002859,33.059960000353897],[-43.196939999980884,33.059960000353897],[-43.172650000397084,33.059960000353897],[-43.148350000352139,33.059960000353897],[-43.124070000330107,33.059960000353897],[-43.099779999846987,33.059960000353897],[-43.075490000263187,33.059960000353897],[-43.051210000241213,33.059960000353897],[-43.026919999758036,33.059960000353897],[-43.002630000174236,33.059960000353897],[-42.966289999783555,33.060059999569489],[-42.942399999760084,33.060449999567993],[-42.907420000032857,33.061910000346359],[-42.896250000237217,33.062880000112045],[-42.874390000298149,33.06532000021798],[-42.853310000356089,33.068529999859777],[-42.832620000412589,33.072130000399341],[-42.8120200001228,33.075830000154554],[-42.791330000179244,33.079429999794797],[-42.770350000352096,33.082739999551507],[-42.738580000266666,33.087409999971669],[-42.728180000006887,33.089159999734363],[-42.707479999602185,33.092760000273927],[-42.686989999888453,33.096560000144052],[-42.666680000381575,33.1005499997828],[-42.646479999652115,33.104629999974691],[-42.626170000145294,33.108619999613438],[-42.605870000200241,33.112610000151506],[-42.585760000023868,33.116800000020135],[-42.565839999616173,33.121179999657386],[-42.536310000306173,33.128089999953659],[-42.526589999928433,33.130519999598448],[-42.507159999634155,33.135390000248435],[-42.487630000124284,33.140150000322421],[-42.467909999946414,33.144730000189497],[-42.447999999999865,33.149109999826749],[-42.427889999823492,33.153290000133552],[-42.407580000316614,33.1572799997723],[-42.387280000371618,33.161270000310424],[-42.367070000080332,33.165360000064084],[-42.346859999789046,33.1694499998178],[-42.326659999958906,33.173530000009634],[-42.30644999966762,33.177619999763351],[-42.286140000160742,33.181610000301418],[-42.265840000215746,33.185599999940166],[-42.245629999924461,33.189689999693883],[-42.225329999979408,33.19368000023195],[-42.204829999804531,33.19746999964093],[-42.184139999860975,33.201070000180493],[-42.163149999572681,33.204379999937203],[-42.141979999976911,33.207499999925176],[-42.120989999688618,33.210809999681885],[-42.100299999745062,33.214410000221505],[-42.079700000354592,33.218109999976662],[-42.059100000064859,33.221800000169992],[-42.038410000121303,33.225399999810293],[-42.017430000294155,33.228709999566945],[-41.996250000237183,33.231829999554975],[-41.975270000410092,33.235129999749859],[-41.95457000000539,33.238739999851248],[-41.933980000176746,33.242430000044635],[-41.913379999886956,33.246129999799791],[-41.902979999627178,33.247890000023631],[-41.871699999655164,33.253040000096064],[-41.850519999598191,33.256149999622949],[-41.829530000209218,33.259460000278921],[-41.808840000265661,33.263059999919221],[-41.788340000090784,33.26685999978929],[-41.757929999769544,33.272889999973643],[-41.747829999854503,33.274929999619928],[-41.727520000347624,33.278920000158053],[-41.707220000402572,33.2829099997968],[-41.687010000111286,33.28699999955046],[-41.666810000281146,33.291090000203496],[-41.656699999904959,33.293129999849782],[-41.626389999698631,33.299260000149047],[-41.606089999753578,33.30326000024894],[-41.5857800002467,33.307240000325919],[-41.565569999955414,33.311330000079579],[-41.545359999664129,33.315419999833296],[-41.525159999833988,33.319509999586955],[-41.504950000442022,33.323600000239992],[-41.484649999597707,33.327580000316914],[-41.464340000090829,33.331569999955661],[-41.444140000260688,33.335659999709378],[-41.423929999969403,33.339750000362358],[-41.403719999678117,33.343840000116074],[-41.383510000286151,33.347929999869734],[-41.363210000341098,33.351909999946713],[-41.342899999934957,33.355899999585461],[-41.322800000219729,33.360090000353352],[-41.302879999812035,33.364469999990661],[-41.283159999634165,33.369040000295911],[-41.263630000124294,33.373809999931723],[-41.244199999830016,33.37867999968239],[-41.224770000435058,33.383539999871232],[-41.205340000140779,33.388409999621956],[-41.185909999846501,33.393280000271943],[-41.166479999552223,33.398139999561465],[-41.147050000157265,33.403010000211509],[-41.127619999862986,33.407879999962176],[-41.108189999568708,33.412740000151018],[-41.08876000017375,33.417609999901742],[-41.069329999879471,33.422470000090584],[-41.049899999585193,33.427339999841251],[-41.030459999729089,33.432209999591976],[-41.011039999895956,33.437069999780817],[-40.991609999601678,33.441929999969659],[-40.97218000020672,33.446799999720383],[-40.952839999566208,33.451760000024137],[-40.933709999616667,33.456919999658396],[-40.914759999873979,33.462269999960654],[-40.905430000394063,33.465100000065092],[-40.877460000178758,33.473559999894235],[-40.849570000055337,33.482119999838289],[-40.84015000002239,33.484849999827759],[-40.830629999874475,33.487479999702373],[-40.802059999868959,33.495359999764332],[-40.782829999804505,33.500420000182999],[-40.763690000293138,33.505579999817257],[-40.754259999799046,33.508309999806784],[-40.735419999733097,33.513760000223954],[-40.698400000359584,33.525340000041126],[-40.689270000210229,33.528350000352361],[-40.671009999911462,33.534390000098597],[-40.652749999612695,33.54042000028295],[-40.634479999752045,33.546460000029128],[-40.616020000122774,33.552289999983657],[-40.597269999710591,33.557839999616419],[-40.578330000429048,33.563189999918734],[-40.559190000018361,33.568349999552993],[-40.539950000392082,33.573409999971659],[-40.520809999981395,33.578569999605918],[-40.501869999800533,33.583919999908233],[-40.48312000028767,33.589470000440315],[-40.464659999759078,33.595309999956669],[-40.437259999749074,33.604349999552994],[-40.428129999599662,33.607370000325375],[-40.400729999589714,33.616420000382846],[-40.391699999555215,33.619540000370876],[-40.382570000305122,33.622549999782791],[-40.355270000410087,33.631699999955174],[-40.346140000260675,33.634719999828292],[-40.30981000033114,33.646980000426822],[-40.300669999720583,33.65000000029994],[-40.291539999571228,33.653020000173001],[-40.264139999561223,33.662059999769326],[-40.245980000276688,33.668199999630417],[-40.227809999631631,33.674320000367857],[-40.209539999771039,33.680360000114035],[-40.191280000371592,33.686390000298445],[-40.173109999726591,33.692519999698391],[-40.16397999957718,33.695539999571452],[-40.136679999682144,33.704689999743835],[-40.11842000028264,33.710719999928187],[-40.091210000041372,33.719970000215483],[-40.08207999989196,33.722979999627398],[-40.063819999593193,33.729020000272953],[-40.045560000193746,33.735049999557987],[-40.0365199996981,33.738170000445336],[-40.009219999803008,33.747310000156517],[-39.990949999942416,33.753349999902696],[-39.963549999932411,33.762399999960166],[-39.954519999897968,33.765510000386371],[-39.936359999714114,33.771639999786316],[-39.918089999853464,33.777680000431815],[-39.899829999554697,33.783709999716848],[-39.881659999809017,33.789840000016113],[-39.863490000063337,33.795970000315435],[-39.84522999976457,33.802010000061614],[-39.817829999754565,33.811049999657882],[-39.817920000307652,33.811149999772795],[-39.790629999974385,33.820299999945178],[-39.781490000263204,33.823319999818295],[-39.754099999815026,33.832369999875766],[-39.735930000069345,33.838500000175031],[-39.717769999885491,33.844629999574977],[-39.708630000174253,33.847650000347357],[-39.681330000279161,33.856799999620421],[-39.663459999978897,33.863219999803277],[-39.654619999713077,33.866519999998161],[-39.628190000368079,33.876550000282407],[-39.619639999985907,33.880149999922708],[-39.593799999969917,33.890759999974136],[-39.585059999819009,33.894169999845758],[-39.558920000357602,33.904479999552507],[-39.541239999826018,33.911090000403362],[-39.523370000425075,33.917520000148045],[-39.505199999780018,33.92365000044731],[-39.487030000034338,33.929790000308401],[-39.460320000367631,33.939509999786821],[-39.45148000010181,33.942830000004619],[-39.433890000123313,33.949540000071067],[-39.408050000107323,33.960150000122553],[-39.399499999725094,33.963749999762797],[-39.382199999630132,33.970760000174039],[-39.373369999825513,33.974060000368866],[-39.346939999581195,33.984089999753849],[-39.329059999719107,33.990509999936705],[-39.310900000434572,33.996640000235971],[-39.292629999674602,34.002670000420324],[-39.274470000390068,34.008799999820269],[-39.256299999745067,34.014930000119534],[-39.228899999735063,34.023989999738831],[-39.219860000138794,34.027100000165035],[-39.201989999838474,34.033520000347892],[-39.18431000020621,34.040139999861253],[-39.166729999789538,34.046860000388847],[-39.149429999694632,34.053860000338886],[-39.123780000346642,34.064669999720877],[-39.115040000195734,34.068070000030616],[-39.097459999779062,34.07478999965889],[-39.079769999685595,34.081410000071571],[-39.052859999789064,34.090939999781313],[-39.043729999639652,34.09395999965443],[-39.034699999605152,34.097070000080578],[-39.007689999593708,34.106510000136552],[-38.990009999961387,34.113129999649914],[-38.963679999831982,34.123249999587983],[-38.955130000349129,34.126850000127547],[-38.929480000101819,34.137649999947712],[-38.920739999950911,34.141059999819277],[-38.903250000087326,34.147870000000637],[-38.885860000338596,34.15478000029691],[-38.868469999690603,34.161689999693863],[-38.850979999827018,34.168499999875223],[-38.833690000193258,34.175510000286408],[-38.816599999889945,34.182709999566953],[-38.799299999795039,34.189719999978138],[-38.781720000277687,34.196430000044586],[-38.764039999746046,34.203049999558004],[-38.746159999883957,34.209469999740861],[-38.727990000138277,34.215600000040126],[-38.709820000392597,34.221730000339392],[-38.691950000092334,34.228160000084074],[-38.674259999998867,34.234779999597436],[-38.656679999582195,34.241489999663884],[-38.639389999948435,34.248500000075069],[-38.613739999701124,34.259299999895234],[-38.605000000449536,34.262709999766798],[-38.587420000032864,34.269419999833246],[-38.569729999939398,34.276040000245985],[-38.551859999639134,34.282460000428841],[-38.542719999927954,34.285480000301902],[-38.515520000147774,34.294720000128052],[-38.497649999847511,34.301149999872734],[-38.4711200003876,34.31106999958098],[-38.462380000236692,34.314480000351864],[-38.436540000220702,34.32509000040335],[-38.427989999838474,34.328690000043593],[-38.410689999743568,34.335689999993633],[-38.393110000226216,34.342409999621907],[-38.375429999694632,34.349019999573443],[-38.357549999832486,34.355450000217502],[-38.339389999648631,34.361579999617447],[-38.321219999902951,34.367709999916713],[-38.294499999775041,34.377439999856279],[-38.276820000142777,34.38406000026896],[-38.268079999991869,34.387470000140524],[-38.250790000358109,34.39447999965239],[-38.225140000110798,34.405269999910729],[-38.216390000398064,34.408679999782294],[-38.198809999981393,34.415400000309887],[-38.181130000349128,34.422019999823306],[-38.163249999587663,34.428440000006162],[-38.145079999841982,34.434570000305428],[-38.126919999658128,34.440699999705373],[-38.109039999796039,34.44711999988823],[-38.082519999897954,34.45705000005762],[-38.073779999747046,34.460450000367359],[-38.05647999965214,34.467459999879225],[-38.039379999787059,34.474660000059089],[-38.022090000153241,34.481669999570954],[-38.00450999973657,34.488379999637402],[-37.977989999838485,34.498309999806793],[-37.968950000242216,34.501420000232997],[-37.95077999959716,34.507549999632943],[-37.932520000197712,34.513590000278441],[-37.914349999552712,34.519719999678387],[-37.896179999807032,34.525849999977652],[-37.877920000407585,34.531880000162005],[-37.859749999762585,34.538020000023153],[-37.841880000361584,34.544440000206009],[-37.82419999983,34.551059999719371],[-37.806609999851503,34.557769999785819],[-37.780769999835513,34.568379999837248],[-37.772220000352604,34.571980000376868],[-37.763480000201753,34.575390000248433],[-37.728699999805031,34.589200000379833],[-37.720050000207209,34.592699999905221],[-37.693920000307628,34.603029999634941],[-37.685269999810544,34.606530000059593],[-37.668270000060318,34.613819999893224],[-37.651660000308652,34.621510000186504],[-37.626879999712116,34.633190000118532],[-37.618820000342623,34.637279999872248],[-37.594629999974416,34.649539999571459],[-37.578310000106285,34.657519999748331],[-37.56218000000689,34.665689999693882],[-37.554119999738077,34.669780000346861],[-37.537899999984916,34.677859999739326],[-37.521669999770552,34.68594000003111],[-37.505639999786013,34.694210000091573],[-37.489709999916442,34.702580000266948],[-37.466189999868504,34.715519999848254],[-37.451039999995885,34.724670000020637],[-37.443560000393575,34.7293400004408],[-37.428700000404547,34.738779999597455],[-37.414019999723109,34.748410000321428],[-37.392170000245187,34.763010000011661],[-37.377589999678605,34.77273999995117],[-37.363019999573226,34.782480000351882],[-37.348450000367109,34.792210000291448],[-37.341159999634158,34.79706999958097],[-37.319499999924915,34.811870000400347],[-37.312410000321165,34.816929999919694],[-37.291520000147784,34.832500000274933],[-37.278109999576714,34.843400000210011],[-37.265089999903466,34.854690000143535],[-37.252070000230219,34.865969999615913],[-37.245560000393596,34.871620000262965],[-37.225650000447047,34.888160000383834],[-37.211849999877472,34.898670000320408],[-37.204860000388578,34.903829999954667],[-37.190870000050325,34.914150000122561],[-37.176979999826983,34.924559999944165],[-37.16338000038661,34.935259999649418],[-37.13754000037062,34.958039999746347],[-37.12509999956518,34.969910000346374],[-37.11897999972706,34.975939999631407],[-37.112850000327114,34.981980000276963],[-37.09469000014326,35.000270000160526],[-37.08857000030514,35.006309999906705],[-37.07039999966014,35.024599999790325],[-37.0581599999839,35.036669999720857],[-37.040090000353132,35.055059999719333],[-37.034069999730605,35.061199999580481],[-37.022409999821491,35.07383999971637],[-37.010950000142259,35.086689999643909],[-36.994820000042864,35.107029999634904],[-36.989569999855462,35.113939999931176],[-36.979269999710596,35.127950000292401],[-36.968980000026875,35.141959999754306],[-36.953429999694606,35.162889999973686],[-36.94818000040658,35.169800000269959],[-36.937499999825036,35.18341999973336],[-36.927009999911434,35.197240000325905],[-36.916709999766567,35.211260000248956],[-36.906609999851469,35.22546000037886],[-36.896699999705106,35.239870000300414],[-36.882229999714582,35.26185999993919],[-36.877460000078827,35.269260000348879],[-36.863569999855486,35.291829999754839],[-36.858999999550235,35.299419999933207],[-36.850060000068822,35.314799999620448],[-36.841319999917914,35.330380000436833],[-36.832380000436558,35.345749999662871],[-36.823250000287146,35.360919999558462],[-36.813930000369112,35.375910000146519],[-36.804599999989875,35.390899999835256],[-36.79546999984052,35.406080000191992],[-36.786720000127787,35.421649999647911],[-36.774869999550731,35.446270000060622],[-36.771180000256663,35.454740000350853],[-36.764180000306624,35.472059999569467],[-36.753789999608671,35.498150000322426],[-36.746989999888456,35.515660000208982],[-36.739989999938416,35.532980000326916],[-36.736399999859998,35.541549999832796],[-36.729210000141279,35.558669999720848],[-36.719099999765035,35.585039999896196],[-36.712600000389557,35.602859999689372],[-36.709389999848497,35.61180999963193],[-36.700840000365588,35.639739999801293],[-36.695499999625156,35.658720000028097],[-36.690349999552723,35.677890000023638],[-36.685390000148288,35.6972499997878],[-36.680630000074302,35.71682000024299],[-36.676159999883964,35.736670000120569],[-36.672179999807042,35.757010000111563],[-36.670329999929436,35.767319999818255],[-36.66595999985401,35.799439999856247],[-36.663539999771046,35.821330000279431],[-36.661099999665112,35.843239999826267],[-36.658289999583701,35.864740000250947],[-36.656729999589686,35.875350000302433],[-36.651389999748574,35.906490000113536],[-36.647799999670156,35.927220000103091],[-36.644590000028359,35.948329999629948],[-36.642169999945395,35.970229999614958],[-36.640699999605204,35.992909999596975],[-36.640219999952933,36.015970000015614],[-36.640699999605204,36.039030000434309],[-36.642160000383569,36.061710000416326],[-36.643620000262672,36.072410000121579],[-36.647799999670156,36.104719999928193],[-36.651389999748574,36.125449999917691],[-36.654979999826992,36.14617999990719],[-36.656539999821007,36.15678000039685],[-36.661099999665112,36.188709999766843],[-36.663539999771046,36.210600000190027],[-36.664800000319644,36.221500000125047],[-36.668780000396566,36.254010000161543],[-36.672179999807042,36.274929999919721],[-36.676159999883964,36.295269999910715],[-36.680630000074302,36.315119999788294],[-36.683059999719092,36.32484999972786],[-36.690349999552723,36.354050000007646],[-36.695499999625156,36.37322000000313],[-36.700840000365588,36.392200000229991],[-36.706470000090292,36.410880000112058],[-36.712589999928412,36.429080000341912],[-36.719099999765035,36.446889999673886],[-36.725909999946396,36.464410000021644],[-36.72968999979355,36.472780000197019],[-36.737079999742093,36.489710000316393],[-36.748640000435557,36.51463000017452],[-36.756599999690138,36.530970000065622],[-36.764769999635632,36.547129999749814],[-36.772829999904445,36.563379999987148],[-36.780890000173258,36.579630000224483],[-36.789049999657664,36.595780000346906],[-36.801099999565224,36.620210000091561],[-36.805179999757058,36.628290000383345],[-36.813340000140784,36.644439999606448],[-36.821400000409596,36.660689999843783],[-36.825490000163256,36.668770000135567],[-36.83772000027767,36.693010000111542],[-36.8460799999919,36.708969999565966],[-36.854729999589665,36.724629999574972],[-36.863959999853989,36.739720000277941],[-36.873669999770527,36.754310000406349],[-36.883769999685626,36.768520000098079],[-36.889119999987884,36.775330000279439],[-36.899509999786517,36.789250000087577],[-36.910010000161265,36.803069999780803],[-36.920399999959898,36.816989999588941],[-36.935839999716109,36.838010000361351],[-36.941089999903454,36.844919999758304],[-36.951679999931912,36.858629999774791],[-36.973829999754571,36.885109999626934],[-36.985489999663628,36.897760000223968],[-36.991519999847981,36.903889999623914],[-37.009579999916923,36.922279999622447],[-37.015710000216188,36.928320000267945],[-37.021729999939453,36.934449999667891],[-37.03999000023822,36.952640000335919],[-37.052140000260692,36.964810000381362],[-37.06427999982202,36.976969999965661],[-37.076420000282667,36.989140000011162],[-37.09469000014326,37.007340000240958],[-37.100709999866467,37.013469999640904],[-37.11285999988894,37.025630000124579],[-37.131029999634677,37.043929999569968],[-37.137150000372117,37.049959999754321],[-37.149289999933444,37.062129999799822],[-37.167559999794037,37.080330000029619],[-37.173679999632157,37.086360000213972],[-37.19243000004434,37.10407000033041],[-37.205250000387082,37.115550000032613],[-37.211949999992385,37.120999999550463],[-37.232450000167262,37.136959999904207],[-37.246439999606196,37.147280000072101],[-37.260429999944392,37.157589999778793],[-37.274420000282646,37.167909999946687],[-37.281320000117773,37.173160000134033],[-37.301820000292651,37.189130000049602],[-37.315800000169759,37.199439999756351],[-37.33756999955574,37.214139999561496],[-37.344960000403603,37.218899999635426],[-37.360110000276165,37.228049999807808],[-37.375650000147289,37.236809999981688],[-37.391000000249676,37.245770000385335],[-37.406150000122295,37.254910000096572],[-37.421119999788061,37.26425999959946],[-37.436079999891945,37.273600000439842],[-37.451039999995885,37.282940000380847],[-37.466189999868504,37.292080000092085],[-37.489709999916442,37.305019999673391],[-37.497670000070343,37.30921000044134],[-37.505639999786013,37.313389999848766],[-37.529730000039365,37.325760000124035],[-37.537890000423033,37.329749999762839],[-37.554119999738077,37.337830000054623],[-37.578310000106285,37.350089999753834],[-37.594629999974416,37.358069999930706],[-37.61076000007381,37.366239999876257],[-37.626879999712116,37.374409999821808],[-37.643390000248189,37.38220000023],[-37.659910000346144,37.389989999738816],[-37.676620000212722,37.397579999917184],[-37.693920000307628,37.404590000328426],[-37.711599999939949,37.411209999841788],[-37.729279999572213,37.417819999793323],[-37.756480000251713,37.427070000080562],[-37.765619999962894,37.430080000391854],[-37.783880000261661,37.436120000138033],[-37.801949999892486,37.442340000091065],[-37.820210000191253,37.448379999837243],[-37.838480000051845,37.454410000021653],[-37.856740000350612,37.460449999767832],[-37.883940000130792,37.469689999593925],[-37.893070000280147,37.472710000366362],[-37.911340000140797,37.478739999651395],[-37.929600000439564,37.484780000296894],[-37.947870000300156,37.490809999581984],[-37.975939999731054,37.499179999757303],[-37.985370000225203,37.501900000185003],[-38.004409999621657,37.507159999934174],[-38.023650000147256,37.512220000352897],[-38.033360000063851,37.51464999999763],[-38.072709999866504,37.523900000284925],[-38.082709999666633,37.526040000046123],[-38.113509999986377,37.531680000231972],[-38.123910000246212,37.533439999556492],[-38.145090000303128,37.53654999998264],[-38.176660000158734,37.541410000171538],[-38.187060000418569,37.543159999934176],[-38.207650000247213,37.546859999689389],[-38.228249999637626,37.550560000343864],[-38.249039999696095,37.554070000330398],[-38.28148999966362,37.558059999969146],[-38.292560000243668,37.559129999849745],[-38.326369999975384,37.561759999724359],[-38.337639999885937,37.562630000274453],[-38.359789999708596,37.564770000035594],[-38.381160000433567,37.567689999793799],[-38.401949999592659,37.571190000218508],[-38.432950000142284,37.576639999736358],[-38.454030000084288,37.579859999839243],[-38.464709999766569,37.58131000015652],[-38.498619999613197,37.583839999916222],[-38.522029999984397,37.584720000028142],[-38.545929999569694,37.585110000026646],[-38.570119999937901,37.585210000141558],[-38.594410000421078,37.585210000141558],[-38.618690000443053,37.585210000141558],[-38.642980000026853,37.585210000141558],[-38.655029999934413,37.585110000026646],[-38.691080000441559,37.584720000028142],[-38.71448999991344,37.583850000377367],[-38.72565999970908,37.582870000150535],[-38.759080000341612,37.579859999839243],[-38.780160000283672,37.576639999736358],[-38.800859999789054,37.573040000096057],[-38.821549999732554,37.569439999556494],[-38.842640000135759,37.566229999914697],[-38.853709999816544,37.565160000034098],[-38.88672999998937,37.561750000162533],[-38.909280000271679,37.560000000399839],[-38.920349999952407,37.55892999961992],[-38.953379999687115,37.555530000209501],[-38.974459999629175,37.552310000106559],[-38.995059999918965,37.548610000351403],[-39.015370000325106,37.544619999813278],[-39.035570000155246,37.540539999621444],[-39.055870000100299,37.53654999998264],[-39.076179999607177,37.532560000343892],[-39.096289999783551,37.528369999575943],[-39.1161999997301,37.523989999938692],[-39.135930000369115,37.519419999633442],[-39.165169999795523,37.512220000352897],[-39.174890000173264,37.509780000246963],[-39.194319999568222,37.504920000058121],[-39.2137499998625,37.500050000307397],[-39.242890000073317,37.49275000001262],[-39.252609999551737,37.490320000367888],[-39.271939999731103,37.485360000064077],[-39.281459999878962,37.48273000018952],[-39.319449999917424,37.472120000138034],[-39.338100000214695,37.466479999952185],[-39.347230000364107,37.463460000079067],[-39.365489999763554,37.457429999894714],[-39.383759999624147,37.451390000148535],[-39.401930000269203,37.44525999984927],[-39.410769999635647,37.441950000092561],[-39.437480000201731,37.432220000153052],[-39.454970000065316,37.425409999971691],[-39.471969999815542,37.418109999676915],[-39.488590000028353,37.410420000282954],[-39.505199999780018,37.4027399995515],[-39.52181000043106,37.395050000157539],[-39.538429999744551,37.387359999864259],[-39.555430000394097,37.380059999569482],[-39.581560000293678,37.369740000300908],[-39.598849999927438,37.362740000350868],[-39.607500000424579,37.359239999926217],[-39.624600000289661,37.352039999746353],[-39.641109999926414,37.34425000023748],[-39.656950000142274,37.335779999947192],[-39.672300000244718,37.326830000004634],[-39.687359999564194,37.317590000178484],[-39.709800000169764,37.303570000255434],[-39.724950000042327,37.294429999644933],[-39.732629999874462,37.289949999892713],[-39.748080000091818,37.281089999603921],[-39.763530000309174,37.272239999776332],[-39.778780000296649,37.263189999718861],[-39.801320000117812,37.249269999910723],[-39.808699999605153,37.244500000274911],[-39.830650000097307,37.22999999980027],[-39.837939999930938,37.225130000049603],[-39.852519999598201,37.215400000110037],[-39.86708999970358,37.205670000170528],[-39.881659999809017,37.195940000230962],[-39.903519999748085,37.181339999641409],[-39.918089999853464,37.171609999701843],[-39.925379999687095,37.166739999951176],[-39.939949999792532,37.15701000001161],[-39.954519999897968,37.147280000072101],[-39.969099999565231,37.137550000132535],[-39.98366999967061,37.127820000193026],[-40.005529999609678,37.113219999603473],[-40.012809999881483,37.108349999852749],[-40.027390000448065,37.098630000374385],[-40.049250000387076,37.084020000222949],[-40.063819999593193,37.07429000028344],[-40.078389999698629,37.064560000343874],[-40.08568000043158,37.059700000155033],[-40.10024999963764,37.049959999754321],[-40.114819999743077,37.040229999814812],[-40.136679999682144,37.025630000124579],[-40.143970000415095,37.020769999935681],[-40.158539999621155,37.011039999996171],[-40.173109999726591,37.00129999959546],[-40.187679999832028,36.991569999655894],[-40.209539999771039,36.976969999965661],[-40.21682999960467,36.972109999776819],[-40.238690000443057,36.957510000086586],[-40.253259999649117,36.94778000014702],[-40.260550000382068,36.942910000396353],[-40.282410000321136,36.9283099998068],[-40.289689999693621,36.923449999617958],[-40.304259999799058,36.913719999678392],[-40.326119999738069,36.899119999988159],[-40.3334099995717,36.894259999799317],[-40.355270000410087,36.879660000109084],[-40.369839999616147,36.869930000169518],[-40.377130000349098,36.86506000041885],[-40.398990000288165,36.850459999829297],[-40.420850000227233,36.835860000139064],[-40.428129999599662,36.830999999950166],[-40.435420000332613,36.826130000199498],[-40.449990000438049,36.816400000259932],[-40.471850000377117,36.801799999670379],[-40.486419999583177,36.79206999973087],[-40.501000000149759,36.782339999791304],[-40.50828999998339,36.777470000040637],[-40.530140000360632,36.762879999912229],[-40.537430000194206,36.758010000161505],[-40.552000000299643,36.748280000221996],[-40.57386000023871,36.733679999632443],[-40.581139999611196,36.728820000342864],[-40.595720000177721,36.719090000403355],[-40.617580000116789,36.704489999813802],[-40.632150000222225,36.694759999874236],[-40.646720000327605,36.685020000372845],[-40.654010000161236,36.680160000184003],[-40.668580000266672,36.670430000244437],[-40.683159999933935,36.660700000304928],[-40.70501000031112,36.646099999715375],[-40.712300000144751,36.641229999964651],[-40.734160000083818,36.626639999836243],[-40.741440000355624,36.621770000085576],[-40.763300000294635,36.607170000395342],[-40.777879999961897,36.597429999994631],[-40.785160000233702,36.592569999805789],[-40.80702000017277,36.577970000115556],[-40.82159000027815,36.56824000017599],[-40.836169999945412,36.558510000236481],[-40.843459999779043,36.553639999586437],[-40.865310000156285,36.539050000357349],[-40.872599999989916,36.534179999707362],[-40.887170000095296,36.524449999767796],[-40.909030000034363,36.509850000077563],[-40.923609999701625,36.500120000138054],[-40.930889999973374,36.49525000038733],[-40.952749999912442,36.480660000258922],[-40.960039999746073,36.475789999608935],[-40.98189999968514,36.461189999918702],[-40.99646999979052,36.451470000440338],[-41.003750000062325,36.446599999790294],[-41.018329999729588,36.436869999850785],[-41.040180000106773,36.422259999699349],[-41.047570000055316,36.41749999962542],[-41.069909999646654,36.403390000048603],[-41.077490000263197,36.398810000181527],[-41.100420000082806,36.385289999933718],[-41.11595999995393,36.376529999759839],[-41.131310000056317,36.367579999817281],[-41.146470000390082,36.358429999644898],[-41.153949999992392,36.353760000124055],[-41.168820000442565,36.344309999606935],[-41.183480000201712,36.334679999782281],[-41.205340000140779,36.320080000092048],[-41.212629999974411,36.315219999903206],[-41.234489999913421,36.300620000212973],[-41.249060000018858,36.290890000273464],[-41.256340000290663,36.28601999962342],[-41.278200000229731,36.271419999933187],[-41.285490000063305,36.266559999744345],[-41.307350000002373,36.251960000054112],[-41.314639999836004,36.24709999986527],[-41.336490000213246,36.232500000175037],[-41.351069999880451,36.222770000235471],[-41.358350000152257,36.217899999585484],[-41.380210000091324,36.20329999989525],[-41.387499999924955,36.198430000144526],[-41.402070000030335,36.188709999766843],[-41.423929999969403,36.17411000007661],[-41.438500000074839,36.164380000137044],[-41.453070000180219,36.154639999736332],[-41.46036000001385,36.14978000044681],[-41.474930000119286,36.140049999607925],[-41.49679999962018,36.125449999917691],[-41.504079999891985,36.120580000167024],[-41.518649999997365,36.110850000227458],[-41.533229999664627,36.101120000287949],[-41.547799999770064,36.091390000348383],[-41.5623699998755,36.081660000408817],[-41.584229999814511,36.067059999819264],[-41.598799999919947,36.057329999879755],[-41.606089999753578,36.052460000129031],[-41.620659999859015,36.042730000189522],[-41.635229999964395,36.033000000249956],[-41.649800000069831,36.02327000031039],[-41.664379999737093,36.013529999909736],[-41.686239999676104,35.998939999781328],[-41.700809999781541,35.989209999841762],[-41.715390000348123,35.979479999902196],[-41.722669999720608,35.974610000151529],[-41.744529999659619,35.960009999561976],[-41.759099999765056,35.95027999962241],[-41.766389999598687,35.945409999871742],[-41.788250000437074,35.930819999743335],[-41.795529999809503,35.925949999992667],[-41.810099999914939,35.916220000053102],[-41.831959999854007,35.901620000362868],[-41.846529999959387,35.891890000423302],[-41.861109999626649,35.882159999584474],[-41.8684000003596,35.877300000294895],[-41.890249999837522,35.862690000143516],[-41.897539999671153,35.857829999954674],[-41.919399999610164,35.843230000264441],[-41.926690000343115,35.838359999614454],[-41.948539999821037,35.823770000385366],[-41.955829999654668,35.818899999735322],[-41.970399999760048,35.809169999795813],[-41.992259999699115,35.79457000010558],[-42.006840000265697,35.784840000166014],[-42.021410000371077,35.775110000226448],[-42.028689999743563,35.770239999576461],[-42.043370000425057,35.760600000189982],[-42.065710000016395,35.74650000017499],[-42.073289999733561,35.741920000307914],[-42.096209999991402,35.728400000060105],[-42.103989999938449,35.724020000422854],[-42.127110000426057,35.710689999943668],[-42.13469000014328,35.706110000076592],[-42.149750000362133,35.696870000250442],[-42.172190000068326,35.682850000327392],[-42.187150000172267,35.673519999948212],[-42.194729999889489,35.668940000081079],[-42.217650000147273,35.655410000271445],[-42.23319000001834,35.646659999659391],[-42.248540000120784,35.637700000155007],[-42.256119999838006,35.633129999849757],[-42.278659999659112,35.619210000041619],[-42.286049999607656,35.614440000405864],[-42.300719999828004,35.604800000120065],[-42.322570000205246,35.590200000429832],[-42.329860000038877,35.58534000024099],[-42.351719999977888,35.570750000112582],[-42.366490000313149,35.561209999941696],[-42.37396999991546,35.556540000420853],[-42.396609999851478,35.54271999982825],[-42.404280000121787,35.538240000076087],[-42.419719999877998,35.529379999787295],[-42.435170000095297,35.520529999959649],[-42.457999999800052,35.506900000035102],[-42.465480000301625,35.50222999961494],[-42.487920000007875,35.488220000153035],[-42.495410000071331,35.483549999732872],[-42.518040000445524,35.46973000003959],[-42.525720000277659,35.465259999849252],[-42.548939999980917,35.452019999923209],[-42.564290000083304,35.443060000418825],[-42.579439999955923,35.433910000246442],[-42.586930000019379,35.429239999826279],[-42.601879999662117,35.419899999885217],[-42.616839999766057,35.410559999944212],[-42.63189999998491,35.401309999656917],[-42.64716000043353,35.392270000060591],[-42.670380000136788,35.379030000134549],[-42.685730000239175,35.37008000019199],[-42.700880000111795,35.360930000019607],[-42.708359999714105,35.356259999599445],[-42.723330000279191,35.346919999658382],[-42.738279999921929,35.337570000155551],[-42.760919999858004,35.323749999562949],[-42.768590000128256,35.319269999810786],[-42.784040000345612,35.310419999983139],[-42.799489999663649,35.30157000015555],[-42.814739999651124,35.292509999636934],[-42.829799999869977,35.283260000248958],[-42.844759999973917,35.273929999869722],[-42.859729999639626,35.264589999928717],[-42.882360000013875,35.250770000235491],[-42.89003999984601,35.246289999583951],[-42.913249999987386,35.233060000119053],[-42.92860000008983,35.224099999715349],[-42.936179999807052,35.219530000309419],[-42.951240000025848,35.210280000022124],[-42.973679999732099,35.196269999660899],[-42.981160000233729,35.191600000140056],[-42.996219999553205,35.182349999852761],[-43.011470000440056,35.17329999979529],[-43.034690000143257,35.160059999869247],[-43.050040000245701,35.151109999926689],[-43.057619999962924,35.146539999621439],[-43.08015999978403,35.132619999813301],[-43.09511999988797,35.123279999872238],[-43.11007999999191,35.113939999931176],[-43.125240000325618,35.10478999975885],[-43.132909999696608,35.10031000000663],[-43.148359999913964,35.091460000178984],[-43.163810000131264,35.082599999890249],[-43.179060000118795,35.073549999832778],[-43.194120000337648,35.064300000444803],[-43.208980000326619,35.054860000388828],[-43.230929999919454,35.04037000037539],[-43.245509999586716,35.030629999974678],[-43.260079999692095,35.020900000035112],[-43.274649999797532,35.011170000095547],[-43.289230000364114,35.001440000156038],[-43.303790000008348,34.991710000216472],[-43.311079999841979,34.986839999566484],[-43.332950000242192,34.972239999876251],[-43.347520000347629,34.962509999936685],[-43.354799999720115,34.957649999747844],[-43.376659999659125,34.94305000005761],[-43.391240000225707,34.933320000118044],[-43.398519999598193,34.928450000367377],[-43.42038000043658,34.913860000238969],[-43.434960000103786,34.904119999838258],[-43.449530000209222,34.894389999898749],[-43.46390999964666,34.884470000190504],[-43.478089999753593,34.874339999791289],[-43.492080000091789,34.864030000084597],[-43.505870000200218,34.853520000148023],[-43.512669999920433,34.84816000028394],[-43.533270000210223,34.832300000045109],[-43.540259999699117,34.82714000041085],[-43.56124999998741,34.811670000170523],[-43.568240000375624,34.806509999636944],[-43.582240000275647,34.796300000045107],[-43.603030000334115,34.781890000123553],[-43.616629999774545,34.773330000179499],[-43.623629999724585,34.769339999641431],[-43.630809999881478,34.766519999998138],[-43.645190000218236,34.76272000012807],[-43.660050000207207,34.76184000001615],[-43.668019999922933,34.763500000125077],[-43.683359999564232,34.766909999996642],[-43.707170000395081,34.775369999825784],[-43.715429999994399,34.77906999958094],[-43.740200000129789,34.790360000413841],[-43.748559999844019,34.794149999822764],[-43.7658500003771,34.801260000348861],[-43.783340000240685,34.808169999745814],[-43.800629999874502,34.815169999695854],[-43.818119999738087,34.821979999877215],[-43.843769999985398,34.832790000158525],[-43.860370000175237,34.840479999552485],[-43.885350000102278,34.851960000154008],[-43.910209999891435,34.863539999971181],[-43.918569999605666,34.867339999841249],[-43.935869999700628,34.874339999791289],[-43.953350000002388,34.881160000433795],[-43.970639999636148,34.888160000383834],[-43.996779999996875,34.898479999652409],[-44.005420000032871,34.901989999638943],[-44.022129999899448,34.909579999817311],[-44.038649999997403,34.917359999764301],[-44.055170000095302,34.925139999711348],[-44.071289999733608,34.933320000118044],[-44.087419999833003,34.941490000063595],[-44.11179999996989,34.953559999994127],[-44.119869999800528,34.957649999747844],[-44.135990000338154,34.965819999693394],[-44.152319999768054,34.973799999870266],[-44.168440000305623,34.98196999981576],[-44.184379999737075,34.990349999552961],[-44.208079999991867,35.003089999803819],[-44.215850000377088,35.00747000034039],[-44.223430000094311,35.012050000207466],[-44.245969999915417,35.025959999554459],[-44.260930000019357,35.035309999956667],[-44.275890000123297,35.044649999897729],[-44.291049999557742,35.053789999608966],[-44.314560000043855,35.066739999651418],[-44.330489999913425,35.075100000264968],[-44.338459999629151,35.07929000013354],[-44.354390000398098,35.087660000308915],[-44.378100000214715,35.100410000121542],[-44.385869999700617,35.10478999975885],[-44.393450000317159,35.1093600000641],[-44.415990000138265,35.123279999872238],[-44.430950000242206,35.132619999813301],[-44.445899999884944,35.141959999754306],[-44.461060000218708,35.151109999926689],[-44.476600000089832,35.159870000100568],[-44.492540000420547,35.168240000275944],[-44.500499999675128,35.17241999968337],[-44.5164400000059,35.180789999858746],[-44.540339999591197,35.193349999902694],[-44.555880000361583,35.202110000076573],[-44.571039999796028,35.21124999978781],[-44.585999999899968,35.220600000190018],[-44.593480000401598,35.225269999710861],[-44.615920000107792,35.239280000072085],[-44.623499999825015,35.243850000377336],[-44.65459000002835,35.261369999825774],[-44.66255000018225,35.265559999694403],[-44.67848000005182,35.273929999869722],[-44.694420000382593,35.282300000045097],[-44.71035000025222,35.290659999759328],[-44.725890000123286,35.299419999933207],[-44.741049999557731,35.30857000010559],[-44.756009999661615,35.317910000046595],[-44.770969999765555,35.327260000448803],[-44.785929999869495,35.336600000389865],[-44.808859999689105,35.350119999738354],[-44.816639999636152,35.354500000274925],[-44.832570000405099,35.362869999550981],[-44.848500000274669,35.371239999726356],[-44.864430000144296,35.379609999901731],[-44.880360000013866,35.387980000077107],[-44.895910000346134,35.396740000250929],[-44.911060000218697,35.405879999962167],[-44.926029999884463,35.415230000364375],[-44.940989999988403,35.424570000305437],[-44.955950000092287,35.433910000246442],[-44.971099999964906,35.443060000418825],[-44.986650000297175,35.451819999693384],[-44.994620000012844,35.456000000000131],[-45.026579999866954,35.472649999797795],[-45.034640000135767,35.476739999551455],[-45.042799999620172,35.480730000089579],[-45.067090000103292,35.492889999673878],[-45.083209999741598,35.501059999619429],[-45.099540000070817,35.5090399997963],[-45.115659999709123,35.517220000202997],[-45.131789999808518,35.525390000148548],[-45.148109999676649,35.533370000325419],[-45.164239999776044,35.541549999832796],[-45.180369999875495,35.54971999977829],[-45.204750000012382,35.561789999708878],[-45.212810000281195,35.565880000361858],[-45.228940000380589,35.574050000307409],[-45.237099999864995,35.578039999946213],[-45.261390000348115,35.590200000429832],[-45.277520000447566,35.598379999937208],[-45.29384000031564,35.60636000011408],[-45.309970000415092,35.614530000059574],[-45.326090000053341,35.622709999566951],[-45.342409999921415,35.630689999743822],[-45.358540000020867,35.638859999689373],[-45.366600000289679,35.64295000034241],[-45.390989999988392,35.655020000272941],[-45.407109999626641,35.663190000218492],[-45.423239999726093,35.671369999725869],[-45.439570000055312,35.67934999990274],[-45.463760000423576,35.691609999601951],[-45.471819999793013,35.695700000254931],[-45.488139999661144,35.703680000431802],[-45.504260000198713,35.711850000377353],[-45.528560000243715,35.724020000422854],[-45.536719999728064,35.728010000061602],[-45.552840000265689,35.736180000007153],[-45.568970000365084,35.744349999952703],[-45.585480000001894,35.752140000360896],[-45.610359999814023,35.763729999739837],[-45.618709999966427,35.767520000048137],[-45.636010000061333,35.77451999999812],[-45.662139999960914,35.784840000166014],[-45.67077999999691,35.788339999691402],[-45.696920000357636,35.79865999985924],[-45.705569999955401,35.802160000283948],[-45.730529999859471,35.813639999986151],[-45.738790000358108,35.817539999971189],[-45.755500000224686,35.825130000149557],[-45.780369999575726,35.836709999966672],[-45.797370000225214,35.844010000261449],[-45.814770000435033,35.850919999658402],[-45.823509999686621,35.854319999968197],[-45.840800000219701,35.861339999941208],[-45.858290000083343,35.868139999661423],[-45.875779999946928,35.874960000303929],[-45.89287999981201,35.882159999584474],[-45.909970000115322,35.889359999764338],[-45.927459999978907,35.896169999945698],[-45.944949999842493,35.902980000127059],[-45.962240000375573,35.909989999638924],[-45.979730000239215,35.916799999820284],[-45.9972200001028,35.923610000001645],[-46.014310000406056,35.930819999743335],[-46.040150000422045,35.941429999794821],[-46.048900000134779,35.94483000010456],[-46.066579999767043,35.951449999617921],[-46.093299999894953,35.961179999557487],[-46.102329999929452,35.964289999983635],[-46.129629999824488,35.973440000156018],[-46.138659999858987,35.976549999682902],[-46.156349999952397,35.983170000095583],[-46.174029999584718,35.989789999608945],[-46.191520000347623,35.996599999790305],[-46.217160000133788,36.007410000071616],[-46.225709999616697,36.01100999971186],[-46.243200000379602,36.017810000331394],[-46.260880000011866,36.024429999844756],[-46.278559999644131,36.031050000257437],[-46.305769999885456,36.040299999645413],[-46.314900000034868,36.04332000041785],[-46.333160000333635,36.049349999702883],[-46.351229999964403,36.055580000117061],[-46.378620000412582,36.064630000174532],[-46.387760000123762,36.067650000047593],[-46.406020000422586,36.073680000231946],[-46.42409999961518,36.07990999974686],[-46.442359999913947,36.085939999931213],[-46.460620000212714,36.091970000115566],[-46.478890000073307,36.098009999861745],[-46.506089999853486,36.107249999687895],[-46.515220000002898,36.110269999560956],[-46.533489999863491,36.116299999745365],[-46.560780000196758,36.125449999917691],[-46.578949999942438,36.131580000216957],[-46.588080000091793,36.134600000090074],[-46.606349999952442,36.140630000274427],[-46.624610000251209,36.146659999559461],[-46.651819999593215,36.155909999846756],[-46.66094999974257,36.158929999719874],[-46.679210000041337,36.164959999904227],[-46.69747999990193,36.17099000008858],[-46.715539999970929,36.177219999603437],[-46.742939999980877,36.186269999660908],[-46.752079999692114,36.189290000433346],[-46.770339999990881,36.195319999718379],[-46.788409999621649,36.201550000132556],[-46.815809999631654,36.210600000190027],[-46.824939999781066,36.213620000063088],[-46.843200000079833,36.219650000247441],[-46.861269999710601,36.225879999762299],[-46.879539999571193,36.231909999946708],[-46.89779999986996,36.237949999692887],[-46.925099999765052,36.24709999986527],[-46.934140000260697,36.250210000291418],[-46.952399999660145,36.256239999576451],[-46.970659999958912,36.262280000222006],[-46.988929999819504,36.268310000406359],[-47.007190000118271,36.274350000152538],[-47.035270000010371,36.282709999866768],[-47.044690000043374,36.285439999856237],[-47.063739999900974,36.290699999605465],[-47.082969999965428,36.295760000024131],[-47.102209999591707,36.300820000442798],[-47.121249999887482,36.306069999730823],[-47.140100000414577,36.31152000014805],[-47.158749999812528,36.317160000333899],[-47.177010000111295,36.323200000080078],[-47.195270000410062,36.329230000264431],[-47.213540000270655,36.33527000001061],[-47.231810000131304,36.341300000195019],[-47.250070000430071,36.347330000379372],[-47.278139999860969,36.355710000116574],[-47.287570000355117,36.358429999644898],[-47.306609999751572,36.363690000293445],[-47.335460000078797,36.371270000010611],[-47.34508999990345,36.373799999770313],[-47.364130000199225,36.379060000418804],[-47.382970000265175,36.384509999936711],[-47.401630000124271,36.39015000012256],[-47.419890000423038,36.396189999868739],[-47.447290000433043,36.405239999926209],[-47.456419999683135,36.40825999979927],[-47.483819999693139,36.417300000294915],[-47.492949999842494,36.420320000168033],[-47.511600000139765,36.425960000353882],[-47.539969999915456,36.434039999746346],[-47.549490000063315,36.436669999620904],[-47.568729999689594,36.441730000039627],[-47.587959999754048,36.446789999558973],[-47.607000000049823,36.452050000207464],[-47.625849999677598,36.457499999725371],[-47.644499999974926,36.46313999991122],[-47.662959999604197,36.468980000326894],[-47.681620000362614,36.474619999613424],[-47.700460000428563,36.480070000030651],[-47.729129999649672,36.487860000438843],[-47.738740000350617,36.490390000198488],[-47.757979999976897,36.495449999717835],[-47.777020000272671,36.500710000366382],[-47.805189999818538,36.508980000426845],[-47.814509999736572,36.511800000070082],[-47.832790000058367,36.517830000254435],[-47.851050000357134,36.52387000000067],[-47.869309999756581,36.529900000185023],[-47.887570000055348,36.535930000369376],[-47.905839999915941,36.541970000115555],[-47.924490000213211,36.547610000301404],[-47.952859999988902,36.555689999693868],[-47.962380000136761,36.558319999568482],[-47.991240000025869,36.56590999974685],[-48.000849999827494,36.568440000405815],[-48.019899999685094,36.573689999693897],[-48.038739999751044,36.579140000111067],[-48.057399999610197,36.584789999858742],[-48.075659999908964,36.590820000043095],[-48.093929999769557,36.596859999789331],[-48.112190000068324,36.602889999973684],[-48.130459999928917,36.608920000158037],[-48.148720000227684,36.61495000034239],[-48.167369999625691,36.620600000090064],[-48.195740000300646,36.628680000381848],[-48.205260000448561,36.631310000256462],[-48.224489999613695,36.636360000213983],[-48.243730000139294,36.641430000194475],[-48.272200000029841,36.649410000371347],[-48.281620000062844,36.652129999899728],[-48.300270000360115,36.657779999647403],[-48.318529999759562,36.663809999831756],[-48.327670000370119,36.666820000143048],[-48.355070000380124,36.675879999762344],[-48.373329999779571,36.681909999946697],[-48.40054000002084,36.69114999977279],[-48.409670000170252,36.694169999645908],[-48.427929999569699,36.700210000291406],[-48.446189999868466,36.706239999576439],[-48.46426000039861,36.712469999990674],[-48.482519999798058,36.718500000175027],[-48.509930000269208,36.727550000232497],[-48.519060000418563,36.730570000105558],[-48.546750000312159,36.739330000279438],[-48.565889999823526,36.744480000351871],[-48.575599999740064,36.746919999558486],[-48.606400000059864,36.752559999744335],[-48.616979999627176,36.75411999973835],[-48.650890000373124,36.756650000397372],[-48.674299999845005,36.757529999609915],[-48.698109999776534,36.757820000392826],[-48.709860000238677,36.757620000163001],[-48.745319999618175,36.756650000397372],[-48.767949999992368,36.75499999985027],[-48.778350000252203,36.75323999962643],[-48.819440000255668,36.745749999562975],[-48.828669999620672,36.742829999804769],[-48.855199999979902,36.732899999635436],[-48.871709999616655,36.725119999688388],[-48.879780000346614,36.721029999934672],[-48.903189999818494,36.707990000238453],[-48.910579999767037,36.703219999703379],[-48.932140000260688,36.688330000129554],[-48.945549999932439,36.677439999756302],[-48.957980000276677,36.66555999959445],[-48.975280000371583,36.646389999598966],[-48.980709999866463,36.639669999970693],[-48.990629999574708,36.625269999610964],[-48.99956999995544,36.609889999923723],[-49.010440000305664,36.584299999745326],[-49.013549999832492,36.575249999687856],[-49.020059999669115,36.545469999640943],[-49.021509999986392,36.535349999702873],[-49.023270000210232,36.502560000243989],[-49.022780000096816,36.49203999984627],[-49.020059999669115,36.459640000385832],[-49.017730000139295,36.45000000010009],[-49.010440000305664,36.420810000281449],[-49.00344999991745,36.40347999970237],[-48.99509000020322,36.387529999809772],[-48.990140000360611,36.380329999629907],[-48.97537000002535,36.358620000312897],[-48.964300000344622,36.345389999948679],[-48.952640000435565,36.332729999789819],[-48.940399999860006,36.320670000320376],[-48.920870000350135,36.303740000201003],[-48.906679999782057,36.293620000262933],[-48.891529999909437,36.28447000009055],[-48.86714999977255,36.272400000160019],[-48.858890000173233,36.268509999736864],[-48.841790000308151,36.261309999557],[-48.82469000044307,36.25409999981531],[-48.807979999677116,36.246509999636942],[-48.791470000040363,36.238729999689895],[-48.774949999942407,36.230940000181022],[-48.758830000304158,36.222770000235471],[-48.742700000204707,36.214589999828775],[-48.717930000069316,36.202920000357892],[-48.709660000008853,36.199020000372855],[-48.684310000106279,36.187929999769835],[-48.675659999609195,36.184430000244447],[-48.658180000206755,36.177609999601941],[-48.640880000111792,36.170600000090076],[-48.623390000248207,36.163800000369861],[-48.60609999971507,36.156789999958676],[-48.589389999848493,36.149190000218482],[-48.57288000021174,36.141410000271435],[-48.556170000345105,36.133820000093067],[-48.539650000247207,36.126029999684874],[-48.514289999883488,36.114939999981175],[-48.505649999847492,36.111429999994641],[-48.488159999983907,36.104619999813281],[-48.470870000350146,36.097619999863241],[-48.453379999587185,36.090809999681881],[-48.436089999953424,36.083800000170015],[-48.41938000008679,36.076209999991647],[-48.394509999836487,36.064630000174532],[-48.386150000122313,36.060830000304406],[-48.369639999586184,36.053050000357359],[-48.352929999719606,36.045460000178991],[-48.326890000373112,36.035050000357387],[-48.309499999725062,36.028129999599969],[-48.29210999997639,36.021220000203016],[-48.283369999825538,36.017810000331394],[-48.265879999961896,36.01100999971186],[-48.248780000096815,36.00379999997017],[-48.231680000231734,35.996599999790305],[-48.20545000021724,35.986390000198469],[-48.196710000066332,35.982980000326904],[-48.179420000432572,35.975969999915719],[-48.16192999966961,35.969159999734359],[-48.144629999574704,35.962150000222493],[-48.119669999670634,35.950669999620914],[-48.111410000071317,35.946780000097078],[-48.086439999706101,35.935300000394875],[-48.078189999668609,35.931400000409838],[-48.061470000240206,35.92381000023147],[-48.044179999707126,35.916799999820284],[-48.035439999556218,35.913400000409808],[-48.009400000209723,35.902980000127059],[-47.991919999907964,35.896169999945698],[-47.974430000044322,35.889359999764338],[-47.95733000017924,35.882159999584474],[-47.940230000314159,35.874960000303929],[-47.922739999551197,35.868139999661423],[-47.905260000148758,35.861339999941208],[-47.879219999902944,35.850919999658402],[-47.861730000039358,35.844110000376361],[-47.85298999988845,35.84069999960542],[-47.835890000023369,35.833500000324875],[-47.82733999964114,35.829899999785312],[-47.801300000294646,35.81948999996365],[-47.783819999992886,35.81267999978229],[-47.766530000359126,35.805659999809279],[-47.749030000034338,35.798849999627919],[-47.731740000400578,35.791849999677879],[-47.723390000248173,35.788060000268956],[-47.69016000028364,35.77267000012057],[-47.681810000131293,35.76887999981227],[-47.665290000033337,35.761099999865223],[-47.64858000016676,35.753509999686855],[-47.63128999963368,35.74650000017499],[-47.613799999770038,35.739689999993629],[-47.596510000136277,35.732679999582444],[-47.579020000272692,35.725870000300404],[-47.561729999739555,35.718859999889219],[-47.545019999872977,35.711269999710851],[-47.528499999775079,35.703480000201978],[-47.51180000036959,35.69589000002361],[-47.495280000271691,35.688110000076563],[-47.478570000405057,35.680519999898195],[-47.461270000310151,35.673510000386329],[-47.452530000159243,35.670099999615445],[-47.426500000374574,35.659689999793784],[-47.400360000013848,35.649380000087092],[-47.391719999977909,35.645870000100558],[-47.375010000111274,35.63827999992219],[-47.358490000013376,35.630499999975143],[-47.341780000146798,35.622909999796775],[-47.325260000048843,35.615120000287902],[-47.308559999744091,35.607530000109591],[-47.291259999649128,35.600519999698349],[-47.273769999785543,35.593710000416309],[-47.256480000151782,35.586700000005123],[-47.23899000028814,35.579889999823763],[-47.22169999975506,35.572880000311898],[-47.19673999985099,35.561399999710375],[-47.188480000251673,35.557510000186483],[-47.163890000323136,35.545639999586456],[-47.155830000054323,35.541549999832796],[-47.139710000416073,35.533370000325419],[-47.114940000280683,35.52169999995516],[-47.106679999782045,35.51779999997018],[-47.098320000067815,35.51400999966188],[-47.072669999820505,35.503200000279946],[-47.05517999995692,35.496390000098586],[-47.037899999884985,35.489390000148546],[-47.011760000423578,35.479069999980652],[-47.003109999926437,35.475569999556001],[-46.978150000022367,35.464080000291915],[-46.96989000042305,35.46018999986876],[-46.953370000325151,35.452409999921713],[-46.937249999787525,35.444239999976162],[-46.921119999688131,35.436059999569466],[-46.90479999982,35.428080000291914],[-46.888669999720605,35.419910000346363],[-46.864380000136805,35.407740000300919],[-46.85621999975308,35.403749999762852],[-46.840100000114774,35.395579999817301],[-46.823970000015379,35.387400000309924],[-46.807639999686103,35.379420000133052],[-46.791520000047854,35.371250000187501],[-46.775389999948402,35.363069999780805],[-46.759070000080328,35.355089999603933],[-46.742939999980877,35.346919999658382],[-46.726809999881482,35.338740000151006],[-46.710490000013351,35.330759999974191],[-46.694370000375102,35.32259000002864],[-46.678249999837533,35.314409999621944],[-46.661920000407576,35.306430000344392],[-46.645790000308125,35.298260000398841],[-46.629669999770556,35.290079999992145],[-46.605280000071843,35.278019999623439],[-46.597219999803031,35.273929999869722],[-46.581089999703579,35.265750000362345],[-46.556700000004867,35.253680000431814],[-46.548639999736054,35.24960000023998],[-46.524740000150757,35.237049999757801],[-46.516779999996857,35.232859999889229],[-46.501229999664645,35.224099999715349],[-46.486079999792025,35.214950000442286],[-46.463629999624686,35.200940000081061],[-46.456150000022376,35.196269999660899],[-46.441189999918436,35.186929999719837],[-46.426040000045873,35.17778000044683],[-46.418369999775564,35.17329999979529],[-46.395150000072306,35.160059999869247],[-46.372220000252696,35.146539999621439],[-46.364639999636154,35.141970000215508],[-46.349680000431533,35.132619999813301],[-46.334910000096329,35.123090000103559],[-46.320339999990892,35.113349999702848],[-46.305959999654135,35.10342999999466],[-46.291769999985377,35.09331000005659],[-46.277779999647123,35.082989999888753],[-46.270890000273198,35.07773999970135],[-46.243490000263193,35.056519999598436],[-46.236599999989892,35.05127000031041],[-46.222600000089813,35.040950000142516],[-46.20841999998288,35.030830000204503],[-46.201230000264161,35.025869999900692],[-46.179470000440062,35.011170000095547],[-46.164889999873481,35.001440000156038],[-46.143130000049325,34.986749999912718],[-46.135940000330606,34.981780000047138],[-46.12176000022373,34.971660000109068],[-46.107959999654156,34.961150000172495],[-46.094560000443551,34.950250000237475],[-46.081539999870984,34.938960000303894],[-46.075039999596186,34.933320000118044],[-46.055499999625169,34.916380000436789],[-46.042100000414564,34.905490000063594],[-46.02829999984499,34.894969999665875],[-46.007320000017842,34.879500000324924],[-46.000320000067859,34.874339999791289],[-45.986520000397604,34.863829999854772],[-45.973120000287679,34.852929999919695],[-45.960099999715112,34.841639999986171],[-45.947080000041865,34.83035000005259],[-45.940570000205241,34.824709999866741],[-45.920649999797547,34.808169999745814],[-45.906859999689118,34.797659999809298],[-45.89287999981201,34.787350000102549],[-45.88587999986197,34.782189999568971],[-45.858379999737053,34.761060000019143],[-45.851680000131807,34.755620000063118],[-45.845270000410096,34.749870000200474],[-45.832539999721064,34.738290000383358],[-45.820110000276202,34.726419999783332],[-45.80174000030064,34.70831999966839],[-45.789699999954905,34.696059999969179],[-45.783580000116785,34.690029999784826],[-45.765219999703106,34.671920000108059],[-45.758899999635162,34.666079999692386],[-45.73976999968562,34.648770000035597],[-45.726360000013869,34.637859999639431],[-45.719460000178742,34.632610000351406],[-45.705569999955401,34.622199999630425],[-45.684579999667108,34.606719999828272],[-45.67077999999691,34.596209999891698],[-45.657379999886984,34.585309999956678],[-45.650970000165273,34.579569999655916],[-45.638240000375617,34.567989999838744],[-45.625799999570233,34.556109999676892],[-45.613559999893937,34.54403999974636],[-45.60142000033261,34.531880000162005],[-45.589279999871962,34.519719999678387],[-45.57712999984949,34.507549999632943],[-45.564990000288162,34.495390000048587],[-45.552849999827515,34.483220000003143],[-45.540699999805042,34.471060000418845],[-45.528560000243715,34.458890000373344],[-45.516410000221242,34.446729999889726],[-45.504269999760538,34.434570000305428],[-45.492119999738065,34.422400000259927],[-45.479880000061826,34.410339999891221],[-45.467449999717587,34.398470000190514],[-45.44831000020622,34.381139999611435],[-45.434899999635149,34.370239999676414],[-45.421099999964895,34.359729999739841],[-45.407120000087843,34.349420000033092],[-45.39312999974959,34.339099999865255],[-45.379330000079335,34.328589999928681],[-45.36592999996941,34.317689999993661],[-45.359520000247699,34.311949999692899],[-45.346789999558723,34.300369999875727],[-45.334349999652659,34.28850000017502],[-45.322109999976419,34.276430000244488],[-45.309970000415092,34.264260000198988],[-45.297820000392562,34.252099999715369],[-45.285679999931915,34.239929999669869],[-45.273540000370588,34.22777000008557],[-45.261390000348115,34.215609999601952],[-45.249240000325642,34.203439999556451],[-45.23711000032614,34.191279999972153],[-45.224960000303668,34.179109999926709],[-45.212810000281195,34.16695000034241],[-45.200680000281693,34.15478000029691],[-45.188530000259163,34.142619999813292],[-45.176380000236691,34.130460000228993],[-45.164239999776044,34.118290000183492],[-45.152100000214716,34.106120000138048],[-45.139950000192243,34.09395999965443],[-45.127809999731596,34.08178999960893],[-45.115559999594211,34.069730000139543],[-45.096819999643174,34.05200999956196],[-45.083989999738606,34.040529999859757],[-45.070580000066855,34.02962999992468],[-45.056789999958426,34.019119999988163],[-45.042799999620172,34.008799999820269],[-45.028819999743064,33.998490000113577],[-45.015020000072809,33.987980000177004],[-45.001610000401058,33.977080000241983],[-44.988790000058316,33.965599999640403],[-44.982479999552197,33.959760000124049],[-44.970039999646133,33.947890000423342],[-44.957790000408067,33.935819999593434],[-44.94564999994742,33.92365000044731],[-44.927380000086828,33.905459999779339],[-44.921260000248708,33.899420000033103],[-44.90252000029767,33.881709999916723],[-44.889690000393102,33.870219999753317],[-44.876279999822032,33.859319999818297],[-44.862489999713603,33.848820000342869],[-44.848500000274669,33.838500000175031],[-44.834509999936415,33.828189999568963],[-44.827610000101288,33.822929999819792],[-44.807310000156292,33.806770000135543],[-44.794289999583668,33.795489999763845],[-44.781269999910421,33.784199999830264],[-44.768250000237231,33.77290999989674],[-44.75483999966616,33.762009999961663],[-44.747950000292178,33.756750000212492],[-44.734049999607691,33.74634000039083],[-44.706169999945416,33.725619999963158],[-44.699270000110289,33.720360000213986],[-44.685870000000364,33.709460000278909],[-44.672850000327117,33.698170000345385],[-44.65982999975455,33.686880000411861],[-44.646810000081302,33.67558999957896],[-44.633409999971377,33.66468999964394],[-44.612619999912965,33.649020000073108],[-44.605619999962926,33.643870000000618],[-44.591640000085818,33.63354999983278],[-44.58474000025069,33.628299999645435],[-44.564429999844492,33.612139999961187],[-44.55161000040107,33.600649999797781],[-44.545290000333125,33.594819999843253],[-44.526539999920942,33.577109999726872],[-44.520230000314143,33.571270000210461],[-44.501089999903456,33.553950000092584],[-44.487680000231705,33.543050000157507],[-44.473879999662131,33.53254000022099],[-44.459899999785023,33.522220000053096],[-44.445910000346146,33.511899999885259],[-44.431920000007892,33.50159000017851],[-44.418120000337638,33.491080000241936],[-44.404519999997888,33.480379999637421],[-44.390720000327633,33.469869999700848],[-44.383729999939419,33.464710000066589],[-44.362750000112271,33.449230000264436],[-44.348750000212249,33.438919999658424],[-44.334759999873995,33.428600000389849],[-44.320969999765566,33.418089999553956],[-44.314170000045351,33.412729999689873],[-44.293569999755562,33.396879999912187],[-44.279580000316628,33.38655999974435],[-44.265400000209695,33.37643999980628],[-44.251019999872995,33.366509999636946],[-44.236449999767558,33.35677999969738],[-44.221680000331617,33.347240000425813],[-44.206720000227733,33.337910000046634],[-44.191559999893968,33.328759999874251],[-44.183790000408067,33.324380000236943],[-44.152120000437549,33.307450000117569],[-44.144160000283648,33.30326000024894],[-44.128030000184253,33.295079999842244],[-44.119869999800528,33.291090000203496],[-44.095580000216728,33.278929999719878],[-44.079459999679102,33.270750000212502],[-44.063130000249203,33.26277000003563],[-44.047000000149751,33.254600000090079],[-44.030879999612182,33.246419999683383],[-44.014559999744051,33.238449999967656],[-43.998440000105802,33.23026999956096],[-43.982300000444525,33.222099999615409],[-43.965789999908452,33.214310000106536],[-43.957530000309134,33.210419999683381],[-43.932559999943919,33.198930000419352],[-43.915259999849013,33.191929999569993],[-43.897589999778575,33.185310000056575],[-43.870869999650665,33.175580000117066],[-43.861839999616166,33.172460000129036],[-43.843569999755573,33.166429999944683],[-43.825310000356126,33.16039999976033],[-43.797710000116297,33.151540000370858],[-43.788390000198206,33.148719999828302],[-43.76953999967111,33.143270000310395],[-43.740880000011884,33.135479999902202],[-43.731259999749057,33.132950000142557],[-43.711830000354098,33.128089999953659],[-43.692409999621646,33.123220000202991],[-43.672969999765542,33.118349999553004],[-43.643829999554725,33.111050000157547],[-43.634110000076305,33.108619999613438],[-43.604869999750576,33.101429999894719],[-43.595059999719069,33.099089999903697],[-43.565230000064332,33.092470000390335],[-43.55531999991797,33.090329999729875],[-43.535499999625188,33.086239999976158],[-43.515979999677143,33.082349999553003],[-43.488189999668634,33.076220000153057],[-43.470799999919961,33.072229999614933],[-43.462349999652645,33.070279999622414],[-43.43631000030615,33.06532000021798]]]},"properties":{"objectid":311,"stormname":"Hanna","stormtype":"TS","basin":"AL","advdate":"500 PM AST Mon Sep 28 2026","advisnum":"2","fcstprd":120,"stormnum":8,"idp_source":"al082026-002_5day_pgn","idp_filedate":1790629356000,"idp_ingestdate":1790629441000,"st_area(shape)":24.932371862188493,"st_perimeter(shape)":29.073769474531879,"binnumber":"AT3"}}]}