{"type":"FeatureCollection","features":[{"type":"Feature","id":533,"geometry":{"type":"Polygon","coordinates":[[[-94.115010000411075,21.731400000010126],[-94.086550000082354,21.727450000417321],[-94.05566999967067,21.725030000334414],[-94.022220000352604,21.723660000109078],[-93.986800000119786,21.723049999857722],[-93.950009999661631,21.722900000135041],[-93.912480000151788,21.722900000135041],[-93.87463000027418,21.722900000135041],[-93.836789999958455,21.722900000135041],[-93.798949999642673,21.722900000135041],[-93.761110000226211,21.722900000135041],[-93.723269999910485,21.722900000135041],[-93.685420000032877,21.722900000135041],[-93.647739999900978,21.723049999857722],[-93.610520000297697,21.723660000109078],[-93.574039999746105,21.725030000334414],[-93.538600000389579,21.727450000417321],[-93.504550000382096,21.731239999826244],[-93.471710000416067,21.736240000175997],[-93.439470000240192,21.741860000338875],[-93.407230000064374,21.747470000040607],[-93.374379999637199,21.75247000039036],[-93.340320000067834,21.756259999799283],[-93.304899999835015,21.758690000343393],[-93.268420000182743,21.760050000107583],[-93.231190000118318,21.760660000358882],[-93.193500000424592,21.760810000081563],[-93.155649999647665,21.760810000081563],[-93.117970000415085,21.7609599998043],[-93.080729999889456,21.761570000055599],[-93.044250000237241,21.762929999819789],[-93.00882000044254,21.765360000363842],[-92.974759999973912,21.769149999772822],[-92.941929999569709,21.774150000122575],[-92.909679999832008,21.77975999982425],[-92.877439999656133,21.785370000425303],[-92.844599999690104,21.790380000336881],[-92.81052999965965,21.794169999745804],[-92.775119999887977,21.796589999828768],[-92.73862999977456,21.797960000054104],[-92.701550000332134,21.79872000002814],[-92.664469999990388,21.799470000440294],[-92.627990000338116,21.80083999976631],[-92.592579999667123,21.803259999849274],[-92.558520000097815,21.807059999719343],[-92.52566999967064,21.812060000069096],[-92.493430000394085,21.817669999770828],[-92.46119000021821,21.823280000371881],[-92.428339999791035,21.828279999822257],[-92.394289999783553,21.832070000130557],[-92.359020000172791,21.834650000397346],[-92.323149999872498,21.836620000412836],[-92.287279999572206,21.838590000428326],[-92.252000000399619,21.841169999795795],[-92.217939999930934,21.844960000104038],[-92.185099999964905,21.849959999554471],[-92.15285999978903,21.855579999717349],[-92.120619999613211,21.861190000318402],[-92.087930000269182,21.866340000390835],[-92.054469999590708,21.870740000051114],[-92.020419999583225,21.874530000359357],[-91.98636000001386,21.878319999768337],[-91.952900000234706,21.882720000327879],[-91.920209999991414,21.887870000400312],[-91.888120000437596,21.893629999824782],[-91.8564899996137,21.899849999777814],[-91.824999999850036,21.906220000352903],[-91.79336999992546,21.912429999844733],[-91.761730000439059,21.918649999797765],[-91.730390000398074,21.925170000095591],[-91.699360000263709,21.931989999838777],[-91.66864000003585,21.939120000387845],[-91.638209999691639,21.946550000382331],[-91.607940000430574,21.954130000099553],[-91.577670000270189,21.961709999816776],[-91.547389999648658,21.969290000433318],[-91.517120000387592,21.976870000150541],[-91.486850000227207,21.984460000328909],[-91.456729999789559,21.992189999768812],[-91.426900000134822,22.000230000014653],[-91.39738000038659,22.00856000014403],[-91.368180000106804,22.017200000180026],[-91.339420000332666,22.026299999845264],[-91.310960000003888,22.03569999985524],[-91.282499999675167,22.045099999865215],[-91.254200000429591,22.054660000059073],[-91.226350000352113,22.064659999859259],[-91.198790000158283,22.074969999565951],[-91.171399999710104,22.085440000355845],[-91.144449999767573,22.096349999852748],[-91.117809999731605,22.107570000155533],[-91.090879999812046,22.118490000113582],[-91.063630000424098,22.129109999726836],[-91.036529999859511,22.139870000400322],[-91.009450000217214,22.150639999736313],[-90.982349999652683,22.161400000409856],[-90.942839999666148,22.178690000043616],[-90.929980000176784,22.184749999812766],[-90.891379999886965,22.20295000004262],[-90.878810000281192,22.209310000156506],[-90.853690000193239,22.222050000407307],[-90.828409999921462,22.234629999574963],[-90.803129999649684,22.247220000103084],[-90.778009999561732,22.259960000353885],[-90.752730000189274,22.272540000420804],[-90.72744999991744,22.285130000049605],[-90.702320000267719,22.297859999839261],[-90.67704999955771,22.310450000367382],[-90.651759999724106,22.323030000434301],[-90.626639999636154,22.335769999785782],[-90.588649999597692,22.35456999980579],[-90.576079999991919,22.360940000380879],[-90.550959999903966,22.37367999973236],[-90.525679999632189,22.386259999799279],[-90.500400000259674,22.3988500003274],[-90.475269999710633,22.411580000117056],[-90.449999999899944,22.424169999745857],[-90.424710000066341,22.436749999812776],[-90.399589999978389,22.449490000063577],[-90.374309999706611,22.462070000130552],[-90.349030000334153,22.474659999759297],[-90.31164999964767,22.494059999569458],[-90.299240000225723,22.500579999867227],[-90.274719999927925,22.513930000369385],[-90.239000000249689,22.534999999850243],[-90.215680000431576,22.549560000393853],[-90.192370000175288,22.564120000038088],[-90.169050000357117,22.578670000120553],[-90.157259999849032,22.585799999770302],[-90.121230000264177,22.606569999805799],[-90.108810000381084,22.613090000103568],[-90.08398000017678,22.626129999799787],[-90.05916999999539,22.639170000395325],[-90.034350000252232,22.6522100000916],[-89.997719999977903,22.672369999875741],[-89.974110000276198,22.686630000074558],[-89.950789999558708,22.701180000157024],[-89.927779999647157,22.716040000146052],[-89.905079999642169,22.73119999958044],[-89.882370000075355,22.74637000037535],[-89.859670000070366,22.761529999809795],[-89.836970000065321,22.77669000014356],[-89.814259999599187,22.791849999577948],[-89.791559999594199,22.807020000372859],[-89.768850000027385,22.822179999807304],[-89.746150000022396,22.837340000141012],[-89.723439999556206,22.852499999575457],[-89.700739999551217,22.867670000370367],[-89.678029999984403,22.882829999804812],[-89.655329999979415,22.89799000013852],[-89.632620000412601,22.913149999572965],[-89.609920000407612,22.928320000367876],[-89.587209999941422,22.943479999802264],[-89.564509999936433,22.958640000136029],[-89.541809999931445,22.973799999570474],[-89.519100000364631,22.988970000365384],[-89.496400000359642,23.004129999799773],[-89.473689999893452,23.019290000133537],[-89.450989999888463,23.034449999567983],[-89.428590000228212,23.04991999980831],[-89.406490000013378,23.065690000393317],[-89.38469000014328,23.081760000423799],[-89.363200000179745,23.098140000360843],[-89.342000000099802,23.114810000181478],[-89.320510000136267,23.131190000118579],[-89.298710000266169,23.147260000149004],[-89.276919999957954,23.163330000179485],[-89.255120000087857,23.179409999771792],[-89.233320000217759,23.195479999802274],[-89.211830000254224,23.211850000177492],[-89.190639999736106,23.228529999559953],[-89.169140000210746,23.244910000396317],[-89.147349999902474,23.260980000426798],[-89.125550000032376,23.27704999955796],[-89.103750000162279,23.293130000049587],[-89.082260000198744,23.309500000424805],[-89.061379999587189,23.326480000152003],[-89.041090000103338,23.344070000130557],[-89.020810000181257,23.361660000109055],[-89.000530000259175,23.379250000087552],[-88.979629999624706,23.396229999814807],[-88.958139999661171,23.412609999751851],[-88.936339999791073,23.428679999782332],[-88.914539999920976,23.444749999812757],[-88.893049999957441,23.461120000187975],[-88.872170000245205,23.478110000376375],[-88.852189999768598,23.49599999980029],[-88.832500000074845,23.514189999568941],[-88.813129999849536,23.532690000143532],[-88.793460000178754,23.550879999912183],[-88.773479999702147,23.5687799997973],[-88.75257999996694,23.585760000423818],[-88.731090000003405,23.602140000360862],[-88.709290000133308,23.618210000391343],[-88.68749000026321,23.634280000421825],[-88.666000000299675,23.650649999897723],[-88.64511999968812,23.667640000086067],[-88.625140000110832,23.685530000409358],[-88.605450000417079,23.703720000178009],[-88.586379999637188,23.722520000198017],[-88.56730999975656,23.741329999779794],[-88.548540000220726,23.760430000144538],[-88.529459999879009,23.779230000164546],[-88.510699999904944,23.798340000091059],[-88.491619999563227,23.817140000111067],[-88.472850000027393,23.836239999576435],[-88.453780000146764,23.855050000057588],[-88.43500999971161,23.874150000422333],[-88.415939999831039,23.892950000442283],[-88.397170000295148,23.912049999907708],[-88.378100000414577,23.930849999927716],[-88.359329999979423,23.949959999854229],[-88.340260000098795,23.968759999874237],[-88.32148999966364,23.987869999800807],[-88.302410000221244,24.006669999820758],[-88.283650000247235,24.025770000185503],[-88.264589999928432,24.04457000020551],[-88.245820000392598,24.063680000132024],[-88.226749999612707,24.082480000152032],[-88.207980000076816,24.101579999617456],[-88.188899999735099,24.120379999637407],[-88.170139999761091,24.139489999563978],[-88.151370000225199,24.158600000389868],[-88.133199999580199,24.17829999964539],[-88.115330000179256,24.198320000167996],[-88.098369999575709,24.219239999926174],[-88.082029999684607,24.240780000396853],[-88.065990000138299,24.262609999851747],[-88.049949999692615,24.284440000205961],[-88.033600000239687,24.305970000215495],[-88.016650000097343,24.326900000434819],[-87.998790000258225,24.34690999959696],[-87.980619999613168,24.366620000213004],[-87.962159999983896,24.386029999584935],[-87.943990000238216,24.405740000200979],[-87.926119999937953,24.425759999824265],[-87.909160000233726,24.446679999582443],[-87.88480000011981,24.479130000449288],[-87.876790000358142,24.490050000407336],[-87.860740000350631,24.511879999862231],[-87.844389999998384,24.533409999871765],[-87.827439999855983,24.554329999629942],[-87.809880000361602,24.574649999597966],[-87.792319999967901,24.59496999956599],[-87.774759999574201,24.615290000433333],[-87.757799999869974,24.636210000191511],[-87.741459999978929,24.657740000200988],[-87.725719999877981,24.679879999562445],[-87.710280000121827,24.702320000168015],[-87.687580000116782,24.736430000244468],[-87.680009999961442,24.747809999831759],[-87.664869999650648,24.770549999882746],[-87.649429999894494,24.79298999958894],[-87.633689999793546,24.815129999849773],[-87.617639999786036,24.836960000203987],[-87.601299999894991,24.858490000213465],[-87.584639999636181,24.879719999878262],[-87.568299999745079,24.901249999887739],[-87.544380000136812,24.934149999922681],[-87.536509999636678,24.945219999603466],[-87.521069999880467,24.96766000020898],[-87.498369999875479,25.001779999847258],[-87.490799999720082,25.013149999872724],[-87.475660000308665,25.035889999923711],[-87.460529999559753,25.058640000435787],[-87.445390000148279,25.081379999587455],[-87.430249999837542,25.104119999638442],[-87.407549999832497,25.138240000175983],[-87.399979999677157,25.149610000201505],[-87.384840000265683,25.172359999814262],[-87.369710000416092,25.195099999865249],[-87.354570000105298,25.21783999991618],[-87.339429999794561,25.240590000428313],[-87.324299999944913,25.26332999957998],[-87.309159999634176,25.286069999630911],[-87.294020000222702,25.308820000143044],[-87.278879999911965,25.331560000193974],[-87.256179999906976,25.365679999832253],[-87.248620000212725,25.377049999857775],[-87.233479999901988,25.399789999908705],[-87.21835000005234,25.422529999959693],[-87.195639999586206,25.456649999597971],[-87.188070000330129,25.468019999623436],[-87.172939999581217,25.490759999674367],[-87.157800000169743,25.5135100001865],[-87.135089999703609,25.547629999824778],[-87.127530000009415,25.558999999850244],[-87.112690000043358,25.582040000245968],[-87.09815999998392,25.60540000011008],[-87.083939999831045,25.629049999857727],[-87.069999999999879,25.652999999950168],[-87.056379999637159,25.677259999949172],[-87.042470000290166,25.701219999603438],[-87.028239999676146,25.724870000250462],[-87.013700000054882,25.748219999653429],[-86.991900000184728,25.783249999887744],[-86.984630000374125,25.794929999819772],[-86.97041000022125,25.818579999567476],[-86.949660000208723,25.854659999659418],[-86.942859999589189,25.86678999965892],[-86.928939999781051,25.890750000212506],[-86.90744000025569,25.926079999892238],[-86.900180000006912,25.93775000026244],[-86.885640000385592,25.961110000126553],[-86.871110000326155,25.98446000042884],[-86.85007999999192,26.020240000175988],[-86.843260000248733,26.03237000017549],[-86.823740000300688,26.069669999870712],[-86.810870000350121,26.094680000281926],[-86.798310000306174,26.120010000161528],[-86.792099999914967,26.132739999951184],[-86.779390000148283,26.157909999646904],[-86.760469999990391,26.195819999593425],[-86.747900000384618,26.221139999911202],[-86.7415499998325,26.233730000439323],[-86.728840000065873,26.258889999673897],[-86.716420000182779,26.2843700001755],[-86.697350000302151,26.322119999938195],[-86.690990000188265,26.334709999566996],[-86.672820000442584,26.373369999925671],[-86.66086999975056,26.399299999595428],[-86.649519999748065,26.425829999954658],[-86.6387599999739,26.452969999665868],[-86.628020000222705,26.480110000276454],[-86.61727999957219,26.507260000448809],[-86.606519999798024,26.534400000160019],[-86.59516999979553,26.56092999961993],[-86.583220000002882,26.586860000189006],[-86.571259999749088,26.612789999858762],[-86.565349999702619,26.625819999993155],[-86.547349999702647,26.664639999636393],[-86.535999999700095,26.691169999995623],[-86.52523999992593,26.718320000168035],[-86.514500000174792,26.745459999879245],[-86.503749999962452,26.772599999590454],[-86.498450000167281,26.786239999976146],[-86.482250000437091,26.826879999912194],[-86.471050000157277,26.853569999555987],[-86.46545000001737,26.866909999596942],[-86.449709999916479,26.907999999600463],[-86.439420000232701,26.93559000027841],[-86.429429999994397,26.963489999963656],[-86.419889999823511,26.991850000177521],[-86.410509999836506,27.020349999652922],[-86.40096999966562,27.048700000304905],[-86.391430000394109,27.077059999619451],[-86.382050000407105,27.105559999994171],[-86.372670000420101,27.134069999930716],[-86.363279999971894,27.162570000305436],[-86.354200000329627,27.191379999687399],[-86.345569999855513,27.220649999597924],[-86.33723999972608,27.250210000291418],[-86.329220000402586,27.280079999992154],[-86.321349999902452,27.31010000031489],[-86.313329999679638,27.339970000015626],[-86.305010000011407,27.369540000270945],[-86.296369999975411,27.398799999720381],[-86.287449999617706,27.427759999724344],[-86.278519999698119,27.456719999728364],[-86.269879999662123,27.485989999638889],[-86.261559999993892,27.515559999894208],[-86.253539999771078,27.545429999594944],[-86.245819999893001,27.575599999640417],[-86.238249999737604,27.60592000030789],[-86.230679999582208,27.636249999637926],[-86.22311000032613,27.666570000305398],[-86.215549999732616,27.696899999635434],[-86.207979999577219,27.727220000302907],[-86.200560000043879,27.757700000254943],[-86.193439999955956,27.788479999652395],[-86.186629999774539,27.819560000293905],[-86.180130000399117,27.850949999942713],[-86.173920000007911,27.882639999936202],[-86.167709999616704,27.914329999929691],[-86.161359999963906,27.9458700002005],[-86.15499999985002,27.977400000010107],[-86.148639999736076,28.008940000280916],[-86.142290000083335,28.040479999652405],[-86.136079999692129,28.072169999645894],[-86.129870000200242,28.10385999963944],[-86.123519999648181,28.135399999910192],[-86.117310000156294,28.167080000341912],[-86.11156000029365,28.199229999964643],[-86.106410000221217,28.231980000276963],[-86.10202000012282,28.265489999663885],[-86.098240000275666,28.299610000201483],[-86.094449999967424,28.333720000277935],[-86.090070000330172,28.367229999664914],[-86.084920000257682,28.399979999977177],[-86.079320000117832,28.43226999976082],[-86.073719999977925,28.464570000005665],[-86.068719999628172,28.497470000040607],[-86.064779999597192,28.531439999956149],[-86.061750000162249,28.566310000006638],[-86.059020000172779,28.60148999996369],[-86.056000000299662,28.636360000014122],[-86.052069999830508,28.67032999992972],[-86.047070000380131,28.703229999964663],[-86.041470000240224,28.735530000209508],[-86.035870000100317,28.767819999993151],[-86.03088000021171,28.80072000002815],[-86.027089999903467,28.834839999666372],[-86.024669999820503,28.87031999996816],[-86.023299999595224,28.906859999689402],[-86.022550000082333,28.944009999661887],[-86.021799999670122,28.981159999634428],[-86.020430000344163,29.017700000254933],[-86.018010000261199,29.053179999657402],[-86.014230000414102,29.087289999733855],[-86.009230000064349,29.120189999768797],[-86.003629999924442,29.152490000013643],[-85.998029999784535,29.184790000258431],[-85.993030000334159,29.21769000029343],[-85.989249999587685,29.251809999931709],[-85.986819999942952,29.287279999772295],[-85.985460000178762,29.323829999954683],[-85.984860000388608,29.361129999649904],[-85.984560000043871,29.398729999689863],[-85.983960000253717,29.436030000284404],[-85.982590000028381,29.472570000005646],[-85.980169999945417,29.508050000307435],[-85.97639000009832,29.542169999945656],[-85.971389999748567,29.575069999980656],[-85.965789999608717,29.607359999764299],[-85.960190000368129,29.639660000009144],[-85.955190000018376,29.672560000044086],[-85.951410000171279,29.706679999682365],[-85.94897999962717,29.742159999984153],[-85.94761999986298,29.778699999705339],[-85.947020000072825,29.816000000299937],[-85.946719999728089,29.853600000339895],[-85.946110000376109,29.890900000035117],[-85.944749999712599,29.927439999756302],[-85.942329999629692,29.962920000058091],[-85.938549999782538,29.997039999696369],[-85.933550000332161,30.029939999731369],[-85.927950000192254,30.062239999976157],[-85.922350000052347,30.094540000221002],[-85.917349999702594,30.127440000255945],[-85.913569999855497,30.161550000332397],[-85.911140000210764,30.197029999734866],[-85.909780000446574,30.233570000355371],[-85.909030000034363,30.270720000327913],[-85.908279999622152,30.307870000300397],[-85.906910000296193,30.344410000021639],[-85.904499999775055,30.379890000323428],[-85.900699999904987,30.41400999996165],[-85.895710000016379,30.446909999996649],[-85.890109999876472,30.479199999780292],[-85.884509999736622,30.511500000025137],[-85.879359999664132,30.544250000337399],[-85.874969999565735,30.577759999724378],[-85.871189999718581,30.611869999800774],[-85.867400000309658,30.645990000338372],[-85.863010000211261,30.679499999725351],[-85.857869999700597,30.712250000037614],[-85.852130000299155,30.744390000098576],[-85.845919999907949,30.776080000092065],[-85.839550000232236,30.807620000362874],[-85.83333999984103,30.839310000356363],[-85.827130000349143,30.871000000349852],[-85.820790000258228,30.902539999721341],[-85.814579999867021,30.934229999714887],[-85.808680000281697,30.966220000053113],[-85.80308000014179,30.998520000297901],[-85.797930000069357,31.031269999710844],[-85.793089999903486,31.064320000367843],[-85.787939999830996,31.097069999780786],[-85.782339999691146,31.129370000025631],[-85.776589999828502,31.161510000086594],[-85.770839999965915,31.193659999709382],[-85.765239999826008,31.225950000392345],[-85.760089999753575,31.258699999805287],[-85.755249999587704,31.291760000024112],[-85.750100000414591,31.324510000336375],[-85.744500000274684,31.356800000120074],[-85.738750000412097,31.388949999742863],[-85.732990000088307,31.421089999803769],[-85.727389999948457,31.453390000048614],[-85.722239999875967,31.486140000360876],[-85.717410000171242,31.519190000118556],[-85.712260000098809,31.551940000430818],[-85.706659999958902,31.584239999776287],[-85.700899999635169,31.616390000298395],[-85.695149999772582,31.648530000359358],[-85.689549999632675,31.680820000143058],[-85.684399999560242,31.713580000017146],[-85.679569999855516,31.746629999774825],[-85.674419999783083,31.779380000087087],[-85.668819999643176,31.811680000331876],[-85.663060000218707,31.843820000392839],[-85.657460000078856,31.876119999738364],[-85.652310000006366,31.908870000050626],[-85.64791999990797,31.942380000336868],[-85.64412999959967,31.976490000413321],[-85.640349999752573,32.010599999590454],[-85.635959999654176,32.044109999876753],[-85.630820000042888,32.076869999750841],[-85.625219999902981,32.109160000433803],[-85.619470000040337,32.141310000056592],[-85.613869999900487,32.173610000301437],[-85.608719999827997,32.20635999971438],[-85.603879999662126,32.239410000371379],[-85.598740000050839,32.272159999784321],[-85.593139999910989,32.30446000002911],[-85.587390000048345,32.336600000090073],[-85.581629999724612,32.368740000151035],[-85.576029999584705,32.401040000395824],[-85.570889999973417,32.433789999808766],[-85.566040000245721,32.466839999566446],[-85.560899999735113,32.49960000033991],[-85.555299999595206,32.531890000123553],[-85.549549999732619,32.564030000184516],[-85.543949999592712,32.59633999999113],[-85.538800000419599,32.629079999842247],[-85.534419999882971,32.662590000128546],[-85.530629999574728,32.696709999766824],[-85.526849999727574,32.730819999843277],[-85.522459999629177,32.764330000129519],[-85.517299999994918,32.797080000441838],[-85.511699999855011,32.829379999787307],[-85.505949999992424,32.861519999848269],[-85.500349999852517,32.893820000093058],[-85.495210000241229,32.92657000040532],[-85.490359999614213,32.959620000163],[-85.485210000441043,32.992380000037144],[-85.479610000301193,33.024669999820787],[-85.473860000438549,33.056820000342896],[-85.468260000298642,33.089110000126539],[-85.463119999788034,33.121860000438801],[-85.458729999689638,33.15536999982578],[-85.45494999984254,33.189479999902233],[-85.451160000433561,33.223600000439831],[-85.446779999896989,33.257109999826753],[-85.441620000262674,33.289860000139015],[-85.436020000122824,33.32216000038386],[-85.43027000026018,33.354300000444823],[-85.424670000120329,33.386599999790292],[-85.419529999609665,33.419350000102554],[-85.414679999881969,33.452399999860233],[-85.409529999809536,33.485150000172496],[-85.403929999669629,33.517450000417341],[-85.398179999807041,33.549589999578984],[-85.392429999944454,33.581740000101092],[-85.386829999804547,33.614040000345881],[-85.381679999732114,33.646789999758823],[-85.376839999566243,33.679840000415822],[-85.371690000393073,33.712589999828765],[-85.366090000253223,33.74489000007361],[-85.360340000390579,33.777030000134516],[-85.354740000250729,33.809330000379362],[-85.349590000178239,33.842079999792304],[-85.345209999641668,33.875590000078603],[-85.341420000232745,33.909700000155055],[-85.337640000385591,33.943819999793277],[-85.333250000287194,33.977330000079576],[-85.328089999753558,34.010080000391838],[-85.322489999613708,34.042370000175538],[-85.316890000373121,34.074670000420326],[-85.311749999862514,34.107419999833269],[-85.307370000225205,34.140930000119567],[-85.303579999916963,34.17504000019602],[-85.299800000069865,34.209159999834242],[-85.295409999971412,34.24267000012054],[-85.290250000337153,34.275420000432803],[-85.284650000197246,34.307719999778328],[-85.278900000334659,34.339859999839291],[-85.273300000194752,34.372149999622934],[-85.268159999684144,34.404910000396342],[-85.263309999956448,34.437960000154021],[-85.258159999883958,34.470709999566964],[-85.252559999744108,34.503009999811809],[-85.246809999881464,34.535149999872715],[-85.241060000018877,34.567300000394823],[-85.235459999878969,34.599590000178523],[-85.230320000267682,34.632339999591466],[-85.22546000007884,34.66539999981029],[-85.220319999568233,34.698150000122553],[-85.214720000327645,34.730450000367341],[-85.208969999565738,34.762590000428304],[-85.203370000325151,34.794880000212004],[-85.198229999814544,34.827629999624946],[-85.19383999971609,34.861139999911188],[-85.190059999868993,34.895260000448786],[-85.18626999956075,34.929369999625919],[-85.181880000361616,34.962879999912218],[-85.176730000289183,34.995639999786306],[-85.171130000149276,35.027929999569949],[-85.165369999825543,35.060069999630912],[-85.159769999685636,35.092369999875757],[-85.154630000074349,35.125120000188019],[-85.149780000346652,35.158180000406844],[-85.144639999836045,35.190929999819787],[-85.139039999696138,35.22321999960343],[-85.133289999833494,35.255359999664392],[-85.127530000409081,35.287510000186501],[-85.121930000269174,35.319799999970144],[-85.116789999758566,35.352550000282406],[-85.11194000003087,35.385609999601968],[-85.106800000419582,35.41835999991423],[-85.101200000279675,35.450660000159019],[-85.095439999955943,35.482800000219981],[-85.089839999816036,35.51509999956545],[-85.084700000204748,35.547849999877712],[-85.080310000106294,35.581360000164011],[-85.076530000259197,35.615470000240464],[-85.0727500004121,35.649589999878742],[-85.068360000313646,35.683100000165041],[-85.063199999780068,35.715849999577983],[-85.057599999640161,35.748149999822772],[-85.051849999777573,35.780289999883735],[-85.046249999637666,35.812579999667378],[-85.041110000026379,35.845340000440785],[-85.036249999837537,35.878390000198522],[-85.031110000226249,35.911139999611464],[-85.025510000086342,35.943439999856253],[-85.019760000223698,35.975579999917215],[-85.014010000361111,36.007730000439324],[-85.008410000221204,36.040020000222967],[-85.003269999710596,36.072769999635909],[-84.998410000421075,36.105829999854734],[-84.993269999910467,36.138580000166996],[-84.98766999977056,36.170880000411842],[-84.981919999907973,36.203019999573485],[-84.976170000045386,36.235159999634448],[-84.970569999905479,36.267459999879236],[-84.965419999833045,36.300210000191498],[-84.960570000105292,36.333259999949178],[-84.955429999594685,36.36601000026144],[-84.949830000354154,36.398309999606965],[-84.944079999592191,36.430449999667871],[-84.938320000167778,36.46260000018998],[-84.932720000027871,36.494900000434825],[-84.927580000416583,36.527649999847768],[-84.922729999789567,36.560699999605447],[-84.917590000178279,36.593449999917709],[-84.911990000038372,36.625750000162498],[-84.906229999714583,36.65789000022346],[-84.900479999851996,36.690030000284423],[-84.894879999712089,36.722329999629949],[-84.889740000100801,36.755079999942211],[-84.884890000373105,36.788140000161036],[-84.879749999862497,36.820889999573978],[-84.87414999972259,36.853189999818767],[-84.868390000298177,36.88532999987973],[-84.86264000043559,36.917469999940693],[-84.857040000295683,36.949770000185481],[-84.851899999785076,36.982519999598424],[-84.847050000057379,37.015570000255479],[-84.841899999984889,37.048319999668422],[-84.836299999845039,37.08061999991321],[-84.830549999982395,37.112759999974173],[-84.824800000119808,37.144909999596962],[-84.819199999979901,37.177200000279925],[-84.814060000368613,37.209949999692867],[-84.809200000179771,37.243009999911692],[-84.804059999669164,37.275760000223954],[-84.798460000428577,37.308050000007654],[-84.79270999966667,37.340199999630443],[-84.786959999804026,37.372339999691405],[-84.781359999664176,37.404639999936194],[-84.776209999591686,37.437390000248456],[-84.771359999863989,37.470440000006136],[-84.766220000252702,37.503199999880223],[-84.760620000112795,37.535489999663923],[-84.754870000250207,37.567629999724829],[-84.749109999926475,37.599780000246938],[-84.743520000247713,37.632079999592463],[-84.73837000017528,37.664829999904725],[-84.733520000447584,37.697879999662405],[-84.728379999936919,37.730629999974667],[-84.722779999797069,37.762930000219455],[-84.7168699997506,37.794919999658418],[-84.710680000281684,37.826609999651907],[-84.704320000167741,37.858149999922716],[-84.698100000214708,37.889839999916205],[-84.691900000284704,37.921529999909694],[-84.685549999732586,37.953059999719358],[-84.6793400002407,37.984760000173992],[-84.673579999916967,38.016900000234955],[-84.66859000002836,38.049800000269954],[-84.664810000181262,38.083919999908233],[-84.662379999637153,38.119400000209964],[-84.661030000334165,38.155939999931206],[-84.660420000082809,38.193239999626428],[-84.660259999898983,38.230990000288443],[-84.660420000082809,38.268749999612965],[-84.661030000334165,38.306050000207506],[-84.662379999637153,38.342589999928691],[-84.664799999720117,38.37807000023048],[-84.66859000002836,38.412189999868758],[-84.673579999916967,38.445080000341875],[-84.6793400002407,38.477229999964663],[-84.685549999732586,38.508919999958152],[-84.69190999984653,38.540460000228961],[-84.698100000214708,38.572139999761305],[-84.704469999890478,38.603680000032114],[-84.711429999794575,38.634610000051623],[-84.718999999949915,38.664940000280922],[-84.727169999895466,38.694660000258978],[-84.736099999815053,38.72362000026294],[-84.745479999802058,38.752130000199486],[-84.754870000250207,38.780629999674886],[-84.764399999959949,38.808980000326926],[-84.774399999760078,38.836880000012115],[-84.784679999881973,38.864480000251945],[-84.795289999933459,38.891769999685891],[-84.806639999935953,38.918300000045122],[-84.818600000189747,38.944229999714878],[-84.830699999705132,38.970009999661897],[-84.8431100000264,38.995479999702354],[-84.85583000025423,39.020650000297394],[-84.868390000298177,39.045969999715851],[-84.880950000342125,39.071290000033628],[-84.893669999670635,39.096470000190493],[-84.906229999714583,39.121780000047124],[-84.918789999758587,39.147109999926727],[-84.931659999709098,39.172120000337884],[-84.94468999984349,39.196989999688867],[-84.958159999584211,39.221400000309927],[-84.972530000359143,39.244900000334894],[-84.987680000231705,39.267649999947707],[-85.003420000332653,39.289779999747338],[-85.028090000353131,39.321930000269447],[-85.036260000298682,39.332699999605438],[-85.052460000028873,39.354369999775827],[-85.068499999575238,39.376209999691866],[-85.084549999582691,39.398040000046137],[-85.100750000212258,39.419719999778295],[-85.11739000044804,39.440959999904237],[-85.134800000219741,39.461429999594941],[-85.161899999885009,39.491140000011114],[-85.171279999872013,39.500689999743827],[-85.199430000294171,39.529350000302429],[-85.208969999565738,39.538750000312405],[-85.227889999723629,39.557700000055092],[-85.246809999881464,39.576660000258926],[-85.265730000039355,39.59561000000167],[-85.294190000368133,39.623959999754334],[-85.303570000355137,39.633510000386366],[-85.332029999784538,39.661869999700855],[-85.341569999955425,39.671269999710887],[-85.370779999797037,39.698869999950659],[-85.380770000035341,39.707810000331392],[-85.401210000141305,39.72524999968789],[-85.422410000221248,39.74192999996967],[-85.444049999907463,39.758149999722832],[-85.465840000215735,39.774219999753313],[-85.487629999624687,39.790289999783795],[-85.509279999772048,39.806519999998159],[-85.530620000012902,39.823040000096057],[-85.5519600002537,39.839569999755838],[-85.573599999939916,39.855799999970145],[-85.59555000043207,39.871720000277946],[-85.617800000369641,39.887340000240954],[-85.640360000213718,39.902650000297399],[-85.67472000012782,39.925090000003649],[-85.698039999945934,39.939640000086058],[-85.721640000085813,39.953900000284932],[-85.745860000038874,39.967539999771304],[-85.770679999782033,39.980580000366842],[-85.795509999986393,39.993620000063117],[-85.833350000302175,40.012569999805805],[-85.846069999630686,40.018789999758837],[-85.871189999718581,40.031530000009639],[-85.896320000267679,40.044259999799294],[-85.921750000262193,40.056699999705359],[-85.946879999911971,40.06943999995616],[-85.971999999999923,40.082169999745815],[-85.997420000432555,40.094600000090054],[-86.022550000082333,40.107340000340912],[-86.047679999732111,40.120079999692393],[-86.073410000071362,40.132209999691895],[-86.099140000410614,40.144339999691397],[-86.125179999757052,40.156170000245481],[-86.152120000137813,40.167079999742327],[-86.179370000425081,40.177700000254958],[-86.206309999906466,40.188609999751861],[-86.233560000193734,40.199230000264436],[-86.260800000019856,40.209840000315921],[-86.287449999617706,40.221059999719387],[-86.314089999653675,40.232280000022115],[-86.341330000379116,40.242899999635426],[-86.368880000111801,40.253199999780293],[-86.411120000087806,40.267760000323904],[-86.425489999963418,40.272309999706863],[-86.454859999988912,40.280800000020122],[-86.484519999897998,40.288989999988644],[-86.514500000174792,40.296879999612429],[-86.54477000033512,40.304449999767826],[-86.575039999596186,40.312030000384368],[-86.620450000067365,40.323409999971659],[-86.635590000378102,40.327200000279959],[-86.665859999639167,40.334779999997124],[-86.696140000260698,40.342359999714347],[-86.742300000244711,40.352969999765833],[-86.773790000008376,40.359340000340865],[-86.789679999832003,40.362369999775808],[-86.838560000243717,40.370260000298913],[-86.855060000318645,40.372680000381877],[-86.904269999760572,40.380260000099099],[-86.936509999936447,40.385869999800775],[-86.968600000389586,40.39163999968639],[-86.984639999935951,40.394520000297916],[-87.03367999963217,40.402249999737819],[-87.067740000100798,40.406040000046119],[-87.103160000333617,40.408469999690908],[-87.139630000424063,40.409839999916187],[-87.176859999589226,40.410439999706341],[-87.214550000182271,40.410590000328398],[-87.252400000059822,40.410590000328398],[-87.290240000375604,40.410590000328398],[-87.328079999792067,40.410590000328398],[-87.365920000107792,40.410590000328398],[-87.403760000423574,40.410590000328398],[-87.441599999840037,40.410590000328398],[-87.479449999717588,40.410590000328398],[-87.51729000003337,40.410590000328398],[-87.555130000349152,40.410590000328398],[-87.592969999765558,40.410590000328398],[-87.63081000008134,40.410590000328398],[-87.668659999958948,40.410590000328398],[-87.706500000274673,40.410590000328398],[-87.744339999691135,40.410590000328398],[-87.782180000006917,40.410590000328398],[-87.819869999700643,40.410439999706341],[-87.857099999765069,40.409839999916187],[-87.893589999878486,40.408469999690908],[-87.929010000111305,40.406040000046119],[-87.945659999908969,40.403769999685892],[-87.995909999646642,40.397250000287443],[-88.028149999822517,40.39163999968639],[-88.060240000275712,40.385869999800775],[-88.092479999552211,40.380260000099099],[-88.108979999627195,40.377840000016135],[-88.158169999945414,40.370260000298913],[-88.190860000188763,40.365099999765334],[-88.222949999742582,40.359340000340865],[-88.254440000405566,40.352969999765833],[-88.285319999917931,40.34600000029991],[-88.315739999801053,40.338570000305424],[-88.346020000422584,40.330989999688882],[-88.37628999968365,40.323409999971659],[-88.406559999844035,40.315830000254437],[-88.436839999566246,40.308240000076069],[-88.467109999726574,40.300660000358903],[-88.497239999726105,40.292930000019624],[-88.527050000257191,40.284900000234984],[-88.55656000044354,40.276559999644405],[-88.585619999663152,40.267760000323904],[-88.613919999808047,40.258209999691871],[-88.641629999724614,40.24804999970786],[-88.669020000172793,40.237590000278431],[-88.695970000115324,40.226670000320382],[-88.722610000151292,40.215450000017654],[-88.749560000093823,40.204539999621431],[-88.776790000358119,40.19392000000812],[-88.803890000023387,40.183149999772809],[-88.844610000051375,40.167079999742327],[-88.858079999792039,40.161619999763332],[-88.897589999778575,40.144339999691397],[-88.910459999729085,40.138270000360365],[-88.949049999557758,40.120079999692393],[-88.974180000106799,40.107340000340912],[-88.999309999756576,40.094600000090054],[-89.024730000189265,40.082169999745815],[-89.037299999795039,40.075809999631929],[-89.07499999994991,40.056699999705359],[-89.087709999716594,40.050479999752326],[-89.112980000426603,40.037899999685408],[-89.138110000076324,40.025160000333869],[-89.163390000348159,40.012580000266951],[-89.188669999720616,39.99998999973883],[-89.226059999968925,39.980580000366842],[-89.25087999971214,39.967539999771304],[-89.275099999665144,39.953900000284932],[-89.298710000266169,39.939640000086058],[-89.322019999623194,39.925090000003649],[-89.345030000434065,39.910230000014622],[-89.367740000000879,39.895069999680913],[-89.39013999966113,39.879600000339906],[-89.412239999875965,39.863840000215987],[-89.434039999746062,39.84775999972436],[-89.455529999709597,39.831379999787316],[-89.476720000227715,39.814700000404855],[-89.49821000019125,39.798330000029637],[-89.520010000061347,39.782259999999155],[-89.541809999931445,39.766189999968674],[-89.563609999801542,39.750110000376367],[-89.585099999765077,39.733740000001148],[-89.605980000376633,39.71676000027395],[-89.62595999995392,39.698860000388834],[-89.645649999647674,39.680669999720863],[-89.664720000427565,39.661869999700855],[-89.683790000308136,39.643069999680904],[-89.702559999844027,39.623970000215479],[-89.721629999724598,39.605159999734326],[-89.740400000159752,39.586060000268958],[-89.759479999602206,39.56726000024895],[-89.778239999576215,39.54815000032238],[-89.797319999917931,39.529350000302429],[-89.816090000353142,39.510249999937685],[-89.834850000327151,39.491140000011114],[-89.853009999611686,39.471430000294447],[-89.870870000350124,39.451420000232986],[-89.88783000005435,39.430490000013663],[-89.912190000168266,39.398040000046137],[-89.928240000175776,39.376209999691866],[-89.944279999722085,39.354380000236972],[-89.960480000351652,39.332699999605438],[-89.968650000297146,39.321930000269447],[-89.993320000317681,39.289779999747338],[-90.009060000418572,39.267649999947707],[-90.024199999830046,39.244900000334894],[-90.038740000350629,39.221550000032607],[-90.052660000158767,39.197590000378341],[-90.06643999980605,39.173480000102074],[-90.080519999798071,39.149679999732371],[-90.094889999673626,39.126179999707347],[-90.10941999973312,39.102830000304436],[-90.123789999608675,39.079330000279413],[-90.137730000339161,39.055369999725826],[-90.150899999735088,39.03065000009758],[-90.163009999711619,39.004879999712387],[-90.174209999991376,38.978199999630419],[-90.185100000364628,38.95120999964189],[-90.195849999677648,38.92406999993068],[-90.206450000167251,38.896770000035644],[-90.217189999918446,38.869630000324378],[-90.227940000130786,38.842489999713848],[-90.238080000091827,38.814739999751339],[-90.247469999640657,38.786240000275939],[-90.256249999837507,38.757129999649919],[-90.264419999783058,38.72740999967192],[-90.272139999661135,38.697239999626447],[-90.279709999816532,38.666919999858237],[-90.287279999971929,38.636589999628939],[-90.294850000127326,38.606260000298903],[-90.302409999821521,38.57593999963143],[-90.309830000254181,38.545459999679395],[-90.316790000158278,38.514529999659885],[-90.322999999650165,38.482839999666396],[-90.328160000183743,38.450090000253454],[-90.331940000030897,38.415969999715855],[-90.334360000113804,38.380490000313387],[-90.335719999877995,38.343960000154027],[-90.336319999668149,38.30664999999766],[-90.336470000290205,38.268900000234964],[-90.336470000290205,38.230990000288443],[-90.336319999668149,38.193239999626428],[-90.335710000316169,38.155939999931206],[-90.334349999652659,38.119400000209964],[-90.331940000030897,38.083919999908233],[-90.328160000183743,38.049800000269954],[-90.323150000272165,38.016900000234955],[-90.317550000132314,37.984599999990166],[-90.311949999992407,37.952310000206467],[-90.306949999642654,37.919410000171524],[-90.303180000256702,37.885289999633926],[-90.300599999989913,37.849959999954194],[-90.298629999974423,37.814029999584932],[-90.296659999958933,37.778089999653901],[-90.294099999715115,37.742759999974169],[-90.290310000306192,37.70864000033589],[-90.285309999956439,37.675740000300891],[-90.279709999816532,37.643449999617928],[-90.274109999676625,37.61115000027246],[-90.269110000226249,37.57825000023746],[-90.265179999757095,37.544289999883745],[-90.262150000322151,37.50941000027143],[-90.259429999894451,37.474239999876261],[-90.25641000002139,37.439360000263946],[-90.25246999999041,37.40539999991023],[-90.247469999640657,37.372490000313405],[-90.24187000040007,37.340199999630443],[-90.23627000026022,37.307900000284917],[-90.231269999910467,37.275000000249975],[-90.227490000063369,37.240879999712377],[-90.224909999796523,37.205550000032645],[-90.222950000242236,37.169619999663382],[-90.220980000226746,37.133690000193496],[-90.218410000421102,37.098359999614445],[-90.214629999674628,37.064250000437312],[-90.209630000224251,37.031339999941167],[-90.204030000084344,36.999050000157524],[-90.198429999944437,36.966749999912736],[-90.193429999594684,36.933849999877737],[-90.189649999747587,36.899730000239458],[-90.187070000380118,36.864399999660407],[-90.185100000364628,36.828470000190521],[-90.183139999910964,36.792530000259433],[-90.18057000010532,36.757199999680381],[-90.176790000258222,36.723089999603928],[-90.171780000346644,36.690189999568986],[-90.166180000206737,36.65789000022346],[-90.16058000006683,36.625600000439817],[-90.155590000178279,36.592689999943673],[-90.151810000331125,36.558570000305394],[-90.149379999787072,36.523090000003663],[-90.147870000300145,36.486709999566983],[-90.146649999797546,36.450009999661916],[-90.145140000310676,36.41361999966341],[-90.142729999789537,36.378140000260942],[-90.13894999994244,36.344030000184489],[-90.133940000030861,36.311119999688401],[-90.128339999890954,36.278829999904701],[-90.122739999751104,36.246529999659913],[-90.117740000300671,36.213629999624914],[-90.113970000015399,36.179509999986635],[-90.11138999974861,36.144180000306903],[-90.10941999973312,36.108249999937698],[-90.10744999971763,36.072319999568492],[-90.104890000373132,36.036989999888704],[-90.101100000064832,36.002879999812308],[-90.096099999715136,35.969970000215483],[-90.090499999575229,35.93768000043184],[-90.084900000334642,35.905380000186994],[-90.079899999984889,35.872469999690907],[-90.076129999699617,35.838359999614454],[-90.073700000054828,35.802880000211985],[-90.072189999668637,35.76649000021348],[-90.070970000065358,35.729799999870238],[-90.069459999679111,35.693409999871733],[-90.06705000005735,35.657929999569944],[-90.063259999749107,35.623820000392868],[-90.058260000298674,35.590909999896724],[-90.052660000158767,35.558620000113081],[-90.04706000001886,35.52631000030641],[-90.042059999669164,35.493419999833293],[-90.038279999822009,35.459300000195014],[-90.035859999739102,35.423819999893226],[-90.034350000252232,35.387429999894721],[-90.033129999749576,35.350739999551479],[-90.031620000262706,35.314349999552974],[-90.029209999741568,35.278870000150505],[-90.025420000332645,35.244749999612964],[-90.020419999982892,35.211849999577964],[-90.014819999843041,35.179559999794321],[-90.009219999703134,35.14724999998765],[-90.004220000252701,35.114360000413853],[-90.000440000405604,35.080239999876255],[-89.99802000032264,35.044759999574467],[-89.99650999993645,35.008369999575962],[-89.995290000333171,34.971680000132039],[-89.993770000385098,34.935290000133534],[-89.991359999864017,34.899809999831746],[-89.987580000016862,34.865690000193524],[-89.982570000105341,34.832790000158525],[-89.976969999965434,34.800489999913736],[-89.971369999825527,34.768200000130037],[-89.966379999936919,34.735289999633949],[-89.962600000089822,34.701179999557496],[-89.960170000445089,34.665700000155027],[-89.958660000058842,34.629310000156522],[-89.957439999556243,34.59261999981328],[-89.955930000069372,34.556229999814775],[-89.953520000447554,34.520750000412306],[-89.949739999701137,34.486629999874765],[-89.944729999789558,34.453729999839766],[-89.939129999649651,34.421429999594977],[-89.933530000409064,34.389139999811277],[-89.928539999621194,34.356239999776335],[-89.924759999774039,34.322120000138057],[-89.922330000129307,34.286639999836268],[-89.920970000365116,34.250100000115083],[-89.92021000039108,34.212950000142541],[-89.9194500004171,34.17580000017],[-89.91808999975359,34.139260000448814],[-89.915680000131772,34.103780000147026],[-89.911900000284675,34.069659999609428],[-89.906899999934922,34.036770000035631],[-89.901290000233246,34.00446000022896],[-89.895690000093339,33.972170000445317],[-89.890700000204731,33.939270000410318],[-89.886920000357634,33.905149999872719],[-89.884489999813525,33.869669999570988],[-89.882980000326654,33.833279999572483],[-89.881770000285201,33.79659000012856],[-89.880250000337128,33.760200000130055],[-89.877839999816047,33.724719999828267],[-89.874050000407067,33.690609999751814],[-89.869059999619196,33.657700000155046],[-89.863460000378609,33.625399999910201],[-89.857860000238702,33.593110000126558],[-89.852859999889006,33.560210000091558],[-89.851350000402078,33.542769999835741],[-89.846659999958945,33.490619999713374],[-89.845140000010872,33.454220000153043],[-89.843929999969419,33.417529999809801],[-89.842410000021403,33.381139999811296],[-89.840000000399584,33.345660000408827],[-89.836210000091341,33.311550000332375],[-89.831209999741588,33.278639999836287],[-89.825609999601681,33.246350000052587],[-89.820019999922977,33.214049999807798],[-89.815030000034369,33.181149999772799],[-89.811250000187272,33.147030000134521],[-89.808819999643163,33.111560000293935],[-89.807299999695147,33.075159999834284],[-89.806089999653636,33.038470000390362],[-89.80456999970562,33.002080000391857],[-89.802149999622657,32.966600000090068],[-89.798369999775559,32.932490000013615],[-89.793370000325126,32.899580000416847],[-89.787770000185276,32.867289999733828],[-89.782179999607195,32.834990000388359],[-89.777189999718587,32.80209000035336],[-89.77340999987149,32.767969999815762],[-89.7709800002267,32.73249000041335],[-89.769449999817539,32.696100000414845],[-89.768250000237231,32.659410000071603],[-89.766730000289158,32.623020000073097],[-89.764310000206251,32.587539999771309],[-89.760530000359154,32.55342000013303],[-89.755530000009401,32.520520000098088],[-89.749929999869494,32.488230000314388],[-89.744340000190732,32.4559300000696],[-89.739350000302181,32.423030000034601],[-89.735569999555707,32.388919999958148],[-89.732990000188238,32.353579999817271],[-89.731009999711603,32.317650000347385],[-89.729039999696113,32.281719999978179],[-89.726469999890469,32.246379999837245],[-89.722690000043372,32.212269999760849],[-89.717689999693619,32.17936999972585],[-89.712089999553712,32.147070000380381],[-89.706499999875007,32.114770000135536],[-89.701509999986399,32.081870000100594],[-89.697719999678156,32.047749999562996],[-89.695140000310687,32.012419999883207],[-89.693170000295197,31.976490000413321],[-89.691200000279707,31.940560000044115],[-89.688629999574744,31.905230000364384],[-89.684840000165764,31.871109999826785],[-89.679850000277213,31.838209999791786],[-89.674250000137306,31.805920000008143],[-89.668659999559225,31.773619999763298],[-89.663669999670617,31.740719999728356],[-89.659880000261694,31.706600000090077],[-89.657299999994905,31.671270000410345],[-89.655329999979415,31.63534000004114],[-89.653359999963925,31.599400000110052],[-89.650790000158281,31.56407000043032],[-89.646999999849982,31.529960000353867],[-89.642009999961431,31.497060000318925],[-89.636409999821524,31.464760000074079],[-89.630809999681617,31.432470000290436],[-89.625819999793066,31.399559999794292],[-89.621890000223232,31.365600000339896],[-89.618850000327143,31.330730000289407],[-89.616120000337617,31.295550000332412],[-89.613099999565236,31.260680000281923],[-89.609160000433576,31.226710000366381],[-89.604160000083823,31.193810000331382],[-89.598559999943916,31.161510000086594],[-89.592970000265211,31.129220000302894],[-89.587980000376604,31.096320000267951],[-89.58404999990745,31.062350000352353],[-89.581010000011361,31.027480000301921],[-89.578280000021891,30.992300000344869],[-89.575260000148774,30.957430000294437],[-89.571320000117794,30.923460000378839],[-89.566319999768098,30.890560000343896],[-89.560730000089336,30.858260000099051],[-89.555129999949429,30.825970000315408],[-89.550140000060878,30.793059999819263],[-89.546360000213724,30.758949999742811],[-89.543779999946935,30.723620000063079],[-89.541809999931445,30.687689999693873],[-89.539839999915955,30.651749999762842],[-89.537259999649166,30.616420000083053],[-89.533479999802069,30.582310000006657],[-89.528489999913461,30.549400000409833],[-89.522889999773554,30.51710999972687],[-89.517289999633647,30.484810000381344],[-89.512299999745096,30.451910000346402],[-89.508510000336116,30.417800000269949],[-89.506090000253209,30.382319999968161],[-89.504720000027874,30.345780000246975],[-89.503969999615663,30.308630000274434],[-89.503200000079858,30.271480000301892],[-89.501849999877493,30.234939999681387],[-89.499420000232703,30.199460000278918],[-89.495640000385606,30.16533999974132],[-89.490649999597679,30.132439999706378],[-89.485050000357148,30.100140000360852],[-89.479450000217241,30.06784999967789],[-89.474460000328634,30.03494999964289],[-89.470670000020391,30.000830000004612],[-89.468089999753602,29.96550000032488],[-89.466130000199257,29.929569999955675],[-89.464160000183767,29.893630000024643],[-89.461579999916978,29.858300000344911],[-89.457789999608678,29.824190000268459],[-89.452799999720128,29.791279999772314],[-89.447199999580221,29.758989999988671],[-89.441600000339633,29.726689999743826],[-89.436459999829026,29.693940000330883],[-89.432069999730572,29.660430000044585],[-89.428280000321649,29.626319999968189],[-89.424499999575232,29.59220000032991],[-89.420099999914953,29.558690000043612],[-89.414960000303665,29.525939999731349],[-89.409360000163758,29.493640000385881],[-89.403760000023851,29.461349999702861],[-89.398620000412564,29.428600000289919],[-89.394230000314167,29.39509000000362],[-89.390440000005867,29.360979999927224],[-89.38666000015877,29.326860000288946],[-89.382259999599171,29.293350000002647],[-89.377119999987883,29.260599999690385],[-89.371519999848033,29.228309999906742],[-89.365769999985389,29.196160000283953],[-89.360169999845539,29.163860000039108],[-89.355019999773049,29.131109999726846],[-89.350170000045352,29.098059999969166],[-89.345030000434065,29.065309999656904],[-89.339430000294158,29.033010000311435],[-89.333529999809514,29.001019999973153],[-89.327320000317684,28.969329999979664],[-89.320969999765566,28.937789999708855],[-89.314760000273679,28.906110000176511],[-89.308549999882473,28.874409999721877],[-89.302189999768586,28.842879999912213],[-89.295840000115788,28.811339999641405],[-89.289470000440076,28.779800000269915],[-89.283130000349161,28.748259999999163],[-89.276919999957954,28.716579999567443],[-89.270709999566748,28.684880000012129],[-89.264350000352124,28.653350000202465],[-89.258150000422063,28.621649999747831],[-89.252240000375593,28.589660000308925],[-89.246640000235743,28.557369999625905],[-89.241490000163253,28.524620000212963],[-89.236649999997383,28.491559999994138],[-89.231510000386095,28.458809999681876],[-89.225910000246188,28.426510000336407],[-89.220000000199718,28.394519999998124],[-89.213789999808569,28.362830000004635],[-89.207440000155771,28.331300000194972],[-89.201229999764564,28.299610000201483],[-89.195020000272677,28.267909999746848],[-89.188669999720616,28.236379999937185],[-89.18246000022873,28.204689999943696],[-89.176710000366143,28.172540000320907],[-89.171719999578215,28.139640000285908],[-89.167939999731118,28.10551999974831],[-89.165510000086329,28.070049999907724],[-89.164150000322138,28.033499999725336],[-89.163540000070839,27.996200000030115],[-89.163390000348159,27.958450000267419],[-89.163390000348159,27.920540000320898],[-89.163390000348159,27.882639999936202],[-89.163390000348159,27.844729999989625],[-89.163390000348159,27.806829999604929],[-89.163390000348159,27.768919999658408],[-89.163390000348159,27.731009999711887],[-89.163390000348159,27.693110000226454],[-89.163390000348159,27.655200000279933],[-89.163390000348159,27.617299999895238],[-89.163390000348159,27.57938999994866],[-89.163390000348159,27.541480000002139],[-89.163540000070839,27.503730000239443],[-89.164150000322138,27.466429999644902],[-89.165510000086329,27.429889999923716],[-89.167939999731118,27.394409999621928],[-89.171719999578215,27.36028999998365],[-89.176710000366143,27.327389999948707],[-89.182309999606673,27.295089999703862],[-89.188060000368637,27.262949999642899],[-89.193659999609167,27.230659999859256],[-89.198809999681657,27.197899999985168],[-89.203660000308673,27.164850000227489],[-89.208799999919961,27.132099999915226],[-89.214400000059868,27.099799999670381],[-89.220310000106338,27.067810000231475],[-89.226519999598224,27.036120000237986],[-89.23285999968914,27.004579999967177],[-89.239070000080346,26.972889999973688],[-89.245290000033378,26.941199999980142],[-89.251790000308176,26.909819999893216],[-89.258610000051362,26.878729999689881],[-89.26571999967814,26.847959999854254],[-89.273129999649655,26.817479999902218],[-89.280699999805051,26.787160000134065],[-89.288269999960448,26.75682999990471],[-89.295840000115788,26.726499999675411],[-89.303410000271185,26.696179999907201],[-89.310969999965437,26.665860000139048],[-89.318700000304659,26.63567999963243],[-89.326719999628153,26.605809999931694],[-89.335040000195761,26.576239999676375],[-89.343669999770555,26.546980000226995],[-89.352750000312142,26.518169999945655],[-89.362139999861029,26.489669999570992],[-89.371519999848033,26.46115999963439],[-89.380910000296183,26.432660000159046],[-89.390440000005867,26.404299999945181],[-89.399980000176754,26.375950000192518],[-89.409360000163758,26.347440000255972],[-89.418749999712588,26.318939999881252],[-89.428280000321649,26.290579999667386],[-89.437819999593216,26.262229999914723],[-89.447199999580221,26.233719999978177],[-89.45659000002837,26.205219999603457],[-89.466130000199257,26.176869999850737],[-89.475659999908942,26.148509999636929],[-89.480350000352132,26.1342599998992],[-89.494430000344153,26.091500000224983],[-89.503969999615663,26.063149999572943],[-89.513500000224724,26.034790000258454],[-89.522889999773554,26.006289999883734],[-89.532269999760558,25.977779999947188],[-89.541809999931445,25.949430000194468],[-89.551350000102332,25.921080000441805],[-89.560730000089336,25.892569999605939],[-89.570270000260223,25.864219999853276],[-89.580259999599207,25.83632000016803],[-89.590550000182247,25.808719999928201],[-89.601140000210762,25.781429999594934],[-89.612490000213256,25.754900000135024],[-89.62444999956773,25.728969999565948],[-89.636409999821524,25.703039999896248],[-89.648359999614172,25.677110000226492],[-89.654420000282698,25.664220000252953],[-89.671680000331662,25.624650000197505],[-89.682420000082857,25.597509999586975],[-89.693179999857023,25.570369999875709],[-89.698619999813047,25.556869999650928],[-89.714660000258675,25.516089999553969],[-89.726010000261226,25.489549999632914],[-89.731920000307639,25.476509999936695],[-89.750079999592231,25.437849999577963],[-89.7561400002607,25.424959999604425],[-89.768850000027385,25.399789999908705],[-89.787779999747102,25.36189000042333],[-89.793979999677163,25.349150000172529],[-89.80669000034311,25.323979999577489],[-89.825609999601681,25.286080000092056],[-89.831819999992888,25.273339999841255],[-89.844529999759573,25.248170000145535],[-89.863449999917464,25.210260000199014],[-89.876009999961411,25.184939999881237],[-89.882370000075355,25.172359999814262],[-89.895389999748602,25.147489999563959],[-89.908410000321169,25.122620000212976],[-89.929149999872493,25.086540000121033],[-89.93626000039859,25.074709999566949],[-89.950789999558708,25.051360000164038],[-89.965319999618202,25.028009999861752],[-89.979840000115814,25.004659999559465],[-89.994089999853486,24.981000000249935],[-90.014819999843041,24.944920000158049],[-90.028589999928442,24.920809999881726],[-90.042680000381608,24.897010000411342],[-90.049790000008386,24.885179999857257],[-90.071730000039395,24.850309999806768],[-90.086719999728075,24.827409999571955],[-90.094280000321646,24.81604000044581],[-90.109729999639683,24.793599999840239],[-90.125469999740574,24.771459999579463],[-90.141519999748084,24.749630000124569],[-90.157859999639186,24.728100000115035],[-90.17451000033617,24.706869999550975],[-90.198880000011911,24.674419999583449],[-90.206909999796551,24.663510000086603],[-90.222950000242236,24.641670000170507],[-90.238989999788544,24.619830000254467],[-90.255039999796054,24.597999999900196],[-90.271390000148301,24.576469999890719],[-90.288039999945966,24.555240000225979],[-90.30437999983701,24.533710000216502],[-90.320429999844521,24.511879999862231],[-90.336470000290205,24.490050000407336],[-90.352520000297659,24.468209999591977],[-90.368869999750586,24.446679999582443],[-90.385819999892988,24.425759999824265],[-90.403679999732105,24.405740000200979],[-90.42183999991596,24.386029999584935],[-90.440610000351114,24.366930000119567],[-90.459379999887005,24.347820000192996],[-90.478449999767577,24.329020000172989],[-90.497220000202731,24.309919999808301],[-90.516299999645184,24.291110000226467],[-90.535059999619193,24.272009999861723],[-90.55413999996091,24.253209999841772],[-90.572910000396121,24.234099999915202],[-90.591980000276692,24.215299999895194],[-90.610749999812526,24.196200000429826],[-90.629819999693154,24.177389999948673],[-90.648590000128308,24.158289999583928],[-90.66766000000888,24.139489999563978],[-90.686430000444034,24.120390000098553],[-90.705509999886488,24.101590000078602],[-90.724269999860496,24.082480000152032],[-90.74335000020227,24.063680000132024],[-90.762119999738104,24.04457000020551],[-90.781189999618675,24.025770000185503],[-90.799960000053829,24.006669999820758],[-90.819020000372632,23.987869999800807],[-90.837789999908466,23.968759999874237],[-90.856859999789037,23.949959999854229],[-90.875929999669665,23.931159999834279],[-90.895609999801536,23.91297000006557],[-90.9155900002782,23.89507000018051],[-90.936479999552262,23.878089999553993],[-90.95797000041506,23.861720000078094],[-90.979770000285157,23.845639999586467],[-91.001570000155255,23.829569999555986],[-91.02306000011879,23.813200000080087],[-91.043959999853996,23.796220000352889],[-91.064230000214252,23.778630000374335],[-91.084519999698102,23.761040000395838],[-91.104799999620184,23.74345000041734],[-91.125689999793565,23.726469999790822],[-91.1471799997571,23.710089999853778],[-91.168979999627197,23.694019999823297],[-91.190780000396614,23.67794000023099],[-91.212270000360149,23.661569999855772],[-91.233170000095299,23.644590000128517],[-91.253439999556235,23.627000000150019],[-91.273720000377637,23.609410000171522],[-91.294000000299661,23.59182999975485],[-91.314900000034868,23.57483999956645],[-91.336389999998403,23.558470000090551],[-91.358479999752092,23.542700000404864],[-91.380889999873489,23.527230000164536],[-91.403589999878477,23.512069999830771],[-91.426300000344611,23.496910000396326],[-91.449009999911482,23.481750000062618],[-91.471409999571733,23.466279999822291],[-91.493509999786568,23.450510000136546],[-91.51530000009484,23.434440000106065],[-91.536790000058375,23.418060000169021],[-91.557990000138318,23.40137999988724],[-91.579480000101796,23.385010000411341],[-91.601279999971894,23.36894000038086],[-91.623369999725583,23.353169999795796],[-91.645779999847036,23.337699999555468],[-91.66849000031317,23.322540000121023],[-91.691190000318159,23.307379999787315],[-91.713899999884973,23.29222000035287],[-91.736599999889961,23.27704999955796],[-91.759310000356152,23.261890000123572],[-91.78201000036114,23.246729999789807],[-91.804719999927954,23.231559999894216],[-91.827419999932943,23.216399999560451],[-91.850130000399076,23.201240000126063],[-91.872830000404065,23.186079999792298],[-91.895539999970936,23.170920000357853],[-91.918239999975924,23.155749999562943],[-91.940950000442058,23.140590000128554],[-91.963650000447046,23.12542999979479],[-91.98636000001386,23.110270000360345],[-92.009060000018906,23.095099999565491],[-92.032069999930457,23.080239999576463],[-92.055380000186744,23.065690000393317],[-92.078989999888506,23.051439999756326],[-92.103220000302656,23.037789999808808],[-92.115629999724604,23.031270000410359],[-92.140450000367139,23.018229999814764],[-92.16543000029418,23.005339999841283],[-92.190700000104812,22.992759999774307],[-92.215980000376589,22.980170000145506],[-92.241099999565222,22.967429999894705],[-92.266390000298145,22.954849999827786],[-92.291660000108834,22.942260000198985],[-92.316789999758555,22.929530000409329],[-92.34207000003039,22.916939999881208],[-92.367339999841022,22.904359999814289],[-92.392470000390119,22.891619999563488],[-92.417760000223723,22.879040000395833],[-92.455579999617214,22.860080000191999],[-92.468150000122307,22.853720000078056],[-92.506140000160769,22.834920000058105],[-92.5187099997666,22.828550000382336],[-92.543829999854495,22.815810000131535],[-92.56925999984901,22.803379999787296],[-92.594990000188261,22.791249999787794],[-92.633900000384585,22.77336000036388],[-92.647359999664161,22.767900000384827],[-92.674449999767546,22.757130000149516],[-92.701550000332134,22.74637000037535],[-92.728649999997401,22.735600000140039],[-92.755740000100843,22.724840000365873],[-92.782230000414074,22.713470000340408],[-92.808109999576743,22.701490000063586],[-92.83400000009982,22.689509999786821],[-92.859889999723578,22.67753000040932],[-92.885769999785566,22.665550000132555],[-92.912249999637652,22.654180000107033],[-92.939350000202239,22.643409999871722],[-92.966449999867507,22.632650000097556],[-92.993550000432094,22.62189000032339],[-93.020779999797071,22.611269999810759],[-93.047729999739602,22.600349999852767],[-93.07436999977557,22.589130000449302],[-93.101310000156275,22.578220000053079],[-93.128710000166279,22.567750000162505],[-93.156259999898964,22.557439999556493],[-93.184109999976442,22.547439999756307],[-93.212419999683163,22.537879999562449],[-93.240880000011884,22.528479999552474],[-93.26918000015678,22.518929999819761],[-93.297489999863501,22.509380000087049],[-93.325939999731077,22.499980000077073],[-93.354400000059854,22.490580000067098],[-93.382709999766575,22.481030000334385],[-93.411009999911471,22.471470000140528],[-93.439470000240192,22.462070000130552],[-93.46792999966965,22.452670000120577],[-93.496380000436545,22.443270000110545],[-93.525129999749595,22.434170000445306],[-93.554339999591207,22.42553000040931],[-93.583860000238701,22.417189999818788],[-93.613680000331669,22.409149999572946],[-93.643810000331143,22.401420000133044],[-93.674079999592209,22.393840000415821],[-93.704349999752594,22.386259999799279],[-93.734630000374125,22.378680000082056],[-93.76489999963519,22.371100000364891],[-93.795029999634664,22.363370000025611],[-93.82484000016575,22.355329999779826],[-93.854350000352156,22.346990000088567],[-93.883560000193768,22.338350000052628],[-93.912480000151788,22.32940000011007],[-93.941389999648663,22.320450000167511],[-93.970600000389595,22.311810000131516],[-94.00012000013777,22.303470000440313],[-94.029940000230738,22.295439999756297],[-94.059910000046386,22.287550000132569],[-94.089719999678152,22.279509999886727],[-94.119249999887472,22.271179999757351],[-94.148300000444578,22.262380000436792],[-94.1766100001513,22.25282999980476],[-94.204159999883984,22.242520000098068],[-94.230799999919952,22.231299999795283],[-94.255920000007904,22.218560000443802],[-94.290440000105832,22.196280000022114],[-94.310709999566711,22.178690000043616],[-94.328280000421557,22.158370000075593],[-94.343419999833031,22.135630000024605],[-94.355970000315153,22.110610000051622],[-94.369159999734109,22.068149999822765],[-94.374300000244716,22.038130000399349],[-94.376110000076324,22.007200000379839],[-94.374300000244716,21.976270000360387],[-94.369150000172283,21.946250000037594],[-94.361129999949412,21.917590000378368],[-94.350370000175246,21.890750000112575],[-94.337199999879999,21.866040000046098],[-94.321920000307671,21.843449999717848],[-94.295289999833528,21.813270000110549],[-94.274550000282204,21.796290000383351],[-94.25214000016075,21.781430000394323],[-94.215959999953952,21.763080000441789],[-94.191439999656154,21.752780000296923],[-94.179489999863506,21.748069999830761],[-94.141490000263218,21.737009999711859],[-94.115010000411075,21.731400000010126]]]},"properties":{"objectid":533,"stormname":"Isaias","stormtype":"TS","basin":"AL","advdate":"400 AM CDT Wed Oct 07 2026","advisnum":"3","fcstprd":120,"stormnum":9,"idp_source":"al092026-003_5day_pgn","idp_filedate":1791363762000,"idp_ingestdate":1791363784000,"st_area(shape)":71.118544368657822,"st_perimeter(shape)":48.721791145910728,"binnumber":"AT4"}}]}