{"type":"FeatureCollection","features":[{"type":"Feature","id":4684,"geometry":{"type":"LineString","coordinates":[[-96.500000000399609,22.000000000199975],[-96.299999999899967,22.199999999800298],[-96.100000000299644,22.299999999600459],[-95.99999999960022,22.199999999800298],[-95.99999999960022,22.000000000199975],[-95.799999999999898,22.100000000000136]]},"properties":{"objectid":4684,"stormtype":"DB","stormnum":9,"ss":0,"idp_source":"AL092026_lin","idp_filedate":1791322061000,"idp_ingestdate":1791322109000,"st_length(shape)":1.071477663342449,"binnumber":"AT4"}}]}