{"type": "FeatureCollection", "features": [{"type": "Feature", "id": 4723, "geometry": {"type": "Point", "coordinates": [-89.80000000029969, 23.99999999980031]}, "properties": {"objectid": 4723, "stormname": "Hurricane Isaias", "stormtype": "HU", "dvlbl": "H", "basin": "AL", "advdate": "100 PM CDT Thu Oct 08 2026", "advisnum": "8A", "fcstprd": 120, "gust": 90, "maxwind": 75, "mslp": 975, "ssnum": 1, "datelbl": "1:00 PM Thu", "tcdvlp": "Hurricane", "tcdir": 60, "tcspd": 9, "fldatelbl": "2026-10-08 10:00 AM Thu CDT", "lat": 24, "lon": -90, "stormnum": 9, "stormsrc": "Tropical Cyclone", "tau": 0, "timezone": "CDT", "validtime": "08/1500", "idp_source": "al092026-008A_5day_pts", "idp_filedate": 1791483482000, "idp_ingestdate": 1791483505000, "binnumber": "AT4", "MAXWIND": 75, "VALIDTIME": "08/1500"}}, {"type": "Feature", "id": 4724, "geometry": {"type": "Point", "coordinates": [-89.00000000009982, 24.899999999800286]}, "properties": {"objectid": 4724, "stormname": "Hurricane Isaias", "stormtype": "HU", "dvlbl": "H", "basin": "AL", "advdate": "100 PM CDT Thu Oct 08 2026", "advisnum": "8A", "fcstprd": 120, "gust": 110, "maxwind": 90, "mslp": 9999, "ssnum": 2, "datelbl": "7:00 PM Thu", "tcdvlp": "Hurricane", "tcdir": 9999, "tcspd": 9999, "fldatelbl": "2026-10-08 7:00 PM Thu CDT", "lat": 25, "lon": -89, "stormnum": 9, "stormsrc": "Tropical Cyclone", "tau": 12, "timezone": "CDT", "validtime": "09/0000", "idp_source": "al092026-008A_5day_pts", "idp_filedate": 1791483482000, "idp_ingestdate": 1791483505000, "binnumber": "AT4", "MAXWIND": 90, "VALIDTIME": "09/0000"}}, {"type": "Feature", "id": 4725, "geometry": {"type": "Point", "coordinates": [-87.8999999996002, 27.099999999900206]}, "properties": {"objectid": 4725, "stormname": "Hurricane Isaias", "stormtype": "HU", "dvlbl": "H", "basin": "AL", "advdate": "100 PM CDT Thu Oct 08 2026", "advisnum": "8A", "fcstprd": 120, "gust": 115, "maxwind": 95, "mslp": 9999, "ssnum": 2, "datelbl": "7:00 AM Fri", "tcdvlp": "Hurricane", "tcdir": 9999, "tcspd": 9999, "fldatelbl": "2026-10-09 7:00 AM Fri CDT", "lat": 27, "lon": -88, "stormnum": 9, "stormsrc": "Tropical Cyclone", "tau": 24, "timezone": "CDT", "validtime": "09/1200", "idp_source": "al092026-008A_5day_pts", "idp_filedate": 1791483482000, "idp_ingestdate": 1791483505000, "binnumber": "AT4", "MAXWIND": 95, "VALIDTIME": "09/1200"}}, {"type": "Feature", "id": 4726, "geometry": {"type": "Point", "coordinates": [-87.39999999970013, 29.60000000029993]}, "properties": {"objectid": 4726, "stormname": "Hurricane Isaias", "stormtype": "HU", "dvlbl": "H", "basin": "AL", "advdate": "100 PM CDT Thu Oct 08 2026", "advisnum": "8A", "fcstprd": 120, "gust": 105, "maxwind": 85, "mslp": 9999, "ssnum": 2, "datelbl": "7:00 PM Fri", "tcdvlp": "Hurricane", "tcdir": 9999, "tcspd": 9999, "fldatelbl": "2026-10-09 7:00 PM Fri CDT", "lat": 30, "lon": -87, "stormnum": 9, "stormsrc": "Tropical Cyclone", "tau": 36, "timezone": "CDT", "validtime": "10/0000", "idp_source": "al092026-008A_5day_pts", "idp_filedate": 1791483482000, "idp_ingestdate": 1791483505000, "binnumber": "AT4", "MAXWIND": 85, "VALIDTIME": "10/0000"}}, {"type": "Feature", "id": 4727, "geometry": {"type": "Point", "coordinates": [-87.79999999980004, 32.30000000029992]}, "properties": {"objectid": 4727, "stormname": "Hurricane Isaias", "stormtype": "TS", "dvlbl": "S", "basin": "AL", "advdate": "100 PM CDT Thu Oct 08 2026", "advisnum": "8A", "fcstprd": 120, "gust": 45, "maxwind": 35, "mslp": 9999, "ssnum": 0, "datelbl": "7:00 AM Sat", "tcdvlp": "Tropical Storm", "tcdir": 9999, "tcspd": 9999, "fldatelbl": "2026-10-10 7:00 AM Sat CDT", "lat": 32, "lon": -88, "stormnum": 9, "stormsrc": "Tropical Cyclone", "tau": 48, "timezone": "CDT", "validtime": "10/1200", "idp_source": "al092026-008A_5day_pts", "idp_filedate": 1791483482000, "idp_ingestdate": 1791483505000, "binnumber": "AT4", "MAXWIND": 35, "VALIDTIME": "10/1200"}}, {"type": "Feature", "id": 4728, "geometry": {"type": "Point", "coordinates": [-88.10000000009984, 34.6000000002]}, "properties": {"objectid": 4728, "stormname": "Hurricane Isaias", "stormtype": "STD", "dvlbl": "D", "basin": "AL", "advdate": "100 PM CDT Thu Oct 08 2026", "advisnum": "8A", "fcstprd": 120, "gust": 40, "maxwind": 30, "mslp": 9999, "ssnum": 0, "datelbl": "7:00 PM Sat", "tcdvlp": "Subtropical Depression", "tcdir": 9999, "tcspd": 9999, "fldatelbl": "2026-10-10 7:00 PM Sat CDT", "lat": 35, "lon": -88, "stormnum": 9, "stormsrc": "Post-Tropical Cyclone", "tau": 60, "timezone": "CDT", "validtime": "11/0000", "idp_source": "al092026-008A_5day_pts", "idp_filedate": 1791483482000, "idp_ingestdate": 1791483505000, "binnumber": "AT4", "MAXWIND": 30, "VALIDTIME": "11/0000"}}, {"type": "Feature", "id": 4729, "geometry": {"type": "Point", "coordinates": [-87.79999999980004, 36.50000000000017]}, "properties": {"objectid": 4729, "stormname": "Hurricane Isaias", "stormtype": "STD", "dvlbl": "D", "basin": "AL", "advdate": "100 PM CDT Thu Oct 08 2026", "advisnum": "8A", "fcstprd": 120, "gust": 35, "maxwind": 25, "mslp": 9999, "ssnum": 0, "datelbl": "7:00 AM Sun", "tcdvlp": "Subtropical Depression", "tcdir": 9999, "tcspd": 9999, "fldatelbl": "2026-10-11 7:00 AM Sun CDT", "lat": 36, "lon": -88, "stormnum": 9, "stormsrc": "Post-Tropical Cyclone", "tau": 72, "timezone": "CDT", "validtime": "11/1200", "idp_source": "al092026-008A_5day_pts", "idp_filedate": 1791483482000, "idp_ingestdate": 1791483505000, "binnumber": "AT4", "MAXWIND": 25, "VALIDTIME": "11/1200"}}]}