{"type":"FeatureCollection","features":[{"type":"Feature","id":1068,"geometry":{"type":"LineString","coordinates":[[-89.980000000299697,29.460000000399816],[-89.559999999700096,29.660000000000139],[-89.599999999800048,30.150000000100079],[-89.329999999800066,30.30999999960045],[-88.82000000009981,30.399999999600425]]},"properties":{"objectid":1068,"stormname":"Isaias","stormtype":"HU","basin":"AL","advdate":"400 AM CDT Fri Oct 09 2026","advisnum":"11","fcstprd":120,"stormnum":9,"tcww":"TWR","idp_source":"al092026-011_ww_wwlin","idp_filedate":1791541673000,"idp_ingestdate":1791541681000,"st_length(shape)":1.7885454676216068,"binnumber":"AT4"}},{"type":"Feature","id":1069,"geometry":{"type":"LineString","coordinates":[[-85.390000000299665,29.930000000000121],[-85.220000000099844,29.679999999600454],[-84.37999999980002,29.960000000299942],[-84.080000000399593,30.100000000199998],[-83.990000000399618,30.090000000399868]]},"properties":{"objectid":1069,"stormname":"Isaias","stormtype":"HU","basin":"AL","advdate":"400 AM CDT Fri Oct 09 2026","advisnum":"11","fcstprd":120,"stormnum":9,"tcww":"TWR","idp_source":"al092026-011_ww_wwlin","idp_filedate":1791541673000,"idp_ingestdate":1791541681000,"st_length(shape)":1.6093748328708832,"binnumber":"AT4"}},{"type":"Feature","id":1070,"geometry":{"type":"LineString","coordinates":[[-88.82000000009981,30.399999999600425],[-88.400000000399586,30.399999999600425],[-87.55000000029969,30.270000000399818],[-86.799999999999898,30.389999999800295],[-86.39999999989999,30.380000000000166],[-85.980000000199766,30.280000000200005],[-85.390000000299665,29.930000000000121]]},"properties":{"objectid":1070,"stormname":"Isaias","stormtype":"HU","basin":"AL","advdate":"400 AM CDT Fri Oct 09 2026","advisnum":"11","fcstprd":120,"stormnum":9,"tcww":"HWR","idp_source":"al092026-011_ww_wwlin","idp_filedate":1791541673000,"idp_ingestdate":1791541681000,"st_length(shape)":3.5572916056100246,"binnumber":"AT4"}}]}