{"type":"FeatureCollection","features":[{"type":"Feature","id":21103,"geometry":{"type":"Point","coordinates":[-96.500000000399609,22.000000000199975]},"properties":{"objectid":21103,"stormname":"GENESIS022","stormtype":"DB","stormnum":9,"intensity":15,"basin":"al","mslp":0,"dtg":2026100418,"year":2026,"month":"10","day":4,"hhmm":"1800","lat":22,"lon":-96,"ss":0,"idp_source":"AL092026_pts","idp_filedate":1791322061000,"idp_ingestdate":1791322114000,"binnumber":"AT4"}},{"type":"Feature","id":21104,"geometry":{"type":"Point","coordinates":[-96.500000000399609,22.000000000199975]},"properties":{"objectid":21104,"stormname":"GENESIS022","stormtype":"DB","stormnum":9,"intensity":20,"basin":"al","mslp":0,"dtg":2026100500,"year":2026,"month":"10","day":5,"hhmm":"0000","lat":22,"lon":-96,"ss":0,"idp_source":"AL092026_pts","idp_filedate":1791322061000,"idp_ingestdate":1791322114000,"binnumber":"AT4"}},{"type":"Feature","id":21105,"geometry":{"type":"Point","coordinates":[-96.500000000399609,22.000000000199975]},"properties":{"objectid":21105,"stormname":"GENESIS022","stormtype":"DB","stormnum":9,"intensity":25,"basin":"al","mslp":0,"dtg":2026100506,"year":2026,"month":"10","day":5,"hhmm":"0600","lat":22,"lon":-96,"ss":0,"idp_source":"AL092026_pts","idp_filedate":1791322061000,"idp_ingestdate":1791322114000,"binnumber":"AT4"}},{"type":"Feature","id":21106,"geometry":{"type":"Point","coordinates":[-96.500000000399609,22.000000000199975]},"properties":{"objectid":21106,"stormname":"INVEST","stormtype":"DB","stormnum":9,"intensity":25,"basin":"al","mslp":1010,"dtg":2026100512,"year":2026,"month":"10","day":5,"hhmm":"1200","lat":22,"lon":-96,"ss":0,"idp_source":"AL092026_pts","idp_filedate":1791322061000,"idp_ingestdate":1791322114000,"binnumber":"AT4"}},{"type":"Feature","id":21107,"geometry":{"type":"Point","coordinates":[-96.299999999899967,22.199999999800298]},"properties":{"objectid":21107,"stormname":"INVEST","stormtype":"DB","stormnum":9,"intensity":25,"basin":"al","mslp":1010,"dtg":2026100518,"year":2026,"month":"10","day":5,"hhmm":"1800","lat":22,"lon":-96,"ss":0,"idp_source":"AL092026_pts","idp_filedate":1791322061000,"idp_ingestdate":1791322114000,"binnumber":"AT4"}},{"type":"Feature","id":21108,"geometry":{"type":"Point","coordinates":[-96.100000000299644,22.299999999600459]},"properties":{"objectid":21108,"stormname":"INVEST","stormtype":"DB","stormnum":9,"intensity":25,"basin":"al","mslp":1009,"dtg":2026100600,"year":2026,"month":"10","day":6,"hhmm":"0000","lat":22,"lon":-96,"ss":0,"idp_source":"AL092026_pts","idp_filedate":1791322061000,"idp_ingestdate":1791322114000,"binnumber":"AT4"}},{"type":"Feature","id":21109,"geometry":{"type":"Point","coordinates":[-95.99999999960022,22.199999999800298]},"properties":{"objectid":21109,"stormname":"INVEST","stormtype":"DB","stormnum":9,"intensity":25,"basin":"al","mslp":1009,"dtg":2026100606,"year":2026,"month":"10","day":6,"hhmm":"0600","lat":22,"lon":-96,"ss":0,"idp_source":"AL092026_pts","idp_filedate":1791322061000,"idp_ingestdate":1791322114000,"binnumber":"AT4"}},{"type":"Feature","id":21110,"geometry":{"type":"Point","coordinates":[-95.99999999960022,22.000000000199975]},"properties":{"objectid":21110,"stormname":"INVEST","stormtype":"DB","stormnum":9,"intensity":25,"basin":"al","mslp":1008,"dtg":2026100612,"year":2026,"month":"10","day":6,"hhmm":"1200","lat":22,"lon":-96,"ss":0,"idp_source":"AL092026_pts","idp_filedate":1791322061000,"idp_ingestdate":1791322114000,"binnumber":"AT4"}},{"type":"Feature","id":21111,"geometry":{"type":"Point","coordinates":[-95.799999999999898,22.100000000000136]},"properties":{"objectid":21111,"stormname":"NINE","stormtype":"DB","stormnum":9,"intensity":30,"basin":"al","mslp":1007,"dtg":2026100618,"year":2026,"month":"10","day":6,"hhmm":"1800","lat":22,"lon":-96,"ss":0,"idp_source":"AL092026_pts","idp_filedate":1791322061000,"idp_ingestdate":1791322114000,"binnumber":"AT4"}}]}