{"type":"FeatureCollection","features":[{"type":"Feature","id":525,"geometry":{"type":"LineString","coordinates":[[-95.600000000399575,22.100000000000136],[-94.999999999800025,22.100000000000136],[-93.400000000299656,22.599999999900206],[-91.799999999899967,23.099999999800275],[-90.099999999700117,24.200000000299895],[-88.799999999600175,25.899999999600425],[-88.299999999700105,28.499999999800309],[-88.69999999980007,33.999999999600448],[-86.499999999700094,38.899999999700356]]},"properties":{"objectid":525,"stormname":"Nine","stormtype":"TD","basin":"AL","advdate":"400 PM CDT Tue Oct 06 2026","advisnum":"1","fcstprd":120,"stormnum":9,"idp_source":"al092026-001_5day_lin","idp_filedate":1791322060000,"idp_ingestdate":1791322082000,"st_length(shape)":21.65093638374718,"binnumber":"AT4"}}]}