{"type": "FeatureCollection", "features": [{"type": "Feature", "id": 686, "geometry": {"type": "Point", "coordinates": [-171.09999999970015, 27.699999999600436]}, "properties": {"objectid": 686, "stormname": "Tropical Storm Lala", "stormtype": "HU", "dvlbl": "H", "basin": "CP", "advdate": "500 PM HST Mon Aug 17 2026", "advisnum": "23", "fcstprd": 120, "gust": 90, "maxwind": 75, "mslp": 9999, "ssnum": 1, "datelbl": "2:00 PM Fri", "tcdvlp": "Hurricane", "tcdir": 9999, "tcspd": 9999, "fldatelbl": "2026-08-21 2:00 PM Fri HST", "lat": 28, "lon": -171, "stormnum": 1, "stormsrc": "Tropical Cyclone", "tau": 96, "timezone": "HST", "validtime": "22/0000", "idp_source": "cp012026-023_5day_pts", "idp_filedate": 1787022508000, "idp_ingestdate": 1787022592000, "binnumber": "CP2", "MAXWIND": 75, "VALIDTIME": "22/0000"}}, {"type": "Feature", "id": 687, "geometry": {"type": "Point", "coordinates": [-170.8000000002997, 31.29999999960046]}, "properties": {"objectid": 687, "stormname": "Tropical Storm Lala", "stormtype": "HU", "dvlbl": "H", "basin": "CP", "advdate": "500 PM HST Mon Aug 17 2026", "advisnum": "23", "fcstprd": 120, "gust": 85, "maxwind": 70, "mslp": 9999, "ssnum": 1, "datelbl": "2:00 PM Sat", "tcdvlp": "Hurricane", "tcdir": 9999, "tcspd": 9999, "fldatelbl": "2026-08-22 2:00 PM Sat HST", "lat": 31, "lon": -171, "stormnum": 1, "stormsrc": "Tropical Cyclone", "tau": 120, "timezone": "HST", "validtime": "23/0000", "idp_source": "cp012026-023_5day_pts", "idp_filedate": 1787022508000, "idp_ingestdate": 1787022592000, "binnumber": "CP2", "MAXWIND": 70, "VALIDTIME": "23/0000"}}, {"type": "Feature", "id": 679, "geometry": {"type": "Point", "coordinates": [-165.50000000009985, 20.300000000000125]}, "properties": {"objectid": 679, "stormname": "Tropical Storm Lala", "stormtype": "TS", "dvlbl": "S", "basin": "CP", "advdate": "500 PM HST Mon Aug 17 2026", "advisnum": "23", "fcstprd": 120, "gust": 75, "maxwind": 60, "mslp": 991, "ssnum": 0, "datelbl": "5:00 PM Mon", "tcdvlp": "Tropical Storm", "tcdir": 265, "tcspd": 10, "fldatelbl": "2026-08-17 2:00 PM Mon HST", "lat": 20, "lon": -166, "stormnum": 1, "stormsrc": "Tropical Cyclone", "tau": 0, "timezone": "HST", "validtime": "18/0000", "idp_source": "cp012026-023_5day_pts", "idp_filedate": 1787022508000, "idp_ingestdate": 1787022592000, "binnumber": "CP2", "MAXWIND": 60, "VALIDTIME": "18/0000"}}, {"type": "Feature", "id": 680, "geometry": {"type": "Point", "coordinates": [-166.89999999999992, 20.399999999800286]}, "properties": {"objectid": 680, "stormname": "Tropical Storm Lala", "stormtype": "HU", "dvlbl": "H", "basin": "CP", "advdate": "500 PM HST Mon Aug 17 2026", "advisnum": "23", "fcstprd": 120, "gust": 85, "maxwind": 70, "mslp": 9999, "ssnum": 1, "datelbl": "2:00 AM Tue", "tcdvlp": "Hurricane", "tcdir": 9999, "tcspd": 9999, "fldatelbl": "2026-08-18 2:00 AM Tue HST", "lat": 20, "lon": -167, "stormnum": 1, "stormsrc": "Tropical Cyclone", "tau": 12, "timezone": "HST", "validtime": "18/1200", "idp_source": "cp012026-023_5day_pts", "idp_filedate": 1787022508000, "idp_ingestdate": 1787022592000, "binnumber": "CP2", "MAXWIND": 70, "VALIDTIME": "18/1200"}}, {"type": "Feature", "id": 681, "geometry": {"type": "Point", "coordinates": [-168.5000000003996, 20.60000000029993]}, "properties": {"objectid": 681, "stormname": "Tropical Storm Lala", "stormtype": "HU", "dvlbl": "H", "basin": "CP", "advdate": "500 PM HST Mon Aug 17 2026", "advisnum": "23", "fcstprd": 120, "gust": 90, "maxwind": 75, "mslp": 9999, "ssnum": 1, "datelbl": "2:00 PM Tue", "tcdvlp": "Hurricane", "tcdir": 9999, "tcspd": 9999, "fldatelbl": "2026-08-18 2:00 PM Tue HST", "lat": 21, "lon": -168, "stormnum": 1, "stormsrc": "Tropical Cyclone", "tau": 24, "timezone": "HST", "validtime": "19/0000", "idp_source": "cp012026-023_5day_pts", "idp_filedate": 1787022508000, "idp_ingestdate": 1787022592000, "binnumber": "CP2", "MAXWIND": 75, "VALIDTIME": "19/0000"}}, {"type": "Feature", "id": 682, "geometry": {"type": "Point", "coordinates": [-170.00000000009985, 21.299999999800264]}, "properties": {"objectid": 682, "stormname": "Tropical Storm Lala", "stormtype": "HU", "dvlbl": "H", "basin": "CP", "advdate": "500 PM HST Mon Aug 17 2026", "advisnum": "23", "fcstprd": 120, "gust": 100, "maxwind": 80, "mslp": 9999, "ssnum": 1, "datelbl": "2:00 AM Wed", "tcdvlp": "Hurricane", "tcdir": 9999, "tcspd": 9999, "fldatelbl": "2026-08-19 2:00 AM Wed HST", "lat": 21, "lon": -170, "stormnum": 1, "stormsrc": "Tropical Cyclone", "tau": 36, "timezone": "HST", "validtime": "19/1200", "idp_source": "cp012026-023_5day_pts", "idp_filedate": 1787022508000, "idp_ingestdate": 1787022592000, "binnumber": "CP2", "MAXWIND": 80, "VALIDTIME": "19/1200"}}, {"type": "Feature", "id": 683, "geometry": {"type": "Point", "coordinates": [-171.20000000039963, 22.29999999960046]}, "properties": {"objectid": 683, "stormname": "Tropical Storm Lala", "stormtype": "HU", "dvlbl": "H", "basin": "CP", "advdate": "500 PM HST Mon Aug 17 2026", "advisnum": "23", "fcstprd": 120, "gust": 100, "maxwind": 80, "mslp": 9999, "ssnum": 1, "datelbl": "2:00 PM Wed", "tcdvlp": "Hurricane", "tcdir": 9999, "tcspd": 9999, "fldatelbl": "2026-08-19 2:00 PM Wed HST", "lat": 22, "lon": -171, "stormnum": 1, "stormsrc": "Tropical Cyclone", "tau": 48, "timezone": "HST", "validtime": "20/0000", "idp_source": "cp012026-023_5day_pts", "idp_filedate": 1787022508000, "idp_ingestdate": 1787022592000, "binnumber": "CP2", "MAXWIND": 80, "VALIDTIME": "20/0000"}}, {"type": "Feature", "id": 684, "geometry": {"type": "Point", "coordinates": [-172.10000000039963, 23.49999999990024]}, "properties": {"objectid": 684, "stormname": "Tropical Storm Lala", "stormtype": "HU", "dvlbl": "H", "basin": "CP", "advdate": "500 PM HST Mon Aug 17 2026", "advisnum": "23", "fcstprd": 120, "gust": 90, "maxwind": 75, "mslp": 9999, "ssnum": 1, "datelbl": "2:00 AM Thu", "tcdvlp": "Hurricane", "tcdir": 9999, "tcspd": 9999, "fldatelbl": "2026-08-20 2:00 AM Thu HST", "lat": 24, "lon": -172, "stormnum": 1, "stormsrc": "Tropical Cyclone", "tau": 60, "timezone": "HST", "validtime": "20/1200", "idp_source": "cp012026-023_5day_pts", "idp_filedate": 1787022508000, "idp_ingestdate": 1787022592000, "binnumber": "CP2", "MAXWIND": 75, "VALIDTIME": "20/1200"}}, {"type": "Feature", "id": 685, "geometry": {"type": "Point", "coordinates": [-172.20000000019976, 24.800000000000125]}, "properties": {"objectid": 685, "stormname": "Tropical Storm Lala", "stormtype": "HU", "dvlbl": "H", "basin": "CP", "advdate": "500 PM HST Mon Aug 17 2026", "advisnum": "23", "fcstprd": 120, "gust": 90, "maxwind": 75, "mslp": 9999, "ssnum": 1, "datelbl": "2:00 PM Thu", "tcdvlp": "Hurricane", "tcdir": 9999, "tcspd": 9999, "fldatelbl": "2026-08-20 2:00 PM Thu HST", "lat": 25, "lon": -172, "stormnum": 1, "stormsrc": "Tropical Cyclone", "tau": 72, "timezone": "HST", "validtime": "21/0000", "idp_source": "cp012026-023_5day_pts", "idp_filedate": 1787022508000, "idp_ingestdate": 1787022592000, "binnumber": "CP2", "MAXWIND": 75, "VALIDTIME": "21/0000"}}]}