{"type":"FeatureCollection","features":[{"type":"Feature","id":287,"geometry":{"type":"LineString","coordinates":[[-166.26999999999992,23.859999999900197],[-170.49999999999991,25.330000000200016]]},"properties":{"objectid":287,"stormname":"Lala","stormtype":"HU","basin":"CP","advdate":"500 AM HST Thu Aug 20 2026","advisnum":"33","fcstprd":120,"stormnum":1,"tcww":"TWR","idp_source":"cp012026-033_ww_wwlin","idp_filedate":1787238196000,"idp_ingestdate":1787238229000,"st_length(shape)":4.4781469382861241,"binnumber":"CP2"}},{"type":"Feature","id":288,"geometry":{"type":"LineString","coordinates":[[-170.49999999999991,25.330000000200016],[-173.96000000009985,26.060000000000116]]},"properties":{"objectid":288,"stormname":"Lala","stormtype":"HU","basin":"CP","advdate":"500 AM HST Thu Aug 20 2026","advisnum":"33","fcstprd":120,"stormnum":1,"tcww":"HWR","idp_source":"cp012026-033_ww_wwlin","idp_filedate":1787238196000,"idp_ingestdate":1787238229000,"st_length(shape)":3.5361702448269825,"binnumber":"CP2"}}]}