{"type":"FeatureCollection","features":[{"type":"Feature","id":60,"geometry":{"type":"LineString","coordinates":[[-156.00000000019978,18.699999999600436],[-157.70000000039963,19.599999999600414],[-160.50000000019978,20.200000000199964],[-163.10000000039963,20.300000000000125],[-165.09999999999991,20.200000000199964],[-167.2000000002997,20.100000000399859],[-169.00000000029971,20.300000000000125],[-172.39999999980009,21.500000000299906],[-175.19999999960024,22.900000000200009]]},"properties":{"objectid":60,"stormname":"Lala","stormtype":"HU","basin":"CP","advdate":"500 PM HST Sat Aug 15 2026","advisnum":"15","fcstprd":120,"stormnum":1,"idp_source":"cp012026-015_5day_lin","idp_filedate":1786849349000,"idp_ingestdate":1786849389000,"st_length(shape)":20.041026499818731,"binnumber":"CP2"}}]}