{"type":"FeatureCollection","features":[{"type":"Feature","id":2291,"geometry":{"type":"Point","coordinates":[-137.29999999980004,14.49999999990024]},"properties":{"objectid":2291,"stormname":"INVEST","stormtype":"DB","stormnum":1,"intensity":20,"basin":"cp","mslp":1007,"dtg":2026081000,"year":2026,"month":"08","day":10,"hhmm":"0000","lat":14,"lon":-137,"ss":0,"idp_source":"CP012026_pts","idp_filedate":1787119374000,"idp_ingestdate":1787119525000,"binnumber":"CP2"}},{"type":"Feature","id":2292,"geometry":{"type":"Point","coordinates":[-137.29999999980004,14.49999999990024]},"properties":{"objectid":2292,"stormname":"INVEST","stormtype":"DB","stormnum":1,"intensity":20,"basin":"cp","mslp":1007,"dtg":2026081006,"year":2026,"month":"08","day":10,"hhmm":"0600","lat":14,"lon":-137,"ss":0,"idp_source":"CP012026_pts","idp_filedate":1787119374000,"idp_ingestdate":1787119525000,"binnumber":"CP2"}},{"type":"Feature","id":2293,"geometry":{"type":"Point","coordinates":[-137.29999999980004,14.599999999700344]},"properties":{"objectid":2293,"stormname":"INVEST","stormtype":"DB","stormnum":1,"intensity":20,"basin":"cp","mslp":1006,"dtg":2026081012,"year":2026,"month":"08","day":10,"hhmm":"1200","lat":15,"lon":-137,"ss":0,"idp_source":"CP012026_pts","idp_filedate":1787119374000,"idp_ingestdate":1787119525000,"binnumber":"CP2"}},{"type":"Feature","id":2294,"geometry":{"type":"Point","coordinates":[-137.29999999980004,14.700000000399825]},"properties":{"objectid":2294,"stormname":"INVEST","stormtype":"DB","stormnum":1,"intensity":20,"basin":"cp","mslp":1006,"dtg":2026081018,"year":2026,"month":"08","day":10,"hhmm":"1800","lat":15,"lon":-137,"ss":0,"idp_source":"CP012026_pts","idp_filedate":1787119374000,"idp_ingestdate":1787119525000,"binnumber":"CP2"}},{"type":"Feature","id":2295,"geometry":{"type":"Point","coordinates":[-137.29999999980004,14.800000000199987]},"properties":{"objectid":2295,"stormname":"INVEST","stormtype":"DB","stormnum":1,"intensity":20,"basin":"cp","mslp":1006,"dtg":2026081100,"year":2026,"month":"08","day":11,"hhmm":"0000","lat":15,"lon":-137,"ss":0,"idp_source":"CP012026_pts","idp_filedate":1787119374000,"idp_ingestdate":1787119525000,"binnumber":"CP2"}},{"type":"Feature","id":2296,"geometry":{"type":"Point","coordinates":[-137.29999999980004,14.800000000199987]},"properties":{"objectid":2296,"stormname":"INVEST","stormtype":"DB","stormnum":1,"intensity":25,"basin":"cp","mslp":1006,"dtg":2026081106,"year":2026,"month":"08","day":11,"hhmm":"0600","lat":15,"lon":-137,"ss":0,"idp_source":"CP012026_pts","idp_filedate":1787119374000,"idp_ingestdate":1787119525000,"binnumber":"CP2"}},{"type":"Feature","id":2297,"geometry":{"type":"Point","coordinates":[-137.3999999996002,14.900000000000148]},"properties":{"objectid":2297,"stormname":"INVEST","stormtype":"DB","stormnum":1,"intensity":25,"basin":"cp","mslp":1006,"dtg":2026081112,"year":2026,"month":"08","day":11,"hhmm":"1200","lat":15,"lon":-137,"ss":0,"idp_source":"CP012026_pts","idp_filedate":1787119374000,"idp_ingestdate":1787119525000,"binnumber":"CP2"}},{"type":"Feature","id":2298,"geometry":{"type":"Point","coordinates":[-137.60000000009984,14.999999999800309]},"properties":{"objectid":2298,"stormname":"INVEST","stormtype":"DB","stormnum":1,"intensity":30,"basin":"cp","mslp":1004,"dtg":2026081118,"year":2026,"month":"08","day":11,"hhmm":"1800","lat":15,"lon":-138,"ss":0,"idp_source":"CP012026_pts","idp_filedate":1787119374000,"idp_ingestdate":1787119525000,"binnumber":"CP2"}},{"type":"Feature","id":2299,"geometry":{"type":"Point","coordinates":[-139.40000000009985,15.099999999600414]},"properties":{"objectid":2299,"stormname":"INVEST","stormtype":"LO","stormnum":1,"intensity":30,"basin":"cp","mslp":1003,"dtg":2026081200,"year":2026,"month":"08","day":12,"hhmm":"0000","lat":15,"lon":-139,"ss":0,"idp_source":"CP012026_pts","idp_filedate":1787119374000,"idp_ingestdate":1787119525000,"binnumber":"CP2"}},{"type":"Feature","id":2300,"geometry":{"type":"Point","coordinates":[-140.39999999989999,14.999999999800309]},"properties":{"objectid":2300,"stormname":"INVEST","stormtype":"LO","stormnum":1,"intensity":30,"basin":"cp","mslp":1003,"dtg":2026081206,"year":2026,"month":"08","day":12,"hhmm":"0600","lat":15,"lon":-140,"ss":0,"idp_source":"CP012026_pts","idp_filedate":1787119374000,"idp_ingestdate":1787119525000,"binnumber":"CP2"}},{"type":"Feature","id":2301,"geometry":{"type":"Point","coordinates":[-141.39999999970013,14.900000000000148]},"properties":{"objectid":2301,"stormname":"ONE","stormtype":"LO","stormnum":1,"intensity":30,"basin":"cp","mslp":1003,"dtg":2026081212,"year":2026,"month":"08","day":12,"hhmm":"1200","lat":15,"lon":-141,"ss":0,"idp_source":"CP012026_pts","idp_filedate":1787119374000,"idp_ingestdate":1787119525000,"binnumber":"CP2"}},{"type":"Feature","id":2302,"geometry":{"type":"Point","coordinates":[-142.1999999999,14.700000000399825]},"properties":{"objectid":2302,"stormname":"ONE","stormtype":"LO","stormnum":1,"intensity":35,"basin":"cp","mslp":1003,"dtg":2026081218,"year":2026,"month":"08","day":12,"hhmm":"1800","lat":15,"lon":-142,"ss":0,"idp_source":"CP012026_pts","idp_filedate":1787119374000,"idp_ingestdate":1787119525000,"binnumber":"CP2"}},{"type":"Feature","id":2303,"geometry":{"type":"Point","coordinates":[-143.09999999989998,14.700000000399825]},"properties":{"objectid":2303,"stormname":"ONE","stormtype":"LO","stormnum":1,"intensity":35,"basin":"cp","mslp":1002,"dtg":2026081300,"year":2026,"month":"08","day":13,"hhmm":"0000","lat":15,"lon":-143,"ss":0,"idp_source":"CP012026_pts","idp_filedate":1787119374000,"idp_ingestdate":1787119525000,"binnumber":"CP2"}},{"type":"Feature","id":2304,"geometry":{"type":"Point","coordinates":[-144.09999999970015,14.700000000399825]},"properties":{"objectid":2304,"stormname":"ONE","stormtype":"LO","stormnum":1,"intensity":35,"basin":"cp","mslp":1002,"dtg":2026081306,"year":2026,"month":"08","day":13,"hhmm":"0600","lat":15,"lon":-144,"ss":0,"idp_source":"CP012026_pts","idp_filedate":1787119374000,"idp_ingestdate":1787119525000,"binnumber":"CP2"}},{"type":"Feature","id":2305,"geometry":{"type":"Point","coordinates":[-144.99999999970015,14.900000000000148]},"properties":{"objectid":2305,"stormname":"LALA","stormtype":"TS","stormnum":1,"intensity":35,"basin":"cp","mslp":1001,"dtg":2026081312,"year":2026,"month":"08","day":13,"hhmm":"1200","lat":15,"lon":-145,"ss":0,"idp_source":"CP012026_pts","idp_filedate":1787119374000,"idp_ingestdate":1787119525000,"binnumber":"CP2"}},{"type":"Feature","id":2306,"geometry":{"type":"Point","coordinates":[-145.70000000009983,15.200000000299895]},"properties":{"objectid":2306,"stormname":"LALA","stormtype":"TS","stormnum":1,"intensity":40,"basin":"cp","mslp":1000,"dtg":2026081318,"year":2026,"month":"08","day":13,"hhmm":"1800","lat":15,"lon":-146,"ss":0,"idp_source":"CP012026_pts","idp_filedate":1787119374000,"idp_ingestdate":1787119525000,"binnumber":"CP2"}},{"type":"Feature","id":2307,"geometry":{"type":"Point","coordinates":[-147.00000000019978,15.999999999600448]},"properties":{"objectid":2307,"stormname":"LALA","stormtype":"TS","stormnum":1,"intensity":45,"basin":"cp","mslp":999,"dtg":2026081400,"year":2026,"month":"08","day":14,"hhmm":"0000","lat":16,"lon":-147,"ss":0,"idp_source":"CP012026_pts","idp_filedate":1787119374000,"idp_ingestdate":1787119525000,"binnumber":"CP2"}},{"type":"Feature","id":2308,"geometry":{"type":"Point","coordinates":[-147.90000000019975,16.20000000010009]},"properties":{"objectid":2308,"stormname":"LALA","stormtype":"TS","stormnum":1,"intensity":50,"basin":"cp","mslp":997,"dtg":2026081406,"year":2026,"month":"08","day":14,"hhmm":"0600","lat":16,"lon":-148,"ss":0,"idp_source":"CP012026_pts","idp_filedate":1787119374000,"idp_ingestdate":1787119525000,"binnumber":"CP2"}},{"type":"Feature","id":2309,"geometry":{"type":"Point","coordinates":[-148.99999999980005,16.500000000399837]},"properties":{"objectid":2309,"stormname":"LALA","stormtype":"TS","stormnum":1,"intensity":50,"basin":"cp","mslp":997,"dtg":2026081412,"year":2026,"month":"08","day":14,"hhmm":"1200","lat":16,"lon":-149,"ss":0,"idp_source":"CP012026_pts","idp_filedate":1787119374000,"idp_ingestdate":1787119525000,"binnumber":"CP2"}},{"type":"Feature","id":2310,"geometry":{"type":"Point","coordinates":[-150.2999999999,17.000000000299906]},"properties":{"objectid":2310,"stormname":"LALA","stormtype":"TS","stormnum":1,"intensity":50,"basin":"cp","mslp":997,"dtg":2026081418,"year":2026,"month":"08","day":14,"hhmm":"1800","lat":17,"lon":-150,"ss":0,"idp_source":"CP012026_pts","idp_filedate":1787119374000,"idp_ingestdate":1787119525000,"binnumber":"CP2"}},{"type":"Feature","id":2311,"geometry":{"type":"Point","coordinates":[-151.90000000029968,17.400000000399814]},"properties":{"objectid":2311,"stormname":"LALA","stormtype":"TS","stormnum":1,"intensity":55,"basin":"cp","mslp":995,"dtg":2026081500,"year":2026,"month":"08","day":15,"hhmm":"0000","lat":17,"lon":-152,"ss":0,"idp_source":"CP012026_pts","idp_filedate":1787119374000,"idp_ingestdate":1787119525000,"binnumber":"CP2"}},{"type":"Feature","id":2312,"geometry":{"type":"Point","coordinates":[-152.99999999989998,17.600000000000136]},"properties":{"objectid":2312,"stormname":"LALA","stormtype":"TS","stormnum":1,"intensity":55,"basin":"cp","mslp":991,"dtg":2026081506,"year":2026,"month":"08","day":15,"hhmm":"0600","lat":18,"lon":-153,"ss":0,"idp_source":"CP012026_pts","idp_filedate":1787119374000,"idp_ingestdate":1787119525000,"binnumber":"CP2"}},{"type":"Feature","id":2313,"geometry":{"type":"Point","coordinates":[-154.1000000003996,17.799999999600459]},"properties":{"objectid":2313,"stormname":"LALA","stormtype":"TS","stormnum":1,"intensity":55,"basin":"cp","mslp":991,"dtg":2026081512,"year":2026,"month":"08","day":15,"hhmm":"1200","lat":18,"lon":-154,"ss":0,"idp_source":"CP012026_pts","idp_filedate":1787119374000,"idp_ingestdate":1787119525000,"binnumber":"CP2"}},{"type":"Feature","id":2314,"geometry":{"type":"Point","coordinates":[-155.00000000039961,17.90000000029994]},"properties":{"objectid":2314,"stormname":"LALA","stormtype":"HU","stormnum":1,"intensity":65,"basin":"cp","mslp":988,"dtg":2026081518,"year":2026,"month":"08","day":15,"hhmm":"1800","lat":18,"lon":-155,"ss":1,"idp_source":"CP012026_pts","idp_filedate":1787119374000,"idp_ingestdate":1787119525000,"binnumber":"CP2"}},{"type":"Feature","id":2315,"geometry":{"type":"Point","coordinates":[-155.6999999999,18.300000000399848]},"properties":{"objectid":2315,"stormname":"LALA","stormtype":"HU","stormnum":1,"intensity":65,"basin":"cp","mslp":988,"dtg":2026081600,"year":2026,"month":"08","day":16,"hhmm":"0000","lat":18,"lon":-156,"ss":1,"idp_source":"CP012026_pts","idp_filedate":1787119374000,"idp_ingestdate":1787119525000,"binnumber":"CP2"}},{"type":"Feature","id":2316,"geometry":{"type":"Point","coordinates":[-156.50000000009985,19.099999999700344]},"properties":{"objectid":2316,"stormname":"LALA","stormtype":"HU","stormnum":1,"intensity":65,"basin":"cp","mslp":988,"dtg":2026081606,"year":2026,"month":"08","day":16,"hhmm":"0600","lat":19,"lon":-156,"ss":1,"idp_source":"CP012026_pts","idp_filedate":1787119374000,"idp_ingestdate":1787119525000,"binnumber":"CP2"}},{"type":"Feature","id":2317,"geometry":{"type":"Point","coordinates":[-157.59999999970015,19.899999999900217]},"properties":{"objectid":2317,"stormname":"LALA","stormtype":"TS","stormnum":1,"intensity":60,"basin":"cp","mslp":991,"dtg":2026081612,"year":2026,"month":"08","day":16,"hhmm":"1200","lat":20,"lon":-158,"ss":0,"idp_source":"CP012026_pts","idp_filedate":1787119374000,"idp_ingestdate":1787119525000,"binnumber":"CP2"}},{"type":"Feature","id":2318,"geometry":{"type":"Point","coordinates":[-158.79999999999993,20.799999999900194]},"properties":{"objectid":2318,"stormname":"LALA","stormtype":"TS","stormnum":1,"intensity":55,"basin":"cp","mslp":994,"dtg":2026081618,"year":2026,"month":"08","day":16,"hhmm":"1800","lat":21,"lon":-159,"ss":0,"idp_source":"CP012026_pts","idp_filedate":1787119374000,"idp_ingestdate":1787119525000,"binnumber":"CP2"}},{"type":"Feature","id":2319,"geometry":{"type":"Point","coordinates":[-160.79999999960023,20.799999999900194]},"properties":{"objectid":2319,"stormname":"LALA","stormtype":"TS","stormnum":1,"intensity":55,"basin":"cp","mslp":994,"dtg":2026081700,"year":2026,"month":"08","day":17,"hhmm":"0000","lat":21,"lon":-161,"ss":0,"idp_source":"CP012026_pts","idp_filedate":1787119374000,"idp_ingestdate":1787119525000,"binnumber":"CP2"}},{"type":"Feature","id":2320,"geometry":{"type":"Point","coordinates":[-161.99999999989998,20.600000000299929]},"properties":{"objectid":2320,"stormname":"LALA","stormtype":"TS","stormnum":1,"intensity":50,"basin":"cp","mslp":997,"dtg":2026081706,"year":2026,"month":"08","day":17,"hhmm":"0600","lat":21,"lon":-162,"ss":0,"idp_source":"CP012026_pts","idp_filedate":1787119374000,"idp_ingestdate":1787119525000,"binnumber":"CP2"}},{"type":"Feature","id":2321,"geometry":{"type":"Point","coordinates":[-162.89999999989999,20.499999999600448]},"properties":{"objectid":2321,"stormname":"LALA","stormtype":"TS","stormnum":1,"intensity":50,"basin":"cp","mslp":997,"dtg":2026081712,"year":2026,"month":"08","day":17,"hhmm":"1200","lat":20,"lon":-163,"ss":0,"idp_source":"CP012026_pts","idp_filedate":1787119374000,"idp_ingestdate":1787119525000,"binnumber":"CP2"}},{"type":"Feature","id":2322,"geometry":{"type":"Point","coordinates":[-163.89999999970016,20.399999999800286]},"properties":{"objectid":2322,"stormname":"LALA","stormtype":"TS","stormnum":1,"intensity":55,"basin":"cp","mslp":994,"dtg":2026081718,"year":2026,"month":"08","day":17,"hhmm":"1800","lat":20,"lon":-164,"ss":0,"idp_source":"CP012026_pts","idp_filedate":1787119374000,"idp_ingestdate":1787119525000,"binnumber":"CP2"}},{"type":"Feature","id":2323,"geometry":{"type":"Point","coordinates":[-165.00000000019978,20.300000000000125]},"properties":{"objectid":2323,"stormname":"LALA","stormtype":"TS","stormnum":1,"intensity":60,"basin":"cp","mslp":992,"dtg":2026081800,"year":2026,"month":"08","day":18,"hhmm":"0000","lat":20,"lon":-165,"ss":0,"idp_source":"CP012026_pts","idp_filedate":1787119374000,"idp_ingestdate":1787119525000,"binnumber":"CP2"}},{"type":"Feature","id":2324,"geometry":{"type":"Point","coordinates":[-165.80000000039962,20.399999999800286]},"properties":{"objectid":2324,"stormname":"LALA","stormtype":"HU","stormnum":1,"intensity":65,"basin":"cp","mslp":989,"dtg":2026081806,"year":2026,"month":"08","day":18,"hhmm":"0600","lat":20,"lon":-166,"ss":1,"idp_source":"CP012026_pts","idp_filedate":1787119374000,"idp_ingestdate":1787119525000,"binnumber":"CP2"}},{"type":"Feature","id":2325,"geometry":{"type":"Point","coordinates":[-166.70000000039963,20.300000000000125]},"properties":{"objectid":2325,"stormname":"LALA","stormtype":"HU","stormnum":1,"intensity":70,"basin":"cp","mslp":985,"dtg":2026081812,"year":2026,"month":"08","day":18,"hhmm":"1200","lat":20,"lon":-167,"ss":1,"idp_source":"CP012026_pts","idp_filedate":1787119374000,"idp_ingestdate":1787119525000,"binnumber":"CP2"}},{"type":"Feature","id":2326,"geometry":{"type":"Point","coordinates":[-167.70000000019976,20.300000000000125]},"properties":{"objectid":2326,"stormname":"LALA","stormtype":"HU","stormnum":1,"intensity":85,"basin":"cp","mslp":974,"dtg":2026081818,"year":2026,"month":"08","day":18,"hhmm":"1800","lat":20,"lon":-168,"ss":2,"idp_source":"CP012026_pts","idp_filedate":1787119374000,"idp_ingestdate":1787119525000,"binnumber":"CP2"}},{"type":"Feature","id":2327,"geometry":{"type":"Point","coordinates":[-168.50000000039961,20.499999999600448]},"properties":{"objectid":2327,"stormname":"LALA","stormtype":"HU","stormnum":1,"intensity":100,"basin":"cp","mslp":960,"dtg":2026081900,"year":2026,"month":"08","day":19,"hhmm":"0000","lat":20,"lon":-168,"ss":3,"idp_source":"CP012026_pts","idp_filedate":1787119374000,"idp_ingestdate":1787119525000,"binnumber":"CP2"}}]}