{"type":"FeatureCollection","features":[{"type":"Feature","id":101,"geometry":{"type":"Polygon","coordinates":[[[-169.9721500000224,20.749300000095047],[-169.96004000004589,20.746960000104082],[-169.91940000010985,20.743650000347372],[-169.89019999983006,20.743639999886227],[-169.86031999966818,20.745440000156009],[-169.83086999955077,20.749300000095047],[-169.80263000037414,20.755230000164488],[-169.77618000010685,20.763230000364388],[-169.75208999985352,20.773580000117079],[-169.7303300000294,20.78626000029891],[-169.70157000025523,20.809159999634403],[-169.67856999990551,20.837849999777802],[-169.67154999993247,20.848049999807813],[-169.653919999908,20.881979999677355],[-169.64429000008337,20.906120000437795],[-169.63616999974562,20.930809999581982],[-169.62996999981556,20.955779999947197],[-169.62639999976011,20.981020000173032],[-169.6262500000374,21.018259999799284],[-169.62955999979408,21.043500000025119],[-169.63550000032467,21.068459999929189],[-169.64373999990099,21.093149999972638],[-169.65336999972564,21.11742999999467],[-169.66440000025972,21.140869999950667],[-169.67651000023625,21.163349999702859],[-169.68930000009485,21.185149999572957],[-169.70239000029821,21.206529999859754],[-169.71561000020128,21.22776999998564],[-169.72868000038164,21.249150000272437],[-169.74149000026321,21.270800000419797],[-169.75403000028422,21.29272999998966],[-169.76655999984405,21.314659999559467],[-169.77936000016379,21.33632000016803],[-169.79245000036715,21.357689999993624],[-169.80579000040811,21.378800000419801],[-169.81942999989451,21.399620000063067],[-169.83319000041811,21.420310000006623],[-169.8469500000424,21.440999999950179],[-169.86074999971265,21.461689999893736],[-169.87437000007537,21.482519999998146],[-169.88773000013933,21.503619999963178],[-169.90080000031969,21.525000000249975],[-169.91359999974011,21.546650000397335],[-169.92615000022226,21.568579999967142],[-169.93867000022027,21.590519999998151],[-169.95148000010184,21.612170000145511],[-169.9645700003052,21.633550000432308],[-169.97791000034616,21.654650000397339],[-169.99844000010583,21.685819999793296],[-170.00531000035616,21.696159999984161],[-170.01906999998045,21.716849999927717],[-170.0328699996507,21.737539999871217],[-170.0466300001743,21.758229999814773],[-170.06038999979859,21.77891999975833],[-170.07415999988402,21.799609999701886],[-170.08792000040762,21.820299999645385],[-170.10172000007788,21.840989999588942],[-170.12236000041361,21.872019999723364],[-170.12924000022576,21.882359999914229],[-170.14301000031119,21.903049999857728],[-170.15676999993548,21.923739999801285],[-170.17056000004388,21.944429999744841],[-170.18433000012934,21.965119999688397],[-170.19808999975362,21.985809999631897],[-170.21185000027722,22.006499999575453],[-170.22562000036265,22.027190000418329],[-170.23937999998694,22.047880000361886],[-170.25317000009534,22.068570000305385],[-170.2669400001808,22.089249999787796],[-170.28069999980508,22.109939999731353],[-170.29446000032868,22.130629999674909],[-170.31511000022624,22.161659999809274],[-170.3219900000384,22.172009999561965],[-170.33578000014683,22.192700000404841],[-170.34955000023226,22.213390000348397],[-170.36330999985654,22.234069999830751],[-170.37707999994197,22.254759999774308],[-170.3977400003007,22.285800000369875],[-170.40462999967468,22.29613999966142],[-170.41855000038214,22.316690000343385],[-170.4327400000509,22.336970000265467],[-170.44716999999542,22.356969999865726],[-170.46190000028471,22.376690000043595],[-170.4769000004346,22.396140000360845],[-170.49191000014631,22.415589999778831],[-170.50664999999742,22.435309999956701],[-170.52124000012583,22.455170000295425],[-170.53585999983903,22.475029999734829],[-170.55044999996744,22.49489000007361],[-170.56516999979559,22.514619999813306],[-170.58016999994547,22.53405999966941],[-170.59517999965718,22.553509999986659],[-170.60990999994647,22.573230000164529],[-170.62437000037514,22.59324000022599],[-170.63856999960572,22.613509999686869],[-170.65247000029021,22.634060000368891],[-170.66622999991449,22.65475000031239],[-170.6799900004381,22.675440000255946],[-170.69391000024623,22.695990000038591],[-170.70809999991499,22.716260000398847],[-170.72256000034366,22.736259999999163],[-170.73728999973363,22.755989999738858],[-170.75228999988352,22.775440000056108],[-170.76729999959522,22.794879999912212],[-170.78202999988451,22.814609999651907],[-170.79649000031318,22.834599999690397],[-170.81067999998194,22.854879999612422],[-170.82457999976711,22.875430000294443],[-170.83820999969166,22.896260000398854],[-170.85156000019379,22.917360000363885],[-170.86465000039712,22.938739999751306],[-170.88378999990849,22.971289999833743],[-170.88998000027672,22.982320000367849],[-170.90250999983655,23.004260000398858],[-170.9153100001563,23.025909999646899],[-170.92840999992148,23.047289999933696],[-170.94162000026273,23.068530000059582],[-170.95482999970466,23.089770000185524],[-170.96793000036914,23.111149999572945],[-170.98058999962871,23.132939999881216],[-170.99271000006638,23.155280000371874],[-171.00455000018229,23.177900000284922],[-171.01623999967617,23.20066000035888],[-171.02768000023175,23.223690000293402],[-171.03911000032619,23.246729999789807],[-171.05065999965919,23.269619999563474],[-171.06194999959274,23.292800000120053],[-171.07296999966567,23.316240000076107],[-171.08384999957775,23.339829999754841],[-171.09418000020676,23.363960000054078],[-171.1039599997541,23.388650000097584],[-171.11372000017778,23.413340000141034],[-171.12349000016329,23.438030000184483],[-171.13313000044909,23.462860000388844],[-171.1430500001573,23.487410000271439],[-171.15325999974911,23.511679999832268],[-171.16318000035665,23.536240000176008],[-171.17267000002042,23.561200000080078],[-171.18200999996145,23.586300000145059],[-171.19110000006486,23.611679999632429],[-171.19976999968566,23.637470000040594],[-171.20830999960671,23.66339999971035],[-171.21698000012682,23.689199999680397],[-171.22566000020876,23.714990000088562],[-171.23418999966867,23.740919999758319],[-171.24274000005087,23.766850000327395],[-171.25127999997196,23.792779999997151],[-171.25952000044759,23.818980000426848],[-171.26735999956426,23.845600000439788],[-171.27494999974263,23.872499999875231],[-171.28225999959923,23.899670000070614],[-171.28927999957224,23.927119999688387],[-171.29604000014581,23.954840000066099],[-171.30236999977561,23.982980000027112],[-171.30800999996146,24.01179999987022],[-171.31268000038165,24.041599999940161],[-171.31611999983804,24.072630000074582],[-171.31833000012932,24.104899999835254],[-171.31956000019377,24.138149999822758],[-171.32013000039913,24.172070000130532],[-171.32026999966067,24.206419999583431],[-171.32026999966067,24.240899999635417],[-171.32026999966067,24.275379999687402],[-171.32026999966067,24.309859999739331],[-171.32026999966067,24.344339999791316],[-171.32013000039913,24.37867999968239],[-171.31958000021677,24.412620000013135],[-171.31833000012932,24.445860000438813],[-171.31613000029921,24.478130000199485],[-171.31270999996644,24.509160000333907],[-171.30800999996146,24.538960000403847],[-171.30236999977561,24.567780000246955],[-171.29602000012284,24.595920000207968],[-171.28927999957224,24.623639999686361],[-171.28225999959923,24.65109000020351],[-171.27496000020378,24.678260000398836],[-171.26739999961021,24.705159999834279],[-171.25955000003239,24.731779999847276],[-171.25127999997196,24.757980000276916],[-171.2427699996357,24.783909999946673],[-171.23422000015282,24.809839999616429],[-171.22556000009385,24.835639999586476],[-171.21646000042861,24.861010000411341],[-171.20708000044158,24.88612000003809],[-171.20238999999842,24.89866999962095],[-171.18709999996494,24.935079999642426],[-171.17624000007586,24.958670000220479],[-171.16534000014082,24.982250000337388],[-171.15998999983856,24.994109999576949],[-171.14358999987851,25.02942000013303],[-171.13328999973362,25.05355999999415],[-171.12349999972514,25.078250000037599],[-171.11374000020078,25.102940000081105],[-171.108779999897,25.115210000241461],[-171.09420999979159,25.152309999706858],[-171.0838600000389,25.176449999567978],[-171.07296999966567,25.200040000146032],[-171.06746999964071,25.211760000124059],[-171.05067000012033,25.246650000197519],[-171.0448899997736,25.258100000314926],[-171.03332999997943,25.280999999650419],[-171.01682000034268,25.316170000045588],[-171.0059400004306,25.339759999724322],[-171.0005599996442,25.35161999986326],[-170.98581999979308,25.388580000067066],[-170.98099999965018,25.400999999950159],[-170.96627999982206,25.437960000154021],[-170.95650999983656,25.46265000019747],[-170.94616999964569,25.486790000058591],[-170.93528999973361,25.510370000175499],[-170.92440999982156,25.533950000292407],[-170.91904000039563,25.545819999993171],[-170.90265999955926,25.581129999649932],[-170.89232999982954,25.605259999949169],[-170.88737000042511,25.617539999671408],[-170.87332000001791,25.655190000218454],[-170.86424000037564,25.680569999705881],[-170.85983000025422,25.693399999610449],[-170.84688999977359,25.732149999622948],[-170.8424799996522,25.744980000426835],[-170.83313000014931,25.77007999959244],[-170.81882000034267,25.807460000278923],[-170.81386000003889,25.819740000001161],[-170.80310000026472,25.843460000278924],[-170.78658000016679,25.878640000235976],[-170.7752799997721,25.901799999870263],[-170.76371999997795,25.924700000105076],[-170.7524300000444,25.94787000020051],[-170.74691999955826,25.95959000017848],[-170.73055000008236,25.994899999835241],[-170.72020999989149,26.019039999696361],[-170.71526000004889,26.031320000317919],[-170.70561000020126,26.056140000061077],[-170.69089000037314,26.093109999826765],[-170.68112000038764,26.117790000308389],[-170.67078000019677,26.141930000169509],[-170.66540999987151,26.153799999870216],[-170.64888000021176,26.188970000265442],[-170.63759000027821,26.212140000360876],[-170.62602000002292,26.235030000134543],[-170.62023999967616,26.24648000025195],[-170.60315999983405,26.28109999956547],[-170.5916000000399,26.303999999800283],[-170.58581999969314,26.315440000355864],[-170.56873999985103,26.350059999669384],[-170.55718999961871,26.372959999904197],[-170.5457600004236,26.396000000299921],[-170.54012000023775,26.407580000117036],[-170.52854999998243,26.430469999890704],[-170.51135000000241,26.464960000403835],[-170.50570999981656,26.47654000022095],[-170.48836000011383,26.510889999673907],[-170.47693000001942,26.533919999608429],[-170.47128000027172,26.545500000324921],[-170.45392999966967,26.579849999777821],[-170.44249999957523,26.602879999712343],[-170.4368600002887,26.614469999990661],[-170.41950999968665,26.648809999881735],[-170.4082199997531,26.671990000438313],[-170.40271000016631,26.68371000041634],[-170.38631999976809,26.719020000073101],[-170.37597999957725,26.743150000372339],[-170.36620000002989,26.767840000415845],[-170.35643000004438,26.792529999559974],[-170.34666000005888,26.817219999603424],[-170.33687999961222,26.84190999964693],[-170.3265699999055,26.866039999946167],[-170.31568999999342,26.889629999624901],[-170.3101800004066,26.901349999602928],[-170.29943999975612,26.925080000341893],[-170.28841999968316,26.94852000029789],[-170.27271000006638,26.984520000297891],[-170.2677499997626,26.99680000002013],[-170.25315999963419,27.033900000384847],[-170.24338999964868,27.058590000428296],[-170.23375000026223,27.083419999733337],[-170.22384999967767,27.107969999615932],[-170.21364999964769,27.132240000076081],[-170.20374000040061,27.156789999958676],[-170.19410999967667,27.181620000163036],[-170.18431000010634,27.206310000206486],[-170.17454999968265,27.231000000249935],[-170.16491999985803,27.25581999999315],[-170.15500000014981,27.280369999875745],[-170.14480999968166,27.30464999989772],[-170.13971999967816,27.316790000358367],[-170.1254000003097,27.354159999684384],[-170.11602999988452,27.379270000210511],[-170.10695000024225,27.404649999697881],[-170.10254000012083,27.417470000040623],[-170.08971999977808,27.456369999775802],[-170.08121000034117,27.482300000344878],[-170.07294000028071,27.508499999875255],[-170.06508999980358,27.535119999888252],[-170.05753000010935,27.562020000222958],[-170.05022000025272,27.589190000418341],[-170.04318000025674,27.616640000036114],[-170.03631999956824,27.644220000252972],[-170.0328699996507,27.658019999923226],[-170.02253999992098,27.699399999810282],[-170.01566000010885,27.72698000002714],[-170.00876000027372,27.754569999805767],[-170.00203000018428,27.78229000018348],[-169.99556999995545,27.810289999983638],[-169.98935999956424,27.838559999644417],[-169.98343000039412,27.867109999626905],[-169.97777999974713,27.895939999931215],[-169.97213999956125,27.924770000235469],[-169.96636999967566,27.953449999917723],[-169.96057000020528,27.982140000061122],[-169.95478999985852,28.010830000204464],[-169.94901000041111,28.039520000347864],[-169.94335999976411,28.068340000190972],[-169.93771000001641,28.097180000057108],[-169.93181000043108,28.12571999957845],[-169.92560000003991,28.153999999700375],[-169.91913000024923,28.182000000399853],[-169.91238000013681,28.209719999878246],[-169.90548999986353,28.237309999656929],[-169.89875999977409,28.265030000034642],[-169.89230000044458,28.293029999834744],[-169.88609000005337,28.321300000394842],[-169.88015999998393,28.34985000037733],[-169.87451000023626,28.378679999782321],[-169.86887000005038,28.407510000086575],[-169.86310000016479,28.436200000229974],[-169.85745000041712,28.465020000073082],[-169.85208000009186,28.494129999799782],[-169.84697000006537,28.523499999825276],[-169.84229000008335,28.553290000333391],[-169.8378900004231,28.583360000263951],[-169.83322000000291,28.613160000333892],[-169.82812000043759,28.642530000359386],[-169.82289000027322,28.671769999785795],[-169.81778000024673,28.701150000272435],[-169.81322999996445,28.731080000042084],[-169.809659999909,28.761970000015651],[-169.80692000035765,28.793700000055082],[-169.80442999974463,28.825699999955191],[-169.80167999973213,28.857420000432796],[-169.79810999967665,28.888319999968189],[-169.79358000031669,28.918249999737839],[-169.7884700002902,28.947619999763333],[-169.78336000026371,28.977009999811798],[-169.77880999998143,29.006930000019622],[-169.77536000006387,29.037960000154044],[-169.77316000023376,29.070240000375861],[-169.77193000016931,29.10347999990222],[-169.77137999998692,29.137409999771819],[-169.77123999982607,29.171760000124038],[-169.77123999982607,29.206229999714878],[-169.77123999982607,29.240720000227952],[-169.77123999982607,29.275200000279938],[-169.77123999982607,29.309680000331866],[-169.77137999998692,29.344020000222997],[-169.77193000016931,29.377950000092596],[-169.77316000023376,29.411189999618955],[-169.77536000006387,29.443469999840772],[-169.77878999995846,29.474499999975137],[-169.7833299997796,29.504429999744843],[-169.78843999980606,29.533810000231483],[-169.79354999983255,29.563189999818803],[-169.79822999981457,29.592980000326918],[-169.80222000035266,29.623460000278953],[-169.80565999980908,29.654499999975144],[-169.80910000016479,29.685530000109566],[-169.81308000024174,29.716010000061601],[-169.81774999976261,29.745799999670396],[-169.82299999994996,29.775039999996125],[-169.82866000015881,29.803870000300435],[-169.83443999960622,29.832560000443834],[-169.84009000025324,29.861380000286943],[-169.84586999970065,29.890070000430342],[-169.85220000022974,29.918210000391355],[-169.85910000006487,29.945800000170038],[-169.86651999959824,29.97283000020451],[-169.87451000023626,29.999310000056596],[-169.88262999967466,30.025649999747827],[-169.89046999969065,30.052269999760824],[-169.89419999992998,30.065790000008633],[-169.9017599996242,30.092690000343396],[-169.9093299997796,30.119580000216956],[-169.9210499997576,30.159580000316907],[-169.92960000013983,30.185509999986664],[-169.93881000038112,30.210750000212499],[-169.94858000036663,30.235440000255949],[-169.95835999991399,30.260130000299398],[-169.96800000019977,30.284950000042613],[-169.97777999974713,30.309640000086063],[-169.98756000019378,30.334330000129569],[-169.99733999974111,30.359020000173018],[-170.00765999990898,30.383160000034138],[-170.01853999982106,30.406740000151046],[-170.02955999989399,30.430189999668869],[-170.04084999982754,30.453359999764302],[-170.05240999962172,30.476259999999172],[-170.06383999971615,30.499289999933694],[-170.07526999981056,30.522319999868216],[-170.08684000006588,30.545220000103086],[-170.09827000016031,30.568259999599434],[-170.10970000025472,30.591290000433332],[-170.12126000004889,30.614189999768826],[-170.13269000014333,30.637219999703348],[-170.14412000023773,30.660249999637927],[-170.15568999959373,30.683149999872739],[-170.16711000012631,30.706179999807262],[-170.17854000022075,30.729220000202986],[-170.19010999957675,30.752109999976653],[-170.20153999967118,30.775150000372378],[-170.21296999976559,30.7981800003069],[-170.22452999955976,30.821070000080567],[-170.23595999965417,30.844109999576972],[-170.24738000018678,30.867140000410814],[-170.25908999970363,30.889899999585452],[-170.27094000028072,30.912520000397819],[-170.28305000025722,30.934859999989158],[-170.29571999997793,30.956650000297429],[-170.3088100001813,30.978029999684907],[-170.32213999976111,30.999140000111083],[-170.33578000014683,31.019959999754349],[-170.34955000023226,31.040649999697848],[-170.36330999985654,31.061339999641405],[-170.37707999994197,31.082029999584961],[-170.39083999956625,31.102720000427837],[-170.40462999967468,31.123410000371337],[-170.42557000035515,31.154169999745818],[-170.4327400000509,31.164229999614918],[-170.44716999999542,31.184230000114553],[-170.46190000028471,31.203959999854249],[-170.4769000004346,31.223399999710352],[-170.49191000014631,31.242850000027602],[-170.5139500002922,31.272500000374862],[-170.52124000012583,31.282440000106078],[-170.53585999983903,31.302300000444802],[-170.55059999969015,31.322019999723352],[-170.56571999997794,31.341329999879747],[-170.58142000003289,31.360089999853756],[-170.59738000038664,31.378570000405318],[-170.61337000032518,31.397050000057618],[-170.62905999991898,31.415810000031627],[-170.64420000022974,31.435120000188022],[-170.66622999991449,31.464780000097051],[-170.67351999974812,31.474699999805296],[-170.68825999959924,31.494430000444311],[-170.70341000037115,31.513739999701386],[-170.72737000002542,31.541460000079098],[-170.74389999968517,31.559390000448332],[-170.76096999996545,31.576769999735859],[-170.77804999980756,31.594149999922706],[-170.79512000008785,31.611530000109553],[-170.80337999968717,31.620489999613937],[-170.82789999998494,31.647659999809264],[-170.83559999984004,31.657179999957179],[-170.85074000015081,31.676490000113574],[-170.86548000000192,31.696210000291444],[-170.88737000042511,31.726010000361384],[-170.89480999998145,31.735800000369863],[-170.90995999985404,31.755109999626939],[-170.93390999994645,31.782830000004651],[-170.95043999960623,31.800760000373884],[-170.96750999988652,31.818139999661412],[-170.98458999972863,31.835519999848259],[-170.99326000024874,31.844070000230488],[-171.01900999971164,31.869999999900244],[-171.02768000023175,31.878550000282416],[-171.0534400001558,31.904479999952173],[-171.07076999983553,31.921590000278457],[-171.07932000021776,31.93027999992222],[-171.10518999981855,31.956070000330385],[-171.11374000020078,31.964759999974149],[-171.13962000026274,31.99055000038237],[-171.1566899996437,32.007929999669898],[-171.17402999978458,32.025030000434299],[-171.19112000008786,32.042409999721826],[-171.20844999976759,32.05952000004811],[-171.22554000007088,32.076889999773812],[-171.24286999975061,32.093989999638893],[-171.25142000013281,32.102680000182033],[-171.26862999967466,32.119929999769795],[-171.29438999959874,32.145849999877726],[-171.30304999965767,32.154400000259955],[-171.32880999958175,32.180340000390856],[-171.33748000010183,32.188889999873766],[-171.36324000002591,32.214820000442785],[-171.38056999970564,32.231920000307923],[-171.39766000000893,32.249299999595451],[-171.41498999968866,32.266400000359852],[-171.42354000007086,32.275090000003615],[-171.44942000013282,32.300880000411837],[-171.45794999959273,32.309570000055601],[-171.48384000011583,32.335370000025648],[-171.50089999993497,32.352750000212495],[-171.50958000001691,32.361299999695348],[-171.53531999991799,32.387219999803278],[-171.55268999964369,32.404330000129562],[-171.56122000000292,32.413019999773326],[-171.5871099996267,32.438810000181491],[-171.59563999998593,32.447490000263429],[-171.62154000007087,32.473290000233476],[-171.63859999989,32.490670000420323],[-171.65596000005388,32.507770000285404],[-171.67301999987302,32.525149999572989],[-171.68169999995496,32.533699999955161],[-171.70743999985604,32.559629999624917],[-171.71613000039912,32.568180000007146],[-171.7418700003002,32.594109999676903],[-171.75922999956475,32.611210000441304],[-171.77629000028321,32.628589999728831],[-171.78497000036515,32.637149999672886],[-171.80234000009085,32.654250000437287],[-171.81995000009235,32.671069999980659],[-171.84708000024173,32.6956300003244],[-171.8565699999055,32.703350000202477],[-171.88561999956326,32.725970000115581],[-171.90545999987901,32.740589999828785],[-171.92528999973362,32.755210000441309],[-171.94484999972764,32.770100000015134],[-171.96384000041562,32.785559999794316],[-171.9820100001613,32.801830000054622],[-171.99096999966568,32.810100000115085],[-172.00859000012832,32.826930000119546],[-172.03461999991299,32.852580000366856],[-172.04315000027222,32.86127000001062],[-172.06905000035715,32.887069999980667],[-172.07757999981706,32.895759999624431],[-172.1034500003172,32.921550000032596],[-172.12053000015931,32.9389300002195],[-172.13785999983904,32.956030000084581],[-172.15495000014232,32.973410000271429],[-172.16361999976311,32.981959999754338],[-172.18083000020428,32.99919999978033],[-172.20671000026621,33.024990000188495],[-172.21525999974912,33.033679999832259],[-172.23247000019029,33.050930000319397],[-172.25821999965319,33.076850000427328],[-172.2668900001733,33.085399999910237],[-172.29263000007435,33.111340000041139],[-172.30997999977708,33.12843999990622],[-172.32705999961922,33.145820000093067],[-172.34412999989951,33.163189999818769],[-172.36064000043561,33.181129999749828],[-172.36877000033516,33.190230000314386],[-172.38460999965167,33.208850000127541],[-172.39974999996247,33.228160000283935],[-172.41448999981355,33.247879999562485],[-172.42907999994196,33.26773999990121],[-172.44379999977011,33.287469999640905],[-172.4589499996427,33.3067799997973],[-172.48291000019628,33.334500000175012],[-172.49943999985604,33.352429999644926],[-172.50797000021527,33.361120000188009],[-172.53358000041661,33.387179999557475],[-172.54227000006037,33.395740000400849],[-172.56800999996145,33.421670000070606],[-172.57654000032068,33.430359999714369],[-172.60158999987851,33.456979999727366],[-172.60973000023924,33.466080000291925],[-172.62555999999392,33.484700000105079],[-172.64072000032769,33.504010000261474],[-172.65546000017878,33.523740000001169],[-172.67003999984604,33.543589999878748],[-172.68477000013533,33.563319999618443],[-172.70763000032417,33.592149999922697],[-172.71576000022375,33.601249999587935],[-172.74039999976011,33.628290000083609],[-172.74893000011934,33.636979999727373],[-172.77454999988251,33.663039999996158],[-172.78308000024174,33.671729999639922],[-172.80814000026072,33.698349999652919],[-172.8162700001603,33.707450000217477],[-172.83211000037613,33.726070000030631],[-172.84726000024872,33.745380000187026],[-172.85455000008236,33.75531000035636],[-172.87659000022825,33.784970000265446],[-172.89131000005639,33.804690000443316],[-172.91417000024524,33.833519999848249],[-172.93041999958325,33.851720000078103],[-172.93868999964369,33.860690000043633],[-172.95547000004041,33.8783400000911],[-172.98108999980357,33.904409999921711],[-172.99844000040562,33.921520000247938],[-173.0069899998885,33.930209999891702],[-173.0325899996287,33.956279999722369],[-173.04085000012734,33.965240000126073],[-173.06535000040213,33.992410000321399],[-173.07305999981907,34.001920000008113],[-173.08820999969166,34.021230000164508],[-173.10296999956574,34.040959999904203],[-173.11755000013233,34.060820000242984],[-173.13228000042162,34.080540000420854],[-173.14743000029421,34.099849999677872],[-173.17138999994847,34.127570000055584],[-173.1879100000464,34.145500000424818],[-173.20498999988851,34.162879999712345],[-173.22204999970765,34.180259999899249],[-173.2393800002867,34.19735999976433],[-173.25646999969067,34.214739999951178],[-173.26500000004989,34.223429999594941],[-173.2900699996307,34.250049999607938],[-173.29818999996846,34.259159999734322],[-173.31403000018429,34.277780000446796],[-173.32916000003391,34.297080000142046],[-173.34389999988502,34.316809999881741],[-173.36579999987003,34.346600000389856],[-173.37322999986452,34.356390000398335],[-173.38837000017529,34.37569999965541],[-173.39648000005189,34.384800000219968],[-173.42886000038862,34.421359999964181],[-173.43738999984853,34.430049999607945],[-173.46300999961173,34.456120000337876],[-173.47168000013181,34.464669999820785],[-173.49744000005589,34.490600000389861],[-173.50597000041512,34.499279999572479],[-173.53103999999593,34.525899999585477],[-173.53914999987251,34.53500999971186],[-173.56270000040462,34.563149999672873],[-173.57013000039913,34.57293999968141],[-173.58487000025025,34.592659999859279],[-173.59946000037863,34.612529999759829],[-173.61420000022974,34.632249999937699],[-173.62933000007936,34.651549999632948],[-173.65328999973363,34.679279999572486],[-173.66982999985453,34.697209999941663],[-173.68688999967367,34.714579999667421],[-173.69542999959472,34.723270000210505],[-173.72130999965668,34.749070000180495],[-173.72986000003888,34.757759999824259],[-173.7469300003192,34.775140000011163],[-173.76372999983954,34.792790000058574],[-173.78823999967616,34.819969999815783],[-173.79595999955427,34.829480000401816],[-173.81109999986504,34.848789999658891],[-173.82583999971615,34.868520000297906],[-173.84042000028271,34.888370000175485],[-173.85516000013382,34.908099999915237],[-173.87028999998344,34.927410000071575],[-173.8861100001763,34.946029999884729],[-173.91076999973563,34.973059999919201],[-173.91930999965669,34.981749999562965],[-173.94491999985803,35.007820000292952],[-173.953579999917,35.016369999775804],[-173.97079000035816,35.033609999801797],[-173.9878799997621,35.050989999988644],[-174.01293999978108,35.077610000001641],[-174.02106999968066,35.08670999966688],[-174.0446299997746,35.11484999962795],[-174.05205999976909,35.124639999636429],[-174.0667999996202,35.144370000275444],[-174.08138999974861,35.164229999714848],[-174.09612999959973,35.183949999892718],[-174.11124999988752,35.203260000049113],[-174.13521000044111,35.230980000426825],[-174.14345999957925,35.239950000392355],[-174.16881000038114,35.266290000083586],[-174.18587999976211,35.283670000270433],[-174.20323000036416,35.300770000135572],[-174.22031000020627,35.318150000322419],[-174.23737999958723,35.335529999609946],[-174.24564000008587,35.344499999575476],[-174.27016000038364,35.371669999770802],[-174.27786000023875,35.381180000356892],[-174.29313999981107,35.400350000352375],[-174.30828999968367,35.419670000070596],[-174.32373000033917,35.438699999905225],[-174.34810000001491,35.466010000261463],[-174.35706000041861,35.474280000321926],[-174.37537000032518,35.490419999983146],[-174.40398999993846,35.513449999917725],[-174.42328000007188,35.528630000274461],[-174.44228000032169,35.544079999592441],[-174.45135000040213,35.552219999953195],[-174.4693900004481,35.568630000374355],[-174.49569999965519,35.5940000002999],[-174.51305000025724,35.611109999726864],[-174.52173000033918,35.619660000109036],[-174.5483100003062,35.644760000174017],[-174.56646999959074,35.661030000434323],[-174.57596999971565,35.668759999874226],[-174.60502999983456,35.69137999978733],[-174.62511999998793,35.705720000078088],[-174.63530999955677,35.71276000007407],[-174.66614999992248,35.733579999717335],[-174.67647999965217,35.740479999552463],[-174.7074400001558,35.761170000395339],[-174.73843000024425,35.781860000338895],[-174.74875000041212,35.788760000174022],[-174.76942000033267,35.802550000282451],[-174.79034000009085,35.816060000069115],[-174.81154999973262,35.829309999556983],[-174.83303999969615,35.84227000006058],[-174.85476999993548,35.854959999804294],[-174.8767999996202,35.867370000125561],[-174.89856000034368,35.880059999869218],[-174.92003999984604,35.893029999934697],[-174.94125000038713,35.90626999986074],[-174.9624600000289,35.919509999786783],[-174.98366999967067,35.932749999712883],[-174.99439999986004,35.939229999964653],[-175.01615999968416,35.951919999708366],[-175.06157999971714,35.975370000125565],[-175.07314999997246,35.981030000334385],[-175.10910000036466,35.996750000412362],[-175.1213400000409,36.001709999816796],[-175.1583899998985,36.016330000429321],[-175.17064000003589,36.0213000002949],[-175.19543000019428,36.030950000142525],[-175.22020999989149,36.040609999551975],[-175.24442999984456,36.050809999581986],[-175.28106999968065,36.065849999777811],[-175.30599999999993,36.075360000363844],[-175.31852999955976,36.08006000036886],[-175.35638000033669,36.093849999577969],[-175.36919999978008,36.098259999699394],[-175.39507999984204,36.106819999643392],[-175.42097000036514,36.115359999564475],[-175.44657999966716,36.12419000026847],[-175.47247000019027,36.132739999751323],[-175.51128999983354,36.145569999655891],[-175.52425000033716,36.149850000077606],[-175.56335000030219,36.162399999660408],[-175.57657000020527,36.166399999760301],[-175.61678000009684,36.177840000315882],[-175.64389000022325,36.185159999734367],[-175.67129999979508,36.192190000168523],[-175.69896000010385,36.198949999842739],[-175.72691000029621,36.205430000094566],[-175.75515999993397,36.211639999586453],[-175.78366000030869,36.217569999655893],[-175.79797000011533,36.220470000290447],[-175.84119999988002,36.22887000005062],[-175.85550999968666,36.231769999785797],[-175.88415999978409,36.237570000155529],[-175.91305999971914,36.243079999742349],[-175.9422500004371,36.248329999929695],[-175.97171000011633,36.253290000233449],[-176.01674999971263,36.25990999974681],[-176.04648999971363,36.264600000190001],[-176.07581000013133,36.269699999755346],[-176.10501000041111,36.274940000380866],[-176.1195999996402,36.27757000025548],[-176.1642199996532,36.284599999790316],[-176.19518999971865,36.28804999970788],[-176.21100999991148,36.289419999933216],[-176.26059000022826,36.291499999625444],[-176.29446000002889,36.292049999807773],[-176.32877000033517,36.292180000406859],[-176.36319000031818,36.292180000406859],[-176.3976100003012,36.292180000406859],[-176.43203999984604,36.292180000406859],[-176.46645999982906,36.292180000406859],[-176.50087000025025,36.292180000406859],[-176.53529000023326,36.292180000406859],[-176.5697199997781,36.292180000406859],[-176.60413999976112,36.292180000406859],[-176.63857000020528,36.292180000406859],[-176.67285000002741,36.292049999807773],[-176.70671000026621,36.291499999625444],[-176.73990000018478,36.290250000437311],[-176.77212999989951,36.28804999970788],[-176.7872799997721,36.285979999577478],[-176.83300999971163,36.280050000407357],[-176.86231999966819,36.274949999942692],[-176.89162999962471,36.269839999916201],[-176.92136999962571,36.265150000372387],[-176.9518100004311,36.261150000272437],[-176.98279000005837,36.257709999916699],[-177.01378000014682,36.254259999999135],[-177.04422000005289,36.250259999899242],[-177.07396999961571,36.245570000355372],[-177.10314999987253,36.240329999729852],[-177.13190999964669,36.234670000420351],[-177.1605500001823,36.22887000005062],[-177.18932999997944,36.223220000302945],[-177.2181099997766,36.217569999655893],[-177.24663000017429,36.211639999586453],[-177.2748399997661,36.205430000094566],[-177.30280000041961,36.198949999842739],[-177.33047000029021,36.192190000168523],[-177.35785999983904,36.185159999734367],[-177.38498000042659,36.177849999877765],[-177.41183000025424,36.170259999699397],[-177.45163000012434,36.158399999560459],[-177.46456999970565,36.15412000003812],[-177.49044999976761,36.145569999655891],[-177.52929999989502,36.132739999751323],[-177.55515999993398,36.12419000026847],[-177.56796000025375,36.119780000147045],[-177.6066599997591,36.106810000081566],[-177.61960999980158,36.102540000121053],[-177.64536000016381,36.093849999577969],[-177.68323000006438,36.08006000036886],[-177.69577000008536,36.075360000363844],[-177.72068999994346,36.065849999777811],[-177.75728999973362,36.050809999581986],[-177.76941000017129,36.045710000016641],[-177.79392999956974,36.03577999984725],[-177.83109999956525,36.0213000002949],[-177.84334999970264,36.016330000429321],[-177.88041999958324,36.001709999816796],[-177.89266999972062,35.996750000412362],[-177.91675000041212,35.986399999760351],[-177.95171999967818,35.969720000377833],[-177.96314999977261,35.963920000008159],[-177.98559999993998,35.951919999708366],[-178.01810000041462,35.932749999712883],[-178.02870000000493,35.926130000199521],[-178.06051999969816,35.90626999986074],[-178.07110999972664,35.899650000347378],[-178.10318000015681,35.88007000033042],[-178.12495000044208,35.867370000125561],[-178.14698999968866,35.854959999804294],[-178.16873000038913,35.84227000006058],[-178.17947000014033,35.83578999980881],[-178.21140999997144,35.816060000069115],[-178.22187999986204,35.809300000394842],[-178.24264999989751,35.795650000447324],[-178.27363999998593,35.774959999604448],[-178.29428000032169,35.761170000395339],[-178.30463000007438,35.754269999660892],[-178.33560000013983,35.733579999717335],[-178.35625000003739,35.719789999608963],[-178.37663000007436,35.705720000078088],[-178.39674000025073,35.69137999978733],[-178.4162899997836,35.676490000213505],[-178.43527000001041,35.661030000434323],[-178.45345999977908,35.644760000174017],[-178.47135999966417,35.628209999591945],[-178.48871999982805,35.611109999726864],[-178.50605999996895,35.5940000002999],[-178.52315000027221,35.576620000113053],[-178.54047999995197,35.559520000247971],[-178.55757000025523,35.542140000061124],[-178.57491000039613,35.525040000195986],[-178.59199999980007,35.507660000009139],[-178.60933000037915,35.490560000144058],[-178.62639999976011,35.473179999957154],[-178.64375000036216,35.456080000092072],[-178.6608100001813,35.438699999905225],[-178.678179999907,35.421589999578941],[-178.69523999972614,35.404210000291414],[-178.71259999989002,35.387110000426333],[-178.72965999970916,35.369739999801311],[-178.74701999987303,35.352630000374347],[-178.76407999969217,35.335259999749326],[-178.7811600004336,35.317879999562479],[-178.79767999963221,35.299950000092565],[-178.81392999986952,35.281740000300942],[-178.83681000008136,35.252909999996632],[-178.8515299999095,35.233189999818762],[-178.85883000020428,35.223259999649429],[-178.87340999987151,35.203400000209967],[-178.89545000001741,35.173740000300938],[-178.90288000001192,35.163950000292402],[-178.92535000020229,35.134709999966674],[-178.93966999957075,35.114570000205504],[-178.94669000044308,35.104359999714347],[-178.96650999983655,35.07249999997515],[-178.97875999997396,35.050299999645404],[-178.9905899996287,35.027679999732356],[-179.00228999958375,35.004919999658398],[-179.01373000013933,34.981889999723876],[-179.01937999988701,34.970300000344878],[-179.03670999956674,34.935959999554484],[-179.04815999968417,34.912929999619905],[-179.05379999987002,34.901340000240964],[-179.07114000001093,34.86700000034989],[-179.08257999966719,34.843959999954166],[-179.08823000031418,34.832369999675905],[-179.10555999999394,34.798029999784831],[-179.11688000041161,34.774859999689397],[-179.12789999958525,34.751410000171518],[-179.13876000037365,34.72783000005461],[-179.1490799996422,34.70369000019349],[-179.15871999992797,34.678859999989129],[-179.16793999973112,34.65361999976335],[-179.17663999983606,34.627830000254448],[-179.18459999998993,34.601350000402363],[-179.19217000014532,34.574459999629426],[-179.19945999997896,34.547279999872217],[-179.20647999995197,34.51983999981627],[-179.21323000006439,34.492109999876732],[-179.21651999979807,34.478179999607448],[-179.22536000006389,34.435290000233465],[-179.23059000022826,34.406040000345911],[-179.2352799997721,34.376249999837739],[-179.23966999987053,34.346190000368381],[-179.24434999985255,34.316390000298441],[-179.24945000031718,34.287020000272946],[-179.25469999960524,34.257779999947161],[-179.2597800000469,34.228400000359898],[-179.26224999973763,34.213639999586462],[-179.26778000024674,34.167429999994624],[-179.26998999963871,34.135160000233952],[-179.27121999970316,34.101919999808274],[-179.2717600003237,34.067989999938675],[-179.27189999958523,34.033639999586455],[-179.27189999958523,33.99916000043379],[-179.2717600003237,33.964819999643396],[-179.27121000014131,33.930889999773797],[-179.26996000005389,33.897650000247438],[-179.26776000022375,33.865379999587446],[-179.26431000030618,33.834339999891199],[-179.26183999971613,33.819589999578966],[-179.25454999988253,33.775169999795821],[-179.24890000013482,33.746349999952656],[-179.24602000042262,33.732000000100072],[-179.23749000006339,33.688830000404323],[-179.23182999985454,33.660009999661895],[-179.22878999995845,33.645799999970166],[-179.21973000033918,33.603179999557483],[-179.21325999964918,33.575179999757324],[-179.20649999997494,33.547449999817786],[-179.19945999997896,33.520009999761839],[-179.19217000014532,33.492839999566456],[-179.18459999998993,33.46594000013107],[-179.17661999981306,33.439460000278928],[-179.16795000019229,33.413669999870763],[-179.16327000021028,33.401120000287904],[-179.14923000026423,33.363460000179032],[-179.13930999965669,33.338910000296437],[-179.12912000008785,33.314639999836288],[-179.11920000037964,33.290080000391868],[-179.10956999965569,33.265259999749333],[-179.09979000010836,33.240569999705883],[-179.09002999968467,33.215879999662377],[-179.08025000013731,33.191189999618928],[-179.06992000040762,33.167060000218953],[-179.05890000033466,33.143609999801811],[-179.04166999987052,33.109129999749825],[-179.03548999996346,33.098089999653894],[-179.02282999980457,33.076300000244942],[-179.00973999960124,33.054919999958202],[-178.99651999969817,33.033679999832259],[-178.98331000025624,33.012439999706373],[-178.97020999959173,32.991069999880722],[-178.95741000017131,32.969410000171536],[-178.9448900001733,32.947479999702352],[-178.93221999955327,32.9256900002934],[-178.91901000011134,32.904450000167515],[-178.90524000002591,32.883760000223958],[-178.89091000019627,32.863619999563468],[-178.87603999974613,32.844029999984684],[-178.86101999957324,32.824579999667378],[-178.84627999972213,32.804860000388828],[-178.83170000005489,32.785000000050104],[-178.81710999992649,32.76513999971138],[-178.8023799996372,32.745409999971685],[-178.78722999976461,32.726110000276435],[-178.76325999964919,32.698389999898723],[-178.74675000001241,32.680460000428809],[-178.72965999970916,32.663080000241962],[-178.71259999989002,32.645689999593969],[-178.69523999972614,32.628589999728831],[-178.678179999907,32.611210000441304],[-178.6608100001813,32.594109999676903],[-178.65227999982207,32.585420000033139],[-178.63507000028022,32.568180000007146],[-178.61785999983906,32.550939999981154],[-178.60065000029721,32.533699999955161],[-178.57491000039613,32.507770000285404],[-178.55753999977111,32.490670000420323],[-178.54047999995197,32.473290000233476],[-178.53181000033118,32.464739999851247],[-178.50605999996895,32.438799999720345],[-178.49739000034816,32.430259999799318],[-178.4713399996412,32.404599999990126],[-178.46240000015982,32.396320000367893],[-178.44438000013682,32.379909999946676],[-178.4162899997836,32.356329999829768],[-178.39672999978959,32.341429999794798],[-178.37691000039612,32.326810000081593],[-178.35709000010334,32.312190000368389],[-178.33724999978759,32.297569999755808],[-178.31770000025475,32.282680000181983],[-178.30807000043009,32.275090000003615],[-178.28866999972064,32.260060000268936],[-178.25904999985752,32.237989999638899],[-178.23895000014232,32.223639999786315],[-178.21857999966718,32.209570000255439],[-178.19792000020777,32.195789999708836],[-178.17698999998842,32.182270000360347],[-178.15578999990851,32.169030000434304],[-178.13431000040612,32.156060000368882],[-178.11227000026022,32.143650000047614],[-178.08969000039312,32.131780000346907],[-178.06710999962669,32.119929999769795],[-178.04452999975962,32.108060000069088],[-178.02194000033069,32.096199999930207],[-177.99990999974662,32.083789999608939],[-177.97816000038364,32.071099999865226],[-177.95641000012134,32.058410000121569],[-177.93436999997544,32.045999999800301],[-177.91179000010834,32.034130000099594],[-177.88839999976011,32.023099999565488],[-177.85259999998993,32.007240000225977],[-177.84047999955226,32.002130000199486],[-177.81623999957625,31.991930000169532],[-177.79254000022075,31.981170000395366],[-177.76912999984953,31.970130000299434],[-177.74572999993947,31.959099999765328],[-177.7228699997506,31.947519999948156],[-177.7000400000459,31.935929999669895],[-177.66547000034018,31.918829999804814],[-177.65404000024574,31.913039999896228],[-177.63120000007987,31.90144999961791],[-177.60805999956926,31.890139999661415],[-177.58518999981857,31.878550000282416],[-177.5623499996527,31.866969999565981],[-177.53921999960323,31.855659999609429],[-177.51634000029071,31.844070000230488],[-177.50491000019628,31.838280000321902],[-177.47037000007538,31.821169999995675],[-177.44748999986354,31.809590000178503],[-177.42464999969766,31.797999999900242],[-177.4015199996482,31.78668999994369],[-177.36723000026421,31.769320000217988],[-177.35580000016981,31.763519999848256],[-177.33267000012034,31.752209999891704],[-177.30980999993147,31.740630000074589],[-177.28696000020378,31.729039999796271],[-177.26381999969317,31.717729999839776],[-177.24096999996544,31.706139999561458],[-177.2181099997766,31.694559999744342],[-177.19497999972714,31.68324999978779],[-177.17212000043759,31.671660000408849],[-177.14926000024874,31.660079999692357],[-177.12584999987752,31.649039999596425],[-177.10244999996746,31.638009999961696],[-177.07876999973561,31.62725000018753],[-177.05423999987602,31.61732000001814],[-177.0294600001788,31.607670000170515],[-177.004959999904,31.597740000001124],[-176.98018000020676,31.588079999692354],[-176.95565999990899,31.57815000042234],[-176.93197999967717,31.567389999748855],[-176.90857000020526,31.556349999652923],[-176.88515999983406,31.545320000018137],[-176.86229999964519,31.533740000200964],[-176.83944999991749,31.522149999922704],[-176.8163100003062,31.510839999966151],[-176.79345999967916,31.499260000149036],[-176.77060000038963,31.487669999870718],[-176.74747000034017,31.476359999914223],[-176.7246100001513,31.464780000097051],[-176.70174999996246,31.45318999981879],[-176.678619999913,31.441879999862238],[-176.64432999962972,31.42449999967539],[-176.6329000004346,31.418709999766804],[-176.60977000038514,31.407399999810309],[-176.58691000019627,31.395810000431311],[-176.5640700000304,31.384229999714876],[-176.54093999998094,31.372919999758324],[-176.51809999981506,31.361330000379382],[-176.48367000027022,31.34409000035339],[-176.47210999957673,31.338430000144513],[-176.43782000019277,31.321060000418811],[-176.42639000009837,31.315260000049079],[-176.4032600000489,31.303950000092584],[-176.38039999986003,31.292370000275412],[-176.35753999967116,31.280779999997151],[-176.3344099996217,31.269470000040599],[-176.31155000033218,31.257879999762338],[-176.28869999970516,31.246299999945165],[-176.26529000023325,31.235259999849234],[-176.2418700003002,31.224230000214504],[-176.21819000006838,31.213470000440338],[-176.19368000023175,31.203540000270948],[-176.15665000039712,31.188919999658424],[-176.14438000023674,31.183960000253933],[-176.10733000037914,31.169330000079583],[-176.09508000024175,31.164369999775829],[-176.07140999957176,31.153610000001663],[-176.04800000009985,31.142580000366877],[-176.02460000018979,31.131549999832771],[-176.01317999965718,31.125759999924185],[-175.96732000001791,31.102720000427837],[-175.95574999976262,31.09706000021896],[-175.94433999969115,31.091270000310431],[-175.91005000030719,31.073890000123527],[-175.88692000025773,31.062580000167031],[-175.86406000006886,31.051000000349859],[-175.84121999990299,31.039410000071598],[-175.81806999983056,31.028100000115046],[-175.79520999964168,31.016509999836785],[-175.77237000037513,31.004930000019613],[-175.7492200003027,30.993620000063117],[-175.72636000011383,30.9820299997848],[-175.70351999994796,30.970449999967684],[-175.68036999987552,30.959140000011132],[-175.65752000014783,30.947549999732871],[-175.62310999972664,30.930309999706878],[-175.61152999990949,30.924659999959147],[-175.58866999972062,30.913069999680886],[-175.56582999955475,30.90148999986377],[-175.54268999994346,30.890170000345393],[-175.51982000019277,30.8785899996289],[-175.49698000002689,30.867000000249959],[-175.47384999997743,30.855690000293407],[-175.45096999976559,30.844109999576972],[-175.42842000038263,30.83225000033741],[-175.40583999961621,30.820379999737327],[-175.38378999990849,30.807970000315379],[-175.36229999994498,30.795009999811782],[-175.34111000032618,30.781760000323914],[-175.31989999978509,30.768520000397871],[-175.2987100001663,30.755279999572451],[-175.27722000020276,30.742319999968174],[-175.25518999961872,30.729900000085081],[-175.23258999972862,30.7180399999462],[-175.21000999986154,30.706179999807262],[-175.18716000013382,30.694599999990146],[-175.16403000008435,30.683279999572449],[-175.12973000023925,30.665909999846747],[-175.11832000016778,30.660110000376335],[-175.08374000000092,30.643009999611934],[-175.07230999990651,30.637219999703348],[-175.04946999974061,30.625630000324406],[-175.01490999959674,30.608529999559948],[-175.00348000040162,30.602730000089593],[-174.98062000021275,30.591150000272421],[-174.95749999972514,30.579840000315926],[-174.93465999955924,30.568250000037608],[-174.90078999975862,30.550459999829286],[-174.88949999982506,30.544529999759845],[-174.86745999967917,30.532120000337898],[-174.84598000017678,30.519150000272418],[-174.82474999961272,30.505910000346375],[-174.80355999999392,30.492670000420333],[-174.78235999991398,30.47942999959497],[-174.76088000041162,30.466469999990636],[-174.73884999982755,30.454050000107543],[-174.71628000042162,30.442189999968662],[-174.68225000043711,30.424530000359368],[-174.65927000011035,30.413089999803788],[-174.64771000031618,30.407429999594967],[-174.62485000012734,30.395849999777795],[-174.6019699999155,30.384260000398854],[-174.578859999889,30.372950000442302],[-174.55599999970016,30.361369999725866],[-174.53312999994947,30.349780000346868],[-174.51001000036115,30.338470000390373],[-174.47570999961673,30.321090000203469],[-174.46428000042161,30.31530000029494],[-174.44115999993397,30.303990000338388],[-174.41829999974513,30.29240000006007],[-174.39542999999443,30.280820000242954],[-174.36088999987351,30.263709999916728],[-174.3494599997791,30.257920000008141],[-174.32657999956726,30.246329999729824],[-174.30347000044009,30.235019999773328],[-174.28061000025124,30.223439999956156],[-174.25773999960123,30.211849999677895],[-174.23462000001291,30.200550000182488],[-174.21175999982407,30.188959999904228],[-174.1888999996352,30.17736999962591],[-174.16576999958573,30.16607000013056],[-174.14291000029621,30.154479999852242],[-174.12034999955276,30.142619999713361],[-174.09778000014683,30.130750000012654],[-174.07574000000093,30.118339999691386],[-174.0542799996222,30.105369999625907],[-174.03304999995746,30.09214000016101],[-174.01182999985454,30.078889999773821],[-174.00123999982605,30.07227000026046],[-173.96915000027221,30.052690000243445],[-173.94713000014931,30.040279999922177],[-173.92455999984404,30.02841000022147],[-173.90195999995396,30.016550000082589],[-173.87911999978809,30.004959999804271],[-173.85598999973863,29.993660000308921],[-173.83313000044907,29.982070000030603],[-173.81027000026023,29.970479999752342],[-173.78714000021077,29.95916999979579],[-173.75284999992749,29.941789999608943],[-173.74141999983306,29.935999999700357],[-173.71828999978359,29.924689999743862],[-173.69542999959472,29.913109999926689],[-173.67284999972762,29.901240000225982],[-173.65026999986054,29.889389999648927],[-173.62822999971465,29.876969999765834],[-173.60677000023526,29.8640100001615],[-173.58553999967117,29.850770000235457],[-173.56435000005237,29.837519999848269],[-173.5431400004106,29.824279999922226],[-173.5216500004471,29.811320000317892],[-173.49963000032417,29.798900000434799],[-173.48834000039062,29.792970000365358],[-173.45446999969064,29.775180000157036],[-173.43161000040112,29.763589999878718],[-173.40848000035166,29.752290000383368],[-173.38562000016279,29.740700000105051],[-173.36304000029571,29.728839999966169],[-173.34044999996746,29.716979999827288],[-173.31842000028271,29.704559999944195],[-173.29695000034218,29.691600000339861],[-173.27573000023924,29.678360000413818],[-173.24392999966966,29.658489999613948],[-173.2333399996412,29.651870000100587],[-173.21184000011584,29.638909999596933],[-173.19008999985354,29.626219999853276],[-173.16808000019179,29.613799999970183],[-173.14632000036764,29.601119999788295],[-173.1248500004271,29.588149999722873],[-173.10363999988601,29.574909999796773],[-173.08243000024424,29.56166999987073],[-173.06121999970316,29.548429999944688],[-173.03972000017779,29.53547000034041],[-173.01796999991549,29.522779999697377],[-172.99596000025375,29.510359999814284],[-172.97420000042959,29.49767000007057],[-172.95272999958974,29.484709999566974],[-172.93151999994797,29.471469999640931],[-172.91060000018979,29.457950000292442],[-172.88993999983106,29.444160000184013],[-172.86955000023224,29.430089999753818],[-172.84946000007886,29.415739999901234],[-172.82961999976311,29.401129999749855],[-172.8198499997776,29.393679999732342],[-172.79080000011984,29.371059999819295],[-172.78103999969616,29.363609999801781],[-172.75141999983305,29.341540000071063],[-172.73160000043958,29.326920000357859],[-172.7120400004456,29.312020000322889],[-172.69302000017279,29.296579999667415],[-172.68407999979209,29.288300000045126],[-172.66687000025024,29.271060000019133],[-172.64319999958025,29.243060000218975],[-172.62859000032819,29.223199999880251],[-172.61484000026573,29.202509999936694],[-172.60158999987851,29.181269999810809],[-172.5889400001808,29.159480000401857],[-172.58301999967318,29.148170000445305],[-172.57172999973963,29.125000000349871],[-172.56125999984903,29.100999999750343],[-172.55148000030169,29.076309999706837],[-172.54239000019828,29.050930000219466],[-172.53371999967817,29.025139999811302],[-172.52519000021826,28.999210000141545],[-172.51706000031868,28.972869999550994],[-172.50976999958573,28.945689999793785],[-172.50341999993299,28.917560000293918],[-172.49834000039064,28.888179999807278],[-172.49461000015131,28.857420000432796],[-172.49184999967767,28.825699999955191],[-172.48937999998694,28.793700000055082],[-172.48662999997444,28.761970000015651],[-172.48455999984404,28.746800000120061],[-172.47852000009786,28.701150000272435],[-172.47341999963319,28.671769999785795],[-172.46832000006788,28.6423999997603],[-172.46378000024674,28.612460000428825],[-172.46238999999844,28.596600000189994],[-172.45812999959972,28.549159999634412],[-172.45688000041162,28.515920000108054],[-172.45633000022926,28.481990000238454],[-172.45621000009135,28.447639999886235],[-172.45621000009135,28.413159999834249],[-172.45621000009135,28.378679999782321],[-172.45621000009135,28.344199999730336],[-172.45621000009135,28.309719999678407],[-172.45621000009135,28.275230000064596],[-172.45621000009135,28.240750000012611],[-172.45621000009135,28.206269999960682],[-172.45621000009135,28.171789999908697],[-172.45621000009135,28.137309999856768],[-172.45621000009135,28.102829999804783],[-172.45621000009135,28.068349999752854],[-172.45621000009135,28.033860000139043],[-172.45621000009135,27.999380000087058],[-172.45621000009135,27.964900000035129],[-172.45633999979108,27.930560000144055],[-172.45688999997344,27.896630000274456],[-172.45812999959972,27.863389999848778],[-172.46033000032918,27.831109999626904],[-172.46378000024674,27.800080000391858],[-172.46832000006788,27.770149999722832],[-172.47353999977111,27.740910000296424],[-172.4791900004181,27.71207999999217],[-172.48498999988851,27.683400000309916],[-172.49063000007436,27.654570000005663],[-172.49627999982206,27.625739999701352],[-172.50204000014583,27.597049999557953],[-172.50783999961621,27.56836000031393],[-172.51361000040112,27.539679999732357],[-172.51940999987153,27.510989999588958],[-172.52505000005738,27.482160000184024],[-172.53069999980508,27.453329999879713],[-172.53662000031269,27.424779999897225],[-172.54282000024273,27.396510000236447],[-172.54929000003341,27.368510000436288],[-172.55602999968465,27.340790000058576],[-172.56304999965769,27.313340000440803],[-172.57034000039064,27.286170000245477],[-172.57790999964669,27.259269999910714],[-172.58574999966268,27.232649999897717],[-172.59389999958523,27.206310000206486],[-172.60201999992299,27.179969999615935],[-172.60985999993898,27.153340000041112],[-172.61743000009434,27.126450000167495],[-172.62473000038912,27.099279999972168],[-172.63175999992399,27.071830000354396],[-172.63863999973611,27.044239999676392],[-172.64553999957124,27.016660000358854],[-172.64897000036515,27.002870000250482],[-172.65930000009485,26.961490000363369],[-172.666179999907,26.933899999685366],[-172.67307000018027,26.906320000367884],[-172.67650999963669,26.89251999979831],[-172.68682999980456,26.851150000372343],[-172.69372999963969,26.823559999694396],[-172.70061000035116,26.795980000376858],[-172.70749000016329,26.768389999698854],[-172.71438999999842,26.740810000381373],[-172.72124999978757,26.713219999703369],[-172.7281499996227,26.685640000385831],[-172.73503000033418,26.658049999707885],[-172.74191000014631,26.630470000390346],[-172.74880999998143,26.602879999712343],[-172.75568000023176,26.575300000394861],[-172.76256999960572,26.547709999716858],[-172.76945000031719,26.520119999938174],[-172.77620999999144,26.492399999560462],[-172.78267999978209,26.464410000221449],[-172.78887999971215,26.436130000099581],[-172.79480000021977,26.407580000117036],[-172.80044999996744,26.378749999812783],[-172.80609000015332,26.349920000407849],[-172.81186000003891,26.321239999826275],[-172.81766000040861,26.292549999682876],[-172.82343000029419,26.263860000438797],[-172.82922000020278,26.235170000295398],[-172.83486999995046,26.206339999991144],[-172.84051999969816,26.177520000148036],[-172.84628000002192,26.148830000004637],[-172.85208000039162,26.120139999861237],[-172.85785000027721,26.091449999717838],[-172.86364999974762,26.062759999574439],[-172.86928999993347,26.033939999731331],[-172.87493999968117,26.005110000326397],[-172.88086000018879,25.976560000343909],[-172.88704999965768,25.948280000221985],[-172.89352000034765,25.920280000421826],[-172.90026999956075,25.892560000044114],[-172.90715000027222,25.864979999827256],[-172.91403000008435,25.837390000048629],[-172.92092999991948,25.809800000269945],[-172.92780000016981,25.782220000053087],[-172.93469000044308,25.75463000027446],[-172.94157000025524,25.727050000057602],[-172.94832999992948,25.69932999967989],[-172.95479999972014,25.671329999879731],[-172.9609999996502,25.643049999757807],[-172.96692000015781,25.614510000236464],[-172.97256000034366,25.585679999932211],[-172.97821000009137,25.5568499996279],[-172.98412999969966,25.528299999645412],[-172.99032999962969,25.500020000422808],[-172.99680000031969,25.472019999723329],[-173.00353999997094,25.444300000244937],[-173.0104199997831,25.416720000028135],[-173.01718000035666,25.388999999650423],[-173.0235000004246,25.360859999689353],[-173.02927999987202,25.332170000445331],[-173.03202999988451,25.317689999993661],[-173.03917999955726,25.273139999611431],[-173.04358999967866,25.24306999968087],[-173.04828000012182,25.213280000072075],[-173.05337999968717,25.183899999585435],[-173.05862000031269,25.154660000159026],[-173.063719999878,25.125279999672387],[-173.06825000013731,25.095349999902737],[-173.07168999959373,25.064319999768315],[-173.07387999986202,25.032040000445818],[-173.07512000038764,24.99880000002014],[-173.07568000013183,24.96487000015054],[-173.07582000029271,24.930530000259466],[-173.07582000029271,24.896050000207481],[-173.07582000029271,24.861570000155552],[-173.07582000029271,24.827079999642422],[-173.07582000029271,24.792599999590436],[-173.07582000029271,24.758120000437827],[-173.07582000029271,24.723640000385842],[-173.07582000029271,24.689160000333914],[-173.07582000029271,24.654669999820783],[-173.07582000029271,24.620200000229943],[-173.07582000029271,24.585709999716869],[-173.07582000029271,24.551229999664884],[-173.07568000013183,24.516889999773809],[-173.07512000038764,24.48295999990421],[-173.07387999986202,24.449720000377852],[-173.07168999959373,24.417440000156034],[-173.06825000013731,24.386410000021613],[-173.06357000015529,24.356620000412818],[-173.05792000040762,24.327790000108564],[-173.05156999985553,24.299659999709377],[-173.04483000020426,24.271929999769839],[-173.03793000036916,24.244349999552981],[-173.03106999968065,24.216759999774297],[-173.02416999984555,24.18916999999567],[-173.0172900000334,24.161589999778812],[-173.01041000022127,24.134009999561954],[-173.00337000022526,24.106559999944182],[-172.99606000036866,24.079389999748855],[-172.98849000021326,24.052490000313412],[-172.98065000019727,24.025870000300415],[-172.97240999972163,23.999669999870719],[-172.96386999980058,23.973740000200962],[-172.95534000034067,23.947809999631943],[-172.94666000025873,23.922009999661896],[-172.93755999969414,23.896639999736351],[-172.92821999975311,23.871530000109544],[-172.91858000036666,23.846710000366386],[-172.90824999973762,23.822569999605946],[-172.89736999982554,23.798979999927212],[-172.88636999977558,23.775539999971159],[-172.87507999984203,23.752369999875725],[-172.86352999960971,23.729469999640912],[-172.85208000039162,23.706430000144508],[-172.84065000029719,23.683400000209986],[-172.82910000006487,23.660510000436318],[-172.81766000040861,23.637470000040594],[-172.8062300003142,23.614440000106072],[-172.79468000008185,23.591539999871259],[-172.78322999996445,23.56850999993668],[-172.77179999987001,23.545480000002158],[-172.76024999963769,23.522579999767345],[-172.74880999998143,23.499549999832766],[-172.737379999887,23.476510000336361],[-172.72567999993197,23.45375000026246],[-172.71383999981606,23.431139999911181],[-172.7017200002777,23.408789999858755],[-172.68906000011884,23.386999999550483],[-172.67596000035365,23.365620000163005],[-172.66275000001241,23.34438000003712],[-172.64953999967116,23.323139999911234],[-172.62997000011535,23.290999999850271],[-172.62363999958623,23.280110000376339],[-172.6111100000264,23.258179999907213],[-172.59859000002839,23.236239999876261],[-172.58578000014683,23.214589999728844],[-172.57268999994346,23.193210000341367],[-172.55932999987951,23.172110000376335],[-172.54571999997793,23.151280000271925],[-172.5318000001698,23.13072999958996],[-172.51760999960172,23.110460000129024],[-172.50313999961122,23.090459999629445],[-172.48841999978308,23.07072999988975],[-172.47341999963319,23.051279999572444],[-172.45840000035966,23.03183999971634],[-172.4436799996322,23.012109999976644],[-172.42907999994196,22.99224999963792],[-172.41448999981355,22.972390000198516],[-172.39989999968518,22.952529999859735],[-172.37772000027772,22.923019999673386],[-172.37015000012232,22.913360000263935],[-172.35514999997244,22.893909999946686],[-172.34041999968315,22.874189999768817],[-172.32584000001592,22.854330000329412],[-172.31122000030268,22.834469999990631],[-172.2966300001743,22.814600000090081],[-172.28189000032319,22.794879999912212],[-172.2668900001733,22.775429999594962],[-172.25189000002339,22.755989999738858],[-172.23715000017231,22.736259999999163],[-172.2225600000439,22.716399999660382],[-172.20794999989249,22.696540000220978],[-172.19321999960323,22.676820000043108],[-172.17806999973064,22.657509999886713],[-172.15413000009934,22.62979000040832],[-172.13760000043959,22.611849999577942],[-172.12053000015931,22.594470000290414],[-172.10343999985602,22.577099999665393],[-172.08611000017629,22.559990000238486],[-172.07755999979409,22.551299999695345],[-172.06035000025224,22.53405999966941],[-172.04313999981107,22.516819999643417],[-172.01725999974911,22.491030000134515],[-172.000179999907,22.473649999947668],[-171.98283000020427,22.456550000082586],[-171.97429999984504,22.447860000438823],[-171.94841000022126,22.422070000030601],[-171.93135000040212,22.404689999843754],[-171.91399000023824,22.387589999978672],[-171.8969300004191,22.370209999791825],[-171.87955999979408,22.353109999926687],[-171.87103000033417,22.344420000282923],[-171.84513999981107,22.318620000312933],[-171.83661000035116,22.309929999769793],[-171.81071000026623,22.284140000260948],[-171.79366000000891,22.2667600000741],[-171.78497000036515,22.258209999691871],[-171.76775999992398,22.240969999665879],[-171.7418700003002,22.215180000157034],[-171.73333999994097,22.20648999961395],[-171.70743999985604,22.180700000105048],[-171.6903800000369,22.163319999918201],[-171.68169999995496,22.154770000435292],[-171.65567000017029,22.129109999726836],[-171.64672999978959,22.120839999666373],[-171.6195999996402,22.096289999783778],[-171.60062000031269,22.080839999566479],[-171.58104999985753,22.065940000430828],[-171.56122000000292,22.051319999818304],[-171.54137999968717,22.036700000105043],[-171.53160000013983,22.029250000087586],[-171.51233000002941,22.014080000191996],[-171.48466000015881,21.990079999592467],[-171.47571000021625,21.981810000431324],[-171.45808000019179,21.964980000426806],[-171.43205000040712,21.93931999971835],[-171.41469999980507,21.922219999853269],[-171.40576000032368,21.913949999792806],[-171.3786300001743,21.889399999910211],[-171.35964999994746,21.873949999692854],[-171.34987000040013,21.866499999675398],[-171.32026999966067,21.84442999994468],[-171.30045000026723,21.829810000231475],[-171.29066000025873,21.822360000213962],[-171.26189000002341,21.799470000440294],[-171.24370000025473,21.783200000179988],[-171.23473999985103,21.77491999965838],[-171.208159999884,21.749819999593456],[-171.19028000002191,21.733260000348878],[-171.17211999983806,21.716990000088572],[-171.15311999958823,21.701539999871216],[-171.13355999959424,21.686650000297391],[-171.11372000017778,21.672029999684867],[-171.093919999908,21.657409999971662],[-171.07437000037515,21.642509999936692],[-171.06487000025024,21.63477999959747],[-171.04625999999894,21.618920000257958],[-171.02823000041411,21.602509999836741],[-171.00194000033068,21.577130000349371],[-170.98458999972863,21.56002999958497],[-170.9672400000259,21.542929999719831],[-170.94934000014081,21.526380000037136],[-170.94025000003739,21.518239999676382],[-170.92165999980907,21.502380000336871],[-170.89259000012834,21.479760000423823],[-170.87276999983555,21.465139999811299],[-170.85295000044209,21.450520000098095],[-170.8334000000099,21.435620000063068],[-170.82389999988501,21.427900000184991],[-170.79621999955327,21.403899999585462],[-170.77831999966818,21.38734999990271],[-170.76965000004739,21.378800000419801],[-170.74362000026272,21.353139999711345],[-170.73508000034167,21.344450000067582],[-170.71786000033867,21.327210000041589],[-170.7005299997596,21.310110000176508],[-170.67394999979257,21.285010000111583],[-170.65578000004689,21.268730000289395],[-170.64627000036015,21.261010000411318],[-170.62698000022675,21.245830000054582],[-170.59738000038664,21.223769999885747],[-170.57756000009385,21.209150000172485],[-170.55800999966169,21.194250000137515],[-170.53899999985003,21.178799999920216],[-170.52083000010435,21.16252999965991],[-170.50293000021927,21.145979999977158],[-170.49410999997644,21.137560000194014],[-170.47635000025224,21.120870000350351],[-170.44924999968765,21.096319999568493],[-170.43976000002391,21.088599999690359],[-170.41069000034315,21.065979999777312],[-170.3908700000504,21.051360000064108],[-170.37104999975762,21.036740000350903],[-170.36127000021025,21.02929000033339],[-170.33245999992897,21.006399999660403],[-170.32336000026373,20.998260000198968],[-170.2963900002982,20.973570000155519],[-170.28757999961721,20.965150000372375],[-170.269819999893,20.948470000090595],[-170.24270999976659,20.923920000208],[-170.23322000010285,20.91618999986872],[-170.20415000042212,20.893569999955673],[-170.18433000012934,20.878950000242469],[-170.16450999983655,20.864329999629945],[-170.14467000042012,20.849709999916684],[-170.12511999998793,20.834809999881713],[-170.10597000001542,20.819639999986123],[-170.07678000019678,20.798129999999617],[-170.06728000007186,20.791230000164489],[-170.03741000037115,20.773020000372867],[-170.02777000008535,20.767509999886727],[-170.00669999970515,20.758680000082052],[-169.9721500000224,20.749300000095047]]]},"properties":{"objectid":101,"stormname":"Lala","stormtype":"HU","basin":"CP","advdate":"200 AM HST Wed Aug 19 2026","advisnum":"28A","fcstprd":120,"stormnum":1,"idp_source":"cp012026-028A_5day_pgn","idp_filedate":1787140970000,"idp_ingestdate":1787141046000,"st_area(shape)":53.190140990981277,"st_perimeter(shape)":42.08677996717342,"binnumber":"CP2"}}]}