{"type":"FeatureCollection","features":[{"type":"Feature","id":65,"geometry":{"type":"LineString","coordinates":[[-137.29999999980004,14.49999999990024],[-137.29999999980004,14.599999999700344],[-137.29999999980004,14.700000000399825],[-137.29999999980004,14.800000000199987],[-137.3999999996002,14.900000000000148],[-137.60000000009984,14.999999999800309],[-139.40000000009985,15.099999999600414]]},"properties":{"objectid":65,"stormtype":"DB","stormnum":1,"ss":0,"idp_source":"CP012026_lin","idp_filedate":1786644147000,"idp_ingestdate":1786644234000,"st_length(shape)":2.4678037920828615,"binnumber":"CP2"}},{"type":"Feature","id":66,"geometry":{"type":"LineString","coordinates":[[-139.40000000009985,15.099999999600414],[-140.39999999989999,14.999999999800309],[-141.39999999970013,14.900000000000148],[-142.1999999999,14.700000000399825],[-143.09999999989998,14.700000000399825],[-144.09999999970015,14.700000000399825],[-144.99999999970015,14.900000000000148]]},"properties":{"objectid":66,"stormtype":"LO","stormnum":1,"ss":0,"idp_source":"CP012026_lin","idp_filedate":1786644147000,"idp_ingestdate":1786644234000,"st_length(shape)":5.6565506944499013,"binnumber":"CP2"}},{"type":"Feature","id":67,"geometry":{"type":"LineString","coordinates":[[-139.40000000009985,15.099999999600414],[-140.39999999989999,14.999999999800309],[-141.39999999970013,14.900000000000148],[-142.1999999999,14.700000000399825],[-143.09999999989998,14.700000000399825],[-144.09999999970015,14.700000000399825],[-144.99999999970015,14.900000000000148]]},"properties":{"objectid":67,"stormtype":"LO","stormnum":1,"ss":0,"idp_source":"CP012026_lin","idp_filedate":1786644147000,"idp_ingestdate":1786644234000,"st_length(shape)":5.6565506944499013,"binnumber":"CP2"}}]}