{"type":"FeatureCollection","features":[{"type":"Feature","id":167,"geometry":{"type":"LineString","coordinates":[[-158.60000000039963,15.300000000100056],[-160.29999999970013,15.600000000399859],[-162.89999999989999,16.100000000299929],[-165.59999999990001,16.700000000000159]]},"properties":{"objectid":167,"stormname":"Moke","stormtype":"TD","basin":"CP","advdate":"1100 PM HST Sun Aug 23 2026","advisnum":"16","fcstprd":120,"stormnum":2,"idp_source":"cp022026-016_5day_lin","idp_filedate":1787587370000,"idp_ingestdate":1787587432000,"st_length(shape)":7.1397714458014407,"binnumber":"CP3"}}]}