{"type": "FeatureCollection", "features": [{"type": "Feature", "id": 1147, "geometry": {"type": "Point", "coordinates": [-150.20000000009983, 14.800000000199987]}, "properties": {"objectid": 1147, "stormname": "Tropical Storm Moke", "stormtype": "TS", "basin": "CP", "advdate": "500 AM HST Sat Aug 22 2026", "advisnum": "9", "dvlbl": "S", "fcstprd": 120, "gust": 55, "maxwind": 45, "mslp": 994, "ssnum": 0, "datelbl": "5:00 AM Sat", "tcdvlp": "Tropical Storm", "tcdir": 290, "tcspd": 10, "fldatelbl": "2026-08-22 2:00 AM Sat HST", "lat": 15, "lon": -150, "stormnum": 2, "stormsrc": "Tropical Cyclone", "tau": 0, "timezone": "HST", "validtime": "22/1200", "idp_source": "cp022026-009_5day_pts", "idp_filedate": 1787411602000, "idp_ingestdate": 1787411785000, "binnumber": "CP3", "MAXWIND": 45, "VALIDTIME": "22/1200"}}, {"type": "Feature", "id": 1148, "geometry": {"type": "Point", "coordinates": [-151.69999999980007, 15.200000000299895]}, "properties": {"objectid": 1148, "stormname": "Tropical Storm Moke", "stormtype": "TS", "basin": "CP", "advdate": "500 AM HST Sat Aug 22 2026", "advisnum": "9", "dvlbl": "S", "fcstprd": 120, "gust": 60, "maxwind": 50, "mslp": 9999, "ssnum": 0, "datelbl": "2:00 PM Sat", "tcdvlp": "Tropical Storm", "tcdir": 9999, "tcspd": 9999, "fldatelbl": "2026-08-22 2:00 PM Sat HST", "lat": 15, "lon": -152, "stormnum": 2, "stormsrc": "Tropical Cyclone", "tau": 12, "timezone": "HST", "validtime": "23/0000", "idp_source": "cp022026-009_5day_pts", "idp_filedate": 1787411602000, "idp_ingestdate": 1787411785000, "binnumber": "CP3", "MAXWIND": 50, "VALIDTIME": "23/0000"}}, {"type": "Feature", "id": 1149, "geometry": {"type": "Point", "coordinates": [-153.99999999970015, 15.60000000039986]}, "properties": {"objectid": 1149, "stormname": "Tropical Storm Moke", "stormtype": "TS", "basin": "CP", "advdate": "500 AM HST Sat Aug 22 2026", "advisnum": "9", "dvlbl": "S", "fcstprd": 120, "gust": 55, "maxwind": 45, "mslp": 9999, "ssnum": 0, "datelbl": "2:00 AM Sun", "tcdvlp": "Tropical Storm", "tcdir": 9999, "tcspd": 9999, "fldatelbl": "2026-08-23 2:00 AM Sun HST", "lat": 16, "lon": -154, "stormnum": 2, "stormsrc": "Tropical Cyclone", "tau": 24, "timezone": "HST", "validtime": "23/1200", "idp_source": "cp022026-009_5day_pts", "idp_filedate": 1787411602000, "idp_ingestdate": 1787411785000, "binnumber": "CP3", "MAXWIND": 45, "VALIDTIME": "23/1200"}}, {"type": "Feature", "id": 1150, "geometry": {"type": "Point", "coordinates": [-156.40000000029968, 15.999999999600448]}, "properties": {"objectid": 1150, "stormname": "Tropical Storm Moke", "stormtype": "TS", "basin": "CP", "advdate": "500 AM HST Sat Aug 22 2026", "advisnum": "9", "dvlbl": "S", "fcstprd": 120, "gust": 55, "maxwind": 45, "mslp": 9999, "ssnum": 0, "datelbl": "2:00 PM Sun", "tcdvlp": "Tropical Storm", "tcdir": 9999, "tcspd": 9999, "fldatelbl": "2026-08-23 2:00 PM Sun HST", "lat": 16, "lon": -156, "stormnum": 2, "stormsrc": "Tropical Cyclone", "tau": 36, "timezone": "HST", "validtime": "24/0000", "idp_source": "cp022026-009_5day_pts", "idp_filedate": 1787411602000, "idp_ingestdate": 1787411785000, "binnumber": "CP3", "MAXWIND": 45, "VALIDTIME": "24/0000"}}, {"type": "Feature", "id": 1151, "geometry": {"type": "Point", "coordinates": [-158.89999999980006, 16.399999999700356]}, "properties": {"objectid": 1151, "stormname": "Tropical Storm Moke", "stormtype": "TS", "basin": "CP", "advdate": "500 AM HST Sat Aug 22 2026", "advisnum": "9", "dvlbl": "S", "fcstprd": 120, "gust": 50, "maxwind": 40, "mslp": 9999, "ssnum": 0, "datelbl": "2:00 AM Mon", "tcdvlp": "Tropical Storm", "tcdir": 9999, "tcspd": 9999, "fldatelbl": "2026-08-24 2:00 AM Mon HST", "lat": 16, "lon": -159, "stormnum": 2, "stormsrc": "Tropical Cyclone", "tau": 48, "timezone": "HST", "validtime": "24/1200", "idp_source": "cp022026-009_5day_pts", "idp_filedate": 1787411602000, "idp_ingestdate": 1787411785000, "binnumber": "CP3", "MAXWIND": 40, "VALIDTIME": "24/1200"}}, {"type": "Feature", "id": 1152, "geometry": {"type": "Point", "coordinates": [-161.49999999999991, 16.899999999600425]}, "properties": {"objectid": 1152, "stormname": "Tropical Storm Moke", "stormtype": "TS", "basin": "CP", "advdate": "500 AM HST Sat Aug 22 2026", "advisnum": "9", "dvlbl": "S", "fcstprd": 120, "gust": 50, "maxwind": 40, "mslp": 9999, "ssnum": 0, "datelbl": "2:00 PM Mon", "tcdvlp": "Tropical Storm", "tcdir": 9999, "tcspd": 9999, "fldatelbl": "2026-08-24 2:00 PM Mon HST", "lat": 17, "lon": -162, "stormnum": 2, "stormsrc": "Tropical Cyclone", "tau": 60, "timezone": "HST", "validtime": "25/0000", "idp_source": "cp022026-009_5day_pts", "idp_filedate": 1787411602000, "idp_ingestdate": 1787411785000, "binnumber": "CP3", "MAXWIND": 40, "VALIDTIME": "25/0000"}}, {"type": "Feature", "id": 1153, "geometry": {"type": "Point", "coordinates": [-163.7999999999, 17.400000000399814]}, "properties": {"objectid": 1153, "stormname": "Tropical Storm Moke", "stormtype": "TS", "basin": "CP", "advdate": "500 AM HST Sat Aug 22 2026", "advisnum": "9", "dvlbl": "S", "fcstprd": 120, "gust": 45, "maxwind": 35, "mslp": 9999, "ssnum": 0, "datelbl": "2:00 AM Tue", "tcdvlp": "Tropical Storm", "tcdir": 9999, "tcspd": 9999, "fldatelbl": "2026-08-25 2:00 AM Tue HST", "lat": 17, "lon": -164, "stormnum": 2, "stormsrc": "Tropical Cyclone", "tau": 72, "timezone": "HST", "validtime": "25/1200", "idp_source": "cp022026-009_5day_pts", "idp_filedate": 1787411602000, "idp_ingestdate": 1787411785000, "binnumber": "CP3", "MAXWIND": 35, "VALIDTIME": "25/1200"}}, {"type": "Feature", "id": 1154, "geometry": {"type": "Point", "coordinates": [-169.10000000009984, 18.599999999800275]}, "properties": {"objectid": 1154, "stormname": "Tropical Storm Moke", "stormtype": "TS", "basin": "CP", "advdate": "500 AM HST Sat Aug 22 2026", "advisnum": "9", "dvlbl": "S", "fcstprd": 120, "gust": 45, "maxwind": 35, "mslp": 9999, "ssnum": 0, "datelbl": "2:00 AM Wed", "tcdvlp": "Tropical Storm", "tcdir": 9999, "tcspd": 9999, "fldatelbl": "2026-08-26 2:00 AM Wed HST", "lat": 19, "lon": -169, "stormnum": 2, "stormsrc": "Tropical Cyclone", "tau": 96, "timezone": "HST", "validtime": "26/1200", "idp_source": "cp022026-009_5day_pts", "idp_filedate": 1787411602000, "idp_ingestdate": 1787411785000, "binnumber": "CP3", "MAXWIND": 35, "VALIDTIME": "26/1200"}}, {"type": "Feature", "id": 1155, "geometry": {"type": "Point", "coordinates": [-173.10000000019977, 19.400000000000148]}, "properties": {"objectid": 1155, "stormname": "Tropical Storm Moke", "stormtype": "TD", "basin": "CP", "advdate": "500 AM HST Sat Aug 22 2026", "advisnum": "9", "dvlbl": "D", "fcstprd": 120, "gust": 40, "maxwind": 30, "mslp": 9999, "ssnum": 0, "datelbl": "2:00 AM Thu", "tcdvlp": "Tropical Depression", "tcdir": 9999, "tcspd": 9999, "fldatelbl": "2026-08-27 2:00 AM Thu HST", "lat": 19, "lon": -173, "stormnum": 2, "stormsrc": "Tropical Cyclone", "tau": 120, "timezone": "HST", "validtime": "27/1200", "idp_source": "cp022026-009_5day_pts", "idp_filedate": 1787411602000, "idp_ingestdate": 1787411785000, "binnumber": "CP3", "MAXWIND": 30, "VALIDTIME": "27/1200"}}]}