{"type":"FeatureCollection","features":[{"type":"Feature","id":747,"geometry":{"type":"LineString","coordinates":[[-132.50000000039961,9.5000000000001137],[-133.90000000029971,9.300000000399848],[-134.90000000009985,9.300000000399848],[-135.99999999970015,9.300000000399848],[-137.29999999980004,9.5000000000001137],[-138.69999999970014,9.9000000001000785],[-139.99999999980008,10.400000000000148],[-141.1000000002997,10.899999999900217],[-142.59999999999991,11.70000000010009]]},"properties":{"objectid":747,"stormtype":"DB","stormnum":2,"ss":0,"idp_source":"CP022026_lin","idp_filedate":1787367802000,"idp_ingestdate":1787367823000,"st_length(shape)":10.586673608618453,"binnumber":"CP3"}},{"type":"Feature","id":748,"geometry":{"type":"LineString","coordinates":[[-142.59999999999991,11.70000000010009],[-143.40000000019978,12.299999999800264],[-144.59999999960021,12.79999999970039],[-145.20000000019976,12.900000000399814],[-145.7999999999,13.199999999800298],[-146.6999999999,13.699999999700367]]},"properties":{"objectid":748,"stormtype":"TD","stormnum":2,"ss":0,"idp_source":"CP022026_lin","idp_filedate":1787367802000,"idp_ingestdate":1787367823000,"st_length(shape)":4.6086596598882199,"binnumber":"CP3"}},{"type":"Feature","id":749,"geometry":{"type":"LineString","coordinates":[[-146.6999999999,13.699999999700367],[-147.80000000039962,13.800000000399848]]},"properties":{"objectid":749,"stormtype":"TD","stormnum":2,"ss":0,"idp_source":"CP022026_lin","idp_filedate":1787367802000,"idp_ingestdate":1787367823000,"st_length(shape)":1.1045361022796218,"binnumber":"CP3"}}]}