{"type":"FeatureCollection","features":[{"type":"Feature","id":134,"geometry":{"type":"Polygon","coordinates":[[[-149.04514000041061,14.132549999882713],[-149.02310000026472,14.130450000167514],[-149.01214999982255,14.130570000305397],[-148.97643000014432,14.133039999996129],[-148.95282000044259,14.137730000439319],[-148.92957000025521,14.144260000298914],[-148.90714000011084,14.152399999760291],[-148.88573999980107,14.16177000018547],[-148.86516999999543,14.171999999800278],[-148.84561000000141,14.183220000103063],[-148.81839000019826,14.202209999891693],[-148.8021500004221,14.216759999974158],[-148.78787000020026,14.233280000072057],[-148.77529999969514,14.251529999909678],[-148.76423999957623,14.27125999964943],[-148.75476000037364,14.292339999591434],[-148.74257999986702,14.325379999787287],[-148.73605000000742,14.347450000417325],[-148.73137999958723,14.369649999847752],[-148.7289099998965,14.391589999878704],[-148.7289099998965,14.401829999954657],[-148.73151000018626,14.43511999998816],[-148.73654000012081,14.456939999881229],[-148.74380000036965,14.478269999660881],[-148.75292999961971,14.498979999627409],[-148.76363000022425,14.51883999996619],[-148.78220999999141,14.546449999767788],[-148.79622999991449,14.563219999703335],[-148.81100000024972,14.579249999687875],[-148.82674999991249,14.594289999883699],[-148.8430000001498,14.608839999966165],[-148.86024000017579,14.622400000259915],[-148.87844999996744,14.634980000326891],[-148.89763999998593,14.646569999705832],[-148.91785000027721,14.657170000195492],[-148.93926999971063,14.666539999721351],[-148.96118000015679,14.675420000033114],[-148.99416999984552,14.688610000351389],[-149.00526000044857,14.692929999919727],[-149.02716000043358,14.70181000023149],[-149.04833999959124,14.711420000033115],[-149.06924000022573,14.721290000133536],[-149.09015999998394,14.731149999772811],[-149.1208200001428,14.746689999643934],[-149.13102999973461,14.751870000200483],[-149.15169999965516,14.761979999677408],[-149.18233999979108,14.777509999986648],[-149.19257999986701,14.782689999643935],[-149.21326000024874,14.792800000020122],[-149.2336899998935,14.803160000233959],[-149.25412000043758,14.81350999998665],[-149.27481000038114,14.823629999924719],[-149.2952400000259,14.833979999677354],[-149.32602000032267,14.849389999848768],[-149.33635000005236,14.854450000267434],[-149.35677999969715,14.864809999581951],[-149.38753999997093,14.880219999753308],[-149.39788999972362,14.885269999710829],[-149.42852999985953,14.900809999581952],[-149.43874999991249,14.905990000138559],[-149.469639999886,14.921280000172032],[-149.47985999993895,14.926450000267437],[-149.50028999958374,14.936809999581953],[-149.5311900000184,14.952099999615427],[-149.54141000007135,14.957280000172034],[-149.56183999971614,14.96764000038587],[-149.59272999968965,14.982919999958142],[-149.60294000018078,14.988099999615429],[-149.62338000028669,14.998459999829265],[-149.6440399997461,15.008570000205509],[-149.66449000031318,15.018930000419346],[-149.68491999995794,15.029280000172037],[-149.71630999960672,15.044080000092094],[-149.72678000039662,15.049009999911732],[-149.75890999999643,15.063069999880724],[-149.78093999968115,15.071819999593458],[-149.80297999982704,15.080570000205512],[-149.81393000026921,15.085009999911733],[-149.83608999965367,15.093640000385847],[-149.85798999963868,15.10251999979829],[-149.88961999956325,15.117069999880755],[-149.90007000033017,15.121999999700392],[-149.92099000008835,15.131869999800813],[-149.94141000017129,15.142219999553447],[-149.96187000030019,15.15257999976734],[-149.99276999983553,15.167869999800814],[-150.00298000032666,15.173050000357364],[-150.02340999997145,15.183400000110055],[-150.05481000008135,15.198200000030113],[-150.06525999994895,15.20312999984975],[-150.08644000000592,15.212750000112578],[-150.10836999957573,15.221630000424341],[-150.14144999981755,15.234699999705356],[-150.15238999979857,15.239129999849752],[-150.17455999964417,15.247760000323922],[-150.20755000023223,15.260960000203966],[-150.21837999963719,15.265520000048127],[-150.24004000024573,15.274639999736337],[-150.26219000006836,15.283270000210507],[-150.28460999975161,15.291660000408854],[-150.31844999996744,15.30398999973886],[-150.32990000008485,15.30792999976984],[-150.35303999969614,15.315580000017121],[-150.37595000039212,15.323469999640906],[-150.40955000033216,15.336049999707882],[-150.42074999971263,15.340239999576454],[-150.44290000043458,15.348870000050624],[-150.4754000000099,15.362549999582939],[-150.49730999955676,15.371429999894701],[-150.50838999969864,15.375750000362359],[-150.53079000025824,15.38413000009956],[-150.56464000003589,15.396460000328887],[-150.58764999994744,15.404229999814788],[-150.61077999999691,15.411869999600924],[-150.62233999979108,15.41569000039334],[-150.65683000030418,15.427410000371367],[-150.67992999986953,15.435050000157503],[-150.69150999968664,15.438879999612425],[-150.71465999975911,15.446520000297937],[-150.74915000027221,15.458229999814762],[-150.77228000032167,15.4658800000621],[-150.78384000011582,15.469699999955196],[-150.81842000028271,15.481290000233457],[-150.82985999993898,15.485239999826263],[-150.86458999982855,15.496700000404815],[-150.88773000033916,15.504349999752833],[-150.89929000013331,15.508169999645929],[-150.93375000016229,15.519880000062074],[-150.94532999997944,15.52369999995517],[-150.98003999984604,15.535170000095547],[-150.99161000010133,15.538989999988644],[-151.014499999875,15.546879999612429],[-151.04922000020275,15.558349999752807],[-151.07235999981407,15.565990000438319],[-151.09536999972562,15.573759999924221],[-151.11841000012132,15.581530000309385],[-151.12996999991549,15.585350000202482],[-151.16467000022024,15.596820000342859],[-151.17625000003738,15.600640000235956],[-151.19938999964867,15.608280000022148],[-151.23495000004237,15.618890000073577],[-151.25896999976558,15.625669999770821],[-151.28322999976459,15.632199999630416],[-151.3075899998785,15.638610000251447],[-151.31977999994695,15.641819999893244],[-151.35582999955474,15.651930000269431],[-151.36776999978557,15.655380000186994],[-151.40310999992647,15.666229999614927],[-151.42660999995147,15.673509999886733],[-151.45035000025223,15.680540000320889],[-151.46228000002191,15.683990000238452],[-151.49860000038962,15.693849999877727],[-151.52309999976509,15.700140000360875],[-151.5354000004096,15.703220000302906],[-151.56001000036113,15.709389999748851],[-151.59694999964267,15.718629999574944],[-151.6092500002872,15.721719999978177],[-151.64605999986901,15.731090000403356],[-151.65822999991448,15.73428999958395],[-151.69431000000642,15.744399999960194],[-151.71807999989201,15.75143000039435],[-151.74157999991698,15.758709999766836],[-151.76507999994197,15.765979999577439],[-151.78882000024274,15.773010000011652],[-151.80077000003539,15.776459999929216],[-151.83709999996495,15.786330000029636],[-151.86160000023975,15.792610000051582],[-151.88619999973011,15.798780000396846],[-151.91082999970465,15.804940000280908],[-151.93545999967915,15.811109999726852],[-151.94774999986251,15.814189999668884],[-151.97237000027522,15.820360000014148],[-152.00930999955676,15.829599999840241],[-152.02161000020126,15.832690000243474],[-152.05853000035916,15.841930000069567],[-152.08316000033366,15.848100000414831],[-152.09546000007884,15.851180000356862],[-152.13238999979856,15.860429999744838],[-152.15701000021124,15.8665899996289],[-152.16930999995645,15.869669999570988],[-152.20623999967617,15.878919999858226],[-152.21854000032067,15.881999999800314],[-152.24290000043459,15.888410000421345],[-152.27899000008836,15.898519999898213],[-152.30273000038912,15.905550000332369],[-152.32623000041411,15.912829999704854],[-152.33793999993097,15.916530000359387],[-152.37350000032467,15.92712999994967],[-152.39748999956376,15.933909999646914],[-152.40958000041661,15.937240000325914],[-152.44622999981456,15.946729999989657],[-152.45856000004389,15.949820000392833],[-152.49544999971764,15.959060000218983],[-152.50777000038514,15.96214999972284],[-152.54470999966668,15.971390000448309],[-152.56931999961822,15.977559999894197],[-152.59392999956975,15.983719999778316],[-152.61856000044358,15.989890000123523],[-152.64319000041812,15.996050000007642],[-152.66778999990848,16.00222000035285],[-152.69241000032119,16.008380000236968],[-152.7170400002957,16.014549999682856],[-152.72934000004088,16.017629999624944],[-152.75397000001541,16.023799999970151],[-152.7785900004281,16.02995999985427],[-152.81552000014781,16.039210000141509],[-152.82781999989299,16.042290000083597],[-152.85242999984453,16.048449999967659],[-152.87703999979607,16.054620000312923],[-152.90166000020875,16.060780000196985],[-152.92627000016029,16.066949999642929],[-152.95088000011182,16.073110000426311],[-152.98782000029269,16.082359999814287],[-153.01245000026722,16.088519999698349],[-153.03704999975761,16.094690000043613],[-153.04935999996394,16.097769999985644],[-153.0863000001448,16.107020000272939],[-153.09859000032816,16.11010000021497],[-153.1355299996097,16.119349999602946],[-153.16013999956124,16.125510000386328],[-153.18475000041209,16.131679999832272],[-153.20938000038663,16.137839999716334],[-153.22168000013181,16.140930000119567],[-153.25860999985153,16.15016999994566],[-153.28323000026421,16.156340000290925],[-153.30784999977757,16.162500000174987],[-153.32015999998393,16.165580000117075],[-153.35757000025524,16.174340000290897],[-153.38280999958172,16.179889999923716],[-153.40829000008335,16.18518999971883],[-153.43402000042261,16.190250000137553],[-153.44695000044209,16.192710000266459],[-153.48523000036414,16.200599999890244],[-153.51044000010583,16.206150000422326],[-153.53542999959473,16.211940000330912],[-153.56017999970715,16.217989999638917],[-153.57248000035165,16.221069999580948],[-153.60941000007136,16.230319999868243],[-153.63402999958473,16.236479999752305],[-153.65862999997444,16.242650000097569],[-153.68325999994894,16.248809999981631],[-153.70786000033866,16.254980000326896],[-153.73259999998993,16.261020000073074],[-153.75759999993997,16.26680999998166],[-153.77017000044509,16.269649999647925],[-153.80831999976809,16.277660000308913],[-153.83405000010734,16.282710000266434],[-153.85976999998542,16.28776999978578],[-153.88524999958773,16.29306999958095],[-153.91046000022874,16.298620000113033],[-153.93546000017878,16.304419999583445],[-153.9602100002912,16.310460000228943],[-153.98480000021976,16.316620000113062],[-154.00943000019427,16.32278999955895],[-154.03406000016878,16.328950000342388],[-154.05865000009734,16.335119999788276],[-154.07096999986553,16.338199999730364],[-154.10791000004639,16.347450000017602],[-154.1325400000209,16.353609999901721],[-154.14483999976611,16.356689999843752],[-154.18175999992397,16.365940000131047],[-154.20638999989851,16.372109999576935],[-154.21868999964369,16.375190000418343],[-154.25562000026272,16.384439999806261],[-154.28023999977609,16.39059999969038],[-154.30486999975059,16.396770000035588],[-154.31717000039512,16.399849999977675],[-154.35410000011484,16.409100000264914],[-154.37869000004338,16.415260000149033],[-154.40332000001791,16.421420000033095],[-154.42792000040762,16.427590000378359],[-154.45255000038213,16.433759999824247],[-154.4771400003107,16.439919999708366],[-154.50177000028521,16.446079999592428],[-154.52640000025971,16.452249999937692],[-154.55103000023425,16.458409999821754],[-154.57562000016279,16.464580000167018],[-154.60025000013732,16.470749999612906],[-154.61256000034365,16.473829999554994],[-154.64947999960222,16.483070000280406],[-154.6741000000149,16.489239999726351],[-154.69872000042758,16.495399999610413],[-154.72333000037912,16.501569999955677],[-154.74796000035366,16.507729999839739],[-154.76024999963769,16.510809999781827],[-154.79718000025673,16.520069999630891],[-154.82181000023124,16.52623000041433],[-154.83410999997645,16.529310000356361],[-154.85849000011333,16.535720000078072],[-154.8945599997441,16.545829999554996],[-154.91830000004489,16.552859999989153],[-154.94182999965469,16.560129999799813],[-154.95352000004789,16.563829999554969],[-154.98906999998044,16.574439999606454],[-155.01308999970365,16.581220000202961],[-155.03732000011783,16.587750000062613],[-155.04951000018627,16.590959999704353],[-155.07414000016081,16.597119999588472],[-155.09875000011235,16.603289999933679],[-155.13567999983204,16.612540000220974],[-155.16030999980657,16.618700000105036],[-155.18491000019628,16.624859999989155],[-155.20952999970964,16.631030000334363],[-155.22183000035415,16.634110000276451],[-155.25876999963569,16.643359999664369],[-155.28339000004837,16.649520000447808],[-155.30789000032317,16.655819999593461],[-155.32006999993047,16.659019999673376],[-155.35613999956124,16.66913000004962],[-155.37987999986203,16.676159999584456],[-155.39169000039311,16.679729999639903],[-155.42689999993496,16.690709999666865],[-155.45064999979758,16.697729999639932],[-155.47465999995896,16.704519999798265],[-155.48672000032767,16.70784000001612],[-155.52328000007188,16.717460000278948],[-155.54752000004788,16.723999999700368],[-155.57153000020926,16.730780000296932],[-155.59528000007185,16.737800000269942],[-155.6187699996357,16.745079999642428],[-155.63048000005188,16.748780000296904],[-155.65410000021475,16.75592999996968],[-155.67799000023822,16.762829999804808],[-155.7021199996382,16.769490000263431],[-155.72649000021326,16.775910000446288],[-155.76292000025774,16.785640000385854],[-155.77499000018827,16.788970000165534],[-155.81068000028171,16.799449999617934],[-155.82248999991347,16.803030000134527],[-155.85770000035464,16.813999999700343],[-155.88145000021726,16.821030000134556],[-155.8934000000099,16.82448000005212],[-155.92972000037764,16.83435000015254],[-155.94189000042309,16.837550000232454],[-155.97833000002939,16.847289999733846],[-156.0023200001678,16.85407000033041],[-156.01428000042159,16.857520000247973],[-156.03791999970815,16.864680000381838],[-156.06104999975761,16.872320000168031],[-156.09575999962419,16.883790000308409],[-156.11890000013483,16.891430000094545],[-156.14203000018429,16.899080000341883],[-156.15358999997844,16.902900000234979],[-156.18917999995696,16.913499999825262],[-156.21317999965717,16.920280000421826],[-156.23743000009435,16.926819999843246],[-156.24962000016279,16.930030000384363],[-156.28603999974612,16.939769999885698],[-156.29810999967665,16.943099999665378],[-156.32199000013833,16.950000000399825],[-156.34561000030118,16.957150000072602],[-156.36876000037364,16.964789999858738],[-156.40345999977907,16.976259999999115],[-156.42660999985154,16.983910000246453],[-156.43818999966868,16.98773000013955],[-156.46131999971814,16.995369999925686],[-156.49688999967367,17.005979999977171],[-156.52089999983505,17.012759999674358],[-156.53296000020376,17.016090000353358],[-156.5573299998795,17.02250000007507],[-156.59375000036215,17.032239999576461],[-156.61777000008536,17.039020000173025],[-156.62969999985503,17.042470000090589],[-156.66503999999591,17.053320000417841],[-156.67673000038911,17.057020000172997],[-156.71228000032167,17.067619999763338],[-156.73628000002191,17.07440999992167],[-156.76052999955976,17.080939999781322],[-156.78490999969665,17.087350000402353],[-156.79709000020327,17.090560000044093],[-156.82123000006436,17.097219999603453],[-156.85692999971963,17.107699999955173],[-156.86874000025074,17.11127000001062],[-156.89212000013782,17.118670000420309],[-156.92769000009335,17.129270000010649],[-156.939639999886,17.132719999928213],[-156.97594999979256,17.142590000028633],[-156.98813000029918,17.145790000108548],[-157.02456999990548,17.155529999609939],[-157.04854999958275,17.162319999768329],[-157.07232999992948,17.169339999741339],[-157.08413999956124,17.172920000257932],[-157.11934000044059,17.183889999823748],[-157.13115000007235,17.187470000340397],[-157.15502999963471,17.194370000175525],[-157.17917000039512,17.201029999734828],[-157.2157300001393,17.210649999997656],[-157.23995999965419,17.217179999857251],[-157.26398000027672,17.223959999554495],[-157.27591000004639,17.227419999933204],[-157.29953000020927,17.234569999605924],[-157.33473000018927,17.24554000007106],[-157.34655999984403,17.249119999688389],[-157.38249000021327,17.25935000020246],[-157.3945600001438,17.26267999998214],[-157.43124000002589,17.272169999645882],[-157.45586000043858,17.278339999991147],[-157.48047000039011,17.284499999875209],[-157.49277000013532,17.287579999817297],[-157.52969000029319,17.296830000104535],[-157.55432000026772,17.30299999955048],[-157.5666200000129,17.30608000039183],[-157.60356000019377,17.315329999779806],[-157.61587999996195,17.318409999721837],[-157.64048999991348,17.324569999605956],[-157.67741000007138,17.333819999893194],[-157.70202999958474,17.339979999777313],[-157.72664999999742,17.34615000012252],[-157.7512700004101,17.352319999568465],[-157.77588000036164,17.358480000351847],[-157.80051000033617,17.364649999797791],[-157.81281000008136,17.367729999739822],[-157.84973000023925,17.376980000027118],[-157.87434000019078,17.38313999991118],[-157.89895999970415,17.389310000256444],[-157.92358000011683,17.395470000140506],[-157.94817999960722,17.401630000024625],[-157.97282000004287,17.407800000369832],[-157.98513999981105,17.41088000031192],[-158.02205000040712,17.420129999699839],[-158.04666000035866,17.426289999583958],[-158.07129000033316,17.432459999929165],[-158.09588999982356,17.438619999813284],[-158.10822000005288,17.44171000021646],[-158.14514000021077,17.45095000004261],[-158.16977000018528,17.457120000387874],[-158.19438000013682,17.463280000271936],[-158.21899000008835,17.469449999717824],[-158.23128999983354,17.472529999659912],[-158.26821999955325,17.481779999947207],[-158.29285000042711,17.487939999831269],[-158.31744000035565,17.494110000176534],[-158.32976000012383,17.497190000118565],[-158.36670000030469,17.50644000040586],[-158.39129999979508,17.512600000289922],[-158.41592000020776,17.518769999735866],[-158.44067000032018,17.524810000381365],[-158.45309000020328,17.527770000185512],[-158.49088999957374,17.536149999922714],[-158.51637000007537,17.541449999717827],[-158.52917000039511,17.544040000445818],[-158.55501999997293,17.548970000265456],[-158.59329000033316,17.556870000350386],[-158.61852999965967,17.562410000421323],[-158.64348999956374,17.568209999891735],[-158.66823999967616,17.574249999637914],[-158.6928699996507,17.580419999983178],[-158.71747000004038,17.58657999986724],[-158.74210999957674,17.592739999751302],[-158.7667200004276,17.598910000096566],[-158.7913500004021,17.605069999980628],[-158.81596000035364,17.611240000325893],[-158.84070000000492,17.617280000072071],[-158.86569000039313,17.623080000441803],[-158.89092999971962,17.62861999961342],[-158.91641000022125,17.633929999869736],[-158.94213999966118,17.638979999827257],[-158.96782999995446,17.64404000024598],[-158.99332999957974,17.649340000041093],[-159.01854999978258,17.654889999673912],[-159.04354999973262,17.660679999582442],[-159.06827999982207,17.66672000022794],[-159.08059999959022,17.669800000170028],[-159.11751999974811,17.679049999557947],[-159.14214000016079,17.685219999903211],[-159.16675000011233,17.691379999787273],[-159.19138000008687,17.697550000132537],[-159.2159900000384,17.703710000016599],[-159.22830000024473,17.706789999958687],[-159.26572000007786,17.715550000132566],[-159.29094999984252,17.721099999765329],[-159.30363000002441,17.723809999731827],[-159.34215999978409,17.73145000041734],[-159.36785999963919,17.736509999936686],[-159.3933600001638,17.741809999731856],[-159.41858000036663,17.747360000263939],[-159.43114000041061,17.750190000368377],[-159.45598999973862,17.756109999976672],[-159.49292000035766,17.765360000263968],[-159.51755000033216,17.77152000014803],[-159.5421800003067,17.777689999593917],[-159.55446999959074,17.780770000435325],[-159.57909999956524,17.786939999881213],[-159.61603000018428,17.796179999707363],[-159.6407600002737,17.802229999914687],[-159.66576000022374,17.808019999823273],[-159.67830999980657,17.810860000388857],[-159.71646000002889,17.818870000150525],[-159.72926000034866,17.82145999997914],[-159.76791000024625,17.828979999627393],[-159.78072000012781,17.831570000355384],[-159.81863000007436,17.839829999954645],[-159.84361000000141,17.845630000324377],[-159.86834999965268,17.851670000070612],[-159.88065000029721,17.854750000012643],[-159.91756999955575,17.864000000299939],[-159.92989000022325,17.86708000024197],[-159.96683000040412,17.876329999629945],[-159.99142000033268,17.882490000413327],[-160.01605000030719,17.888659999859271],[-160.04066000025873,17.894819999743333],[-160.06527999977209,17.900990000088598],[-160.08990000018477,17.90714999997266],[-160.11451999969816,17.913309999856722],[-160.1391299996497,17.919480000201986],[-160.15145999987902,17.922560000144017],[-160.17606000026871,17.928729999589962],[-160.2129800004266,17.937970000315374],[-160.23759000037813,17.944139999761319],[-160.24991000014631,17.94721999970335],[-160.28634999975262,17.956960000104061],[-160.310359999914,17.963750000262451],[-160.33410999977659,17.970770000235461],[-160.35760000023973,17.978049999607947],[-160.36928999973361,17.981750000262423],[-160.39294000038063,17.9888999999352],[-160.41681999994296,17.995799999770327],[-160.44095000024222,18.00246000022895],[-160.47763000012432,18.011949999892693],[-160.50224000007586,18.018120000237957],[-160.52685999958922,18.024280000122076],[-160.5391499997726,18.027369999625932],[-160.56377000018529,18.033530000409314],[-160.60071000036615,18.04277999979729],[-160.62530999985654,18.048939999681352],[-160.64995000029219,18.055110000026616],[-160.67456000024373,18.061269999910735],[-160.69919000021827,18.067440000255942],[-160.7238000001698,18.073600000140061],[-160.73611000037613,18.076680000082092],[-160.77304000009585,18.085930000369387],[-160.79765000004738,18.092099999815275],[-160.80996999981556,18.095179999757306],[-160.84688999997343,18.104430000044601],[-160.85918999971864,18.107509999986632],[-160.89612000033767,18.116760000273928],[-160.92073000028921,18.122920000158047],[-160.94534000024075,18.129089999603934],[-160.96997000021526,18.135250000387373],[-160.99456999970565,18.141410000271435],[-161.01919999968015,18.147579999717379],[-161.04382000009284,18.153739999601441],[-161.05611999983805,18.156830000004618],[-161.08072999978958,18.162989999888737],[-161.1171700002952,18.172730000289448],[-161.14116999999541,18.179509999986635],[-161.16493000031917,18.186540000420848],[-161.18843000034417,18.193819999793277],[-161.21208000009185,18.200970000365373],[-161.23621000039114,18.207629999924677],[-161.26080000031968,18.213789999808796],[-161.2859200004076,18.219459999579442],[-161.31152000014782,18.224640000136048],[-161.33724999958773,18.229690000093569],[-161.36273000008936,18.235000000349885],[-161.38797000031519,18.240549999982647],[-161.40053000035914,18.243380000087086],[-161.42537999968715,18.249299999695381],[-161.46231000030619,18.258549999982677],[-161.4869400002807,18.264709999866739],[-161.49924000002591,18.26778999980877],[-161.53616000018377,18.277040000096065],[-161.54847999995195,18.280120000038096],[-161.5853899996487,18.289370000325391],[-161.6100199996232,18.295539999771336],[-161.63464000003589,18.301699999655398],[-161.6469399997811,18.304779999597429],[-161.68387000040011,18.314029999884724],[-161.69617000014532,18.317109999826755],[-161.73309000030318,18.32636000011405],[-161.74541000007136,18.329440000056081],[-161.78235000025222,18.338690000343377],[-161.80694999974261,18.344850000227495],[-161.8315700001553,18.351019999673383],[-161.84386999990051,18.354099999615414],[-161.86849999987501,18.360269999960678],[-161.90542999959473,18.369509999786828],[-161.93004000044559,18.375680000132036],[-161.95465000039712,18.381840000016155],[-161.97928000037163,18.388010000361362],[-162.00389000032317,18.394170000245481],[-162.0285000002747,18.400339999691369],[-162.04080000001991,18.4034199996334],[-162.07774000020078,18.412669999920695],[-162.10235999971414,18.418829999804814],[-162.11466999992049,18.42192000020799],[-162.13927999987203,18.428080000092052],[-162.17620999959172,18.437330000379347],[-162.20070999986652,18.44361000040135],[-162.22494999984255,18.45014999982277],[-162.2489600000039,18.456930000419334],[-162.27270999986652,18.46395999995417],[-162.29622000035266,18.47122999976483],[-162.30790999984654,18.474930000419306],[-162.33153999957125,18.482080000092083],[-162.36748999996345,18.492320000168036],[-162.37955000033216,18.495649999947659],[-162.41611000007637,18.505259999749342],[-162.44037000007538,18.511800000070082],[-162.46436000021376,18.518579999767326],[-162.4880999996152,18.525610000201482],[-162.51150999998643,18.533000000150025],[-162.53464000003589,18.540650000397363],[-162.54619999983004,18.544470000290403],[-162.58092999971964,18.555940000430837],[-162.59249999997493,18.559760000323877],[-162.62743999965619,18.570979999727342],[-162.65119999997992,18.578010000161498],[-162.6631499997726,18.581460000079062],[-162.69945999967916,18.591319999718337],[-162.71164000018578,18.594530000259454],[-162.73600999986152,18.600939999981165],[-162.76012999969964,18.607600000439788],[-162.79583999981605,18.618079999892245],[-162.81933999984105,18.625349999702848],[-162.84283000030419,18.632629999974654],[-162.85463999993596,18.636200000030101],[-162.8785400004206,18.643110000326374],[-162.90266000025872,18.649769999885734],[-162.92702999993446,18.656179999607446],[-162.96347000044008,18.665920000008157],[-162.98749000016329,18.672699999705344],[-162.99941999993297,18.676149999622908],[-163.03472999958973,18.68699999995016],[-163.04641999998293,18.690699999705373],[-163.08200000039963,18.701309999756802],[-163.10600000009984,18.708090000353366],[-163.1302499996377,18.71462000021296],[-163.15462999977458,18.721029999934672],[-163.17886000018879,18.727570000255469],[-163.19093000011932,18.730900000035092],[-163.22662000021276,18.741380000386869],[-163.23842999984453,18.744950000442316],[-163.2736400002857,18.755920000008132],[-163.29739000014831,18.762950000442288],[-163.32140999987152,18.769730000139532],[-163.3456400002857,18.776269999560952],[-163.37002999998444,18.782680000181983],[-163.39426999996044,18.789219999603461],[-163.406339999891,18.792550000282404],[-163.4302099998915,18.799450000117531],[-163.46553000000941,18.810300000444784],[-163.48903999959623,18.817579999817269],[-163.51279999991999,18.82459999979028],[-163.5367999996202,18.831380000386844],[-163.56107000008035,18.837919999808264],[-163.58543000019426,18.844330000429295],[-163.60967999973212,18.850860000288947],[-163.63366999987051,18.857639999986134],[-163.64563000012433,18.861100000364843],[-163.66927000031018,18.868250000037619],[-163.69263999973612,18.875639999986163],[-163.72820999969164,18.886250000037592],[-163.74014000036064,18.889699999955155],[-163.77645999982906,18.89955999959443],[-163.80094999964268,18.905859999639404],[-163.82555999959422,18.912020000422842],[-163.85018999956876,18.918180000306904],[-163.87482000044258,18.924349999752849],[-163.89941000037115,18.930509999636911],[-163.92392000020777,18.936800000120058],[-163.93609999981507,18.940009999761799],[-163.97217000034516,18.950120000138043],[-163.9959099997466,18.957149999672879],[-164.00772000027771,18.960719999728326],[-164.04292000025774,18.971690000193519],[-164.06667999968215,18.978719999728355],[-164.09070000030468,18.985500000324919],[-164.11492999981957,18.992039999746339],[-164.13930999995645,18.99845000036737],[-164.16356000039363,19.004980000226965],[-164.17563000032419,19.008310000006645],[-164.2113200004176,19.018799999920191],[-164.2348200004426,19.026069999730851],[-164.25833000002939,19.03334000044083],[-164.28209000035315,19.040369999975667],[-164.30609000005339,19.047149999672911],[-164.31815000042209,19.050480000351854],[-164.35483999986602,19.059970000015653],[-164.3671599996342,19.06306000041883],[-164.40407999979209,19.072300000244979],[-164.41638000043659,19.075389999748836],[-164.4410100004111,19.081549999632898],[-164.47781000043111,19.090920000058077],[-164.50203999994596,19.097460000378874],[-164.52605999966917,19.104240000076061],[-164.54979999996993,19.111269999610954],[-164.5733200000179,19.118540000320877],[-164.59682999960472,19.125819999693363],[-164.62056999990548,19.132839999666373],[-164.63251999969816,19.136300000045082],[-164.66884000006587,19.146159999684357],[-164.68103000013431,19.149359999764329],[-164.71746999974062,19.159109999726866],[-164.74145999987903,19.165890000323373],[-164.76520000017979,19.17291000029644],[-164.77700999981155,19.176489999913713],[-164.81220999979158,19.187460000378849],[-164.83597999967716,19.194489999913685],[-164.85998999983855,19.201269999610929],[-164.87203999974611,19.204600000289929],[-164.9087199996282,19.214100000414817],[-164.93334999960271,19.220260000298936],[-164.94565000024724,19.223340000240967],[-164.9825700004051,19.232589999628942],[-165.00720000037964,19.238750000412324],[-165.03167999973212,19.245039999996152],[-165.04386999980056,19.248249999637892],[-165.06798999963868,19.254910000096572],[-165.10369999975509,19.265390000448292],[-165.11551000028621,19.268959999604419],[-165.15071000026623,19.279939999631438],[-165.17446999969064,19.286959999604449],[-165.18640000035964,19.290419999983158],[-165.22271999982806,19.300279999622433],[-165.24709999996495,19.306690000243464],[-165.27133000037912,19.313220000103058],[-165.28340000030968,19.316560000343884],[-165.31909000040312,19.327030000234458],[-165.33092000005789,19.330609999851731],[-165.36612000003788,19.341589999878749],[-165.37792999966967,19.345159999934197],[-165.41388000006188,19.355390000448324],[-165.43812999959971,19.361929999869744],[-165.46262000031268,19.368220000352892],[-165.48723999982604,19.374380000236954],[-165.51186000023876,19.380549999682898],[-165.53647000019029,19.386709999566961],[-165.56108000014183,19.392879999912225],[-165.58556999995545,19.39915999993417],[-165.60982999995446,19.405700000254967],[-165.63384999967766,19.412479999952154],[-165.65758999997843,19.419510000386367],[-165.68109000000342,19.42678000019697],[-165.70459000002839,19.434059999569456],[-165.7164300001443,19.437629999624903],[-165.75237000007536,19.44786000013903],[-165.77661000005139,19.454399999560451],[-165.80097999972713,19.460810000181482],[-165.82523000016431,19.467349999602959],[-165.83728000007187,19.470680000281902],[-165.87299000018828,19.481159999734359],[-165.88479999982005,19.484729999789806],[-165.9081900001683,19.492130000199495],[-165.94376000012383,19.502740000250924],[-165.96775999982407,19.509510000386342],[-165.99199999980007,19.516049999807763],[-166.01639000039813,19.522460000428794],[-166.04061999991299,19.528999999850271],[-166.05268999984355,19.532320000068069],[-166.08837999993696,19.542800000419845],[-166.1002000000299,19.546380000037118],[-166.13540999957175,19.557349999602934],[-166.14722000010283,19.560930000119527],[-166.18316999959572,19.571159999734334],[-166.19522000040263,19.574490000413334],[-166.23178000014681,19.584109999776786],[-166.25604000014582,19.590639999636437],[-166.2680999996152,19.59397000031538],[-166.29196000005388,19.600879999712333],[-166.31560999980158,19.60803000028443],[-166.35080000021975,19.618999999850246],[-166.36260999985154,19.622580000366838],[-166.39856000024375,19.632809999981646],[-166.42282000024275,19.639350000302386],[-166.44718999991849,19.645760000024097],[-166.47144000035564,19.652289999883749],[-166.49544000005588,19.659069999580936],[-166.51920000037964,19.666100000015149],[-166.53101000001141,19.669679999632422],[-166.55438000033666,19.677069999580965],[-166.58997000031519,19.687679999632394],[-166.61394999999243,19.694460000228958],[-166.62601000036116,19.697790000008638],[-166.66257999966717,19.707410000271409],[-166.68683000010435,19.713940000131061],[-166.69888000001191,19.717269999910684],[-166.73459000012832,19.727750000262461],[-166.7579700000154,19.73514999977283],[-166.76954999983255,19.738969999665869],[-166.79269000034316,19.746610000351382],[-166.82738999974862,19.758079999592439],[-166.85051999979808,19.765729999839778],[-166.87391999970814,19.773119999788321],[-166.89766999957075,19.780150000222477],[-166.92167999973213,19.786929999919721],[-166.94591999970814,19.793470000240461],[-166.95810999977658,19.796670000320375],[-166.99453999982106,19.806409999821767],[-167.00660999975162,19.809739999601447],[-167.04229999984503,19.820219999953167],[-167.06567000017029,19.827620000362856],[-167.07726000044858,19.831440000255952],[-167.11197000031518,19.84291000039633],[-167.13510000036464,19.850550000182523],[-167.14668000018179,19.854370000075562],[-167.16958999997843,19.862270000160493],[-167.19272000002789,19.869909999946685],[-167.22742000033267,19.881380000087063],[-167.25043999980608,19.889140000011139],[-167.26188999992348,19.893089999603944],[-167.28503000043409,19.9007300002894],[-167.31972999983955,19.912200000429834],[-167.33130999965667,19.916020000322874],[-167.3657800001468,19.927740000300901],[-167.37735000040212,19.931560000193997],[-167.41204999980758,19.943030000334375],[-167.42360999960172,19.946850000227471],[-167.45857000020527,19.958069999630936],[-167.48232999962971,19.965100000065092],[-167.50635000025224,19.971879999762336],[-167.5305799997671,19.978409999621931],[-167.55495999990399,19.984829999804788],[-167.5671400004106,19.988029999884702],[-167.6032100000414,19.998140000260946],[-167.62695000034216,20.005169999795783],[-167.65033999979107,20.012570000205471],[-167.67348000030171,20.020209999991664],[-167.68506000011882,20.024029999884704],[-167.70819000016829,20.031680000132042],[-167.73134000024075,20.039319999918177],[-167.76580999983156,20.051030000334379],[-167.77736999962571,20.054859999789301],[-167.81206999993049,20.066320000367853],[-167.82364000018578,20.070140000260949],[-167.85810999977659,20.081860000238976],[-167.86966999957073,20.085680000132015],[-167.9042699997606,20.097270000410333],[-167.91573000033918,20.101220000003138],[-167.93813999956126,20.10959999974034],[-167.96054000012083,20.117980000376861],[-167.99352000024774,20.131180000256961],[-168.01517999995696,20.140299999945171],[-168.02599999980006,20.144859999789276],[-168.05936000036365,20.157680000132018],[-168.08176999958573,20.166070000330365],[-168.09296000030369,20.170260000198994],[-168.11585999963918,20.178149999822779],[-168.15057000040511,20.189619999963156],[-168.17358000031669,20.197390000348378],[-168.19661000025124,20.205150000272454],[-168.20817999960721,20.208979999727319],[-168.23132000011785,20.216620000412831],[-168.26590000028472,20.228209999791773],[-168.27735999996395,20.232160000283955],[-168.31206999983056,20.243619999963187],[-168.33521000034116,20.251270000210468],[-168.35822000025274,20.259030000134544],[-168.38123999972612,20.266799999620446],[-168.40438999979858,20.274449999867727],[-168.41594999959273,20.278269999760823],[-168.4505299997596,20.289860000039084],[-168.47353999967117,20.297630000424306],[-168.48512000038764,20.301450000317402],[-168.51983999981607,20.31291999955846],[-168.54284999972762,20.320680000381856],[-168.5658599996392,20.328449999867757],[-168.57742000033267,20.332269999760797],[-168.61211999973813,20.343739999901231],[-168.62371999957824,20.347559999794271],[-168.64661000025123,20.355450000317376],[-168.66974000030069,20.363099999665394],[-168.70447000019027,20.374569999805772],[-168.72748000010185,20.382329999729848],[-168.73891999975811,20.386280000221973],[-168.77362000006286,20.397739999901205],[-168.78519999988001,20.401570000255447],[-168.80810999967667,20.409459999879232],[-168.84170999961671,20.422039999946207],[-168.8529099998965,20.42622999981478],[-168.87505999971913,20.43486000028895],[-168.89670999986652,20.443979999977159],[-168.92944000015581,20.457420000133027],[-168.94052000029771,20.461730000139539],[-168.96291999995796,20.470120000337886],[-168.99678000019676,20.482449999667892],[-169.00821999985303,20.486389999698872],[-169.03136999992549,20.494039999946153],[-169.06597999967715,20.505630000224471],[-169.07742000023273,20.509570000255451],[-169.1121199996382,20.521040000395828],[-169.13524999968766,20.528680000182021],[-169.15827999962221,20.536449999667866],[-169.18129000043311,20.544220000053087],[-169.19287000025022,20.548039999946184],[-169.22756999965569,20.559510000086561],[-169.23915000037215,20.563329999979658],[-169.27361999996296,20.575040000395859],[-169.29675000001242,20.58268999974382],[-169.30832000026771,20.586509999636917],[-169.33121000004138,20.594400000160022],[-169.35360999970166,20.602790000358368],[-169.38707999994196,20.615489999663907],[-169.39816000008386,20.619799999670363],[-169.43065999965918,20.63348999966388],[-169.44150000042461,20.638050000407361],[-169.47484999962771,20.650869999850727],[-169.48604999990749,20.655059999719356],[-169.51989999968515,20.667389999948682],[-169.54290999959673,20.675160000333904],[-169.56607000013034,20.682809999681865],[-169.57764000038563,20.686629999574961],[-169.60051999969815,20.694520000098066],[-169.63522000000293,20.705990000238444],[-169.65826000039863,20.71375000016252],[-169.66970999961671,20.717699999755325],[-169.69211000017629,20.726080000391846],[-169.71450999983654,20.734469999690873],[-169.73665999965917,20.743100000165043],[-169.75832999982956,20.752219999853253],[-169.77997999997694,20.761340000440782],[-169.80214000026072,20.769979999577458],[-169.83574999976261,20.782550000082551],[-169.8469500000424,20.786750000412326],[-169.88141000007138,20.798459999929207],[-169.90454000012082,20.806099999715343],[-169.91611999993796,20.809930000069585],[-169.95057999996695,20.821639999586466],[-169.97371999957824,20.829280000271922],[-169.98528999983355,20.833109999726844],[-170.00843999990599,20.840750000412356],[-170.04291000039612,20.852459999929181],[-170.05447000019029,20.856290000283423],[-170.07760999980158,20.863930000069615],[-170.11169000029321,20.876009999561973],[-170.12288999967367,20.880200000329864],[-170.15637000037515,20.892899999635404],[-170.1674499996177,20.897220000103061],[-170.18911999978809,20.906339999791271],[-170.21078000039662,20.915469999940683],[-170.23293999978108,20.924100000414853],[-170.25534000034065,20.932480000151998],[-170.27774000000093,20.940859999889199],[-170.30064000023575,20.948759999974186],[-170.32379000030818,20.956399999760322],[-170.35836999957576,20.96799000003864],[-170.38138000038663,20.975760000423804],[-170.39296000020377,20.979580000316901],[-170.41611000027621,20.987220000103036],[-170.43924000032567,20.994870000350375],[-170.46213000009934,21.00275999997416],[-170.4852600001488,21.010399999760295],[-170.50839000019826,21.018050000007634],[-170.53130999955675,21.025939999631419],[-170.56489999993497,21.038519999698394],[-170.57610000021475,21.042709999566966],[-170.59827000006038,21.051340000041137],[-170.6307499996127,21.065030000034596],[-170.64159000037813,21.069589999878758],[-170.66374000020076,21.078220000352871],[-170.68613999986104,21.086600000090073],[-170.72000000009984,21.098930000319399],[-170.73145000021725,21.102879999912204],[-170.76614000006089,21.114339999591436],[-170.78916999999544,21.122109999976658],[-170.81219000036813,21.129880000361879],[-170.82375999972413,21.133700000254976],[-170.84688999977359,21.141349999602937],[-170.88146999994046,21.152939999881255],[-170.89292999961972,21.156879999912235],[-170.92764000038562,21.168350000052612],[-170.95077999999694,21.175989999838748],[-170.96235999981405,21.179809999731845],[-170.99683000030419,21.191529999709871],[-171.01996000035365,21.199170000395327],[-171.03152000014782,21.202999999850249],[-171.05440999992149,21.210890000373354],[-171.08800999986153,21.223459999979184],[-171.09923000016431,21.227649999847756],[-171.12137000042512,21.236280000321926],[-171.14303999969616,21.245409999571962],[-171.16470000030469,21.254530000159548],[-171.18685999968915,21.263159999734341],[-171.22045999962921,21.275739999801317],[-171.24311999958823,21.283880000162014],[-171.25456000014381,21.287820000192994],[-171.27771000021627,21.295470000440332],[-171.31229000038314,21.307059999819273],[-171.32375000006238,21.310999999850253],[-171.35845999992898,21.322469999990631],[-171.38158999997844,21.330109999776823],[-171.39316000023373,21.333929999669863],[-171.41605000000743,21.34182999975485],[-171.45073999985104,21.353290000333402],[-171.47390999994647,21.360939999681364],[-171.49703999999593,21.368580000366876],[-171.50861000025122,21.372400000259972],[-171.54416999974561,21.383010000311401],[-171.56817999990699,21.389790000008645],[-171.59243999990599,21.39631999986824],[-171.60460999995146,21.399530000409356],[-171.64153999967118,21.408779999797275],[-171.66616999964569,21.414939999681394],[-171.67847000029022,21.418019999623425],[-171.70308999980358,21.424189999968689],[-171.74002000042262,21.433440000255928],[-171.76476000007386,21.439480000002163],[-171.7771900004181,21.442439999806311],[-171.81549000036316,21.450330000329416],[-171.84154999973262,21.455010000311404],[-171.86812999969965,21.459209999741859],[-171.88156000029369,21.461179999757348],[-171.92156999995547,21.46733999964141],[-171.94777999994696,21.471900000384835],[-171.97388000026172,21.476589999928706],[-172.00009000025324,21.481149999772811],[-172.02679000035815,21.485220000402819],[-172.05450000027471,21.488300000344907],[-172.08330999965668,21.490279999922222],[-172.11296000000391,21.491389999848764],[-172.14323000016429,21.49187999996218],[-172.17387000030018,21.492000000100063],[-172.20466999972064,21.492000000100063],[-172.23542999999444,21.492000000100063],[-172.26619999983006,21.492000000100063],[-172.29698000012684,21.492000000100063],[-172.32774000040061,21.492000000100063],[-172.35851999979806,21.492000000100063],[-172.38928000007186,21.492000000100063],[-172.42004000034567,21.492000000100063],[-172.45067999958223,21.49187999996218],[-172.48098999978859,21.491380000286938],[-172.51064999969765,21.490279999922222],[-172.53945999997893,21.488300000344907],[-172.5671400003107,21.485220000402819],[-172.59387000000044,21.481149999772811],[-172.62008999955376,21.476589999928706],[-172.64618000030669,21.471900000384835],[-172.67239000029821,21.46733999964141],[-172.69897000026523,21.463149999772838],[-172.72580000006988,21.459209999741859],[-172.75240000005988,21.455010000311404],[-172.77861000005137,21.450449999567979],[-172.80459999979007,21.445639999886225],[-172.83031999966818,21.440589999928704],[-172.85592999986952,21.435410000271418],[-172.88164999974762,21.430349999852751],[-172.90725999994896,21.425170000195521],[-172.93236000001392,21.419500000424819],[-172.95696999996545,21.413339999641437],[-172.98108999980357,21.406680000082076],[-173.00458999982857,21.399410000271416],[-173.027739999901,21.391760000024135],[-173.05086999995046,21.384120000237942],[-173.0740400000459,21.376469999990661],[-173.09704999995745,21.36869999960544],[-173.12005999986903,21.360939999681364],[-173.14318999991849,21.353290000333402],[-173.16619999983004,21.345519999948181],[-173.18885999978909,21.337390000048629],[-173.21126000034866,21.328999999850225],[-173.23353999987103,21.320499999975141],[-173.25545000031718,21.311619999663378],[-173.27709999956525,21.302490000413343],[-173.29901000001141,21.293619999663406],[-173.32117000029521,21.284990000088555],[-173.34319999997993,21.276229999914733],[-173.36522999966468,21.267480000201999],[-173.38726999981057,21.25872000002812],[-173.41940000030968,21.244669999620953],[-173.42985999973911,21.239739999801316],[-173.46123999982606,21.224939999881258],[-173.47147000034016,21.219760000223971],[-173.49177999984704,21.209279999872251],[-173.51195999965418,21.198680000281911],[-173.5318899996237,21.187829999954658],[-173.55133000037915,21.17649000041331],[-173.57040000025972,21.16477000043534],[-173.58926000034867,21.152810000181489],[-173.60784999967765,21.140609999651929],[-173.62631000020627,21.128280000321922],[-173.64478000029669,21.115950000092596],[-173.67245000016729,21.097450000417325],[-173.69092999981956,21.085120000187999],[-173.70937999988701,21.072789999958673],[-173.7186300001743,21.066630000074611],[-173.74630999960672,21.04813000039934],[-173.76479999972014,21.035800000170013],[-173.77402000042261,21.029640000285951],[-173.79248000005188,21.017310000056625],[-173.81992000010786,20.998570000105587],[-173.83790999964668,20.985740000200963],[-173.85538000038665,20.972429999744861],[-173.86386000023873,20.965520000347851],[-173.88859999989,20.944070000430315],[-173.90460000028972,20.929280000072083],[-173.92034999995246,20.914230000314376],[-173.93637000037515,20.899439999956201],[-173.95261000015131,20.884889999873735],[-173.96109000000342,20.877990000038608],[-173.98709000020327,20.857770000185496],[-173.99594000003091,20.851229999864756],[-174.01367000017029,20.838159999684365],[-174.03128000017179,20.824970000265466],[-174.04848999971364,20.811409999971659],[-174.07323000026423,20.78994999959292],[-174.08899000038812,20.774910000296416],[-174.10400000009986,20.759130000149526],[-174.1185300001593,20.742850000327394],[-174.13232000026773,20.725840000116079],[-174.14560000023974,20.708330000229466],[-174.15865999995896,20.690569999605941],[-174.17171000011635,20.672820000342881],[-174.18501000011133,20.655309999556948],[-174.19878999975862,20.638289999783808],[-174.21306000041861,20.621769999685853],[-174.22733000017928,20.605249999587954],[-174.24161000040112,20.588730000389319],[-174.2553999996102,20.571720000178004],[-174.26871000006636,20.554210000291448],[-174.28174000020078,20.536449999667866],[-174.30130000019477,20.509820000093043],[-174.30783000005439,20.500939999781281],[-174.32111999958823,20.483429999894724],[-174.33467000032019,20.466180000306906],[-174.34771999957823,20.448419999683381],[-174.36630000024473,20.4208000003199],[-174.37233999999094,20.411429999894722],[-174.3894300002942,20.382329999729848],[-174.39499000038813,20.372470000090573],[-174.40630999990648,20.35299000018847],[-174.4178800001618,20.333749999662871],[-174.42968999979357,20.314759999874241],[-174.44150000032468,20.29577999964738],[-174.45332000041762,20.27678999985875],[-174.46488999977359,20.257559999794296],[-174.47596999991549,20.237830000054601],[-174.48653999992098,20.217610000201489],[-174.49712999994946,20.197390000348378],[-174.50747999970216,20.176919999758297],[-174.52225000003739,20.145479999602458],[-174.53197999997695,20.124399999660397],[-174.53676999963571,20.113789999608912],[-174.54564000038565,20.09184999957796],[-174.55426000039861,20.069650000147533],[-174.5674099997716,20.036609999951679],[-174.57173000023926,20.025509999786777],[-174.58035000025222,20.003319999918176],[-174.59402000022277,19.970769999835738],[-174.59856999960573,19.959920000407806],[-174.60718000005687,19.937729999639885],[-174.61963000042411,19.903939999931197],[-174.62368999969365,19.892600000389848],[-174.63784999977759,19.845130000249469],[-174.64127999967218,19.833169999995619],[-174.64461000035115,19.821089999603942],[-174.65100000004989,19.796670000320375],[-174.66021999985304,19.759679999632397],[-174.66637999973713,19.735029999634889],[-174.67253000005937,19.710370000075557],[-174.67870000040463,19.685709999616904],[-174.68484000026572,19.661050000057571],[-174.69088999957376,19.63625999989921],[-174.6965299997596,19.611110000226461],[-174.7015700001553,19.585339999841267],[-174.70574999956276,19.558710000266444],[-174.70883000040413,19.530969999865761],[-174.71091999965819,19.502239999676362],[-174.71253999972114,19.473020000272925],[-174.71329000013333,19.458350000052576],[-174.71624999993747,19.415069999780826],[-174.71932999987951,19.387330000279405],[-174.7233700000254,19.360570000105554],[-174.72792000030771,19.334309999606944],[-174.73248000015181,19.308050000007654],[-174.73654000032067,19.281289999833746],[-174.73948999966368,19.253669999570945],[-174.74096999956575,19.225319999818282],[-174.74098000002689,19.196709999766824],[-174.73950000012482,19.168349999552959],[-174.73654000032067,19.140730000189478],[-174.73248000015181,19.113979999577452],[-174.72794000033068,19.087719999978162],[-174.72335999956425,19.061449999917727],[-174.71930000029471,19.034700000204964],[-174.71608999975362,19.007079999942164],[-174.71364000008586,18.978719999728355],[-174.71142999979457,18.950120000138043],[-174.70898000012684,18.921759999924177],[-174.7057800000469,18.894139999661377],[-174.70171999987801,18.867389999948671],[-174.69703999989599,18.841249999587944],[-174.69198999993847,18.81548000010207],[-174.68681000028121,18.78982999985476],[-174.68176000032369,18.764060000368886],[-174.67673000038914,18.738300000444781],[-174.67144999971765,18.712770000335411],[-174.66588999962372,18.687499999625402],[-174.6601100001763,18.662470000090593],[-174.65407999999192,18.637679999932175],[-174.64779999996995,18.613150000072608],[-174.64449000021327,18.601060000119048],[-174.63451999999793,18.56481999984328],[-174.63082999980458,18.553099999865253],[-174.62331999971815,18.529800000070111],[-174.61136999992547,18.49552000024795],[-174.59856999960573,18.462110000076564],[-174.59402000022277,18.451259999749311],[-174.58489999963521,18.429559999994126],[-174.57604999980757,18.407610000401348],[-174.56311000022626,18.374320000367845],[-174.55868999964369,18.363349999902709],[-174.54995999995396,18.341280000171992],[-174.53676999963571,18.308239999976138],[-174.53197999997695,18.297629999924709],[-174.52705000015732,18.287149999572989],[-174.51239000039811,18.255590000178529],[-174.50232000006787,18.234869999750799],[-174.49185000017729,18.214529999759804],[-174.48126000014881,18.194309999906693],[-174.47042999984455,18.174339999891231],[-174.45332000041762,18.145239999726357],[-174.44741999993298,18.135739999601412],[-174.42968999979357,18.10726000014904],[-174.4178800001618,18.088279999922179],[-174.40630000034466,18.0690400002959],[-174.39499000038813,18.049560000393853],[-174.3894300002942,18.039699999855259],[-174.37233999999094,18.010599999690385],[-174.36025999959924,17.991859999739347],[-174.34769999955526,17.973609999901726],[-174.34118999971864,17.964729999589963],[-174.3211399996112,17.938590000128556],[-174.30783000005439,17.921089999803769],[-174.29477000033518,17.903330000079563],[-174.28174000020078,17.885570000355358],[-174.26867999958225,17.867820000192978],[-174.2553999996102,17.850310000306422],[-174.24161000040112,17.833300000095051],[-174.22733999974113,17.816779999997152],[-174.21304000039564,17.800250000337371],[-174.19878999975862,17.783730000239473],[-174.18499999965019,17.766720000028101],[-174.17169000009335,17.749210000141545],[-174.15865999995896,17.73145000041734],[-174.14560000023974,17.71370000025496],[-174.13230999980658,17.696190000368347],[-174.1185300001593,17.679169999695887],[-174.10400000009986,17.662900000334901],[-174.0892299997646,17.646870000350361],[-174.07397000021527,17.631340000041121],[-174.05872000022777,17.615800000169997],[-174.04320999994147,17.600510000136524],[-174.03545999957925,17.592870000350388],[-174.01168999969366,17.570429999744817],[-173.9954499999175,17.555879999662409],[-173.9784500001673,17.542070000430328],[-173.96096999986554,17.52875999997417],[-173.94327000021028,17.515680000231953],[-173.9255200000479,17.502610000051618],[-173.90805000020728,17.48929999959546],[-173.89106999958074,17.475490000363379],[-173.8745900004281,17.461190000118563],[-173.85809000035317,17.446880000311921],[-173.83309999996496,17.425680000231978],[-173.82462000011284,17.418769999935705],[-173.80713000024923,17.405460000378866],[-173.78004000014582,17.386349999552976],[-173.77093999958123,17.380059999969149],[-173.75247000039013,17.367729999739822],[-173.73400999986154,17.355400000409816],[-173.71555000023224,17.343070000180489],[-173.69708000014182,17.330739999951163],[-173.6786199996132,17.318409999721837],[-173.66015999998393,17.30608000039183],[-173.64168999989352,17.293750000162504],[-173.62323000026421,17.281419999933178],[-173.60476999973562,17.269089999703851],[-173.58629999964521,17.256760000373845],[-173.56784000001591,17.244430000144519],[-173.54912999964969,17.232349999752842],[-173.53017000034515,17.220509999636931],[-173.50113000024925,17.203369999725851],[-173.49130000019477,17.197829999654914],[-173.47110000036466,17.187219999603428],[-173.4508999996352,17.176620000013145],[-173.43046999999044,17.166259999799308],[-173.40955000023226,17.156400000160033],[-173.38862999957473,17.146530000059613],[-173.36745999997893,17.13692000025793],[-173.3344700002902,17.12372000037783],[-173.32339000014832,17.119410000371374],[-173.30147999970214,17.110530000059612],[-173.27932999987951,17.101899999585441],[-173.25716999959573,17.093270000010648],[-173.22467000002041,17.079580000017131],[-173.21383999971613,17.075020000173026],[-173.19168000033167,17.066389999698856],[-173.15808000039164,17.053820000093083],[-173.14688000011185,17.049630000224454],[-173.11242999964469,17.037910000246427],[-173.10086000028872,17.034090000353387],[-173.07773000023926,17.026440000106049],[-173.04276999963571,17.015219999803264],[-173.01901000021127,17.008199999830254],[-173.00706000041862,17.004740000350864],[-172.97076000007388,16.994879999812269],[-172.95857000000541,16.991670000170529],[-172.92150999968666,16.982549999582943],[-172.89650999973662,16.976750000112531],[-172.87129000043311,16.971210000041594],[-172.84580999993148,16.965899999785279],[-172.82007999959222,16.960849999827758],[-172.79437000017529,16.955790000308411],[-172.7687700004351,16.950609999751805],[-172.75597000011533,16.94801999992319],[-172.71695000024224,16.940879999812296],[-172.69037000027521,16.936680000381841],[-172.66314999957274,16.933110000326394],[-172.63547000014032,16.930030000384363],[-172.60776000022375,16.92693999998113],[-172.58057000000542,16.923369999925683],[-172.5539900000384,16.919169999595965],[-172.52774000000093,16.914609999751804],[-172.51468999984354,16.912269999760838],[-172.47482000034267,16.90598000017701],[-172.44713000044908,16.902900000234979],[-172.41832999972962,16.900930000219489],[-172.38878999995845,16.899689999693862],[-172.35900999991148,16.89871000036635],[-172.3294700001403,16.897480000301925],[-172.30065999985902,16.89549999982529],[-172.2729800004266,16.892419999883202],[-172.24628000032169,16.888350000152514],[-172.2200500003072,16.883790000308409],[-172.1938200002927,16.879229999564984],[-172.16710999972662,16.875159999834239],[-172.13941999983305,16.872079999892208],[-172.11074999971265,16.869980000177009],[-172.08157000035516,16.868380000137051],[-172.05239999966017,16.866769999635892],[-172.02373000043909,16.864680000381838],[-171.99603000008437,16.861600000439807],[-171.98248000025174,16.859749999662881],[-171.94311999998794,16.852969999965637],[-171.91686999995045,16.848399999660387],[-171.90371999967817,16.846179999807305],[-171.86247000039012,16.841249999987667],[-171.83368000013184,16.839279999972177],[-171.80414000036066,16.838049999907696],[-171.77434999985255,16.837060000119038],[-171.74481000008137,16.835830000054614],[-171.71599999980006,16.833849999577978],[-171.68830999990649,16.830769999635891],[-171.66158999977858,16.826699999905202],[-171.63537999978709,16.822140000061097],[-171.60916000023374,16.817580000216992],[-171.58246000012883,16.813509999586927],[-171.55477999979706,16.810429999644896],[-171.52608999965369,16.808329999929697],[-171.49691999985802,16.80672999988974],[-171.46773999960124,16.805129999849726],[-171.43905999991898,16.803030000134527],[-171.41137999958724,16.799950000192496],[-171.38466999992048,16.795879999562487],[-171.35843000034416,16.791319999718326],[-171.33220999989152,16.786750000312395],[-171.30550999978658,16.782679999682387],[-171.27781999989301,16.779599999740356],[-171.24914999977258,16.777509999586925],[-171.21997000041512,16.775899999985143],[-171.20532000021777,16.775160000034134],[-171.1621200000379,16.772209999791812],[-171.13443000014431,16.769120000287899],[-171.1077300000394,16.76504999965789],[-171.09455999974412,16.762829999804808],[-171.05527999957224,16.75592999996968],[-171.02856000034367,16.751860000238935],[-171.00088999957376,16.748780000296904],[-170.97208000019177,16.746810000281414],[-170.94254000042059,16.745569999755844],[-170.91274999991248,16.744590000428332],[-170.89786000033868,16.74408999985377],[-170.85439999986002,16.741379999887215],[-170.84025999979909,16.740149999822791],[-170.80000000029969,16.734230000214495],[-170.7737700002852,16.729670000370334],[-170.7475600002937,16.725109999626909],[-170.72086000018879,16.72103999989622],[-170.69315000027223,16.717950000392364],[-170.66436999957574,16.715980000376874],[-170.6348099997816,16.714750000312392],[-170.60504000019577,16.713759999624415],[-170.57546999994048,16.71252999955999],[-170.54669000014331,16.71056000044382],[-170.51898000022675,16.707470000040587],[-170.49228000012184,16.703409999871724],[-170.46605999966917,16.698839999566474],[-170.4530300004341,16.696499999575451],[-170.41314999957274,16.690209999991623],[-170.39959999974013,16.688369999675899],[-170.35675000041212,16.685039999896219],[-170.32761000020128,16.683430000294436],[-170.29842999994446,16.681830000254422],[-170.26973999980106,16.679729999639903],[-170.24206999993046,16.676649999697872],[-170.21532999977958,16.672579999967184],[-170.20218000040663,16.670360000114044],[-170.1760699996307,16.665680000132056],[-170.13620000012983,16.659389999648909],[-170.10851000023624,16.656309999706878],[-170.0797100004161,16.654330000129562],[-170.05016999974561,16.653100000065081],[-170.02038999969864,16.652110000276423],[-170.00548999966367,16.651620000163007],[-169.96203999964618,16.648910000196508],[-169.93432999972961,16.645830000254421],[-169.90762000006288,16.641759999624412],[-169.88141000007138,16.637199999780307],[-169.86835000035217,16.634850000227459],[-169.82847999995195,16.628559999744311],[-169.80077999959724,16.62547999980228],[-169.77211000037613,16.623389999648907],[-169.74293999968117,16.621780000047124],[-169.71378000034667,16.62018000000711],[-169.68509000020327,16.618080000291911],[-169.65738999984853,16.61500000034988],[-169.6306800001818,16.610929999719872],[-169.60445999972913,16.60636999987571],[-169.57824999973761,16.601810000031605],[-169.55154000007087,16.597740000300917],[-169.52383000015431,16.594660000358886],[-169.49505999991899,16.592690000343396],[-169.48040999972164,16.59195000039233],[-169.4357299996397,16.590460000029111],[-169.40616000028371,16.589229999964687],[-169.37737000002539,16.587259999949197],[-169.34966999967068,16.584180000007109],[-169.32296999956574,16.58011000027642],[-169.29675000001242,16.575550000432315],[-169.2705400000209,16.570980000127065],[-169.24383999991599,16.566919999958145],[-169.21612999999942,16.563840000016114],[-169.18731999971814,16.561860000438799],[-169.15779000040811,16.560630000374374],[-169.12801000036114,16.559639999686397],[-169.09844999966768,16.558409999621915],[-169.06964000028572,16.5564300000446],[-169.04195999995395,16.553350000102569],[-169.01525999984904,16.549289999933706],[-169.00207999999193,16.547070000080566],[-168.96283000030419,16.540159999784294],[-168.93609999971514,16.536090000053605],[-168.90842000028272,16.533010000111574],[-168.87961000000143,16.531040000096084],[-168.85007999979209,16.529799999570457],[-168.82027999972215,16.528820000242945],[-168.79073999995097,16.527579999717375],[-168.76192999966966,16.525609999701885],[-168.73425000023724,16.522529999759797],[-168.70751999964818,16.518460000029108],[-168.68130000009486,16.513900000185004],[-168.65509000010334,16.509340000340899],[-168.62838999999843,16.505269999710833],[-168.60068999964369,16.502189999768802],[-168.5719000002847,16.500210000191487],[-168.54235999961421,16.498980000127062],[-168.51257000000541,16.497990000338405],[-168.49768000043159,16.497500000224989],[-168.45421999995295,16.494790000258433],[-168.42653999962121,16.491699999855257],[-168.39984000041562,16.487639999686394],[-168.37359999993996,16.483070000280406],[-168.34738000038664,16.478510000436302],[-168.33419999963021,16.4762899996839],[-168.29297999992698,16.471359999864262],[-168.26418000010685,16.469389999848772],[-168.2346499998975,16.468150000222465],[-168.2048600002887,16.467169999995633],[-168.17531999961821,16.465930000369383],[-168.14651000023625,16.463960000353893],[-168.11882000034265,16.460880000411805],[-168.09210000021477,16.456809999781797],[-168.06589000022325,16.452249999937692],[-168.03966999977061,16.447690000093587],[-168.01296999966567,16.443620000362841],[-167.9852599997491,16.44054000042081],[-167.95647000039014,16.438559999944175],[-167.92690999969665,16.437329999879751],[-167.89712999964968,16.436340000091093],[-167.86758000031668,16.435110000026611],[-167.83879000005837,16.433140000011122],[-167.8111000001648,16.430060000069091],[-167.78438999959872,16.425990000338402],[-167.77120999974161,16.423769999585943],[-167.73192999956976,16.41686000018899],[-167.70523000036414,16.412800000020127],[-167.67753999957125,16.40970999961695],[-167.66338999994846,16.408479999552469],[-167.61969000009336,16.406009999861737],[-167.59052999985954,16.40440999982178],[-167.56185999973911,16.402319999668407],[-167.53414999982255,16.399230000164494],[-167.50744999971764,16.395160000433805],[-167.48123000016429,16.39059999969038],[-167.45502000017279,16.386039999846275],[-167.42830999960671,16.38197000011553],[-167.40059999969014,16.378890000173499],[-167.37192999956974,16.37678999955898],[-167.3427599997741,16.375190000418343],[-167.31360000043958,16.373590000378329],[-167.28491000029621,16.37148999976381],[-167.25720000037964,16.368409999821779],[-167.2305000002747,16.36434000009109],[-167.2173200004176,16.362120000237951],[-167.17804000024574,16.355220000402824],[-167.15134999970266,16.351149999772815],[-167.137819999893,16.349299999895209],[-167.09498999968866,16.345970000115528],[-167.06581000033117,16.344359999614426],[-167.03665000009735,16.342759999574469],[-167.0079700004151,16.340670000320415],[-166.98027000006039,16.337590000378327],[-166.95354999993248,16.333519999748319],[-166.92733999994095,16.328950000342388],[-166.90112000038764,16.324389999598964],[-166.8744200002827,16.320319999868218],[-166.84671000036616,16.317239999926187],[-166.81804000024573,16.315140000210988],[-166.78885999998894,16.313540000171031],[-166.7596700001703,16.311940000131017],[-166.73102000007287,16.309840000415818],[-166.71685999998894,16.308610000351393],[-166.6766100000514,16.302689999843778],[-166.65038999959873,16.298129999999617],[-166.62417999960721,16.293570000155512],[-166.59746999994047,16.289500000424823],[-166.56988999972364,16.286289999883707],[-166.54160000003989,16.283829999754801],[-166.51303000003441,16.281609999901718],[-166.48470999986651,16.279140000210987],[-166.45714999967268,16.275940000131015],[-166.43044999956774,16.271870000400327],[-166.40420999999142,16.267309999656902],[-166.39115999983406,16.264960000104054],[-166.3648400001658,16.260520000397833],[-166.32358999997845,16.255589999678875],[-166.29491999985802,16.253489999963676],[-166.26575999962421,16.251889999923719],[-166.23658999982854,16.250289999883705],[-166.20789999968517,16.248190000168506],[-166.18020999979157,16.245110000226475],[-166.15350000012484,16.241039999596467],[-166.12729000013331,16.236479999752305],[-166.10106000011882,16.2319199999082],[-166.07433999999094,16.227850000177511],[-166.04665999965917,16.22477000023548],[-166.01785000027721,16.222800000219991],[-165.98830999960671,16.221559999694364],[-165.95852999955974,16.220580000366851],[-165.92898999978857,16.219339999841281],[-165.90018000040661,16.217369999825792],[-165.8860299998845,16.21613999976131],[-165.84577999994696,16.210220000153015],[-165.83260999965168,16.208000000299933],[-165.79333000037914,16.201099999565486],[-165.78018000010684,16.198879999712346],[-165.73892000035767,16.193940000330883],[-165.71027000026024,16.19185000017751],[-165.68109000000342,16.190239999676407],[-165.65192000020775,16.188639999636393],[-165.62323000006438,16.18655000038234],[-165.59554999973261,16.183459999979164],[-165.58199999990001,16.181610000101557],[-165.54259999959024,16.174839999966139],[-165.52957000035516,16.172490000413347],[-165.48969000039313,16.1661999999302],[-165.46201000006138,16.163119999988169],[-165.43331999991798,16.161020000272913],[-165.40415999968417,16.159420000232956],[-165.37496999986553,16.157820000192999],[-165.34627999972213,16.15571999957848],[-165.31860000028971,16.152639999636392],[-165.2919000001848,16.148569999905703],[-165.26565999970913,16.144010000061598],[-165.23944000015581,16.139450000217494],[-165.21274000005087,16.135379999587428],[-165.18503999969616,16.132299999645397],[-165.15636999957573,16.130199999930198],[-165.12721000024123,16.128599999890241],[-165.09804000044559,16.126990000288401],[-165.06935000030219,16.124900000135028],[-165.04166000040863,16.121809999731852],[-165.01494999984254,16.117749999562989],[-164.98873999985102,16.113189999718827],[-164.96250999983656,16.108620000312897],[-164.93578999970865,16.104549999682888],[-164.90811000027622,16.101469999740857],[-164.87929999999491,16.099499999725367],[-164.84976000022374,16.098269999660886],[-164.8199800001768,16.097279999872228],[-164.79044000040562,16.096049999807803],[-164.76163000012434,16.094070000230488],[-164.73394999979257,16.0909900002884],[-164.70722999966466,16.086919999658392],[-164.6809999996502,16.082359999814287],[-164.65478999965868,16.077799999970182],[-164.62807999999194,16.073730000239436],[-164.60037000007537,16.070650000297405],[-164.57159000027821,16.068680000281915],[-164.54204999960771,16.067439999756346],[-164.51226999956074,16.066460000428833],[-164.48272999978957,16.065219999903206],[-164.45392000040761,16.063249999887717],[-164.42622000005289,16.060169999945686],[-164.39951000038613,16.056100000214997],[-164.37328999993346,16.051540000370835],[-164.34707999994197,16.046970000065585],[-164.3203700002752,16.042909999896722],[-164.29268999994346,16.039820000392865],[-164.26389000012333,16.037850000377375],[-164.23433000032918,16.036620000312894],[-164.20453999982107,16.035629999624916],[-164.17502000007286,16.034399999560492],[-164.14620999979158,16.032430000444322],[-164.11849999987501,16.029340000041088],[-164.0917999997701,16.0252700003104],[-164.07863000037415,16.023049999557998],[-164.03937000022526,16.01614999972287],[-164.01265999965918,16.012079999992125],[-163.98494999974261,16.009000000050094],[-163.95616000038362,16.007019999573458],[-163.92661999971313,16.005790000408354],[-163.89685000012733,16.004810000181521],[-163.86727999987201,16.003569999655895],[-163.8384899996137,16.001599999640405],[-163.81079000015831,15.998519999698374],[-163.78409000005337,15.994449999967685],[-163.75786999960073,15.989890000123523],[-163.73163000002441,15.985319999818273],[-163.70494000038065,15.98125999964941],[-163.67724999958773,15.978170000145553],[-163.64844000020577,15.976200000130063],[-163.61876999983554,15.975090000203465],[-163.58849999967518,15.974600000090049],[-163.55797999967717,15.974350000252457],[-163.52771000041611,15.973860000139041],[-163.49804999960773,15.9727500002125],[-163.46924000022574,15.97078000019701],[-163.4415300003092,15.967689999793777],[-163.41483000020426,15.963620000063088],[-163.38860999975159,15.959060000218983],[-163.36237000017528,15.954500000374878],[-163.33567999963219,15.950429999744813],[-163.3079800001768,15.947349999802782],[-163.27916999989549,15.945379999787292],[-163.24950999998643,15.944269999860751],[-163.21925000028722,15.943779999747335],[-163.18871999982804,15.943529999909686],[-163.15844999966768,15.94303999979627],[-163.12878000019677,15.941929999869728],[-163.09998000037663,15.939950000292413],[-163.07226999956075,15.936870000350382],[-163.04555999989401,15.932799999720373],[-163.01934999990249,15.928239999876212],[-162.99309999986502,15.923680000032107],[-162.96641999978308,15.919610000301418],[-162.93872000032766,15.916530000359387],[-162.90991000004638,15.914549999882752],[-162.88025000013732,15.913439999956154],[-162.84999000043808,15.912949999842738],[-162.81945999997893,15.912700000005145],[-162.78918000025672,15.912209999891729],[-162.75952000034766,15.911099999965188],[-162.73071000006638,15.909129999949698],[-162.70302999973461,15.90605000000761],[-162.6763299996297,15.901980000276922],[-162.6631499997726,15.899760000423839],[-162.62386999960071,15.892850000127567],[-162.61068999974361,15.890630000274427],[-162.56959999974012,15.885580000316907],[-162.54127999957225,15.883109999726855],[-162.51272999958974,15.880889999873716],[-162.48441999988302,15.87842999974481],[-162.47037999993697,15.877069999980677],[-162.43015000002239,15.871150000372381],[-162.40392999956975,15.8665899996289],[-162.37768999999344,15.862029999784795],[-162.35098000032667,15.857960000054106],[-162.33742999959472,15.8561100001765],[-162.29462000031268,15.85278000039682],[-162.26544000005589,15.851180000356862],[-162.23627000026022,15.849580000316905],[-162.20758000011682,15.847479999702387],[-162.17989999978508,15.844399999760299],[-162.15319999968017,15.84033000002961],[-162.12694999964268,15.835770000185505],[-162.10077000013533,15.8312100003414],[-162.07404000044559,15.827139999711335],[-162.06052000019778,15.825289999833785],[-162.01754999983254,15.822080000191988],[-161.98801999962319,15.820850000127564],[-161.95821999955325,15.819860000338906],[-161.92867999978208,15.818630000274425],[-161.89987000040011,15.816660000258935],[-161.87219000006837,15.813569999855758],[-161.84548999996346,15.80950000012507],[-161.81923999992597,15.804940000280908],[-161.80620000022975,15.802600000289942],[-161.77987999966217,15.798159999684401],[-161.73863000037414,15.793229999864764],[-161.72449000031318,15.791999999800282],[-161.68018000020678,15.790149999922676],[-161.64989999958524,15.789650000247434],[-161.61926000034865,15.789530000109551],[-161.58862000021276,15.789409999971667],[-161.55831999956825,15.788910000296426],[-161.52865999965917,15.78780999993171],[-161.49985000027721,15.785830000354395],[-161.47216999994546,15.782750000412307],[-161.44542999979458,15.778679999782298],[-161.4322800004216,15.776459999929216],[-161.39300999981157,15.769560000094089],[-161.3663000001448,15.765490000363343],[-161.33861000025124,15.762410000421312],[-161.3098100004311,15.760429999944677],[-161.28014999962269,15.759320000018135],[-161.24988000036166,15.758829999904719],[-161.21922000020277,15.758709999766836],[-161.18843000034417,15.758709999766836],[-161.15767000007037,15.758709999766836],[-161.12690999979657,15.758709999766836],[-161.09611999993797,15.758709999766836],[-161.06535000010234,15.758709999766836],[-161.03470000040463,15.75858000006707],[-161.00443000024424,15.758089999953654],[-160.97475999987401,15.756980000027113],[-160.94594999959273,15.755010000011623],[-160.91827000016031,15.751919999608447],[-160.90472000032767,15.750080000191986],[-160.86532999957973,15.743290000033596],[-160.83911000002641,15.738730000189491],[-160.81240999992147,15.734659999559483],[-160.79886000008887,15.732809999681876],[-160.75592000020777,15.729609999601962],[-160.72626000029871,15.728499999675364],[-160.69597000011532,15.728009999561948],[-160.66532999997943,15.727879999862239],[-160.63454999968266,15.727879999862239],[-160.60379000030818,15.727879999862239],[-160.57301000001141,15.727879999862239],[-160.54236999987552,15.727759999724356],[-160.51207999969216,15.72726999961094],[-160.48241999978308,15.726159999684398],[-160.45361000040111,15.724180000107083],[-160.42593000006937,15.721100000164995],[-160.39922999996443,15.717030000434306],[-160.37299000038811,15.712469999690882],[-160.34676999993547,15.707909999846777],[-160.33359000007837,15.705689999993638],[-160.29237000037514,15.700760000174],[-160.26356999965569,15.69879000015851],[-160.24892999991948,15.698050000207502],[-160.2037500001623,15.697060000418844],[-160.17360999970165,15.696439999706342],[-160.14394000023074,15.695329999779801],[-160.11512999994946,15.693359999764311],[-160.08742999959472,15.69027999982228],[-160.06073000038913,15.686210000091592],[-160.03452000039761,15.68165000024743],[-160.00829000038314,15.67707999994218],[-159.98157000025523,15.673010000211491],[-159.95388999992349,15.66993000026946],[-159.92507999964218,15.66796000025397],[-159.89541999973312,15.666850000327372],[-159.86526000014879,15.666229999614927],[-159.83511000012632,15.665620000262948],[-159.80545000021726,15.664510000336406],[-159.77663999993598,15.662529999859771],[-159.74895999960421,15.659449999917683],[-159.72224000037565,15.655380000186994],[-159.69601000036116,15.65082000034289],[-159.66980000036963,15.646259999599465],[-159.64310000026472,15.642189999868719],[-159.61539000034816,15.639109999926688],[-159.58660999965167,15.637130000349373],[-159.55692999971964,15.636020000422832],[-159.52665999955926,15.635530000309416],[-159.4961200004376,15.635290000033592],[-159.46585000027721,15.63479000035835],[-159.43619000036813,15.633680000431809],[-159.40738000008685,15.631710000416319],[-159.3796999997551,15.628629999574969],[-159.35297999962719,15.62455999984428],[-159.3267499996127,15.620000000000118],[-159.31368999989351,15.617650000447327],[-159.27382999995444,15.611370000425325],[-159.24612000003791,15.608280000022148],[-159.21734999980256,15.606310000006658],[-159.18766999987051,15.60520000008006],[-159.1573900001483,15.604709999966644],[-159.12685999968915,15.604460000129052],[-159.09659000042811,15.603970000015636],[-159.0669299996197,15.602860000089095],[-159.03812000023774,15.600890000073605],[-159.010439999906,15.597799999670372],[-158.98371999977809,15.593740000400828],[-158.9574899997636,15.589170000095578],[-158.93127000021025,15.584610000251473],[-158.91811999993797,15.582390000398334],[-158.87688000021177,15.577459999679377],[-158.84808000039163,15.575489999663887],[-158.81853999972114,15.574250000037637],[-158.78875999967417,15.573269999810805],[-158.759219999903,15.572039999746323],[-158.73040999962171,15.570060000169008],[-158.70271000016629,15.566980000226977],[-158.67599000003838,15.562909999596968],[-158.64978000004689,15.558349999752807],[-158.62357000005537,15.553789999908702],[-158.59686000038863,15.549720000178013],[-158.58332999967965,15.547870000300406],[-158.54036999977558,15.544659999759347],[-158.51082000044258,15.543429999694865],[-158.48102999993446,15.542439999906208],[-158.45151000018629,15.541209999841783],[-158.42269999990498,15.539239999826293],[-158.39498999998844,15.536159999884205],[-158.3682899998835,15.532090000153516],[-158.34207000033018,15.527519999848266],[-158.31586000033866,15.522960000004161],[-158.2891499997726,15.518899999835241],[-158.26156999955575,15.515690000193501],[-158.24754000007087,15.514330000429311],[-158.20470999986651,15.510999999750311],[-158.17638999969864,15.508539999621405],[-158.16236999977559,15.507179999857271],[-158.12213000029919,15.501260000248976],[-158.0959000002847,15.496700000404815],[-158.08283999966616,15.494360000413849],[-158.0429700001653,15.488069999930701],[-158.01540000040961,15.48486999985073],[-157.98708999980357,15.482400000159998],[-157.95853000025923,15.480180000306916],[-157.94425999959921,15.479070000380375],[-157.90264999989751,15.474509999636894],[-157.87594999979257,15.470439999906205],[-157.86278000039661,15.468220000053122],[-157.82364000038564,15.461189999618909],[-157.79741999993297,15.456629999774805],[-157.77083999996594,15.452439999906233],[-157.74401999972312,15.448490000313427],[-157.7174100001713,15.444300000444798],[-157.69118999971863,15.439739999701374],[-157.66509999986502,15.435050000157503],[-157.63898000042659,15.430370000175515],[-157.62595000029219,15.428019999723347],[-157.58620999959172,15.421610000001635],[-157.55937000022524,15.417669999970656],[-157.53277999979707,15.413480000102084],[-157.50656000024372,15.408909999796776],[-157.49351999964819,15.406569999805811],[-157.45486000018877,15.399050000157501],[-157.42926000044858,15.393869999600952],[-157.40353000010933,15.388819999643431],[-157.37781000023125,15.383760000124028],[-157.35220000002991,15.378579999567478],[-157.3264800001518,15.373529999609957],[-157.30051000043608,15.368719999928203],[-157.27428999998344,15.364160000084098],[-157.24771000001641,15.359970000215469],[-157.22088999977359,15.356019999723344],[-157.20746000007887,15.354049999707854],[-157.16809000025322,15.34727000001061],[-157.14209000005337,15.342460000328913],[-157.11639000019827,15.33739999991019],[-157.09078999955875,15.33222000025296],[-157.07797000011533,15.329630000424345],[-157.05215000012234,15.324699999705388],[-157.0137300000394,15.316930000219486],[-157.00092999971963,15.314340000390871],[-156.96252000009784,15.306579999567475],[-156.94973999980107,15.30398999973886],[-156.91119000001839,15.296340000390842],[-156.89826999956074,15.293880000261936],[-156.85985999993898,15.286109999876714],[-156.83426000019878,15.280930000219485],[-156.80864999999741,15.275749999662878],[-156.78305000025722,15.270570000005648],[-156.75731999991797,15.265520000048127],[-156.73162999962472,15.260459999629404],[-156.70600999986152,15.25529000043332],[-156.68030000044459,15.250230000014653],[-156.65430999980657,15.245420000332899],[-156.64127000011032,15.243080000341877],[-156.60149999982505,15.236669999720846],[-156.57467999958223,15.23272000012804],[-156.5480999996152,15.228530000259468],[-156.52188000006188,15.223970000415306],[-156.50882000034267,15.221630000424341],[-156.47017000044508,15.214109999876712],[-156.44456000024374,15.208930000219482],[-156.41884000036563,15.203869999800816],[-156.39313000004938,15.198819999843238],[-156.36751999984804,15.193640000186008],[-156.34192000010785,15.188459999629401],[-156.31630999990648,15.183279999972171],[-156.30350999958674,15.180690000143557],[-156.26497999982706,15.173050000357364],[-156.25206000026873,15.170579999767313],[-156.21364999974762,15.162810000281411],[-156.18805000000742,15.157640000186007],[-156.16245000026723,15.1524599996294],[-156.13684000006586,15.14727999997217],[-156.11114999977258,15.142219999553447],[-156.08542000033268,15.137169999595926],[-156.05981000013131,15.131989999938696],[-156.03409000025323,15.126939999981175],[-156.0211499997726,15.124470000290444],[-155.98190000008486,15.117569999555997],[-155.95532000011784,15.113370000125542],[-155.92849999987502,15.109430000094562],[-155.91507000018029,15.107449999617927],[-155.88872999958971,15.103020000372851],[-155.84958000001691,15.095989999938695],[-155.8234900001633,15.091300000394824],[-155.79726999971064,15.0867399996514],[-155.77068000018178,15.082549999782827],[-155.74383999991599,15.078600000190022],[-155.71725000038714,15.074410000321393],[-155.70408999965369,15.072189999568991],[-155.66494999964269,15.065160000034098],[-155.65188999992347,15.062820000043132],[-155.61264000023573,15.055920000208005],[-155.5860600002687,15.05171999987823],[-155.55922999956474,15.047779999847251],[-155.53264000003588,15.043589999978678],[-155.50641000002139,15.039019999673371],[-155.48032000016778,15.034339999691383],[-155.45409999971514,15.029779999847278],[-155.42751999974811,15.025580000416824],[-155.40029999994496,15.022010000361377],[-155.37261999961322,15.018930000419346],[-155.34490999969665,15.015840000016112],[-155.31772000037765,15.012269999960665],[-155.29114000041062,15.008080000092093],[-155.26491999995795,15.003509999786786],[-155.23870999996643,14.998949999942681],[-155.21200999986152,14.994880000211992],[-155.18442999964469,14.991680000132021],[-155.15613000039912,14.98921000044129],[-155.12756000039363,14.986989999688888],[-155.09924000022573,14.984529999559982],[-155.07166999957073,14.981319999918185],[-155.04495000034217,14.977250000187496],[-155.01874000035065,14.972690000343391],[-154.99251999989801,14.968129999599967],[-154.96581000023124,14.964059999869221],[-154.95226999996044,14.962209999991671],[-154.90931999961822,14.959000000349874],[-154.87979000030819,14.95777000028545],[-154.85001000026122,14.956790000058618],[-154.82046999959073,14.955550000432311],[-154.8058200002927,14.954809999581926],[-154.76397999987702,14.95049999957547],[-154.73723999972611,14.946429999844781],[-154.71102999973462,14.94187000000062],[-154.68481000018127,14.937299999695369],[-154.65809999961522,14.933229999964681],[-154.6304000001598,14.93015000002265],[-154.60160999990148,14.92818000000716],[-154.57192999996943,14.927070000080562],[-154.54177999994695,14.926450000267437],[-154.51162999992448,14.925840000016137],[-154.48195999955425,14.924730000089596],[-154.45315999973411,14.922749999612904],[-154.42544999981754,14.919669999670873],[-154.39874000015081,14.915599999940184],[-154.37253000015929,14.911040000096079],[-154.34630999970665,14.906480000251975],[-154.31960999960171,14.902409999621909],[-154.30607999979208,14.90055999974436],[-154.26311000032618,14.897359999664388],[-154.23345999997895,14.896249999737847],[-154.20316999979556,14.895750000062606],[-154.17264999979756,14.895509999786782],[-154.1423599996142,14.89501000011154],[-154.11269999970514,14.893900000184999],[-154.08391999990798,14.891930000169509],[-154.06975999982404,14.890700000105085],[-154.0295099998865,14.88477999959747],[-154.00329999989501,14.880219999753308],[-153.97708000034166,14.875659999909203],[-153.95038000023675,14.871590000178514],[-153.92267000032018,14.868510000236483],[-153.8938600000389,14.866529999759791],[-153.86420000012981,14.86541999983325],[-153.83390999994646,14.864929999719834],[-153.80326999981057,14.864809999581951],[-153.77260999965168,14.864679999882242],[-153.74234000039061,14.864189999768826],[-153.71267999958224,14.863079999842284],[-153.68387000020027,14.861109999826795],[-153.65616000028371,14.858020000322881],[-153.6426200000129,14.856170000445275],[-153.60323999972613,14.849389999848768],[-153.57702999973461,14.844830000004663],[-153.55032000006787,14.840760000273917],[-153.5226100001513,14.837680000331886],[-153.49381999989299,14.835710000316396],[-153.46415999998393,14.834600000389855],[-153.43386999980058,14.834110000276439],[-153.40322999966466,14.833979999677354],[-153.37259000042809,14.83386000043879],[-153.3423200002677,14.833370000325374],[-153.3126499998975,14.832260000398833],[-153.28383999961622,14.830279999922197],[-153.25616000018377,14.827199999980166],[-153.22946000007886,14.823130000249478],[-153.20321999960322,14.818570000405316],[-153.17700000004987,14.814009999661891],[-153.15029999994496,14.809939999931203],[-153.1225900000284,14.806859999989172],[-153.09379999977008,14.804880000411856],[-153.0641300002992,14.803769999585938],[-153.03396999981555,14.803160000233959],[-153.00381000023125,14.802540000420834],[-152.97415000032217,14.801429999594916],[-152.94534000004089,14.799459999579483],[-152.93119999997992,14.798219999953176],[-152.89093000001941,14.792309999906706],[-152.86472000002789,14.787739999601456],[-152.83853000005936,14.783179999757294],[-152.81180000036963,14.779110000026606],[-152.78412000003789,14.776030000084575],[-152.75530999975661,14.774060000069085],[-152.72564999984752,14.772950000142544],[-152.69535999966416,14.772460000029128],[-152.66483999966616,14.772210000191478],[-152.63455000038212,14.771720000078062],[-152.60488999957374,14.770610000151521],[-152.57610999977658,14.768629999674886],[-152.54839999986001,14.765549999732855],[-152.5216999997551,14.761480000002109],[-152.50853000035914,14.759260000149027],[-152.48243999960621,14.754580000167039],[-152.44257000010535,14.748289999683891],[-152.41486000018878,14.74520999974186],[-152.38606000036864,14.74323999972637],[-152.35638000043659,14.742120000237946],[-152.3261300002992,14.74163000012453],[-152.29545999967917,14.741509999986647],[-152.28007999999193,14.741509999986647],[-152.23453000025921,14.740890000173522],[-152.20485999988901,14.739780000246924],[-152.17606000006887,14.737810000231491],[-152.1483799997371,14.734730000289403],[-152.12163999958622,14.730659999659395],[-152.09542999959473,14.72609999981529],[-152.06923999962621,14.721539999971185],[-152.04250999993647,14.717470000240439],[-152.01482999960473,14.714379999837263],[-151.98602000022274,14.712409999821773],[-151.95636000031368,14.711299999895232],[-151.92607000013032,14.710809999781816],[-151.89542999999443,14.71068000008205],[-151.86478000029669,14.710559999944167],[-151.83449999967516,14.71006999983075],[-151.8048399997661,14.708959999904209],[-151.77603000038414,14.706989999888719],[-151.74835000005237,14.703900000384863],[-151.72164999994746,14.699829999754797],[-151.69539999990999,14.695269999910693],[-151.66918999991847,14.690710000066588],[-151.64248999981356,14.686640000335899],[-151.614779999897,14.683560000393868],[-151.58598000007686,14.681590000378378],[-151.55644000030568,14.680349999852751],[-151.52664000023574,14.679369999625919],[-151.49709999956525,14.678129999999612],[-151.46831000020626,14.676159999984122],[-151.44060999985152,14.673080000042091],[-151.41390999974661,14.669010000311403],[-151.38771000021626,14.664449999567978],[-151.36150999978659,14.659889999723873],[-151.33478000009686,14.655819999993128],[-151.30709999976509,14.652729999589951],[-151.27829000038312,14.650759999574461],[-151.24872999968966,14.649530000409356],[-151.21894999964269,14.648539999721322],[-151.20406000006886,14.648049999607906],[-151.16061000005138,14.645339999641408],[-151.13290000013481,14.642250000137551],[-151.1062000000299,14.638189999968688],[-151.07999000003838,14.633630000124526],[-151.05376999958574,14.629059999819276],[-151.04060000018978,14.626839999966137],[-150.99998000027671,14.621290000333374],[-150.98619000016828,14.619690000293417],[-150.94459999959022,14.615130000449312],[-150.91739000024822,14.611549999932663],[-150.89081000028119,14.607360000064091],[-150.86456000024373,14.602800000219986],[-150.85153000010934,14.600460000228964],[-150.81226000039862,14.593549999932691],[-150.7856800004316,14.589360000064062],[-150.75884999972763,14.585409999571937],[-150.73224000017578,14.581219999703364],[-150.7190899999035,14.578999999850225],[-150.68007000003038,14.571850000177506],[-150.65435999971413,14.566800000219985],[-150.64156000029371,14.56421000039137],[-150.60302999963469,14.556560000144032],[-150.59011999963818,14.554100000015126],[-150.55181999969315,14.546210000391341],[-150.53914000041061,14.543500000424842],[-150.50160000043959,14.534860000388846],[-150.47687000035015,14.528819999743348],[-150.45224000037564,14.522659999859229],[-150.42763999998593,14.516490000413341],[-150.41532999977957,14.513409999571934],[-150.37838999959871,14.504160000184015],[-150.36608999985353,14.501080000241984],[-150.32916000013381,14.491829999954689],[-150.3045300001593,14.48567000007057],[-150.27994000023074,14.479499999725363],[-150.26761999956324,14.476419999783275],[-150.23068000028169,14.467170000395356],[-150.21837999963719,14.464089999553948],[-150.18146000037862,14.45484000016603],[-150.15683000040411,14.448680000281911],[-150.1322300000144,14.442509999936703],[-150.10760000003989,14.436350000052585],[-150.09528999983354,14.433270000110554],[-150.0709200001578,14.426860000388842],[-150.03484999962771,14.416750000012655],[-150.01107999974212,14.409719999578442],[-149.99927000011033,14.406139999961169],[-149.97589000022325,14.398739999551481],[-149.94032000026772,14.38813999996114],[-149.91631999966816,14.381360000263953],[-149.89205999966916,14.374819999943156],[-149.87988000006186,14.371619999863242],[-149.84343999955624,14.36188000036185],[-149.819459999879,14.355099999765343],[-149.79571999957824,14.34807000023045],[-149.78388999992347,14.344489999713858],[-149.76049999957525,14.337099999765314],[-149.72494999964269,14.326489999713829],[-149.70092999991948,14.319710000016642],[-149.67666999992048,14.313180000157047],[-149.65230999980656,14.306759999974133],[-149.62804999980756,14.300230000114539],[-149.6159999999,14.296900000334858],[-149.58028999978359,14.286419999983138],[-149.56850999973662,14.282840000365866],[-149.54510000026471,14.275450000417322],[-149.52146999964069,14.268299999845283],[-149.49759999964019,14.261390000448273],[-149.4734599997791,14.25472999998965],[-149.43690000003488,14.245120000188024],[-149.41266000005888,14.238579999867227],[-149.40059999969014,14.235250000087547],[-149.37670999966667,14.228350000252476],[-149.34140000000991,14.217499999925167],[-149.32970000005488,14.213800000170011],[-149.29413000009933,14.203199999680407],[-149.28218000030668,14.199740000200961],[-149.24587999996194,14.189879999662367],[-149.22149999982506,14.183469999940655],[-149.20930000019476,14.180260000298915],[-149.17348999996344,14.170149999922671],[-149.15048000005189,14.163120000387835],[-149.13939999990998,14.159550000332388],[-149.10727000031019,14.148700000005135],[-149.08673000008935,14.142159999684395],[-149.07675000031219,14.139210000341393],[-149.04514000041061,14.132549999882713]]]},"properties":{"objectid":134,"stormname":"Moke","stormtype":"TS","basin":"CP","advdate":"1100 PM HST Fri Aug 21 2026","advisnum":"8","fcstprd":120,"stormnum":2,"idp_source":"cp022026-008_5day_pgn","idp_filedate":1787410956000,"idp_ingestdate":1787411016000,"st_area(shape)":66.573371419234363,"st_perimeter(shape)":56.118056436218424,"binnumber":"CP3"}}]}