{"type":"FeatureCollection","features":[{"type":"Feature","id":3578,"geometry":{"type":"Point","coordinates":[-132.50000000039961,9.5000000000001137]},"properties":{"objectid":3578,"stormname":"GENESIS017","stormtype":"DB","stormnum":2,"intensity":20,"basin":"cp","mslp":0,"dtg":2026081812,"year":2026,"month":"08","day":18,"hhmm":"1200","lat":10,"lon":-132,"ss":0,"idp_source":"CP022026_pts","idp_filedate":1787367802000,"idp_ingestdate":1787367817000,"binnumber":"CP3"}},{"type":"Feature","id":3579,"geometry":{"type":"Point","coordinates":[-133.90000000029971,9.300000000399848]},"properties":{"objectid":3579,"stormname":"GENESIS017","stormtype":"DB","stormnum":2,"intensity":25,"basin":"cp","mslp":0,"dtg":2026081818,"year":2026,"month":"08","day":18,"hhmm":"1800","lat":9,"lon":-134,"ss":0,"idp_source":"CP022026_pts","idp_filedate":1787367802000,"idp_ingestdate":1787367817000,"binnumber":"CP3"}},{"type":"Feature","id":3580,"geometry":{"type":"Point","coordinates":[-134.90000000009985,9.300000000399848]},"properties":{"objectid":3580,"stormname":"GENESIS017","stormtype":"DB","stormnum":2,"intensity":25,"basin":"cp","mslp":0,"dtg":2026081900,"year":2026,"month":"08","day":19,"hhmm":"0000","lat":9,"lon":-135,"ss":0,"idp_source":"CP022026_pts","idp_filedate":1787367802000,"idp_ingestdate":1787367817000,"binnumber":"CP3"}},{"type":"Feature","id":3581,"geometry":{"type":"Point","coordinates":[-135.99999999970015,9.300000000399848]},"properties":{"objectid":3581,"stormname":"INVEST","stormtype":"DB","stormnum":2,"intensity":25,"basin":"cp","mslp":1009,"dtg":2026081906,"year":2026,"month":"08","day":19,"hhmm":"0600","lat":9,"lon":-136,"ss":0,"idp_source":"CP022026_pts","idp_filedate":1787367802000,"idp_ingestdate":1787367817000,"binnumber":"CP3"}},{"type":"Feature","id":3582,"geometry":{"type":"Point","coordinates":[-137.29999999980004,9.5000000000001137]},"properties":{"objectid":3582,"stormname":"INVEST","stormtype":"DB","stormnum":2,"intensity":30,"basin":"cp","mslp":1008,"dtg":2026081912,"year":2026,"month":"08","day":19,"hhmm":"1200","lat":10,"lon":-137,"ss":0,"idp_source":"CP022026_pts","idp_filedate":1787367802000,"idp_ingestdate":1787367817000,"binnumber":"CP3"}},{"type":"Feature","id":3583,"geometry":{"type":"Point","coordinates":[-138.69999999970014,9.9000000001000785]},"properties":{"objectid":3583,"stormname":"INVEST","stormtype":"DB","stormnum":2,"intensity":30,"basin":"cp","mslp":1007,"dtg":2026081918,"year":2026,"month":"08","day":19,"hhmm":"1800","lat":10,"lon":-139,"ss":0,"idp_source":"CP022026_pts","idp_filedate":1787367802000,"idp_ingestdate":1787367817000,"binnumber":"CP3"}},{"type":"Feature","id":3584,"geometry":{"type":"Point","coordinates":[-139.99999999980008,10.400000000000148]},"properties":{"objectid":3584,"stormname":"INVEST","stormtype":"DB","stormnum":2,"intensity":30,"basin":"cp","mslp":1007,"dtg":2026082000,"year":2026,"month":"08","day":20,"hhmm":"0000","lat":10,"lon":-140,"ss":0,"idp_source":"CP022026_pts","idp_filedate":1787367802000,"idp_ingestdate":1787367817000,"binnumber":"CP3"}},{"type":"Feature","id":3585,"geometry":{"type":"Point","coordinates":[-141.1000000002997,10.899999999900217]},"properties":{"objectid":3585,"stormname":"INVEST","stormtype":"DB","stormnum":2,"intensity":30,"basin":"cp","mslp":1007,"dtg":2026082006,"year":2026,"month":"08","day":20,"hhmm":"0600","lat":11,"lon":-141,"ss":0,"idp_source":"CP022026_pts","idp_filedate":1787367802000,"idp_ingestdate":1787367817000,"binnumber":"CP3"}},{"type":"Feature","id":3586,"geometry":{"type":"Point","coordinates":[-142.59999999999991,11.70000000010009]},"properties":{"objectid":3586,"stormname":"TWO","stormtype":"TD","stormnum":2,"intensity":30,"basin":"cp","mslp":1006,"dtg":2026082012,"year":2026,"month":"08","day":20,"hhmm":"1200","lat":12,"lon":-143,"ss":0,"idp_source":"CP022026_pts","idp_filedate":1787367802000,"idp_ingestdate":1787367817000,"binnumber":"CP3"}},{"type":"Feature","id":3587,"geometry":{"type":"Point","coordinates":[-143.40000000019978,12.299999999800264]},"properties":{"objectid":3587,"stormname":"TWO","stormtype":"TD","stormnum":2,"intensity":30,"basin":"cp","mslp":1006,"dtg":2026082018,"year":2026,"month":"08","day":20,"hhmm":"1800","lat":12,"lon":-143,"ss":0,"idp_source":"CP022026_pts","idp_filedate":1787367802000,"idp_ingestdate":1787367817000,"binnumber":"CP3"}},{"type":"Feature","id":3588,"geometry":{"type":"Point","coordinates":[-144.59999999960021,12.79999999970039]},"properties":{"objectid":3588,"stormname":"TWO","stormtype":"TD","stormnum":2,"intensity":30,"basin":"cp","mslp":1006,"dtg":2026082100,"year":2026,"month":"08","day":21,"hhmm":"0000","lat":13,"lon":-145,"ss":0,"idp_source":"CP022026_pts","idp_filedate":1787367802000,"idp_ingestdate":1787367817000,"binnumber":"CP3"}},{"type":"Feature","id":3589,"geometry":{"type":"Point","coordinates":[-145.20000000019976,12.900000000399814]},"properties":{"objectid":3589,"stormname":"TWO","stormtype":"TD","stormnum":2,"intensity":30,"basin":"cp","mslp":1006,"dtg":2026082106,"year":2026,"month":"08","day":21,"hhmm":"0600","lat":13,"lon":-145,"ss":0,"idp_source":"CP022026_pts","idp_filedate":1787367802000,"idp_ingestdate":1787367817000,"binnumber":"CP3"}},{"type":"Feature","id":3590,"geometry":{"type":"Point","coordinates":[-145.7999999999,13.199999999800298]},"properties":{"objectid":3590,"stormname":"TWO","stormtype":"TD","stormnum":2,"intensity":30,"basin":"cp","mslp":1005,"dtg":2026082112,"year":2026,"month":"08","day":21,"hhmm":"1200","lat":13,"lon":-146,"ss":0,"idp_source":"CP022026_pts","idp_filedate":1787367802000,"idp_ingestdate":1787367817000,"binnumber":"CP3"}},{"type":"Feature","id":3591,"geometry":{"type":"Point","coordinates":[-146.6999999999,13.699999999700367]},"properties":{"objectid":3591,"stormname":"MOKE","stormtype":"TS","stormnum":2,"intensity":35,"basin":"cp","mslp":1002,"dtg":2026082118,"year":2026,"month":"08","day":21,"hhmm":"1800","lat":14,"lon":-147,"ss":0,"idp_source":"CP022026_pts","idp_filedate":1787367802000,"idp_ingestdate":1787367817000,"binnumber":"CP3"}},{"type":"Feature","id":3592,"geometry":{"type":"Point","coordinates":[-147.80000000039962,13.800000000399848]},"properties":{"objectid":3592,"stormname":"MOKE","stormtype":"TS","stormnum":2,"intensity":40,"basin":"cp","mslp":1002,"dtg":2026082200,"year":2026,"month":"08","day":22,"hhmm":"0000","lat":14,"lon":-148,"ss":0,"idp_source":"CP022026_pts","idp_filedate":1787367802000,"idp_ingestdate":1787367817000,"binnumber":"CP3"}}]}