{"type":"FeatureCollection","features":[{"type":"Feature","id":3334,"geometry":{"type":"Point","coordinates":[-129.19999999980007,18.500000000000114]},"properties":{"objectid":3334,"stormname":"FAUSTO","stormtype":"HU","stormnum":6,"intensity":80,"basin":"ep","mslp":976,"dtg":2026072406,"year":2026,"month":"07","day":24,"hhmm":"0600","lat":18,"lon":-129,"ss":1,"idp_source":"EP062026_pts","idp_filedate":1785036484000,"idp_ingestdate":1785036555000,"binnumber":"EP1"}},{"type":"Feature","id":3335,"geometry":{"type":"Point","coordinates":[-130.59999999970012,18.500000000000114]},"properties":{"objectid":3335,"stormname":"FAUSTO","stormtype":"HU","stormnum":6,"intensity":90,"basin":"ep","mslp":967,"dtg":2026072412,"year":2026,"month":"07","day":24,"hhmm":"1200","lat":18,"lon":-131,"ss":2,"idp_source":"EP062026_pts","idp_filedate":1785036484000,"idp_ingestdate":1785036555000,"binnumber":"EP1"}},{"type":"Feature","id":3336,"geometry":{"type":"Point","coordinates":[-131.99999999960022,18.599999999800275]},"properties":{"objectid":3336,"stormname":"FAUSTO","stormtype":"HU","stormnum":6,"intensity":90,"basin":"ep","mslp":967,"dtg":2026072418,"year":2026,"month":"07","day":24,"hhmm":"1800","lat":19,"lon":-132,"ss":2,"idp_source":"EP062026_pts","idp_filedate":1785036484000,"idp_ingestdate":1785036555000,"binnumber":"EP1"}},{"type":"Feature","id":3337,"geometry":{"type":"Point","coordinates":[-133.29999999970016,18.599999999800275]},"properties":{"objectid":3337,"stormname":"FAUSTO","stormtype":"HU","stormnum":6,"intensity":90,"basin":"ep","mslp":967,"dtg":2026072500,"year":2026,"month":"07","day":25,"hhmm":"0000","lat":19,"lon":-133,"ss":2,"idp_source":"EP062026_pts","idp_filedate":1785036484000,"idp_ingestdate":1785036555000,"binnumber":"EP1"}},{"type":"Feature","id":3338,"geometry":{"type":"Point","coordinates":[-134.49999999999989,18.699999999600436]},"properties":{"objectid":3338,"stormname":"FAUSTO","stormtype":"HU","stormnum":6,"intensity":85,"basin":"ep","mslp":971,"dtg":2026072506,"year":2026,"month":"07","day":25,"hhmm":"0600","lat":19,"lon":-134,"ss":2,"idp_source":"EP062026_pts","idp_filedate":1785036484000,"idp_ingestdate":1785036555000,"binnumber":"EP1"}},{"type":"Feature","id":3339,"geometry":{"type":"Point","coordinates":[-135.89999999989999,18.99999999990024]},"properties":{"objectid":3339,"stormname":"FAUSTO","stormtype":"HU","stormnum":6,"intensity":85,"basin":"ep","mslp":971,"dtg":2026072512,"year":2026,"month":"07","day":25,"hhmm":"1200","lat":19,"lon":-136,"ss":2,"idp_source":"EP062026_pts","idp_filedate":1785036484000,"idp_ingestdate":1785036555000,"binnumber":"EP1"}},{"type":"Feature","id":3340,"geometry":{"type":"Point","coordinates":[-137.00000000039961,19.200000000399825]},"properties":{"objectid":3340,"stormname":"FAUSTO","stormtype":"HU","stormnum":6,"intensity":85,"basin":"ep","mslp":971,"dtg":2026072518,"year":2026,"month":"07","day":25,"hhmm":"1800","lat":19,"lon":-137,"ss":2,"idp_source":"EP062026_pts","idp_filedate":1785036484000,"idp_ingestdate":1785036555000,"binnumber":"EP1"}},{"type":"Feature","id":3341,"geometry":{"type":"Point","coordinates":[-138.19999999980007,19.400000000000148]},"properties":{"objectid":3341,"stormname":"FAUSTO","stormtype":"HU","stormnum":6,"intensity":85,"basin":"ep","mslp":971,"dtg":2026072600,"year":2026,"month":"07","day":26,"hhmm":"0000","lat":19,"lon":-138,"ss":2,"idp_source":"EP062026_pts","idp_filedate":1785036484000,"idp_ingestdate":1785036555000,"binnumber":"EP1"}},{"type":"Feature","id":3307,"geometry":{"type":"Point","coordinates":[-103.30000000029969,9.300000000399848]},"properties":{"objectid":3307,"stormname":"INVEST","stormtype":"DB","stormnum":6,"intensity":20,"basin":"ep","mslp":1009,"dtg":2026071712,"year":2026,"month":"07","day":17,"hhmm":"1200","lat":9,"lon":-103,"ss":0,"idp_source":"EP062026_pts","idp_filedate":1785036484000,"idp_ingestdate":1785036555000,"binnumber":"EP1"}},{"type":"Feature","id":3308,"geometry":{"type":"Point","coordinates":[-104.20000000029967,9.6999999996004362]},"properties":{"objectid":3308,"stormname":"INVEST","stormtype":"DB","stormnum":6,"intensity":20,"basin":"ep","mslp":1009,"dtg":2026071718,"year":2026,"month":"07","day":17,"hhmm":"1800","lat":10,"lon":-104,"ss":0,"idp_source":"EP062026_pts","idp_filedate":1785036484000,"idp_ingestdate":1785036555000,"binnumber":"EP1"}},{"type":"Feature","id":3309,"geometry":{"type":"Point","coordinates":[-104.89999999980006,9.9999999999002398]},"properties":{"objectid":3309,"stormname":"INVEST","stormtype":"DB","stormnum":6,"intensity":20,"basin":"ep","mslp":1009,"dtg":2026071800,"year":2026,"month":"07","day":18,"hhmm":"0000","lat":10,"lon":-105,"ss":0,"idp_source":"EP062026_pts","idp_filedate":1785036484000,"idp_ingestdate":1785036555000,"binnumber":"EP1"}},{"type":"Feature","id":3310,"geometry":{"type":"Point","coordinates":[-105.60000000019977,10.200000000399825]},"properties":{"objectid":3310,"stormname":"INVEST","stormtype":"DB","stormnum":6,"intensity":25,"basin":"ep","mslp":1009,"dtg":2026071806,"year":2026,"month":"07","day":18,"hhmm":"0600","lat":10,"lon":-106,"ss":0,"idp_source":"EP062026_pts","idp_filedate":1785036484000,"idp_ingestdate":1785036555000,"binnumber":"EP1"}},{"type":"Feature","id":3311,"geometry":{"type":"Point","coordinates":[-106.40000000039959,10.499999999800309]},"properties":{"objectid":3311,"stormname":"INVEST","stormtype":"DB","stormnum":6,"intensity":25,"basin":"ep","mslp":1009,"dtg":2026071812,"year":2026,"month":"07","day":18,"hhmm":"1200","lat":10,"lon":-106,"ss":0,"idp_source":"EP062026_pts","idp_filedate":1785036484000,"idp_ingestdate":1785036555000,"binnumber":"EP1"}},{"type":"Feature","id":3312,"geometry":{"type":"Point","coordinates":[-107.49999999999989,10.800000000100056]},"properties":{"objectid":3312,"stormname":"INVEST","stormtype":"DB","stormnum":6,"intensity":25,"basin":"ep","mslp":1008,"dtg":2026071818,"year":2026,"month":"07","day":18,"hhmm":"1800","lat":11,"lon":-108,"ss":0,"idp_source":"EP062026_pts","idp_filedate":1785036484000,"idp_ingestdate":1785036555000,"binnumber":"EP1"}},{"type":"Feature","id":3313,"geometry":{"type":"Point","coordinates":[-108.70000000029967,11.200000000199964]},"properties":{"objectid":3313,"stormname":"SIX","stormtype":"TD","stormnum":6,"intensity":30,"basin":"ep","mslp":1008,"dtg":2026071900,"year":2026,"month":"07","day":19,"hhmm":"0000","lat":11,"lon":-109,"ss":0,"idp_source":"EP062026_pts","idp_filedate":1785036484000,"idp_ingestdate":1785036555000,"binnumber":"EP1"}},{"type":"Feature","id":3314,"geometry":{"type":"Point","coordinates":[-109.70000000009981,11.70000000010009]},"properties":{"objectid":3314,"stormname":"SIX","stormtype":"TD","stormnum":6,"intensity":30,"basin":"ep","mslp":1007,"dtg":2026071906,"year":2026,"month":"07","day":19,"hhmm":"0600","lat":12,"lon":-110,"ss":0,"idp_source":"EP062026_pts","idp_filedate":1785036484000,"idp_ingestdate":1785036555000,"binnumber":"EP1"}},{"type":"Feature","id":3315,"geometry":{"type":"Point","coordinates":[-110.90000000039959,12.000000000399837]},"properties":{"objectid":3315,"stormname":"SIX","stormtype":"TD","stormnum":6,"intensity":30,"basin":"ep","mslp":1006,"dtg":2026071912,"year":2026,"month":"07","day":19,"hhmm":"1200","lat":12,"lon":-111,"ss":0,"idp_source":"EP062026_pts","idp_filedate":1785036484000,"idp_ingestdate":1785036555000,"binnumber":"EP1"}},{"type":"Feature","id":3316,"geometry":{"type":"Point","coordinates":[-112.09999999980005,12.200000000000159]},"properties":{"objectid":3316,"stormname":"FAUSTO","stormtype":"TS","stormnum":6,"intensity":35,"basin":"ep","mslp":1005,"dtg":2026071918,"year":2026,"month":"07","day":19,"hhmm":"1800","lat":12,"lon":-112,"ss":0,"idp_source":"EP062026_pts","idp_filedate":1785036484000,"idp_ingestdate":1785036555000,"binnumber":"EP1"}},{"type":"Feature","id":3317,"geometry":{"type":"Point","coordinates":[-113.60000000039958,12.500000000299906]},"properties":{"objectid":3317,"stormname":"FAUSTO","stormtype":"TS","stormnum":6,"intensity":40,"basin":"ep","mslp":1002,"dtg":2026072000,"year":2026,"month":"07","day":20,"hhmm":"0000","lat":12,"lon":-114,"ss":0,"idp_source":"EP062026_pts","idp_filedate":1785036484000,"idp_ingestdate":1785036555000,"binnumber":"EP1"}},{"type":"Feature","id":3318,"geometry":{"type":"Point","coordinates":[-115.00000000029968,12.79999999970039]},"properties":{"objectid":3318,"stormname":"FAUSTO","stormtype":"TS","stormnum":6,"intensity":45,"basin":"ep","mslp":999,"dtg":2026072006,"year":2026,"month":"07","day":20,"hhmm":"0600","lat":13,"lon":-115,"ss":0,"idp_source":"EP062026_pts","idp_filedate":1785036484000,"idp_ingestdate":1785036555000,"binnumber":"EP1"}},{"type":"Feature","id":3319,"geometry":{"type":"Point","coordinates":[-115.90000000029966,13.40000000029994]},"properties":{"objectid":3319,"stormname":"FAUSTO","stormtype":"TS","stormnum":6,"intensity":50,"basin":"ep","mslp":996,"dtg":2026072012,"year":2026,"month":"07","day":20,"hhmm":"1200","lat":13,"lon":-116,"ss":0,"idp_source":"EP062026_pts","idp_filedate":1785036484000,"idp_ingestdate":1785036555000,"binnumber":"EP1"}},{"type":"Feature","id":3320,"geometry":{"type":"Point","coordinates":[-116.30000000039962,13.900000000200009]},"properties":{"objectid":3320,"stormname":"FAUSTO","stormtype":"TS","stormnum":6,"intensity":60,"basin":"ep","mslp":991,"dtg":2026072018,"year":2026,"month":"07","day":20,"hhmm":"1800","lat":14,"lon":-116,"ss":0,"idp_source":"EP062026_pts","idp_filedate":1785036484000,"idp_ingestdate":1785036555000,"binnumber":"EP1"}},{"type":"Feature","id":3321,"geometry":{"type":"Point","coordinates":[-116.99999999989996,14.400000000100079]},"properties":{"objectid":3321,"stormname":"FAUSTO","stormtype":"HU","stormnum":6,"intensity":65,"basin":"ep","mslp":988,"dtg":2026072100,"year":2026,"month":"07","day":21,"hhmm":"0000","lat":14,"lon":-117,"ss":1,"idp_source":"EP062026_pts","idp_filedate":1785036484000,"idp_ingestdate":1785036555000,"binnumber":"EP1"}},{"type":"Feature","id":3322,"geometry":{"type":"Point","coordinates":[-117.59999999960019,15.099999999600414]},"properties":{"objectid":3322,"stormname":"FAUSTO","stormtype":"HU","stormnum":6,"intensity":70,"basin":"ep","mslp":985,"dtg":2026072106,"year":2026,"month":"07","day":21,"hhmm":"0600","lat":15,"lon":-118,"ss":1,"idp_source":"EP062026_pts","idp_filedate":1785036484000,"idp_ingestdate":1785036555000,"binnumber":"EP1"}},{"type":"Feature","id":3323,"geometry":{"type":"Point","coordinates":[-118.39999999980006,15.999999999600448]},"properties":{"objectid":3323,"stormname":"FAUSTO","stormtype":"HU","stormnum":6,"intensity":65,"basin":"ep","mslp":986,"dtg":2026072112,"year":2026,"month":"07","day":21,"hhmm":"1200","lat":16,"lon":-118,"ss":1,"idp_source":"EP062026_pts","idp_filedate":1785036484000,"idp_ingestdate":1785036555000,"binnumber":"EP1"}},{"type":"Feature","id":3324,"geometry":{"type":"Point","coordinates":[-119.29999999980004,16.399999999700356]},"properties":{"objectid":3324,"stormname":"FAUSTO","stormtype":"HU","stormnum":6,"intensity":65,"basin":"ep","mslp":987,"dtg":2026072118,"year":2026,"month":"07","day":21,"hhmm":"1800","lat":16,"lon":-119,"ss":1,"idp_source":"EP062026_pts","idp_filedate":1785036484000,"idp_ingestdate":1785036555000,"binnumber":"EP1"}},{"type":"Feature","id":3325,"geometry":{"type":"Point","coordinates":[-119.79999999970011,16.500000000399837]},"properties":{"objectid":3325,"stormname":"FAUSTO","stormtype":"HU","stormnum":6,"intensity":70,"basin":"ep","mslp":984,"dtg":2026072200,"year":2026,"month":"07","day":22,"hhmm":"0000","lat":16,"lon":-120,"ss":1,"idp_source":"EP062026_pts","idp_filedate":1785036484000,"idp_ingestdate":1785036555000,"binnumber":"EP1"}},{"type":"Feature","id":3326,"geometry":{"type":"Point","coordinates":[-120.40000000029966,16.600000000199998]},"properties":{"objectid":3326,"stormname":"FAUSTO","stormtype":"HU","stormnum":6,"intensity":75,"basin":"ep","mslp":981,"dtg":2026072206,"year":2026,"month":"07","day":22,"hhmm":"0600","lat":17,"lon":-120,"ss":1,"idp_source":"EP062026_pts","idp_filedate":1785036484000,"idp_ingestdate":1785036555000,"binnumber":"EP1"}},{"type":"Feature","id":3327,"geometry":{"type":"Point","coordinates":[-120.99999999999989,16.899999999600425]},"properties":{"objectid":3327,"stormname":"FAUSTO","stormtype":"HU","stormnum":6,"intensity":70,"basin":"ep","mslp":983,"dtg":2026072212,"year":2026,"month":"07","day":22,"hhmm":"1200","lat":17,"lon":-121,"ss":1,"idp_source":"EP062026_pts","idp_filedate":1785036484000,"idp_ingestdate":1785036555000,"binnumber":"EP1"}},{"type":"Feature","id":3328,"geometry":{"type":"Point","coordinates":[-121.49999999989996,17.100000000100067]},"properties":{"objectid":3328,"stormname":"FAUSTO","stormtype":"HU","stormnum":6,"intensity":70,"basin":"ep","mslp":983,"dtg":2026072218,"year":2026,"month":"07","day":22,"hhmm":"1800","lat":17,"lon":-122,"ss":1,"idp_source":"EP062026_pts","idp_filedate":1785036484000,"idp_ingestdate":1785036555000,"binnumber":"EP1"}},{"type":"Feature","id":3329,"geometry":{"type":"Point","coordinates":[-122.39999999989999,17.400000000399814]},"properties":{"objectid":3329,"stormname":"FAUSTO","stormtype":"HU","stormnum":6,"intensity":70,"basin":"ep","mslp":982,"dtg":2026072300,"year":2026,"month":"07","day":23,"hhmm":"0000","lat":17,"lon":-122,"ss":1,"idp_source":"EP062026_pts","idp_filedate":1785036484000,"idp_ingestdate":1785036555000,"binnumber":"EP1"}},{"type":"Feature","id":3330,"geometry":{"type":"Point","coordinates":[-123.60000000019977,17.699999999800298]},"properties":{"objectid":3330,"stormname":"FAUSTO","stormtype":"HU","stormnum":6,"intensity":70,"basin":"ep","mslp":982,"dtg":2026072306,"year":2026,"month":"07","day":23,"hhmm":"0600","lat":18,"lon":-124,"ss":1,"idp_source":"EP062026_pts","idp_filedate":1785036484000,"idp_ingestdate":1785036555000,"binnumber":"EP1"}},{"type":"Feature","id":3331,"geometry":{"type":"Point","coordinates":[-124.79999999960023,17.90000000029994]},"properties":{"objectid":3331,"stormname":"FAUSTO","stormtype":"HU","stormnum":6,"intensity":70,"basin":"ep","mslp":982,"dtg":2026072312,"year":2026,"month":"07","day":23,"hhmm":"1200","lat":18,"lon":-125,"ss":1,"idp_source":"EP062026_pts","idp_filedate":1785036484000,"idp_ingestdate":1785036555000,"binnumber":"EP1"}},{"type":"Feature","id":3332,"geometry":{"type":"Point","coordinates":[-126.2000000003996,18.099999999900206]},"properties":{"objectid":3332,"stormname":"FAUSTO","stormtype":"HU","stormnum":6,"intensity":75,"basin":"ep","mslp":980,"dtg":2026072318,"year":2026,"month":"07","day":23,"hhmm":"1800","lat":18,"lon":-126,"ss":1,"idp_source":"EP062026_pts","idp_filedate":1785036484000,"idp_ingestdate":1785036555000,"binnumber":"EP1"}},{"type":"Feature","id":3333,"geometry":{"type":"Point","coordinates":[-127.70000000009981,18.199999999700367]},"properties":{"objectid":3333,"stormname":"FAUSTO","stormtype":"HU","stormnum":6,"intensity":80,"basin":"ep","mslp":976,"dtg":2026072400,"year":2026,"month":"07","day":24,"hhmm":"0000","lat":18,"lon":-128,"ss":1,"idp_source":"EP062026_pts","idp_filedate":1785036484000,"idp_ingestdate":1785036555000,"binnumber":"EP1"}}]}