{"type": "FeatureCollection", "features": [{"type": "Feature", "id": 1528, "geometry": {"type": "Point", "coordinates": [-146.1999999999999, 20.70000000010009]}, "properties": {"objectid": 1528, "stormname": "Hurricane Fausto", "stormtype": "HU", "dvlbl": "H", "basin": "EP", "advdate": "500 AM HST Mon Jul 27 2026", "advisnum": "35", "fcstprd": 120, "gust": 85, "maxwind": 70, "mslp": 986, "ssnum": 1, "datelbl": "5:00 AM Mon", "tcdvlp": "Hurricane", "tcdir": 285, "tcspd": 12, "fldatelbl": "2026-07-27 2:00 AM Mon HST", "lat": 21, "lon": -146, "stormnum": 6, "stormsrc": "Tropical Cyclone", "tau": 0, "timezone": "HST", "validtime": "27/1200", "idp_source": "ep062026-035_5day_pts", "idp_filedate": 1785165171000, "idp_ingestdate": 1785165362000, "binnumber": "CP1", "MAXWIND": 70, "VALIDTIME": "27/1200"}}, {"type": "Feature", "id": 1529, "geometry": {"type": "Point", "coordinates": [-148.3000000002997, 21.20000000000016]}, "properties": {"objectid": 1529, "stormname": "Hurricane Fausto", "stormtype": "TS", "dvlbl": "S", "basin": "EP", "advdate": "500 AM HST Mon Jul 27 2026", "advisnum": "35", "fcstprd": 120, "gust": 75, "maxwind": 60, "mslp": 9999, "ssnum": 0, "datelbl": "2:00 PM Mon", "tcdvlp": "Tropical Storm", "tcdir": 9999, "tcspd": 9999, "fldatelbl": "2026-07-27 2:00 PM Mon HST", "lat": 21, "lon": -148, "stormnum": 6, "stormsrc": "Tropical Cyclone", "tau": 12, "timezone": "HST", "validtime": "28/0000", "idp_source": "ep062026-035_5day_pts", "idp_filedate": 1785165171000, "idp_ingestdate": 1785165362000, "binnumber": "CP1", "MAXWIND": 60, "VALIDTIME": "28/0000"}}, {"type": "Feature", "id": 1530, "geometry": {"type": "Point", "coordinates": [-150.79999999980006, 21.79999999970039]}, "properties": {"objectid": 1530, "stormname": "Hurricane Fausto", "stormtype": "TS", "dvlbl": "S", "basin": "EP", "advdate": "500 AM HST Mon Jul 27 2026", "advisnum": "35", "fcstprd": 120, "gust": 60, "maxwind": 50, "mslp": 9999, "ssnum": 0, "datelbl": "2:00 AM Tue", "tcdvlp": "Tropical Storm", "tcdir": 9999, "tcspd": 9999, "fldatelbl": "2026-07-28 2:00 AM Tue HST", "lat": 22, "lon": -151, "stormnum": 6, "stormsrc": "Tropical Cyclone", "tau": 24, "timezone": "HST", "validtime": "28/1200", "idp_source": "ep062026-035_5day_pts", "idp_filedate": 1785165171000, "idp_ingestdate": 1785165362000, "binnumber": "CP1", "MAXWIND": 50, "VALIDTIME": "28/1200"}}, {"type": "Feature", "id": 1531, "geometry": {"type": "Point", "coordinates": [-152.99999999989998, 22.29999999960046]}, "properties": {"objectid": 1531, "stormname": "Hurricane Fausto", "stormtype": "TS", "dvlbl": "S", "basin": "EP", "advdate": "500 AM HST Mon Jul 27 2026", "advisnum": "35", "fcstprd": 120, "gust": 55, "maxwind": 45, "mslp": 9999, "ssnum": 0, "datelbl": "2:00 PM Tue", "tcdvlp": "Tropical Storm", "tcdir": 9999, "tcspd": 9999, "fldatelbl": "2026-07-28 2:00 PM Tue HST", "lat": 22, "lon": -153, "stormnum": 6, "stormsrc": "Tropical Cyclone", "tau": 36, "timezone": "HST", "validtime": "29/0000", "idp_source": "ep062026-035_5day_pts", "idp_filedate": 1785165171000, "idp_ingestdate": 1785165362000, "binnumber": "CP1", "MAXWIND": 45, "VALIDTIME": "29/0000"}}, {"type": "Feature", "id": 1532, "geometry": {"type": "Point", "coordinates": [-155.29999999980006, 22.599999999900206]}, "properties": {"objectid": 1532, "stormname": "Hurricane Fausto", "stormtype": "TS", "dvlbl": "S", "basin": "EP", "advdate": "500 AM HST Mon Jul 27 2026", "advisnum": "35", "fcstprd": 120, "gust": 50, "maxwind": 40, "mslp": 9999, "ssnum": 0, "datelbl": "2:00 AM Wed", "tcdvlp": "Tropical Storm", "tcdir": 9999, "tcspd": 9999, "fldatelbl": "2026-07-29 2:00 AM Wed HST", "lat": 23, "lon": -155, "stormnum": 6, "stormsrc": "Tropical Cyclone", "tau": 48, "timezone": "HST", "validtime": "29/1200", "idp_source": "ep062026-035_5day_pts", "idp_filedate": 1785165171000, "idp_ingestdate": 1785165362000, "binnumber": "CP1", "MAXWIND": 40, "VALIDTIME": "29/1200"}}, {"type": "Feature", "id": 1533, "geometry": {"type": "Point", "coordinates": [-157.80000000019976, 22.90000000020001]}, "properties": {"objectid": 1533, "stormname": "Hurricane Fausto", "stormtype": "TS", "dvlbl": "S", "basin": "EP", "advdate": "500 AM HST Mon Jul 27 2026", "advisnum": "35", "fcstprd": 120, "gust": 45, "maxwind": 35, "mslp": 9999, "ssnum": 0, "datelbl": "2:00 PM Wed", "tcdvlp": "Tropical Storm", "tcdir": 9999, "tcspd": 9999, "fldatelbl": "2026-07-29 2:00 PM Wed HST", "lat": 23, "lon": -158, "stormnum": 6, "stormsrc": "Tropical Cyclone", "tau": 60, "timezone": "HST", "validtime": "30/0000", "idp_source": "ep062026-035_5day_pts", "idp_filedate": 1785165171000, "idp_ingestdate": 1785165362000, "binnumber": "CP1", "MAXWIND": 35, "VALIDTIME": "30/0000"}}, {"type": "Feature", "id": 1534, "geometry": {"type": "Point", "coordinates": [-160.29999999970013, 23.40000000010008]}, "properties": {"objectid": 1534, "stormname": "Hurricane Fausto", "stormtype": "STD", "dvlbl": "D", "basin": "EP", "advdate": "500 AM HST Mon Jul 27 2026", "advisnum": "35", "fcstprd": 120, "gust": 40, "maxwind": 30, "mslp": 9999, "ssnum": 0, "datelbl": "2:00 AM Thu", "tcdvlp": "Subtropical Depression", "tcdir": 9999, "tcspd": 9999, "fldatelbl": "2026-07-30 2:00 AM Thu HST", "lat": 23, "lon": -160, "stormnum": 6, "stormsrc": "Post-Tropical Cyclone", "tau": 72, "timezone": "HST", "validtime": "30/1200", "idp_source": "ep062026-035_5day_pts", "idp_filedate": 1785165171000, "idp_ingestdate": 1785165362000, "binnumber": "CP1", "MAXWIND": 30, "VALIDTIME": "30/1200"}}]}