{"type":"FeatureCollection","features":[{"type":"Feature","id":638,"geometry":{"type":"LineString","coordinates":[[-103.30000000029969,9.300000000399848],[-104.20000000029967,9.6999999996004362],[-104.89999999980006,9.9999999999002398],[-105.60000000019977,10.200000000399825],[-106.40000000039959,10.499999999800309],[-107.49999999999989,10.800000000100056],[-108.70000000029967,11.200000000199964]]},"properties":{"objectid":638,"stormtype":"DB","stormnum":6,"ss":0,"idp_source":"EP062026_lin","idp_filedate":1785079674000,"idp_ingestdate":1785079820000,"st_length(shape)":5.7339609432339014,"binnumber":"CP1"}},{"type":"Feature","id":639,"geometry":{"type":"LineString","coordinates":[[-108.70000000029967,11.200000000199964],[-109.70000000009981,11.70000000010009],[-110.90000000039959,12.000000000399837],[-112.09999999980005,12.200000000000159]]},"properties":{"objectid":639,"stormtype":"TD","stormnum":6,"ss":0,"idp_source":"EP062026_lin","idp_filedate":1785079674000,"idp_ingestdate":1785079820000,"st_length(shape)":3.5715181819778516,"binnumber":"CP1"}},{"type":"Feature","id":640,"geometry":{"type":"LineString","coordinates":[[-112.09999999980005,12.200000000000159],[-113.60000000039958,12.500000000299906],[-115.00000000029968,12.79999999970039],[-115.90000000029966,13.40000000029994],[-116.30000000039962,13.900000000200009],[-116.99999999989996,14.400000000100079]]},"properties":{"objectid":640,"stormtype":"TS","stormnum":6,"ss":0,"idp_source":"EP062026_lin","idp_filedate":1785079674000,"idp_ingestdate":1785079820000,"st_length(shape)":5.5436982937678794,"binnumber":"CP1"}},{"type":"Feature","id":641,"geometry":{"type":"LineString","coordinates":[[-116.99999999989996,14.400000000100079],[-117.59999999960019,15.099999999600414],[-118.39999999980006,15.999999999600448],[-119.29999999980004,16.399999999700356],[-119.79999999970011,16.500000000399837],[-120.40000000029966,16.600000000199998],[-120.99999999999989,16.899999999600425],[-121.49999999989996,17.100000000100067],[-122.39999999989999,17.400000000399814],[-123.60000000019977,17.699999999800298],[-124.79999999960023,17.90000000029994],[-126.2000000003996,18.099999999900206],[-127.70000000009981,18.199999999700367],[-129.19999999980007,18.500000000000114],[-130.59999999970012,18.500000000000114]]},"properties":{"objectid":641,"stormtype":"HU","stormnum":6,"ss":1,"idp_source":"EP062026_lin","idp_filedate":1785079674000,"idp_ingestdate":1785079820000,"st_length(shape)":14.687931307795754,"binnumber":"CP1"}},{"type":"Feature","id":642,"geometry":{"type":"LineString","coordinates":[[-130.59999999970012,18.500000000000114],[-131.99999999960022,18.599999999800275],[-133.29999999970016,18.599999999800275],[-134.49999999999989,18.699999999600436],[-135.89999999989999,18.99999999990024],[-137.00000000039961,19.200000000399825],[-138.19999999980007,19.400000000000148],[-139.19999999960021,19.599999999600414]]},"properties":{"objectid":642,"stormtype":"HU","stormnum":6,"ss":2,"idp_source":"EP062026_lin","idp_filedate":1785079674000,"idp_ingestdate":1785079820000,"st_length(shape)":8.6938988463795397,"binnumber":"CP1"}},{"type":"Feature","id":643,"geometry":{"type":"LineString","coordinates":[[-139.19999999960021,19.599999999600414],[-140.49999999970015,19.800000000100056]]},"properties":{"objectid":643,"stormtype":"HU","stormnum":6,"ss":2,"idp_source":"EP062026_lin","idp_filedate":1785079674000,"idp_ingestdate":1785079820000,"st_length(shape)":1.3152946439713447,"binnumber":"CP1"}}]}