{"type":"FeatureCollection","features":[{"type":"Feature","id":167,"geometry":{"type":"LineString","coordinates":[[-137.60000000009984,19.300000000199987],[-139.19999999960021,19.599999999600414],[-141.60000000019977,19.999999999700378],[-144.30000000019976,20.399999999800286],[-147.00000000019978,20.899999999700356],[-149.6000000003996,21.500000000299906],[-152.30000000039962,22.100000000000136],[-156.99999999999991,23.000000000000114],[-161.99999999989998,23.999999999800309]]},"properties":{"objectid":167,"stormname":"Fausto","stormtype":"HU","basin":"EP","advdate":"1100 AM HST Sat Jul 25 2026","advisnum":"28","fcstprd":120,"stormnum":6,"idp_source":"ep062026-028_5day_lin","idp_filedate":1785013675000,"idp_ingestdate":1785013689000,"st_length(shape)":24.854972037015248,"binnumber":"EP1"}}]}