{"type":"FeatureCollection","features":[{"type":"Feature","id":187,"geometry":{"type":"Polygon","coordinates":[[[-143.87494999964269,19.85024000027596],[-143.85335000000242,19.847379999687348],[-143.83003000018425,19.84554999983277],[-143.80478000039659,19.84451999999817],[-143.77804999980754,19.84406000036887],[-143.75039999995994,19.84406000036887],[-143.72252999985955,19.84451999999817],[-143.69498999968863,19.84554999983277],[-143.66836999967563,19.847490000263463],[-143.64313000034917,19.850809999581941],[-143.61947999970215,19.855740000300898],[-143.59740000040961,19.862259999699347],[-143.57706000041861,19.870500000175014],[-143.55831999956825,19.880339999791317],[-143.53238000033667,19.897289999933662],[-143.52438000013683,19.90358000041681],[-143.50129999969516,19.923390000248446],[-143.4866900004431,19.937350000102583],[-143.47294999994244,19.952230000114525],[-143.46016000008387,19.968030000284443],[-143.44893999978109,19.985429999594942],[-143.43604000024573,20.015420000332881],[-143.43009999971514,20.037849999577986],[-143.42656000014381,20.061999999900195],[-143.42531000005636,20.087300000195],[-143.42611999963816,20.112830000304427],[-143.4289899997886,20.137670000070614],[-143.43378000034664,20.161250000187522],[-143.44027999972212,20.183339999941211],[-143.44485000002737,20.19306999988072],[-143.45833999979106,20.222479999952157],[-143.46941999993294,20.240000000299915],[-143.48165999960924,20.256369999775814],[-143.50197999957726,20.278920000058122],[-143.51660000018978,20.292879999912202],[-143.52448999981357,20.299289999633913],[-143.54929000043307,20.317380000186972],[-143.57647999975211,20.33306000021895],[-143.58585000017729,20.337979999577442],[-143.61602999978459,20.350690000243446],[-143.62630999990648,20.354690000343396],[-143.64734000024072,20.362250000037591],[-143.68010999967663,20.372320000367836],[-143.69120999984153,20.375530000009633],[-143.72490999989651,20.384680000182016],[-143.74756000029367,20.390639999836253],[-143.77004999960769,20.39669999960546],[-143.79233000002938,20.402999999650376],[-143.81439000019827,20.409519999948202],[-143.83621000009134,20.416279999622418],[-143.85805999956926,20.423029999734865],[-143.88009999971513,20.429550000032634],[-143.90240000015979,20.435850000077608],[-143.9136000004396,20.438939999581464],[-143.94751000028617,20.447870000400314],[-143.97003000008436,20.453930000169521],[-143.98123000036412,20.457030000134523],[-144.00338999974861,20.463439999856234],[-144.03618999966866,20.473510000186479],[-144.05800999956173,20.480260000298927],[-144.0800600001688,20.486790000158521],[-144.10235999971414,20.493079999742349],[-144.11355999999392,20.496170000145526],[-144.14748999986352,20.505100000065113],[-144.17000999966166,20.511170000295408],[-144.18122999996444,20.514259999799265],[-144.21435999981406,20.523989999738831],[-144.23617999970713,20.530739999851278],[-144.25799999960023,20.537489999963668],[-144.28005999976909,20.544019999823263],[-144.29113999991097,20.54723000036438],[-144.32483000040412,20.556379999637386],[-144.34747000034017,20.562329999729855],[-144.36999999970013,20.56839999996015],[-144.39226999966067,20.574700000005123],[-144.40334999980257,20.577900000085094],[-144.4361400001608,20.587970000415339],[-144.45794999959273,20.594730000089555],[-144.46892000005786,20.59805000030741],[-144.50231999976808,20.607550000432298],[-144.52480999998144,20.61361999976333],[-144.54744999991749,20.619569999855742],[-144.56994999969265,20.625629999624948],[-144.58114999997244,20.628720000028125],[-144.60331999981804,20.635140000210981],[-144.6361199997381,20.645209999641907],[-144.64697000006535,20.648640000435819],[-144.67999000023823,20.658489999613948],[-144.7022699997606,20.664780000097039],[-144.72478999955874,20.670850000327391],[-144.7475299996097,20.676689999843745],[-144.77038999979857,20.682410000121536],[-144.79324000042558,20.688130000399326],[-144.81609999971514,20.693860000238942],[-144.83895999990398,20.699579999617413],[-144.86169000039311,20.705420000033143],[-144.8842199997531,20.711479999802293],[-144.89542000003289,20.71457000020547],[-144.92856000034365,20.724300000145035],[-144.9395299999095,20.72762000036289],[-144.97220000012982,20.737809999931699],[-144.99424999983754,20.744339999791293],[-145.01653999982105,20.750630000274441],[-145.03905999961921,20.756699999605416],[-145.06179999967017,20.762540000021147],[-145.08463999983604,20.768260000298937],[-145.10750000002488,20.773979999677408],[-145.13034000019078,20.779710000416344],[-145.15320000037963,20.785429999794815],[-145.17592999996944,20.791270000210488],[-145.19846000022875,20.797329999979638],[-145.20967000007036,20.800420000382871],[-145.24279999991998,20.81015000032238],[-145.26461999981305,20.816909999996653],[-145.28643999970615,20.823660000109044],[-145.29741000017128,20.826980000326898],[-145.3307800002967,20.836479999552466],[-145.35326999961072,20.842549999782818],[-145.37602000012282,20.848379999737347],[-145.39888000031169,20.854109999576963],[-145.42171999957824,20.859829999854753],[-145.44457999976709,20.865550000132544],[-145.45600999986152,20.868420000282924],[-145.4903000001448,20.87700000024995],[-145.51314999987252,20.882719999628421],[-145.53601000006137,20.888450000367357],[-145.55887000025024,20.894169999745827],[-145.58171000041611,20.899890000023618],[-145.5931399996112,20.902760000173998],[-145.62695000024223,20.911799999770324],[-145.6381499996227,20.9148900001735],[-145.67130000039461,20.924620000113066],[-145.69312999984953,20.931370000225456],[-145.70398000017678,20.934809999681875],[-145.73700000034964,20.944650000197498],[-145.75927999987201,20.950950000242472],[-145.78179999967017,20.957019999573447],[-145.8045300001593,20.962850000427295],[-145.82739000034815,20.968569999805766],[-145.8502499996377,20.974299999645382],[-145.87310999982654,20.980019999923172],[-145.88455000038212,20.982879999612408],[-145.91881999974311,20.991470000040636],[-145.94167999993198,20.997190000318426],[-145.96452000009785,21.002909999696897],[-145.98738000028669,21.008640000435832],[-146.01021999955324,21.014359999814303],[-146.03307999974211,21.020080000092094],[-146.05593999993096,21.02580999993171],[-146.07878000009686,21.0315300002095],[-146.10164999984752,21.037249999587971],[-146.12447999955225,21.042980000326907],[-146.14735000020227,21.048699999705377],[-146.17019999992996,21.054419999983168],[-146.19306999968066,21.060149999822784],[-146.21590999984653,21.065870000100574],[-146.2387700000354,21.071590000378364],[-146.26163000022424,21.077320000217981],[-146.27304000029568,21.080179999907216],[-146.30734000014081,21.088759999874242],[-146.31875999977407,21.091630000024622],[-146.35305999961921,21.100209999991648],[-146.37589999978508,21.105930000269439],[-146.39875999997395,21.111660000109055],[-146.42160000013982,21.117380000386845],[-146.43303000023423,21.12024000007608],[-146.4558900004231,21.125969999915696],[-146.49015999978408,21.134549999882722],[-146.50158999987852,21.137409999571958],[-146.52443999960622,21.143140000310893],[-146.55872000032767,21.151720000277919],[-146.58157000005536,21.157450000117535],[-146.60443000024424,21.163170000395326],[-146.62729000043308,21.168889999773796],[-146.65014999972263,21.174610000051587],[-146.67300000034965,21.180339999891203],[-146.69585000007737,21.186060000168993],[-146.71869999980507,21.191780000446784],[-146.74155000043208,21.1975100002864],[-146.7529799996272,21.200369999975635],[-146.78726000034865,21.208949999942661],[-146.81011999963818,21.214679999782277],[-146.82156000019376,21.217540000370889],[-146.85582999955474,21.226120000337858],[-146.87868999974361,21.231850000177531],[-146.90154000037063,21.237569999556001],[-146.91298000002689,21.240430000144556],[-146.94723999982605,21.249019999673408],[-146.97010999957672,21.254739999951198],[-146.99294999974262,21.260460000228989],[-147.00437999983703,21.263319999918224],[-147.03867000012033,21.271910000346395],[-147.0500899997536,21.27477000003563],[-147.0843800000369,21.283359999564482],[-147.10724000022574,21.289079999842272],[-147.13010000041461,21.294800000120063],[-147.15295000014231,21.300529999959679],[-147.17581000033115,21.306250000237469],[-147.19864999959771,21.31196999961594],[-147.22150999978658,21.317700000354876],[-147.24434999995245,21.323419999733346],[-147.26721000014132,21.329140000011137],[-147.29007000033016,21.334869999850753],[-147.31292999961971,21.340590000128543],[-147.33578000024673,21.346310000406334],[-147.3586400004356,21.35204000024595],[-147.38149999972512,21.35775999962442],[-147.40433999989099,21.363479999902211],[-147.42720000007986,21.369209999741827],[-147.45004000024574,21.374930000019617],[-147.47290000043458,21.380650000297408],[-147.49575999972413,21.386380000137024],[-147.51859999989,21.392100000414814],[-147.5414699996407,21.397819999793285],[-147.56430000024474,21.403549999632901],[-147.575739999901,21.406410000221456],[-147.61001999972314,21.414990000188482],[-147.62144000025572,21.417849999877717],[-147.6552700000104,21.426899999935188],[-147.66647000029019,21.429990000338364],[-147.69962000016278,21.43972000027793],[-147.72144000005588,21.44647000039032],[-147.73229999994496,21.449909999846739],[-147.76532000011784,21.459750000362362],[-147.78759999964018,21.466050000407336],[-147.81012000033766,21.472110000176485],[-147.82143999985601,21.475090000003661],[-147.85526000004887,21.484129999599929],[-147.87753000000941,21.490429999644903],[-147.88863000017429,21.493629999724874],[-147.9214199996332,21.503700000055119],[-147.94324000042559,21.510459999729335],[-147.95418999996843,21.513779999947189],[-147.97635999981406,21.520189999668901],[-147.99876000037364,21.526369999575934],[-148.03271000026621,21.535300000394841],[-148.05521999960322,21.541369999725873],[-148.07750999958674,21.547660000208964],[-148.08858999972861,21.550869999850761],[-148.12129000043308,21.561049999857744],[-148.14276000037364,21.568149999922696],[-148.16423000031418,21.575249999987648],[-148.18570999981657,21.582339999591454],[-148.20709000010334,21.589550000232464],[-148.22845000036713,21.596759999974154],[-148.23919999968015,21.600319999568455],[-148.2714100002712,21.610960000104058],[-148.29288999977359,21.61806000016901],[-148.31460999955175,21.624919999958195],[-148.33664999969764,21.631449999817789],[-148.3589500001423,21.637740000300937],[-148.37015000042209,21.640829999804794],[-148.40408000029169,21.649770000185526],[-148.41541000027121,21.6527399995515],[-148.44891000009633,21.662120000437824],[-148.47095000024223,21.668650000297419],[-148.49264999999741,21.675519999648429],[-148.51413000039912,21.682619999713381],[-148.53560999990148,21.689710000216451],[-148.54636000011382,21.693260000248927],[-148.57846000012881,21.704020000023149],[-148.59982000039261,21.711240000225985],[-148.62131000035615,21.718329999829791],[-148.64278999985854,21.725429999894743],[-148.6535299996097,21.728979999927219],[-148.67476999973562,21.736300000244967],[-148.70700000034967,21.746950000342395],[-148.71776000012383,21.750489999913725],[-148.73900000024972,21.757819999793298],[-148.77020000012982,21.769499999725326],[-148.79089000007335,21.777390000248431],[-148.81125000008734,21.785640000285923],[-148.82128999993347,21.789870000200494],[-148.84140000010984,21.798339999591462],[-148.87237999973712,21.810250000237488],[-148.88277999999693,21.814139999761323],[-148.91420000012982,21.825580000316904],[-148.92483999976608,21.829249999587944],[-148.94632000016779,21.83634000009107],[-148.96779999967018,21.843440000156022],[-148.9997900000084,21.854320000068071],[-149.0105299997596,21.857859999639402],[-149.03201000016131,21.864959999704354],[-149.06411999973812,21.875720000377839],[-149.07474999981255,21.879380000087053],[-149.1069600004036,21.890030000184481],[-149.11770999971662,21.893580000216957],[-149.13896000030368,21.900899999635442],[-149.17014999972264,21.91257999956747],[-149.19085999968914,21.9204799996524],[-149.21117999965716,21.928720000128067],[-149.22124000042561,21.932950000042581],[-149.24136000016378,21.941420000332869],[-149.26192999996945,21.94943999965642],[-149.2931200002877,21.961110000026622],[-149.31416000018379,21.968669999720873],[-149.33550999998641,21.975880000361883],[-149.34624000017578,21.979430000394359],[-149.37836000021375,21.990190000168525],[-149.3997300000394,21.997399999910215],[-149.41048000025174,22.000949999942691],[-149.4425800002667,22.011709999716857],[-149.46360999970165,22.019259999849282],[-149.47400999996145,22.023159999834263],[-149.49480999958172,22.03093999978131],[-149.52542000013281,22.04318000035687],[-149.53548000000191,22.047419999833267],[-149.55559000017828,22.055890000123554],[-149.57617000044507,22.063899999885223],[-149.5969500000424,22.071690000293415],[-149.62839000019827,22.083129999949676],[-149.64974999956274,22.090350000152512],[-149.67110999982654,22.097559999894202],[-149.68173000033917,22.101219999603416],[-149.70254999998244,22.108999999550463],[-149.73364000018577,22.120790000058605],[-149.7539800001768,22.12904000009604],[-149.7640400000459,22.133270000010612],[-149.78415000022224,22.141740000300899],[-149.80472000002788,22.149750000062568],[-149.83591000034616,22.161429999994652],[-149.84628000012182,22.165320000417807],[-149.87830000004487,22.176189999868768],[-149.88903999979607,22.179739999901187],[-149.92113999981106,22.19049999967541],[-149.93176000032366,22.194169999845769],[-149.96399000003839,22.204810000381372],[-149.98547000044007,22.211910000446323],[-150.00684999982755,22.219120000188013],[-150.01749000036315,22.222779999897227],[-150.03896999986551,22.229879999962179],[-150.07119999958024,22.240519999598462],[-150.09255999984404,22.247739999801297],[-150.11392000010784,22.254950000442307],[-150.12465999985903,22.258499999575463],[-150.14614999982254,22.265590000078589],[-150.17824999983753,22.276349999852755],[-150.18889000037314,22.280009999561969],[-150.22112000008784,22.290659999659397],[-150.23185999983903,22.294209999691873],[-150.25334000024074,22.301309999756825],[-150.27460999995145,22.308630000074572],[-150.30681000008136,22.319269999710855],[-150.32828999958372,22.326369999775807],[-150.34966999987051,22.333589999978642],[-150.36031000040612,22.337249999687856],[-150.38178999990848,22.344349999752808],[-150.41399000003838,22.35499000028841],[-150.43535999986403,22.3622000000301],[-150.44600000039961,22.365870000200516],[-150.467479999902,22.372959999804266],[-150.49968999959373,22.383609999901694],[-150.5210699998805,22.390819999643384],[-150.54245000016729,22.39803000028445],[-150.55318999991849,22.401580000316926],[-150.58541999963319,22.412219999953152],[-150.60677999989699,22.419440000156044],[-150.62814000016078,22.426649999897734],[-150.64963000012432,22.43374000040086],[-150.67110999962671,22.440839999566492],[-150.69257999956724,22.447939999631444],[-150.71428999978357,22.454809999881718],[-150.72526999981056,22.458130000099572],[-150.75863999993595,22.46763000022446],[-150.76982000019277,22.470719999728374],[-150.80389000022325,22.479530000409341],[-150.82675000041212,22.485249999787811],[-150.83817000004538,22.488110000376366],[-150.87246999989051,22.496699999905218],[-150.89531000005638,22.502429999744834],[-150.90674000015079,22.505290000333389],[-150.9410100004111,22.513870000300415],[-150.96386999970065,22.519589999678885],[-150.97529999979508,22.522459999829266],[-151.00957999961722,22.531039999796292],[-151.03243999980606,22.536760000074082],[-151.05529999999493,22.542489999913698],[-151.07816000018377,22.548210000191489],[-151.10100000034964,22.553929999569959],[-151.12385999963919,22.559660000308895],[-151.14669999980507,22.565379999687366],[-151.16955999999391,22.571110000426302],[-151.1809799996272,22.573970000115537],[-151.20383000025421,22.579690000393327],[-151.23813000009935,22.588270000360353],[-151.26099000028819,22.594000000199969],[-151.28396999971562,22.599609999901702],[-151.30715999983406,22.604989999788813],[-151.33057999976708,22.610139999861246],[-151.35425000043708,22.615060000119058],[-151.37810999997643,22.619749999662872],[-151.40197999997693,22.624440000106063],[-151.42566000020875,22.629360000363874],[-151.44906999968066,22.634519999998133],[-151.47227000026021,22.639899999885245],[-151.49524000012582,22.645509999586977],[-151.51810000031469,22.651229999864768],[-151.54105999971912,22.656839999566444],[-151.56424999983753,22.662220000352875],[-151.58768000023176,22.667370000425308],[-151.61132999997943,22.6722899997838],[-151.62323000016428,22.674700000304938],[-151.6590900000034,22.68168000023195],[-151.68275000021225,22.686599999590442],[-151.70619000016828,22.691749999662875],[-151.72938999984854,22.697130000449306],[-151.75235000015229,22.702740000151039],[-151.77519000031819,22.708460000428829],[-151.7981699997456,22.714070000130562],[-151.82137000032517,22.719450000017616],[-151.84479000025823,22.724600000090049],[-151.8684400000059,22.729520000347861],[-151.8923300000294,22.734220000352877],[-151.91620999959173,22.738909999896691],[-151.92810000021476,22.741320000417829],[-151.96375000026222,22.748530000159519],[-151.98752000014781,22.753330000279448],[-152.01127999957225,22.758139999961145],[-152.0351600000339,22.762830000404335],[-152.05905000005737,22.767530000409351],[-152.08279000035816,22.772340000091049],[-152.09468000008187,22.774740000151041],[-152.13033999969116,22.781949999892731],[-152.15410999957675,22.786759999574485],[-152.17797999957725,22.791450000017619],[-152.20186999960072,22.79613999956149],[-152.22564999994745,22.800950000142507],[-152.24941999983304,22.805759999824261],[-152.27318999971862,22.810570000405335],[-152.29697000006536,22.815369999625943],[-152.30885000022724,22.817780000147025],[-152.34473000008936,22.824760000074093],[-152.36849999997494,22.829569999755847],[-152.39226999986053,22.834380000336864],[-152.41605000020726,22.839179999557473],[-152.43982000009285,22.843990000138547],[-152.46367999963221,22.848690000143506],[-152.48754999963271,22.853379999687377],[-152.5112000002797,22.858299999945189],[-152.53464000023573,22.863450000017622],[-152.55783000035416,22.868829999904733],[-152.58080999978159,22.874439999606466],[-152.592239999876,22.877300000195021],[-152.62663000027422,22.885769999585932],[-152.64984000041559,22.891150000372363],[-152.67326000034865,22.896300000444796],[-152.69693000011932,22.901219999803288],[-152.72078999965868,22.905919999808305],[-152.73278999995844,22.908210000191502],[-152.76844999956774,22.915419999933192],[-152.79224000037564,22.920229999614946],[-152.81597999977708,22.925029999734818],[-152.83974999966267,22.929840000315892],[-152.86361999966317,22.934529999859762],[-152.88748000010185,22.939229999864722],[-152.91116000033367,22.944150000122534],[-152.93458999982855,22.949300000194967],[-152.95777999994695,22.954680000082078],[-152.96933000017927,22.957430000094575],[-152.99217000034517,22.963150000372366],[-153.02645999972913,22.971730000339392],[-153.03788999982356,22.974599999590453],[-153.07216999964569,22.983179999557478],[-153.09502000027271,22.988910000296414],[-153.10645999992897,22.99176999998565],[-153.14071999972813,23.000349999952675],[-153.16359000037812,23.006070000230466],[-153.18642999964467,23.011800000070082],[-153.20930000029469,23.017520000347872],[-153.2320299998845,23.023359999864226],[-153.2433300002792,23.026339999691402],[-153.27681999964318,23.035719999678406],[-153.28791999980805,23.038930000219466],[-153.32071000016629,23.048999999650391],[-153.34253000005938,23.055760000223984],[-153.3645599997441,23.062279999622433],[-153.38686999975062,23.068570000105581],[-153.40939000044807,23.074640000335876],[-153.43212999959971,23.08047999985223],[-153.45498999978858,23.08620000013002],[-153.4778400004156,23.091929999969636],[-153.50069999970515,23.097650000247427],[-153.52355999989399,23.103369999625897],[-153.54629999994495,23.109210000041628],[-153.56881999974311,23.115280000271923],[-153.57999999999993,23.118369999775837],[-153.61312999984952,23.128099999715346],[-153.63494999974262,23.134849999827793],[-153.65676999963569,23.141599999940183],[-153.67882999980458,23.148129999799778],[-153.70111000022624,23.154420000282926],[-153.7236300000244,23.160489999613958],[-153.74626000039862,23.16643999970637],[-153.75757999991697,23.169420000432808],[-153.79107999974212,23.178800000419812],[-153.81311000032616,23.185330000279407],[-153.83493000021926,23.19208999995368],[-153.84577999964719,23.195519999848273],[-153.87881000028122,23.205360000363839],[-153.90108999980356,23.211660000408813],[-153.9122799996222,23.214749999912726],[-153.94623000041412,23.223679999832257],[-153.96875000021225,23.229739999601463],[-153.97992999956975,23.23283000000464],[-154.01308999990349,23.242559999944206],[-154.03490999979658,23.249319999618422],[-154.05672999968965,23.256069999730869],[-154.07880000031969,23.262599999590464],[-154.1010700002802,23.268890000073611],[-154.11226000009884,23.271979999577468],[-154.14620999999141,23.280910000396318],[-154.15751999994797,23.283890000223494],[-154.19097999972712,23.293270000210498],[-154.21303999989598,23.299800000070093],[-154.22403000038412,23.303120000287947],[-154.2457300001393,23.309980000077076],[-154.27875000031219,23.319830000154525],[-154.30102999983455,23.326119999738353],[-154.31223000011434,23.329210000141529],[-154.34618999956874,23.338140000061117],[-154.36867999978207,23.344210000291412],[-154.39096000020376,23.35049999987524],[-154.41302000037263,23.357029999734834],[-154.42400000039962,23.360349999952689],[-154.45668000018179,23.370540000420817],[-154.47872999988951,23.377059999819267],[-154.5010100003112,23.38335999986424],[-154.52353000010933,23.38941999963339],[-154.54613999956126,23.395380000187004],[-154.56866000025872,23.401439999956153],[-154.59093999978109,23.407740000001127],[-154.61301000041109,23.414260000298896],[-154.63483000030419,23.421019999973169],[-154.65665000019726,23.427770000085559],[-154.6675999997401,23.431090000303413],[-154.70098999988849,23.440590000428301],[-154.72350999968666,23.446659999759333],[-154.74612000003788,23.452609999851745],[-154.7574500000174,23.455589999678864],[-154.79094999984252,23.464969999665868],[-154.80202999998443,23.468180000206985],[-154.82394000043058,23.474819999743318],[-154.85662999977458,23.484999999750357],[-154.86760000023975,23.488319999968155],[-154.90097000036513,23.497820000093043],[-154.92345999967915,23.503890000323395],[-154.94611000007637,23.509840000415807],[-154.96862999987451,23.515909999746839],[-154.97981000013132,23.519000000150015],[-155.00197999997692,23.525409999871727],[-155.03475999987401,23.535480000201972],[-155.05657999976708,23.542239999876244],[-155.07863999993597,23.548760000174013],[-155.08974000010085,23.551969999815753],[-155.1234400001558,23.561119999988136],[-155.14608999965367,23.567079999642431],[-155.16857999986701,23.5731400003109],[-155.19086000028869,23.579440000355874],[-155.21291999955824,23.585959999754323],[-155.22387999956226,23.589279999972177],[-155.25656000024372,23.599470000440306],[-155.27862999997444,23.605989999838755],[-155.28971999967817,23.609200000379872],[-155.32343000019426,23.618349999652878],[-155.34615999978408,23.624190000068609],[-155.36901999997295,23.629919999908225],[-155.39188000016179,23.635640000186015],[-155.41472999988949,23.641359999564486],[-155.42615999998392,23.644229999714867],[-155.46033000012932,23.65292000025795],[-155.48282999990448,23.658989999588925],[-155.50513000034917,23.665289999633899],[-155.52716000003389,23.671809999931668],[-155.5490100004111,23.678569999605941],[-155.5708300003042,23.685319999718331],[-155.59288000001192,23.691840000016157],[-155.61516999999543,23.698140000061073],[-155.63766000020877,23.70419999983028],[-155.6604200002827,23.710040000245954],[-155.68326000044857,23.71577000008557],[-155.70611999973812,23.72149000036336],[-155.72897000036514,23.727209999741831],[-155.75182999965469,23.732930000019621],[-155.77456999970565,23.738770000435295],[-155.7970900004031,23.744839999766327],[-155.8082699997606,23.747930000169504],[-155.84141999963319,23.75766000010907],[-155.85239000009835,23.760980000326867],[-155.8850699998805,23.771169999895733],[-155.90713999961122,23.777690000193502],[-155.92940999957173,23.783990000238475],[-155.95189999978507,23.790050000007625],[-155.96322999976459,23.793029999834744],[-155.99752999960972,23.801620000262972],[-156.02036000021377,23.807339999641385],[-156.04320999994147,23.813059999919176],[-156.06607000013031,23.818789999758849],[-156.07748000020177,23.821650000347404],[-156.10036000041362,23.827369999725875],[-156.13464000023575,23.835960000154046],[-156.15750000042459,23.841680000431836],[-156.16890999959674,23.844540000121071],[-156.20321999990298,23.853129999649923],[-156.22604000004588,23.858849999927713],[-156.23747000014032,23.861709999616949],[-156.2717600004236,23.87030000004512],[-156.29461999971315,23.87602000032291],[-156.31747000034017,23.881739999701381],[-156.32888999997343,23.884609999851762],[-156.36316999979556,23.893189999818787],[-156.3860200004226,23.898910000096578],[-156.39746000007887,23.901769999785813],[-156.42032000026771,23.907499999625429],[-156.45412999999942,23.916540000121074],[-156.47641000042111,23.922840000165991],[-156.48750000012481,23.926040000245962],[-156.50944999971765,23.932679999782295],[-156.53115999993398,23.939550000032625],[-156.56418000010683,23.949389999648929],[-156.57526999981056,23.952600000189989],[-156.60898000032668,23.961750000362372],[-156.6317099999165,23.967589999878726],[-156.65457000010534,23.973319999718342],[-156.67743000029421,23.979039999996132],[-156.68886000038862,23.981899999685368],[-156.72314000021075,23.990490000113539],[-156.74600000039962,23.996210000391329],[-156.76883000010434,24.0019299997698],[-156.79169000029319,24.00765000004759],[-156.80312000038762,24.010520000197971],[-156.83740000020975,24.019100000164997],[-156.86026000039863,24.024830000004613],[-156.88311999968815,24.030550000282403],[-156.90597999987702,24.036269999660874],[-156.92880000001989,24.041989999938664],[-156.94025000013733,24.044860000089102],[-156.96309999986502,24.050580000366892],[-156.9974100001713,24.059169999895744],[-157.02023000031417,24.064890000173534],[-157.04308999960372,24.070609999552005],[-157.06594999979256,24.076329999829795],[-157.08880999998144,24.082059999669411],[-157.1002299996147,24.084920000257966],[-157.12308000024174,24.090639999636437],[-157.15738000008685,24.099230000064608],[-157.18024000027572,24.104950000342399],[-157.20296999986553,24.110789999858753],[-157.21427999982205,24.113769999685871],[-157.24773999960121,24.123149999672876],[-157.26981000023125,24.12968000043179],[-157.28075999977409,24.132999999750325],[-157.30246999999042,24.13986000043883],[-157.33551000018628,24.149709999616903],[-157.35778999970864,24.15600000010005],[-157.38029000038313,24.162070000330402],[-157.40304999955777,24.167909999846756],[-157.4144599996292,24.170770000435311],[-157.44876000037362,24.179359999964163],[-157.46017000044509,24.182219999653398],[-157.49447999985202,24.190799999620424],[-157.51729999999492,24.19653000035936],[-157.54016000018379,24.20224999973783],[-157.5515900002782,24.205110000326385],[-157.57444999956775,24.210829999704856],[-157.59732000021776,24.216560000443792],[-157.63100999981157,24.225720000178001],[-157.65294999984255,24.232350000152508],[-157.66382000019277,24.235789999608926],[-157.69534000044058,24.247119999588449],[-157.70563999968616,24.251130000149544],[-157.72597000011532,24.259369999725834],[-157.75692999971963,24.271269999910714],[-157.77773999980107,24.279049999857762],[-157.79877000013531,24.286609999551956],[-157.80938999974862,24.290270000160547],[-157.84160000033967,24.300920000257975],[-157.85234000009086,24.304470000290451],[-157.88433999999091,24.315339999741354],[-157.89507999974211,24.31888999977383],[-157.92731000035616,24.329530000309433],[-157.94870000020475,24.336749999612948],[-157.97005999956923,24.343960000253958],[-157.99155000043208,24.351049999857764],[-158.01302999993447,24.358149999922716],[-158.02376999968567,24.361699999955192],[-158.05576000002389,24.372570000305416],[-158.0772400004256,24.379670000370368],[-158.0879800001768,24.383220000402844],[-158.10947000014031,24.390319999568476],[-158.14145000001741,24.401189999918699],[-158.1629300004191,24.408289999983651],[-158.18442999994446,24.415379999587458],[-158.20577999974711,24.422599999790293],[-158.2271600000339,24.429810000431303],[-158.24865999955927,24.436900000035109],[-158.27013999996095,24.444000000100061],[-158.28087999971214,24.447550000132537],[-158.30211999983806,24.45488000001211],[-158.33434999955276,24.465519999648393],[-158.34509000020327,24.469069999680869],[-158.36658000016681,24.476169999745821],[-158.39856000004389,24.487040000096044],[-158.4200400004456,24.494140000160996],[-158.4415300004091,24.501229999764803],[-158.46288999977358,24.508449999967638],[-158.4842799996222,24.515659999709385],[-158.50574999956274,24.522750000212454],[-158.52722000040262,24.529850000277406],[-158.53796000015382,24.533400000309882],[-158.56998000007687,24.544269999760843],[-158.58071999982806,24.547819999793319],[-158.61295000044208,24.558469999890747],[-158.63442999994447,24.565569999955699],[-158.6561400001608,24.572429999744827],[-158.67818999986852,24.578959999604422],[-158.70047000029021,24.585250000087569],[-158.72299000008834,24.591320000317921],[-158.74561000000142,24.597270000410333],[-158.75693000041912,24.600250000237452],[-158.79041000022124,24.609630000224456],[-158.801479999902,24.612839999866253],[-158.83417999970715,24.623030000334381],[-158.84492000035766,24.626580000366857],[-158.87713999961122,24.63722000000314],[-158.89860999955175,24.644320000068092],[-158.91998000027672,24.651529999809782],[-158.94135000010235,24.658739999551472],[-158.96282999960471,24.665839999616423],[-158.97357000025522,24.669380000087074],[-158.99506999978058,24.676480000152026],[-159.02706999968066,24.687360000064075],[-159.04855000008234,24.694449999667881],[-159.05930000029468,24.697999999700357],[-159.09140000030968,24.708760000373843],[-159.10201999992299,24.712429999644883],[-159.12350000032467,24.719520000148009],[-159.1557300000394,24.730170000245437],[-159.1770900003032,24.737379999987127],[-159.19846000012882,24.744589999728873],[-159.21993999963121,24.751689999793825],[-159.24144000005589,24.758780000296895],[-159.26278999985851,24.765999999600467],[-159.28415999968416,24.773210000241477],[-159.30566000010884,24.780299999845283],[-159.31641000032118,24.783849999877759],[-159.34851000033618,24.794609999651925],[-159.36986999970065,24.801820000292935],[-159.39135999966416,24.808920000357887],[-159.41284000006587,24.816020000422839],[-159.42357999981706,24.819559999994169],[-159.44481999994295,24.826889999873742],[-159.46630999990649,24.833989999938694],[-159.48779000030819,24.841080000441821],[-159.51989999988501,24.851840000215986],[-159.54126000014881,24.859049999957676],[-159.56275999967417,24.866150000022628],[-159.57348999986351,24.869700000055104],[-159.60562000036265,24.88045999982927],[-159.62697999972713,24.88766999957096],[-159.64846999969066,24.894769999635912],[-159.65921000034118,24.898319999668388],[-159.69144000005588,24.90896000020399],[-159.70217999980707,24.912510000236466],[-159.72411999983805,24.919149999772799],[-159.74628000012183,24.92556000039383],[-159.78000000019978,24.934720000128038],[-159.80260999965168,24.94067000022045],[-159.82513000034916,24.946739999551482],[-159.83632999972963,24.949829999954659],[-159.8584900000134,24.95623999967637],[-159.88045000006736,24.962880000112079],[-159.91265999975911,24.973519999748305],[-159.9341400001608,24.980619999813257],[-159.94487000035016,24.984169999845733],[-159.97699000038813,24.994929999619956],[-159.98763000002441,24.998590000228489],[-160.00909000040312,25.005690000293441],[-160.04130999965668,25.016329999929667],[-160.06268000038162,25.023539999671414],[-160.07332999957973,25.027209999841773],[-160.10554999973263,25.037850000377375],[-160.12703999969614,25.044950000442327],[-160.14841000042111,25.052160000184017],[-160.15903000003439,25.055819999893231],[-160.19125000018727,25.066469999990659],[-160.2127400001508,25.073559999594465],[-160.2341000004146,25.080779999797301],[-160.24472000002791,25.084440000405834],[-160.27694999974261,25.095089999603942],[-160.29845000016729,25.102180000107069],[-160.31979000040812,25.109389999848759],[-160.34116999979557,25.116610000051594],[-160.35191000044608,25.12016000008407],[-160.38416000018378,25.130799999720352],[-160.40563999968614,25.137899999785304],[-160.42734000034065,25.144770000035635],[-160.44939999961022,25.151290000333404],[-160.4604799997521,25.154499999975144],[-160.4828600002887,25.160679999882234],[-160.51681999974312,25.169600000239939],[-160.53930999995646,25.175669999570971],[-160.55051000023624,25.178759999974147],[-160.58364999964769,25.188489999913713],[-160.59462000011283,25.191810000131568],[-160.6268600002887,25.202449999767794],[-160.6376000000399,25.20599999980027],[-160.65906999998043,25.213099999865221],[-160.69119000001839,25.223859999639387],[-160.70180999963171,25.227520000247978],[-160.72329999959521,25.23462000031293],[-160.75551999974812,25.245259999949155],[-160.77688999957374,25.252480000152048],[-160.79824999983754,25.259689999893737],[-160.81975999982404,25.266780000396864],[-160.83049000001341,25.27033000042934],[-160.86261000005138,25.281090000203505],[-160.88397000031517,25.288310000406341],[-160.90546000027871,25.295400000010147],[-160.9161800000069,25.298950000042623],[-160.9483000000449,25.309709999816789],[-160.95893999968115,25.313370000425323],[-160.99115000027223,25.324019999623431],[-161.01262000021276,25.331119999688383],[-161.03399999960021,25.338330000329393],[-161.04462999967467,25.341990000038606],[-161.07684000026572,25.352629999674889],[-161.09831000020625,25.359729999739841],[-161.11968999959373,25.366940000380851],[-161.13033999969116,25.37060999965189],[-161.16255000028221,25.381250000187492],[-161.17331000005638,25.384800000219968],[-161.2055399997711,25.395450000317396],[-161.22722999996444,25.402310000106581],[-161.24929999969515,25.408839999966176],[-161.27158000011684,25.415130000449324],[-161.28276000037363,25.41821999995318],[-161.31671000026623,25.427149999872711],[-161.33923000006436,25.433220000103063],[-161.36150999958673,25.439509999686891],[-161.38356000019377,25.446040000445805],[-161.40525999994895,25.452909999796816],[-161.42674000035066,25.460009999861768],[-161.43748000010186,25.463550000332418],[-161.46972999983953,25.474200000429846],[-161.49109000010336,25.481410000171536],[-161.51245000036715,25.488619999913226],[-161.53394000033066,25.495719999978178],[-161.54468000008185,25.499270000010654],[-161.57678000009685,25.51002999978482],[-161.59814000036064,25.517229999964684],[-161.61963000032418,25.524330000029636],[-161.63037000007537,25.527880000062112],[-161.66247999965219,25.538639999836278],[-161.68387000040011,25.545849999577968],[-161.6946100001513,25.549399999610444],[-161.7268100002812,25.560049999707871],[-161.7375500000324,25.563590000178522],[-161.76956000039362,25.574470000090571],[-161.79105000035716,25.581570000155523],[-161.81252999985952,25.588670000220475],[-161.83389000012332,25.595870000400339],[-161.85525999994897,25.603089999703855],[-161.87676999993548,25.610180000206981],[-161.89823999987601,25.617280000271933],[-161.91962000016281,25.624490000013623],[-161.93025000023724,25.628149999722837],[-161.96245999992897,25.638799999820264],[-161.98392999986953,25.645899999885216],[-161.9946699996207,25.649440000355867],[-162.01594999979258,25.65677000023544],[-162.04816000038363,25.667420000332868],[-162.06963000032417,25.674509999936674],[-162.09110999982656,25.681610000001626],[-162.11282000004289,25.688480000251957],[-162.13486999975061,25.694999999650406],[-162.15717000019526,25.701299999695379],[-162.17968999999343,25.707369999925675],[-162.20230000034465,25.713320000018143],[-162.22482000014281,25.719379999787293],[-162.2360200004226,25.722470000190526],[-162.26917000029519,25.732200000130035],[-162.29085999958923,25.739070000380366],[-162.30160999980157,25.742620000412842],[-162.32309000020328,25.749719999578474],[-162.35531999991798,25.760360000114076],[-162.36605999966918,25.763910000146552],[-162.39850000007488,25.774330000429302],[-162.42056000024374,25.780849999827751],[-162.44285999978908,25.787149999872724],[-162.45404000004589,25.790240000275958],[-162.48811000007638,25.799050000057605],[-162.49954000017078,25.80190999974684],[-162.53427000006039,25.810039999646392],[-162.55768999999341,25.815189999718882],[-162.56945999957924,25.817709999916701],[-162.60522000020276,25.824809999981653],[-162.62909999976509,25.829500000424844],[-162.65286000008885,25.834310000106541],[-162.67675999967418,25.838999999650412],[-162.70097000006538,25.843349999702866],[-162.72576999978557,25.847130000449283],[-162.75150000012482,25.849990000138519],[-162.77822999981456,25.851819999993154],[-162.80576000042359,25.852849999827754],[-162.83388000036166,25.853310000356373],[-162.86233999979109,25.853420000033111],[-162.89090999979658,25.853420000033111],[-162.91947999980206,25.853420000033111],[-162.94804000024573,25.853420000033111],[-162.97661000025124,25.853420000033111],[-163.00516999979558,25.853420000033111],[-163.03373999980107,25.853420000033111],[-163.06230000024473,25.853420000033111],[-163.09087000025022,25.853420000033111],[-163.11942999979456,25.853420000033111],[-163.14801000026122,25.853420000033111],[-163.17644999966768,25.853310000356373],[-163.20456999960572,25.852849999827754],[-163.23212000023773,25.851819999993154],[-163.25884999992746,25.849990000138519],[-163.28458000026671,25.847130000449283],[-163.3093700004251,25.843349999702866],[-163.33361999996296,25.838999999650412],[-163.35748000040161,25.834310000106541],[-163.38125999984902,25.829500000424844],[-163.4051200002877,25.824809999981653],[-163.42899999985002,25.820120000437839],[-163.4526699996207,25.815200000180027],[-163.47608999955375,25.810039999646392],[-163.49927999967215,25.804659999759338],[-163.52225000043708,25.799050000057605],[-163.5450000000499,25.793220000103076],[-163.56749999982506,25.787149999872724],[-163.58978000024675,25.780849999827751],[-163.61184999997744,25.774330000429302],[-163.6335400001708,25.767460000179028],[-163.65503000013433,25.760360000114076],[-163.67650999963669,25.75326999961095],[-163.69788000036164,25.74605999986926],[-163.71890000023475,25.738500000175009],[-163.73969999985502,25.730720000227961],[-163.76024999963769,25.722709999566973],[-163.78025999969915,25.714120000038122],[-163.79979999967017,25.705080000441797],[-163.81933999964119,25.696030000384326],[-163.8388999996352,25.686989999888738],[-163.85843000004439,25.677950000292412],[-163.87833000042909,25.669250000187503],[-163.89843999970614,25.660779999897215],[-163.91832000006787,25.652079999792306],[-163.93786999960074,25.643040000195981],[-163.95694000038063,25.633540000071093],[-163.97542999959472,25.623460000179023],[-163.99362000026272,25.613050000357362],[-164.01168999989349,25.602520000397817],[-164.02972000037764,25.591979999977184],[-164.04787999966217,25.581570000155523],[-164.06607000033017,25.571149999872716],[-164.08401000026123,25.560510000236491],[-164.11049999967517,25.544139999861272],[-164.11919999978008,25.53853000015954],[-164.13647000029019,25.527200000180017],[-164.17075000011235,25.504299999945204],[-164.18789999958523,25.492860000288943],[-164.20502000037263,25.481410000171536],[-164.22216999984553,25.46996000005413],[-164.23920000007985,25.458400000259928],[-164.25597999957725,25.446609999751843],[-164.27243000004438,25.434479999752341],[-164.29632999962971,25.415480000401828],[-164.31140000030967,25.401969999715845],[-164.31883000030419,25.395100000364891],[-164.34065000019729,25.374040000445802],[-164.36214000016079,25.352629999674889],[-164.3692299997646,25.345419999933199],[-164.38361999966318,25.331230000264441],[-164.39779999977009,25.316800000319915],[-164.40499999994995,25.309709999816789],[-164.42636000021375,25.288190000268457],[-164.44077000013533,25.273990000138554],[-164.45493000021926,25.259569999755854],[-164.47640999972162,25.238170000345406],[-164.48348999976361,25.230959999704339],[-164.49789000012333,25.216770000035638],[-164.51205000020727,25.202340000091056],[-164.5262100002912,25.187919999708356],[-164.53994999989251,25.173039999696357],[-164.55343999965618,25.157929999869737],[-164.56623999997595,25.142129999699875],[-164.58452000029769,25.117519999748311],[-164.59628000032168,25.100700000204995],[-164.60782000009286,25.083640000385856],[-164.61925000018729,25.066469999990659],[-164.62496999956574,25.057879999562488],[-164.64211000037614,25.032130000099585],[-164.64782999975461,25.023539999671414],[-164.65925999984904,25.006370000175536],[-164.67068000038162,24.989199999780283],[-164.68735999976411,24.962989999788817],[-164.69821000009136,24.945250000087583],[-164.70358000041659,24.936320000167996],[-164.71877999989701,24.908619999813254],[-164.72860999995146,24.88985000027742],[-164.73351999974813,24.88045999982927],[-164.74779999996994,24.851840000215986],[-164.75728999963368,24.832730000289416],[-164.76688000031169,24.813730000039584],[-164.77636999997543,24.794609999651925],[-164.7858599996392,24.775499999725355],[-164.79543999985603,24.756489999913697],[-164.8002500004371,24.746989999788809],[-164.81395999955427,24.717799999970168],[-164.82300000004989,24.698230000414355],[-164.83153999997094,24.678200000329866],[-164.83566000020878,24.668009999861738],[-164.84721000044109,24.636649999797783],[-164.85440000015981,24.615239999926189],[-164.86101999967318,24.593270000310383],[-164.86731000015629,24.570949999842753],[-164.87338000038662,24.548399999560445],[-164.87921000034117,24.525620000362892],[-164.88480999958173,24.502609999551964],[-164.89007999979208,24.479260000149054],[-164.89487000035015,24.455450000217468],[-164.89920000037964,24.431179999757319],[-164.9030899999035,24.406449999667871],[-164.90674999961271,24.381500000224946],[-164.9106400000359,24.35677999969738],[-164.91486000038861,24.332399999560494],[-164.9191900004181,24.308129999999665],[-164.92342999989449,24.283749999862721],[-164.92720000017979,24.258910000096591],[-164.93005000030718,24.233150000172486],[-164.93188000016181,24.206369999975664],[-164.93291999955827,24.17878000019698],[-164.93338000008686,24.150629999774821],[-164.93350000022474,24.122119999838276],[-164.93350000022474,24.093509999786818],[-164.93338000008686,24.064999999850272],[-164.93291999955827,24.036850000327377],[-164.93192000020775,24.00925999964943],[-164.930079999892,23.982469999890725],[-164.92722000020277,23.956720000427822],[-164.92342999989449,23.931879999762316],[-164.91922000000292,23.907499999625429],[-164.91486000038861,23.8832300000646],[-164.91062999957475,23.858849999927713],[-164.90674000005089,23.83413000029941],[-164.90491000019628,23.821650000347404],[-164.89910999982655,23.784560000443832],[-164.89440999982156,23.760639999936188],[-164.88904999995745,23.737400000209959],[-164.8829999997501,23.714849999927708],[-164.87624999963771,23.69298999998864],[-164.8691600000339,23.671470000440308],[-164.86205999996895,23.649949999992657],[-164.85497999992697,23.628430000444325],[-164.8477799997471,23.607019999673412],[-164.84057999956724,23.585620000262963],[-164.83350000042461,23.564099999815255],[-164.8262899997836,23.542689999943661],[-164.81875999967417,23.521630000024629],[-164.81487999971213,23.511220000202968],[-164.8029800004266,23.480199999630429],[-164.79441999958323,23.460159999984171],[-164.7854000000099,23.440590000428301],[-164.77624999983755,23.421129999649906],[-164.76688000031169,23.401899999585453],[-164.75728999963368,23.38290000023494],[-164.74779999996994,23.363779999847281],[-164.7383100003062,23.344669999920711],[-164.72860999995146,23.325780000246937],[-164.71877999989701,23.307009999811783],[-164.70872000002791,23.28847000009057],[-164.69821000009136,23.27038000043683],[-164.68735000020226,23.252639999836276],[-164.67627000006038,23.235120000387838],[-164.66496000010383,23.217840000315903],[-164.65353000000943,23.200669999920706],[-164.64211999993796,23.183500000424829],[-164.6306800002817,23.166330000029632],[-164.61925999974912,23.149159999634435],[-164.60782999965468,23.131990000138558],[-164.59628000032168,23.114930000319418],[-164.58452999985954,23.098109999876726],[-164.57239000029818,23.081620000262944],[-164.55983999981606,23.065599999840288],[-164.54669000044308,23.050140000061106],[-164.53307999964218,23.035150000372369],[-164.51913000024922,23.020500000174991],[-164.50497000016529,23.006079999792291],[-164.49068999994347,22.99176999998565],[-164.47640999972162,22.977460000179008],[-164.45493000021926,22.956050000307414],[-164.44785000017728,22.948839999666404],[-164.42636000021375,22.927440000255956],[-164.41220000012981,22.913010000311431],[-164.40499999994995,22.905919999808305],[-164.39069999970513,22.891610000001663],[-164.36922000020277,22.870200000130069],[-164.35504000009584,22.855779999747313],[-164.34065000019729,22.841590000078554],[-164.33355999969416,22.834380000336864],[-164.3120899997536,22.812969999565951],[-164.30488999957373,22.805870000400319],[-164.28283999986601,22.785040000295908],[-164.26775000006236,22.771529999609925],[-164.25986000043858,22.765130000349359],[-164.24386999960072,22.752530000259469],[-164.21906000031868,22.734450000167499],[-164.21059999959024,22.728609999751825],[-164.18501000031119,22.71132999967989],[-164.16787999996194,22.699879999562484],[-164.15929999999491,22.694160000184013],[-164.12502999973461,22.6712599999492],[-164.09064000023574,22.64847999985227],[-164.07315000037215,22.637379999687369],[-164.03738000018677,22.615969999815775],[-164.02823999957624,22.610819999743342],[-164.0001199996382,22.596059999869226],[-163.99075000011234,22.591139999611414],[-163.97180000036965,22.581520000247963],[-163.95259000032817,22.572140000260958],[-163.92415000002239,22.557710000316376],[-163.91466999992048,22.552899999735359],[-163.89545999987902,22.543519999748355],[-163.87649999967516,22.533900000384847],[-163.8575099998865,22.524289999683901],[-163.83809999961522,22.515129999949693],[-163.81865999975909,22.505970000215484],[-163.78885000012733,22.49292000005812],[-163.76826000029871,22.484910000296395],[-163.74747000024024,22.477130000349405],[-163.73709000000341,22.473239999926193],[-163.70507999964218,22.462360000014144],[-163.68358999967867,22.455270000410337],[-163.6622300003142,22.448050000207502],[-163.65160999980156,22.444389999598968],[-163.61938000008686,22.433749999962686],[-163.59789999968515,22.426649999897734],[-163.58715999993396,22.423099999865258],[-163.56566999997045,22.415999999800306],[-163.53264999979757,22.406160000184002],[-163.51035999981406,22.399860000139029],[-163.48784999957775,22.393800000369879],[-163.46511999998793,22.387959999954148],[-163.4536899998935,22.385100000264913],[-163.41881999984304,22.377080000042099],[-163.39496000030368,22.372389999598965],[-163.37039000039812,22.36837999993719],[-163.34515000017228,22.365059999719335],[-163.3194300002942,22.3622000000301],[-163.29371999997792,22.359340000340865],[-163.26845999972912,22.356020000123067],[-163.24376999968567,22.352129999699855],[-163.21944000005587,22.347890000223458],[-163.20731999961822,22.345719999978144],[-163.17028999978359,22.33987999956247],[-163.14469999960522,22.336910000196497],[-163.11841000042111,22.334619999813299],[-163.09190000008485,22.332560000144042],[-163.06561000000141,22.330269999760844],[-163.04003999984604,22.327289999933669],[-163.01522999966468,22.323519999648397],[-162.99090999959674,22.319280000172],[-162.96653999992097,22.315039999796284],[-162.94186000033866,22.311150000272448],[-162.91660999965168,22.307830000054594],[-162.89090000023475,22.304970000365358],[-162.8651699998955,22.302109999776803],[-162.83994000013081,22.298789999558949],[-162.81525000008736,22.294900000035113],[-162.79088999997344,22.290659999659397],[-162.7665699999055,22.286429999744826],[-162.74177999974711,22.282649999897728],[-162.71618999956874,22.27967000007061],[-162.68990999994645,22.277390000148557],[-162.66339000004839,22.275320000018155],[-162.63709999996496,22.2730299996349],[-162.61150999978659,22.270060000268927],[-162.58673000008935,22.26628000042183],[-162.5623800004366,22.262049999607939],[-162.53804000034566,22.257810000131542],[-162.51337000032518,22.253919999708387],[-162.4880999996152,22.250600000389852],[-162.46239999976009,22.247739999801297],[-162.43669000034316,22.244880000112062],[-162.41143999965618,22.241550000332381],[-162.3867499996127,22.237659999909226],[-162.36241000042111,22.233429999994655],[-162.33807000033016,22.229189999618939],[-162.31338999984854,22.225300000095046],[-162.30092999991948,22.223470000240468],[-162.27533000017928,22.220490000413349],[-162.23670999986652,22.216259999599458],[-162.21146000007886,22.212940000280923],[-162.18677000003538,22.209049999857768],[-162.16242999994446,22.204810000381372],[-162.13808999985352,22.200579999567481],[-162.11339999981007,22.196679999582443],[-162.08815000002241,22.193369999825791],[-162.06243999970613,22.19049999967541],[-162.03671000026623,22.187639999986175],[-162.01147000004039,22.18431999976832],[-161.98680000001991,22.180430000244485],[-161.96245999992897,22.176200000329914],[-161.93811000027623,22.171959999954197],[-161.91342000023275,22.168070000430305],[-161.88817000044509,22.164750000212507],[-161.86246000012883,22.161889999623952],[-161.83672999978958,22.159029999934717],[-161.81148999956375,22.155709999716862],[-161.78680000041962,22.151809999731825],[-161.76244999986753,22.147579999817253],[-161.73812999979958,22.143340000340856],[-161.71333000007937,22.139570000055585],[-161.687739999901,22.136590000228466],[-161.66146999984053,22.134299999845268],[-161.63494999994248,22.132240000176012],[-161.60867000032019,22.129949999792814],[-161.58306999968067,22.12698000042684],[-161.55828999998343,22.123199999680367],[-161.53394000033066,22.11896000020397],[-161.50960000023974,22.114730000289399],[-161.48491999975809,22.110830000304418],[-161.4596600004086,22.107519999648389],[-161.43395999965418,22.104650000397328],[-161.40825000023725,22.101789999808773],[-161.38300000044958,22.098469999590975],[-161.35831000040611,22.094580000067083],[-161.33397000031519,22.090350000152512],[-161.30963000022425,22.086109999776795],[-161.2849400001808,22.08222000025296],[-161.25969999995496,22.078900000035105],[-161.23398000007685,22.07604000034587],[-161.2082699997606,22.073179999757315],[-161.18301000041112,22.069849999977635],[-161.15832999992946,22.06595999955448],[-161.13398999983855,22.061729999639908],[-161.1096499997476,22.057490000163511],[-161.08495999970415,22.053599999740356],[-161.05970999991649,22.050280000421822],[-161.03399999960021,22.047419999833267],[-161.00829999974511,22.044560000144031],[-160.99550000032468,22.043069999780812],[-160.95835999991399,22.037350000402341],[-160.93401999982305,22.033110000026625],[-160.90967999973213,22.028880000112053],[-160.88498000012683,22.024980000127073],[-160.859739999901,22.021670000370364],[-160.83400999956174,22.018800000219983],[-160.80828999968367,22.015939999631428],[-160.79549999982504,22.014450000167528],[-160.75836000031367,22.008729999889738],[-160.73400999976161,22.004490000413341],[-160.70968999969364,22.00025999959945],[-160.68488999997345,21.996479999752353],[-160.65929999979508,21.993510000386323],[-160.63302999973462,21.991220000003125],[-160.60650999983653,21.989160000333868],[-160.58023000021427,21.98686999995067],[-160.55462999957473,21.983890000123552],[-160.52984999987751,21.98011999983828],[-160.51761000020127,21.978049999707878],[-160.48116000013383,21.971650000447312],[-160.45647999965217,21.967749999562955],[-160.43120999984154,21.964430000244477],[-160.40552000044758,21.961569999655921],[-160.37981000013133,21.958709999966686],[-160.35454999988252,21.955389999748832],[-160.32989999988501,21.951500000224996],[-160.3055399997711,21.947270000310425],[-160.28119000011833,21.943029999934708],[-160.25637999993697,21.939250000087554],[-160.24379999987002,21.937529999909714],[-160.20449999967516,21.933990000338383],[-160.17799000023825,21.931920000207981],[-160.15170000015479,21.929629999824783],[-160.12610999997645,21.92665999955949],[-160.10131999981806,21.922879999712336],[-160.07697999972712,21.918649999797765],[-160.0526399996362,21.914410000321425],[-160.02794999959272,21.910519999898213],[-160.00269999980506,21.907199999680358],[-159.97699000038813,21.904339999991123],[-159.96408000039162,21.902969999765844],[-159.92603000028421,21.89816000008409],[-159.90134999980256,21.894260000099052],[-159.87700999971165,21.890030000184481],[-159.8526899996437,21.88580000026991],[-159.82788000036166,21.882020000422813],[-159.80225999969915,21.879039999696374],[-159.77596999961571,21.876750000212496],[-159.74948000020177,21.87468999964392],[-159.72319000011834,21.872400000160042],[-159.69759999993997,21.869429999894749],[-159.67278999975861,21.865650000047594],[-159.64844000010584,21.861409999671878],[-159.62410999957675,21.857179999757307],[-159.59932000031768,21.853399999910209],[-159.57373000013931,21.850420000083091],[-159.5474499996177,21.848129999699893],[-159.52094000018079,21.846070000030636],[-159.49465999965918,21.843779999647381],[-159.46905999991898,21.840810000281408],[-159.45649999987501,21.839090000103567],[-159.41992000010785,21.83279999962042],[-159.39558000001691,21.828560000144023],[-159.38336000036364,21.826499999575447],[-159.34508000044158,21.821919999708371],[-159.31844999996744,21.819980000176997],[-159.291379999887,21.818489999813778],[-159.26428000022176,21.817000000349879],[-159.23766999977059,21.81505000035736],[-159.21194000033066,21.812189999768805],[-159.18715999973412,21.808409999921707],[-159.16281000008135,21.804180000007136],[-159.13849000001341,21.79993999963142],[-159.11367999983204,21.796170000245468],[-159.0880699996307,21.793190000418349],[-159.06179999957024,21.790900000035094],[-159.03529000013333,21.788840000365838],[-159.00900000004989,21.78654999998264],[-158.98340999987153,21.783579999717347],[-158.95861999971314,21.779799999870249],[-158.93427999962219,21.775560000393853],[-158.90994000043059,21.771329999579962],[-158.88513000024923,21.767549999732864],[-158.85943999995595,21.764690000043629],[-158.83269000024325,21.762860000188994],[-158.80527000021027,21.761710000216453],[-158.77760000033967,21.760799999620417],[-158.7501800003067,21.759649999647934],[-158.72342999969464,21.757819999793298],[-158.69772000027771,21.754960000104063],[-158.67291000009635,21.751180000256966],[-158.64856000044358,21.746950000342395],[-158.62424000037564,21.742709999966678],[-158.5994399997561,21.738939999681406],[-158.57373000033917,21.736070000430288],[-158.54699999975011,21.73423999967639],[-158.51957999971714,21.733100000164995],[-158.49192999986951,21.732180000007133],[-158.46450999983654,21.731039999596419],[-158.43776000012383,21.729200000180015],[-158.42462000031267,21.7280599997693],[-158.38727000011033,21.722559999744306],[-158.36291999955824,21.718329999829791],[-158.33858000036665,21.714090000353394],[-158.31377999974711,21.710320000068066],[-158.28818000000692,21.707340000240947],[-158.26190000038463,21.705049999857749],[-158.23539999961022,21.702990000188493],[-158.20911000042611,21.700699999805295],[-158.18350000022474,21.697730000439321],[-158.1587199996282,21.693949999692848],[-158.13438000043658,21.689710000216451],[-158.11004999990749,21.685480000301936],[-158.08523999972613,21.681699999555462],[-158.05963000042411,21.678719999728344],[-158.03336000036364,21.676430000244466],[-158.00685000002741,21.674369999675889],[-157.98055999994395,21.672080000192011],[-157.95496999976561,21.669109999926718],[-157.93017999960722,21.665330000079564],[-157.90584000041559,21.661089999703847],[-157.88150000032468,21.656859999789276],[-157.85669000014332,21.653079999942179],[-157.83109999996495,21.650109999676886],[-157.80480999988151,21.647820000193008],[-157.77831000000643,21.645759999624431],[-157.75201000036114,21.643470000140553],[-157.72644000020577,21.64049999987526],[-157.70163000002441,21.636720000028106],[-157.67730999995646,21.632479999652389],[-157.65294999984255,21.628249999737818],[-157.62813999966119,21.624469999890721],[-157.60241999978308,21.621610000201485],[-157.5756799996322,21.619769999885705],[-157.54825999959922,21.618630000374367],[-157.5206299997746,21.617710000216505],[-157.49318999971862,21.61656999980579],[-157.46646000002889,21.614739999951155],[-157.44076999973561,21.61188000026192],[-157.41594999999242,21.608100000414822],[-157.39160000033965,21.603869999600931],[-157.37949999992497,21.601689999793791],[-157.34247000009034,21.595850000277437],[-157.31675999977409,21.592989999688882],[-157.29001999962321,21.591159999834247],[-157.26248000035164,21.590129999999647],[-157.2343800004366,21.589670000370347],[-157.20592999966968,21.589550000232464],[-157.17747000024025,21.589439999656406],[-157.14935000030218,21.588980000027107],[-157.12183000015429,21.587950000192507],[-157.09509000000341,21.586120000337871],[-157.06937000012533,21.583259999749316],[-157.04459000042809,21.579479999902219],[-157.02023000031417,21.575249999987648],[-156.99589999978508,21.571009999611931],[-156.97110000006487,21.567240000225979],[-156.94536999972561,21.564370000075598],[-156.93222000035266,21.563229999664884],[-156.89111000032617,21.561510000386363],[-156.86301000041112,21.561049999857744],[-156.83455000008234,21.560940000181006],[-156.80598000007686,21.560940000181006],[-156.7774199996332,21.560940000181006],[-156.74884000006588,21.560940000181006],[-156.72027999962219,21.560940000181006],[-156.69170999961671,21.560940000181006],[-156.66315000007236,21.560940000181006],[-156.6345699996057,21.560940000181006],[-156.60599999960021,21.560940000181006],[-156.57754999973261,21.560829999604948],[-156.54944000025571,21.560369999975649],[-156.52190000008486,21.559340000141049],[-156.49515999993397,21.557499999825268],[-156.46944999961769,21.554640000136033],[-156.45688000001192,21.552930000419337],[-156.42028999978359,21.546630000374364],[-156.39596999971565,21.542399999560473],[-156.37116999999543,21.538619999713376],[-156.34545999967915,21.53576000002414],[-156.31872999998942,21.53391999970836],[-156.2912000002797,21.53288999987376],[-156.26308000034166,21.532439999806286],[-156.23462000001291,21.532319999668402],[-156.20605000000742,21.532319999668402],[-156.17760000013982,21.532209999991665],[-156.14948000020178,21.531750000362365],[-156.12194999959272,21.530719999628445],[-156.09521000034115,21.52888999977381],[-156.06948999956376,21.526030000084575],[-156.0569300004191,21.524309999906734],[-156.0203699997756,21.518009999861761],[-155.99602999968465,21.513779999947189],[-155.97122000040261,21.510000000100092],[-155.9456199997631,21.507020000272917],[-155.91934000014081,21.504740000350864],[-155.89284000026572,21.502670000220462],[-155.86655000018229,21.50039000029841],[-155.85352000004789,21.499129999749812],[-155.8161600002837,21.493629999724874],[-155.79182000019279,21.489399999810303],[-155.76748999966367,21.485160000333906],[-155.74268000038163,21.481379999587432],[-155.71709000020326,21.478410000221459],[-155.69080000011982,21.476119999838261],[-155.66428999978359,21.474060000169004],[-155.63799999970016,21.471769999785806],[-155.61243000044408,21.468789999958688],[-155.58762000026272,21.465019999673359],[-155.56328999973363,21.460780000197019],[-155.53894000008086,21.456539999821302],[-155.52670000040462,21.454480000152046],[-155.48900000024972,21.449339999641438],[-155.46328999993347,21.44647000039032],[-155.43755999959421,21.443609999801765],[-155.41232000026773,21.440289999583968],[-155.38763000022425,21.436400000060075],[-155.36327999967216,21.432170000145504],[-155.33895999960421,21.427929999769788],[-155.31426999956074,21.424040000245952],[-155.28903000023425,21.420720000028098],[-155.26331000035614,21.417860000338862],[-155.23758999957874,21.414990000188482],[-155.21233999979108,21.411669999970684],[-155.18768000023175,21.407780000446792],[-155.16332999967966,21.403549999632901],[-155.13900999961172,21.399310000156504],[-155.11431999956824,21.395419999733349],[-155.08904999975761,21.392100000414814],[-155.0633499999025,21.389239999826259],[-155.03763000002439,21.386380000137024],[-155.01236999977559,21.383059999919226],[-154.98769999975511,21.379170000395334],[-154.96337999968716,21.374930000019617],[-154.93903000003439,21.370700000105046],[-154.91433999999091,21.366800000120065],[-154.88909999976511,21.363479999902211],[-154.86337000032518,21.360620000212975],[-154.83766000000892,21.35775999962442],[-154.81241000022126,21.354440000305885],[-154.78772000017779,21.35054999988273],[-154.7633699996257,21.346310000406334],[-154.73903999999592,21.342079999592443],[-154.71436000041362,21.338190000068607],[-154.68912000018778,21.334869999850753],[-154.66338999984853,21.331999999700372],[-154.6504700002902,21.330630000374356],[-154.61242999974462,21.325819999793282],[-154.58773999970114,21.321930000269447],[-154.56339000004837,21.317700000354876],[-154.53904999995746,21.313459999979159],[-154.51437000037512,21.309569999555947],[-154.48911999968814,21.306250000237469],[-154.46341000027121,21.303389999648914],[-154.43767999993196,21.300529999959679],[-154.42489999963519,21.299039999596459],[-154.38776000012382,21.293320000217989],[-154.3634000000099,21.289079999842272],[-154.33907999994196,21.284840000365875],[-154.31440999992148,21.280949999942663],[-154.28914999967267,21.277629999724866],[-154.26346000027871,21.27477000003563],[-154.23772999993946,21.271910000346395],[-154.2124800001518,21.26859000012854],[-154.18781000013132,21.264699999705385],[-154.16345000001741,21.260460000228989],[-154.13912999994946,21.256230000314417],[-154.12691000029619,21.254169999745841],[-154.08917000009535,21.249019999673408],[-154.06347999980207,21.246159999984172],[-154.03777999994696,21.243289999833792],[-154.0125100001363,21.239969999615937],[-153.98784999967765,21.236080000092045],[-153.96350000002491,21.231850000177531],[-153.95139000004838,21.229679999932216],[-153.91446000032866,21.223720000277922],[-153.88922000010285,21.220400000060067],[-153.8634899997636,21.217540000370889],[-153.83778000034667,21.214679999782277],[-153.8249800000269,21.213190000318377],[-153.78783999961621,21.207470000040587],[-153.76352000044758,21.20322999966487],[-153.73920000037964,21.198999999750356],[-153.71439000019828,21.195219999903202],[-153.68865999985903,21.192360000213966],[-153.6620300002842,21.190410000221448],[-153.63496000020376,21.188919999858228],[-153.60787999966217,21.187439999956155],[-153.58125000008735,21.185489999963693],[-153.55555999979407,21.182630000274457],[-153.53074999961271,21.178850000427303],[-153.50641000042111,21.174610000051587],[-153.48207000033017,21.170380000137015],[-153.45726000014881,21.166600000289918],[-153.43166999997044,21.163630000024625],[-153.405379999887,21.161339999641427],[-153.37888000001192,21.159279999972171],[-153.35258000036663,21.156989999588973],[-153.32699999975011,21.154009999761797],[-153.30218999956875,21.1502299999147],[-153.28996000035366,21.148170000245443],[-153.25351000028621,21.141759999624412],[-153.22870999966668,21.13799000023846],[-153.20300000024972,21.135120000088079],[-153.17638999979857,21.133179999657386],[-153.14929000013331,21.131690000193487],[-153.12222000005289,21.130199999830268],[-153.1087300002892,21.129399999810289],[-153.06990000018479,21.125399999710339],[-153.04509999956525,21.121619999863242],[-153.02074999991248,21.117380000386845],[-153.00863999993598,21.115210000141531],[-152.97163000012432,21.109369999725857],[-152.94591999980807,21.106510000036621],[-152.91919000011833,21.104680000181986],[-152.89162999992448,21.103650000347386],[-152.86363000012432,21.103069999680883],[-152.83563000032419,21.102500000374846],[-152.80811000017627,21.101469999640926],[-152.78137000002539,21.099639999786291],[-152.75565000014731,21.096780000097056],[-152.73083000040413,21.093000000249958],[-152.70651000033615,21.088770000335387],[-152.68215999978409,21.08452999995967],[-152.65738000008685,21.080750000112573],[-152.63164999974759,21.077890000423338],[-152.60490000003489,21.076059999669383],[-152.57735999986403,21.075029999834783],[-152.54938000008684,21.074459999629426],[-152.52136000026371,21.073879999862243],[-152.49384000011582,21.072850000027643],[-152.46709999996494,21.071020000173007],[-152.44138000008684,21.068159999584452],[-152.41660000038962,21.064379999737355],[-152.40437000027521,21.062320000068098],[-152.36790000018479,21.055910000346387],[-152.3431100000264,21.052140000061115],[-152.31737999968715,21.049269999910734],[-152.29064999999741,21.047440000056099],[-152.2631200002877,21.046410000221499],[-152.23513999961122,21.045840000016142],[-152.20715000027221,21.045269999810785],[-152.17961000010135,21.044239999976185],[-152.15288000041161,21.042410000121549],[-152.12717000009533,21.039550000432314],[-152.10235999991397,21.035769999685897],[-152.07799999980006,21.0315300002095],[-152.05367999973211,21.027300000294929],[-152.02886999955075,21.023520000447775],[-152.00314000011085,21.02065999985922],[-151.97652999965968,21.018709999866758],[-151.94945999957923,21.017220000402858],[-151.92239000039811,21.015739999601465],[-151.89577999994697,21.013789999608946],[-151.87006000006886,21.010929999919711],[-151.84528000037164,21.007150000072613],[-151.82092000025773,21.002909999696897],[-151.79656999970564,20.998679999782325],[-151.7843300000294,20.996620000113069],[-151.74605999966917,20.992040000245936],[-151.73293999988101,20.990899999835278],[-151.69234999955276,20.9886100003514],[-151.66524999988749,20.987119999988124],[-151.63864000033567,20.985169999995662],[-151.61293000001939,20.982310000306427],[-151.5881300002992,20.978529999559953],[-151.56377999974711,20.974299999645382],[-151.53945999967917,20.970060000168985],[-151.51476999963569,20.96616999974583],[-151.48953000030917,20.962850000427295],[-151.4638100004311,20.95998999983874],[-151.43810999967667,20.957130000149505],[-151.41285999988901,20.953809999931707],[-151.38814999982256,20.949920000407815],[-151.36382999975461,20.945680000032098],[-151.33948000010184,20.941439999656382],[-151.31479000005837,20.937550000132546],[-151.2895400002707,20.934229999914692],[-151.26382000039263,20.931370000225456],[-151.2380999996152,20.928509999636901],[-151.21286000028869,20.925190000318423],[-151.18817000024524,20.921299999895211],[-151.16385000017729,20.917060000418815],[-151.13961999976308,20.912719999928186],[-151.11529999969514,20.908479999552469],[-151.09060999965169,20.904590000028634],[-151.06570000025474,20.900919999858274],[-151.0532499998875,20.899090000003639],[-151.01665999965917,20.892800000419811],[-150.99245000016728,20.888450000367357],[-150.96823000021425,20.884100000314902],[-150.94387999966216,20.879870000400331],[-150.91918999961871,20.87597000041535],[-150.89428999978358,20.87230999980676],[-150.8695999997401,20.868420000282924],[-150.84527999967216,20.864179999907208],[-150.82117000029518,20.859720000178015],[-150.79726999981057,20.855029999734825],[-150.77347999990198,20.850220000053127],[-150.74960000033965,20.845520000048111],[-150.72573999990098,20.840829999604921],[-150.70197000001539,20.836030000384369],[-150.67822000015281,20.83121000024147],[-150.65443000024422,20.826410000121541],[-150.64253000005937,20.824010000061605],[-150.60677999989699,20.816909999996653],[-150.58288999987352,20.812219999553463],[-150.5591100004261,20.807409999871709],[-150.5353399996412,20.802600000190012],[-150.51156999975561,20.797789999608938],[-150.4996800000319,20.795390000448322],[-150.46392999986952,20.78829000038337],[-150.44005999986902,20.783599999940179],[-150.42817999970714,20.781199999880243],[-150.39252000009785,20.773979999677408],[-150.36873999975111,20.76917999955748],[-150.35685999958923,20.766769999935661],[-150.32111000032617,20.759669999870709],[-150.29720999984153,20.754980000326896],[-150.28532000011782,20.75258000026696],[-150.24967999963221,20.74536999962595],[-150.22588999972362,20.740559999944196],[-150.20215000032218,20.735750000262442],[-150.17824999983753,20.731059999819252],[-150.16625999999891,20.728770000335373],[-150.13071999962818,20.72143999955648],[-150.10727999967216,20.716290000383367],[-150.08408999955375,20.710909999596936],[-150.06113000014929,20.705310000356349],[-150.03828000042159,20.699579999617413],[-150.01530000009484,20.69396999991568],[-149.99210999997644,20.688590000028626],[-149.98045000006738,20.685960000154012],[-149.94504000029571,20.678519999698381],[-149.92113999981106,20.673819999693364],[-149.89726000024874,20.669130000149551],[-149.88538000008685,20.666730000089558],[-149.85018999966866,20.659059999819249],[-149.82700000044957,20.653679999932194],[-149.80402999968464,20.648070000230462],[-149.79259999959024,20.645209999641907],[-149.75821000009134,20.636740000250938],[-149.73501999997293,20.631360000363884],[-149.72336000006388,20.628720000028125],[-149.6879300002692,20.621279999572437],[-149.66406000026871,20.616590000028623],[-149.64017000024523,20.611899999585432],[-149.6163899998985,20.607089999903735],[-149.59262000001291,20.602280000221981],[-149.58073000028921,20.599880000162045],[-149.54506999978059,20.592670000420298],[-149.52121000024124,20.587970000415339],[-149.50920000037962,20.585689999593967],[-149.47366000000892,20.578359999714337],[-149.46187999996195,20.575840000415837],[-149.42704999995746,20.567829999754849],[-149.40408000009185,20.562220000053117],[-149.38123000036416,20.556499999775326],[-149.3582500000374,20.550890000073593],[-149.33505000035714,20.545510000186482],[-149.31161000040112,20.540360000114049],[-149.28795999975409,20.535439999856237],[-149.26408000019177,20.530739999851278],[-149.24019999973012,20.526050000307407],[-149.21642999984454,20.521239999726333],[-149.19267000042009,20.516430000044579],[-149.16887999961222,20.511629999924708],[-149.14514000021074,20.506820000242953],[-149.12125000018727,20.502129999799763],[-149.09738000018677,20.497429999794804],[-149.07359000027822,20.492629999674875],[-149.04970999981654,20.487929999669916],[-149.0256000004396,20.483469999940667],[-149.00128000037162,20.47922999956495],[-148.97659000032817,20.475340000041115],[-148.95168999959373,20.471680000331901],[-148.92701999957325,20.467789999908689],[-148.90268000038162,20.463550000432292],[-148.89055000038212,20.461380000186978],[-148.85468000008186,20.454389999798764],[-148.83089999973512,20.449580000117066],[-148.80700999971162,20.444889999673876],[-148.7831300001493,20.440200000130062],[-148.75936999982554,20.435390000448308],[-148.73547000024024,20.430700000005118],[-148.71135999996395,20.426240000275925],[-148.687039999896,20.421999999900208],[-148.6623400002907,20.418110000376373],[-148.6374200004326,20.414440000205957],[-148.61275999997395,20.410549999782802],[-148.588439999906,20.406319999868231],[-148.564179999907,20.401969999815776],[-148.53985999983902,20.397730000339379],[-148.51516999979557,20.393839999916224],[-148.48992999956974,20.39051999969837],[-148.46420000012981,20.387660000009134],[-148.43848999981356,20.384800000319899],[-148.41324000002589,20.381480000102044],[-148.40078999965868,20.379650000247466],[-148.36420000032967,20.373350000202493],[-148.33986999980056,20.369120000287921],[-148.31519000021825,20.365220000302884],[-148.28992000040762,20.361900000085086],[-148.26421999965316,20.359040000395851],[-148.23849000021326,20.356179999807296],[-148.22570999991649,20.354690000343396],[-148.18857000040512,20.348970000065606],[-148.16421999985303,20.344729999689889],[-148.13987999976209,20.340499999775318],[-148.11508000004187,20.336719999928221],[-148.08948000030168,20.333749999662871],[-148.06319999978007,20.331460000178993],[-148.03669999990498,20.329399999610416],[-148.01042000028269,20.327110000126538],[-147.98483000010432,20.324130000299419],[-147.96001999992296,20.320349999553002],[-147.93567000027022,20.316119999638431],[-147.91135000020228,20.311880000162034],[-147.89912000008786,20.309819999593458],[-147.86096000030369,20.305130000049587],[-147.83469000024323,20.302839999666389],[-147.80817000034514,20.300779999997133],[-147.78188999982356,20.298489999613935],[-147.75629999964519,20.295520000247961],[-147.73151000038612,20.291740000400864],[-147.70715000027221,20.287500000025148],[-147.68283000020426,20.283270000110576],[-147.6580200000229,20.279490000263422],[-147.63228999968365,20.276629999674867],[-147.60568000013183,20.274679999682405],[-147.57861000005138,20.273190000218449],[-147.55153000040912,20.271710000316375],[-147.52489999993497,20.269760000323913],[-147.49918000005687,20.266899999735358],[-147.48662000001292,20.265179999557461],[-147.45004000024574,20.258889999973633],[-147.42572000017779,20.254649999597916],[-147.40090999999643,20.250869999750819],[-147.37521000014132,20.248010000061583],[-147.34857000010533,20.24606999963089],[-147.32148999956374,20.244580000166991],[-147.29440000035964,20.243089999803772],[-147.26778999990847,20.24113999981131],[-147.2546399996362,20.240000000299915],[-147.21729000033315,20.23450000027492],[-147.19293000021926,20.230270000360349],[-147.16861000015129,20.226029999984632],[-147.14379999996993,20.222259999699361],[-147.13123000036413,20.22054000042084],[-147.09135000040212,20.217559999694345],[-147.063899999885,20.216420000183007],[-147.0362500000374,20.215500000025145],[-147.00883000000442,20.21435999961443],[-146.98210000031469,20.212520000197969],[-146.95638999999841,20.209659999609414],[-146.93157999981705,20.205890000223462],[-146.9072599997491,20.201649999847746],[-146.88289999963519,20.197419999933174],[-146.85811000037614,20.193640000086077],[-146.83240000005986,20.190780000396842],[-146.80565999990898,20.188949999642887],[-146.77823000031418,20.187799999670403],[-146.75059999959024,20.186889999973687],[-146.72317999955726,20.185740000001147],[-146.69644000030567,20.183910000146511],[-146.68329999959522,20.182769999735854],[-146.64593999983103,20.177269999710859],[-146.62157999971714,20.173030000234462],[-146.59725999964917,20.168800000319891],[-146.57245999992898,20.165019999573474],[-146.5467499996127,20.162159999884238],[-146.51999000033817,20.160330000029603],[-146.49245999972911,20.159300000195003],[-146.46445999992898,20.158729999989646],[-146.43646000012882,20.158150000222463],[-146.40893999998093,20.157120000387863],[-146.38217000024522,20.155289999633908],[-146.35647999995194,20.152429999944673],[-146.33166999977058,20.148650000097575],[-146.30730999965667,20.144420000183004],[-146.28298999958872,20.140179999807287],[-146.27076999993545,20.138120000138031],[-146.23247999955225,20.133540000270955],[-146.20572999983955,20.131710000416319],[-146.17830999980657,20.130570000005662],[-146.15067000042009,20.129649999847743],[-146.12323000036415,20.128510000336405],[-146.09649999977509,20.12667999958245],[-146.08333999994096,20.12552999960991],[-146.04598999973862,20.120040000046117],[-146.02164000008585,20.115799999670401],[-145.99729999999491,20.111560000194004],[-145.97250000027472,20.107789999908732],[-145.94678000039661,20.104930000219497],[-145.92016999994544,20.102980000226978],[-145.89309999986503,20.101489999863759],[-145.86600999976159,20.100009999961685],[-145.83940000020976,20.098059999969166],[-145.81368999989348,20.095200000279931],[-145.78887999971212,20.091420000432834],[-145.76453000005938,20.087180000057117],[-145.74020000042958,20.082950000142546],[-145.71541000027122,20.079170000295392],[-145.68982000009285,20.076200000030099],[-145.66353999957124,20.073909999646901],[-145.63701000011133,20.071849999977644],[-145.61074999961269,20.069559999594446],[-145.59772999993947,20.068299999945168],[-145.56035999971414,20.062810000381376],[-145.53601000006137,20.058570000005659],[-145.51168999999342,20.054329999629942],[-145.48687999981206,20.050560000243934],[-145.46126999961072,20.047580000416815],[-145.43500000044958,20.045290000033617],[-145.40847999965217,20.04323000036436],[-145.38220000002988,20.040939999981163],[-145.35660000028969,20.03796999971587],[-145.33181999969315,20.034189999868715],[-145.30745999957924,20.029950000392319],[-145.28314000041061,20.025719999578484],[-145.25833000022925,20.02193999973133],[-145.23272999958974,20.018959999904212],[-145.20644999996745,20.016670000420334],[-145.17995000009233,20.014609999851757],[-145.1536600000089,20.012329999929705],[-145.14062000031268,20.011070000280426],[-145.10327000011034,20.005570000255432],[-145.09103000043407,20.003509999686855],[-145.05460000038963,19.997099999965144],[-145.02979000020827,19.993320000118047],[-145.0041800000069,19.990349999852754],[-144.97790999994646,19.988060000368876],[-144.95139000004838,19.985999999800299],[-144.92511000042609,19.983710000316421],[-144.89950999978657,19.980729999589926],[-144.87469000004339,19.976960000203974],[-144.85036999997544,19.972719999828257],[-144.82602000032267,19.96848000035186],[-144.80121999970314,19.964710000066589],[-144.7755100002862,19.961850000377353],[-144.74889999983503,19.959900000384835],[-144.72182999975459,19.958410000021615],[-144.69475000011232,19.956919999658396],[-144.66813999966118,19.954980000127023],[-144.64243000024422,19.952120000437787],[-144.61760999960171,19.94833999969137],[-144.59325999994894,19.944100000214974],[-144.568939999881,19.939870000300402],[-144.54414000016078,19.936089999553985],[-144.51852000039761,19.933109999726867],[-144.49225000033715,19.930820000242932],[-144.46574000000092,19.928759999674412],[-144.43944999991749,19.926479999752303],[-144.42643999980606,19.925220000103081],[-144.40131000015629,19.921779999747343],[-144.3647500004121,19.915490000163516],[-144.34039000029819,19.911249999787799],[-144.31558000011682,19.907469999940702],[-144.29000999996146,19.904499999675409],[-144.26371999987802,19.902210000191474],[-144.23721000044108,19.900149999622897],[-144.2109099998965,19.897860000139019],[-144.18531999971813,19.8948800003119],[-144.16051999999792,19.891110000026629],[-144.13617000034515,19.886869999650912],[-144.1118500002772,19.882639999736341],[-144.08704000009584,19.878859999889244],[-144.0614299998945,19.875880000062068],[-144.03515999983404,19.87358999967887],[-144.00888000021175,19.871530000009614],[-143.98327999957223,19.869239999626416],[-143.95905000005735,19.866259999799297],[-143.93653999982104,19.862490000413345],[-143.91564999964766,19.858250000037629],[-143.89542000023272,19.854020000123057],[-143.87494999964269,19.85024000027596]]]},"properties":{"objectid":187,"stormname":"Fausto","stormtype":"HU","basin":"EP","advdate":"500 PM HST Sun Jul 26 2026","advisnum":"33","fcstprd":120,"stormnum":6,"idp_source":"ep062026-033_5day_pgn","idp_filedate":1785121701000,"idp_ingestdate":1785121803000,"st_area(shape)":44.088170957219667,"st_perimeter(shape)":46.224237113711915,"binnumber":"CP1"}}]}