{"type":"FeatureCollection","features":[{"type":"Feature","id":164,"geometry":{"type":"LineString","coordinates":[[-104.30000000009983,10.800000000100056],[-106.1999999999,11.799999999900194],[-108.30000000019976,12.900000000399814],[-110.19999999999987,14.199999999600436],[-111.99999999999989,15.499999999700378],[-113.60000000039958,16.600000000199998],[-115.1999999999,17.600000000000136],[-118.49999999960022,18.99999999990024],[-122.49999999970015,20.499999999600448]]},"properties":{"objectid":164,"stormname":"Genevieve","stormtype":"TS","basin":"EP","advdate":"900 AM CST Sat Jul 25 2026","advisnum":"5","fcstprd":120,"stormnum":7,"idp_source":"ep072026-005_5day_lin","idp_filedate":1784992366000,"idp_ingestdate":1784992418000,"st_length(shape)":20.72541473952365,"binnumber":"EP2"}}]}