{"type":"FeatureCollection","features":[{"type":"Feature","id":3068,"geometry":{"type":"Point","coordinates":[-93.400000000299656,7.6000000001999979]},"properties":{"objectid":3068,"stormname":"GENESIS011","stormtype":"DB","stormnum":7,"intensity":20,"basin":"ep","mslp":1010,"dtg":2026072218,"year":2026,"month":"07","day":22,"hhmm":"1800","lat":8,"lon":-93,"ss":0,"idp_source":"EP072026_pts","idp_filedate":1784992366000,"idp_ingestdate":1784992396000,"binnumber":"EP2"}},{"type":"Feature","id":3069,"geometry":{"type":"Point","coordinates":[-94.199999999600209,7.7000000000001592]},"properties":{"objectid":3069,"stormname":"GENESIS011","stormtype":"DB","stormnum":7,"intensity":20,"basin":"ep","mslp":1010,"dtg":2026072300,"year":2026,"month":"07","day":23,"hhmm":"0000","lat":8,"lon":-94,"ss":0,"idp_source":"EP072026_pts","idp_filedate":1784992366000,"idp_ingestdate":1784992396000,"binnumber":"EP2"}},{"type":"Feature","id":3070,"geometry":{"type":"Point","coordinates":[-94.999999999800025,7.7999999998002636]},"properties":{"objectid":3070,"stormname":"INVEST","stormtype":"DB","stormnum":7,"intensity":25,"basin":"ep","mslp":1008,"dtg":2026072306,"year":2026,"month":"07","day":23,"hhmm":"0600","lat":8,"lon":-95,"ss":0,"idp_source":"EP072026_pts","idp_filedate":1784992366000,"idp_ingestdate":1784992396000,"binnumber":"EP2"}},{"type":"Feature","id":3071,"geometry":{"type":"Point","coordinates":[-95.899999999800059,7.8999999996004249]},"properties":{"objectid":3071,"stormname":"INVEST","stormtype":"DB","stormnum":7,"intensity":25,"basin":"ep","mslp":1007,"dtg":2026072312,"year":2026,"month":"07","day":23,"hhmm":"1200","lat":8,"lon":-96,"ss":0,"idp_source":"EP072026_pts","idp_filedate":1784992366000,"idp_ingestdate":1784992396000,"binnumber":"EP2"}},{"type":"Feature","id":3072,"geometry":{"type":"Point","coordinates":[-96.899999999600197,8.1000000001000672]},"properties":{"objectid":3072,"stormname":"INVEST","stormtype":"DB","stormnum":7,"intensity":25,"basin":"ep","mslp":1006,"dtg":2026072318,"year":2026,"month":"07","day":23,"hhmm":"1800","lat":8,"lon":-97,"ss":0,"idp_source":"EP072026_pts","idp_filedate":1784992366000,"idp_ingestdate":1784992396000,"binnumber":"EP2"}},{"type":"Feature","id":3073,"geometry":{"type":"Point","coordinates":[-97.799999999600175,8.2999999997003897]},"properties":{"objectid":3073,"stormname":"INVEST","stormtype":"DB","stormnum":7,"intensity":25,"basin":"ep","mslp":1007,"dtg":2026072400,"year":2026,"month":"07","day":24,"hhmm":"0000","lat":8,"lon":-98,"ss":0,"idp_source":"EP072026_pts","idp_filedate":1784992366000,"idp_ingestdate":1784992396000,"binnumber":"EP2"}},{"type":"Feature","id":3074,"geometry":{"type":"Point","coordinates":[-98.999999999899956,8.5000000001999751]},"properties":{"objectid":3074,"stormname":"INVEST","stormtype":"DB","stormnum":7,"intensity":25,"basin":"ep","mslp":1006,"dtg":2026072406,"year":2026,"month":"07","day":24,"hhmm":"0600","lat":8,"lon":-99,"ss":0,"idp_source":"EP072026_pts","idp_filedate":1784992366000,"idp_ingestdate":1784992396000,"binnumber":"EP2"}},{"type":"Feature","id":3075,"geometry":{"type":"Point","coordinates":[-100.20000000019974,8.6999999998002977]},"properties":{"objectid":3075,"stormname":"SEVEN","stormtype":"TD","stormnum":7,"intensity":30,"basin":"ep","mslp":1005,"dtg":2026072412,"year":2026,"month":"07","day":24,"hhmm":"1200","lat":9,"lon":-100,"ss":0,"idp_source":"EP072026_pts","idp_filedate":1784992366000,"idp_ingestdate":1784992396000,"binnumber":"EP2"}},{"type":"Feature","id":3076,"geometry":{"type":"Point","coordinates":[-101.19999999999987,8.9000000002998831]},"properties":{"objectid":3076,"stormname":"GENEVIEVE","stormtype":"TS","stormnum":7,"intensity":35,"basin":"ep","mslp":1003,"dtg":2026072418,"year":2026,"month":"07","day":24,"hhmm":"1800","lat":9,"lon":-101,"ss":0,"idp_source":"EP072026_pts","idp_filedate":1784992366000,"idp_ingestdate":1784992396000,"binnumber":"EP2"}},{"type":"Feature","id":3077,"geometry":{"type":"Point","coordinates":[-102.09999999999991,9.300000000399848]},"properties":{"objectid":3077,"stormname":"GENEVIEVE","stormtype":"TS","stormnum":7,"intensity":45,"basin":"ep","mslp":1000,"dtg":2026072500,"year":2026,"month":"07","day":25,"hhmm":"0000","lat":9,"lon":-102,"ss":0,"idp_source":"EP072026_pts","idp_filedate":1784992366000,"idp_ingestdate":1784992396000,"binnumber":"EP2"}},{"type":"Feature","id":3078,"geometry":{"type":"Point","coordinates":[-102.99999999999989,9.6999999996004362]},"properties":{"objectid":3078,"stormname":"GENEVIEVE","stormtype":"TS","stormnum":7,"intensity":45,"basin":"ep","mslp":1000,"dtg":2026072506,"year":2026,"month":"07","day":25,"hhmm":"0600","lat":10,"lon":-103,"ss":0,"idp_source":"EP072026_pts","idp_filedate":1784992366000,"idp_ingestdate":1784992396000,"binnumber":"EP2"}},{"type":"Feature","id":3079,"geometry":{"type":"Point","coordinates":[-103.7000000003996,10.499999999800309]},"properties":{"objectid":3079,"stormname":"GENEVIEVE","stormtype":"TS","stormnum":7,"intensity":50,"basin":"ep","mslp":997,"dtg":2026072512,"year":2026,"month":"07","day":25,"hhmm":"1200","lat":10,"lon":-104,"ss":0,"idp_source":"EP072026_pts","idp_filedate":1784992366000,"idp_ingestdate":1784992396000,"binnumber":"EP2"}}]}