{"type":"FeatureCollection","features":[{"type":"Feature","id":226,"geometry":{"type":"Polygon","coordinates":[[[-132.59035999991397,22.342869999850734],[-132.56679999982003,22.339860000438819],[-132.54175999982402,22.338359999614454],[-132.51523000036411,22.338359999614454],[-132.48804000014582,22.339990000138528],[-132.46123999992597,22.343500000125061],[-132.43545999997895,22.348770000335378],[-132.41091999965818,22.355539999571477],[-132.3878600001388,22.363820000093085],[-132.36610000031465,22.37334999980277],[-132.34517999965715,22.383759999624431],[-132.32526000014877,22.39518000015704],[-132.29761000030118,22.414490000313378],[-132.27380000036965,22.437699999555491],[-132.26654000012081,22.446100000214983],[-132.24874999991249,22.475319999618421],[-132.23936000036366,22.497270000110575],[-132.2321200001378,22.521349999902725],[-132.22684999992748,22.547189999918714],[-132.22370999991648,22.574409999721865],[-132.22284000026571,22.60237999993717],[-132.22420999959172,22.630100000314883],[-132.22658999962869,22.642640000335916],[-132.2346200003127,22.681139999611446],[-132.24365000034715,22.703460000079076],[-132.25490999979655,22.723530000209507],[-132.26806999963071,22.741719999978159],[-132.28255999964421,22.758529999959649],[-132.29810999997642,22.774330000129567],[-132.31438000023672,22.789379999887217],[-132.34944000005589,22.816969999665901],[-132.35869999990496,22.823369999825786],[-132.38849000041307,22.840560000243954],[-132.40966999957072,22.850709999766821],[-132.42055999994398,22.855480000301895],[-132.45450000027472,22.868519999998171],[-132.47753999977107,22.876799999620403],[-132.50091999965815,22.88469999970539],[-132.51269999970515,22.888590000128545],[-132.54791000014632,22.900379999737311],[-132.5712900000334,22.908279999822298],[-132.59485000012734,22.916059999769288],[-132.61841000022122,22.923839999716336],[-132.6301599997841,22.927719999678402],[-132.66570999971663,22.939140000210955],[-132.68988000006186,22.946289999883732],[-132.71428000022172,22.953189999718859],[-132.73897000026523,22.959830000154511],[-132.76376000042359,22.966349999552961],[-132.78841999998292,22.972999999550495],[-132.81284000016581,22.979900000284943],[-132.83700999961172,22.987049999957662],[-132.86078000039663,22.994580000067117],[-132.88433999959119,23.002349999552962],[-132.90787000010033,23.010119999938183],[-132.93139999971015,23.01789999988523],[-132.95483000010432,23.025810000431306],[-132.9782399995762,23.033709999616917],[-133.00177000008534,23.041480000002139],[-133.02533000017928,23.049259999949186],[-133.04873999965116,23.057160000034116],[-133.07213999956122,23.065060000119047],[-133.09567000007036,23.072840000066094],[-133.11919999968018,23.080609999551996],[-133.14263999963617,23.088520000098072],[-133.16605000000743,23.096420000183002],[-133.18957999961719,23.104189999668904],[-133.21313000014931,23.111969999615951],[-133.22487999971213,23.115860000039106],[-133.25994999999244,23.127769999785812],[-133.28351000008632,23.135549999732859],[-133.30703999969614,23.143329999679906],[-133.33045999962917,23.151229999764837],[-133.35384999997746,23.159129999849768],[-133.37737999958722,23.166900000234989],[-133.40093999968116,23.174680000181979],[-133.42437999963721,23.182580000266967],[-133.44774999996241,23.190480000351897],[-133.47131000005635,23.198260000298944],[-133.49483999966617,23.206040000245935],[-133.51825000003737,23.213940000330865],[-133.54168999999342,23.221840000415853],[-133.56521999960319,23.229620000362843],[-133.58875000011233,23.237389999848745],[-133.61217999960724,23.24530000039482],[-133.63558999997844,23.253199999580431],[-133.6591199995882,23.260969999965653],[-133.68265000009734,23.2687499999127],[-133.70609000005339,23.27664999999763],[-133.72948999996345,23.284550000082561],[-133.75301999957321,23.292330000029608],[-133.77657999966715,23.300109999976655],[-133.79999000003841,23.308010000061586],[-133.82338999994846,23.315910000146516],[-133.84691999955822,23.323679999632418],[-133.87047999965216,23.331459999579465],[-133.89389000002342,23.339359999664396],[-133.91730000039462,23.347270000210472],[-133.94085999958924,23.355039999696373],[-133.9643599996142,23.36281999964342],[-133.98779000000843,23.370719999728351],[-134.01120000037963,23.378619999813282],[-134.03472999998939,23.386399999760329],[-134.05829000008333,23.39417000014555],[-134.08173000003939,23.402070000230481],[-134.10512999994944,23.409979999877237],[-134.12865999955926,23.417750000262458],[-134.1522199996532,23.425530000209505],[-134.1756000004396,23.433430000294436],[-134.1990400003956,23.441330000379367],[-134.22256000044359,23.449110000326414],[-134.24609000005336,23.456890000273461],[-134.26953000000941,23.464790000358391],[-134.29294000038061,23.472690000443322],[-134.31646999999043,23.480459999929167],[-134.34003000008437,23.488239999876214],[-134.36342999999442,23.496139999961144],[-134.38684000036562,23.504040000046132],[-134.41036999997544,23.511819999993122],[-134.43378000034664,23.519720000078109],[-134.45681999984305,23.527999999700342],[-134.47963000042409,23.536530000059599],[-134.50229000038314,23.545179999657421],[-134.52456999990551,23.554209999691864],[-134.54659999959023,23.563500000025101],[-134.55761999966319,23.568130000399321],[-134.59155000043211,23.581179999657422],[-134.61432000006783,23.589710000016623],[-134.63739000004836,23.597989999638912],[-134.64902000037262,23.602000000200007],[-134.68433000002938,23.613660000109064],[-134.7077600004236,23.621560000193995],[-134.73116999989549,23.629469999840751],[-134.75470000040463,23.637240000225972],[-134.77814000036062,23.645140000310903],[-134.78976000022374,23.649160000433824],[-134.82393999993099,23.661950000292393],[-134.846619999913,23.670599999890214],[-134.86890000033463,23.679629999924714],[-134.87990999994645,23.684280000321905],[-134.9132100004411,23.697950000292394],[-134.93587999996191,23.706599999890216],[-134.95866000005884,23.715130000249474],[-134.98169999955525,23.723409999871762],[-135.00512999994947,23.731309999956693],[-135.02865999955924,23.73908999990374],[-135.05206000036861,23.746989999988671],[-135.07550000032467,23.754890000073601],[-135.09902999993449,23.762659999559446],[-135.12256000044357,23.770440000405813],[-135.14600000039962,23.778339999591424],[-135.16940000030968,23.786250000137557],[-135.1929299999195,23.794019999623401],[-135.2163699998755,23.801919999708389],[-135.22800000019976,23.805939999831253],[-135.262179999907,23.818729999689879],[-135.28485000032714,23.82738000018702],[-135.2961099997766,23.831779999847242],[-135.3291600004336,23.84569999965538],[-135.35143999995597,23.85472999968988],[-135.37411000037611,23.863380000187021],[-135.39690000003486,23.871909999646903],[-135.41994000043059,23.880190000168511],[-135.44336000036361,23.888090000253442],[-135.46688999997343,23.895870000200489],[-135.49030000034463,23.903770000285419],[-135.51372999983954,23.91167000037035],[-135.53726000034862,23.919450000317397],[-135.56078999995844,23.927219999803299],[-135.5842299999145,23.935119999888229],[-135.6076400002857,23.94301999997316],[-135.63116000033364,23.950799999920207],[-135.65460000028969,23.958700000005138],[-135.66622999971463,23.962720000128058],[-135.68902999983453,23.971240000026114],[-135.72307999984201,23.984159999584449],[-135.7453600002637,23.993189999618949],[-135.76740000040962,24.002479999952186],[-135.78967000037011,24.011509999986629],[-135.81235000035213,24.02015999958445],[-135.83513000044906,24.028689999943708],[-135.85816999994546,24.036969999565997],[-135.88158999987849,24.044869999650928],[-135.90500000024974,24.052769999735858],[-135.92803999974609,24.061050000257467],[-135.95081999984302,24.069579999717348],[-135.97347999980207,24.078230000214489],[-135.99576000022375,24.087260000248932],[-136.01780999993144,24.096540000121024],[-136.04009999991496,24.105570000155524],[-136.062759999874,24.114219999753345],[-136.08553999997093,24.122750000112546],[-136.10858000036666,24.131029999734835],[-136.12024000027571,24.135049999857756],[-136.14374000030068,24.142820000242978],[-136.17843999970614,24.155119999988131],[-136.18984999977761,24.159380000386875],[-136.21262000031265,24.167909999846756],[-136.23516999969564,24.176690000043607],[-136.25720000027968,24.185969999915699],[-136.2792400004256,24.195249999787791],[-136.31305000015732,24.208420000083095],[-136.33544999981757,24.217320000417828],[-136.34659000002841,24.221840000215991],[-136.38039999976007,24.235009999611918],[-136.39168999969365,24.239399999710372],[-136.41372999983952,24.248679999582464],[-136.43576000042361,24.257960000353876],[-136.45828000022175,24.266739999651406],[-136.48082999960474,24.275519999848257],[-136.51439000039812,24.288939999981153],[-136.5256699998705,24.293330000079607],[-136.55922000020274,24.306750000212503],[-136.57024999983753,24.311390000148549],[-136.60355000033218,24.325060000119038],[-136.61480999978158,24.329450000217491],[-136.64848000025171,24.342750000212504],[-136.67089999993499,24.351649999647918],[-136.68216000028372,24.356039999746315],[-136.7044700002902,24.365069999780815],[-136.73663000037413,24.379880000162018],[-136.74727999957224,24.384890000073597],[-136.76882999960469,24.39466999962093],[-136.79010000021475,24.404710000366379],[-136.8227799999969,24.419009999711875],[-136.83392000020774,24.423519999948155],[-136.85644999956776,24.432300000145005],[-136.89001000036114,24.445720000277959],[-136.9012800002717,24.450110000376355],[-136.92357000025521,24.459140000410855],[-136.94510000026469,24.468930000419334],[-136.97704000009583,24.483969999715839],[-136.98769000019325,24.488990000088563],[-137.00844999976761,24.499529999609933],[-137.02923999982602,24.510059999569478],[-137.05054000002087,24.520100000314926],[-137.07180999973161,24.530129999699852],[-137.09335000020224,24.539919999708388],[-137.12691999965818,24.553330000279459],[-137.14932000021776,24.562240000176018],[-137.1604600004286,24.566750000412355],[-137.18298000022673,24.575529999709886],[-137.21605999956921,24.589450000417344],[-137.22684000026572,24.594349999752808],[-137.24810999997641,24.604380000037111],[-137.26941000017126,24.614410000321413],[-137.29018999976859,24.624949999842784],[-137.32160999990151,24.640500000174995],[-137.33223999997591,24.6455199996484],[-137.36429999994493,24.660439999706341],[-137.3750599997191,24.665339999941182],[-137.39736999972564,24.674369999975681],[-137.41989000042309,24.683150000172532],[-137.44220000042958,24.692169999745829],[-137.47586000043856,24.705469999740842],[-137.48699999975008,24.709990000438324],[-137.50856000024373,24.719769999985658],[-137.52984999997744,24.729800000269961],[-137.56151000038614,24.745110000326406],[-137.57190000018477,24.750370000075577],[-137.60320999974158,24.766050000107555],[-137.61371000011633,24.771189999718843],[-137.63452000019777,24.781730000139532],[-137.65529999979509,24.792269999660903],[-137.68671999992796,24.807819999993171],[-137.7075000004246,24.818360000413804],[-137.71789999978506,24.823620000163032],[-137.74933000037913,24.839169999595924],[-137.75970000015479,24.844439999806298],[-137.79102999973463,24.860119999838275],[-137.80153999967115,24.865260000348883],[-137.82232999972962,24.875799999870253],[-137.84311000022626,24.886329999829798],[-137.86415000012232,24.896620000412838],[-137.88492000015782,24.907150000372383],[-137.91622999971463,24.92283000040436],[-137.92675999967418,24.927970000015648],[-137.94754000017076,24.938510000436338],[-137.96831999976808,24.949040000395826],[-137.98935000010232,24.959330000079603],[-138.02054000042057,24.975130000249465],[-138.03093999978108,24.980399999560461],[-138.0519399996312,24.990679999682357],[-138.07274999971264,25.001220000103046],[-138.09353999977111,25.011759999624417],[-138.12495000034215,25.027309999956685],[-138.13534999970261,25.032569999705856],[-138.15613000019925,25.043110000126546],[-138.17719000011834,25.053390000248442],[-138.20834000039059,25.069199999980185],[-138.21875000021225,25.074470000190502],[-138.23977999964717,25.084750000312397],[-138.26056000014381,25.095289999833767],[-138.28133999974114,25.105819999793312],[-138.31277000033515,25.121379999687406],[-138.32314999967264,25.126640000335897],[-138.34393000016928,25.137179999857267],[-138.36499000008837,25.147459999979162],[-138.38576999968564,25.158000000399852],[-138.4065599997441,25.168539999921222],[-138.42757999961719,25.178820000043117],[-138.44836000011384,25.189350000002662],[-138.46915000017231,25.199890000423295],[-138.4901700000454,25.210169999645927],[-138.51096000010381,25.220710000066617],[-138.53177000018525,25.231249999587931],[-138.55279999962022,25.241529999709883],[-138.5839699999155,25.257340000340889],[-138.59435999971413,25.26260000009006],[-138.61541999963316,25.272889999773838],[-138.63616999964569,25.283419999733326],[-138.66750000012485,25.299099999765303],[-138.68839000029817,25.309509999586965],[-138.69878999965869,25.314779999797281],[-138.73008999965367,25.330459999829259],[-138.74059999959024,25.335600000339866],[-138.76138000008683,25.346130000299411],[-138.79268000008187,25.361810000331388],[-138.8136100003012,25.37222000015305],[-138.82400999966166,25.377490000363366],[-138.85530000009481,25.393170000395344],[-138.86581000003139,25.398310000006632],[-138.88660000008986,25.408850000427321],[-138.90737999968712,25.419380000386866],[-138.93881000028119,25.434929999819758],[-138.95958999987852,25.445470000240448],[-138.96999999970012,25.450739999551502],[-138.99103000003441,25.461019999673397],[-139.01180999963168,25.471560000094087],[-139.03259000012832,25.482090000053574],[-139.05365000004736,25.492379999737352],[-139.08480999988149,25.508179999907213],[-139.10572999963966,25.518589999728874],[-139.11623999957624,25.523730000239482],[-139.13702000007288,25.534269999760795],[-139.15781000013129,25.54479999972034],[-139.17883000000438,25.555090000303437],[-139.19962000006285,25.565620000262925],[-139.22039999966017,25.576159999784295],[-139.24145999957921,25.58643999990619],[-139.27260999985151,25.602249999637934],[-139.28301999967317,25.60751999984825],[-139.30405000000741,25.617799999970146],[-139.32482999960473,25.628340000390835],[-139.34561000010132,25.63887000035038],[-139.36664000043561,25.649160000034101],[-139.38742000003288,25.659689999993645],[-139.41874999961271,25.675370000025623],[-139.42926000044855,25.680509999636911],[-139.46042999984451,25.696320000267917],[-139.47083000010434,25.701580000017145],[-139.4921300002992,25.711619999863217],[-139.51340000000988,25.72165000014752],[-139.54607999979208,25.735950000392336],[-139.56850000037463,25.74484999982775],[-139.57977000028518,25.749239999926203],[-139.61331000015628,25.7626600000591],[-139.62456999960568,25.767050000157496],[-139.65762000026274,25.780980000426837],[-139.66840000005988,25.785870000200475],[-139.68970000025473,25.795899999585458],[-139.71100000044959,25.805929999869761],[-139.73174999956274,25.816470000290451],[-139.75255999964418,25.827009999811764],[-139.77358999997841,25.837289999933716],[-139.79436999957574,25.84783000035435],[-139.82566999957072,25.863510000386327],[-139.83618000040661,25.868649999997672],[-139.85696000000394,25.879179999957159],[-139.87775000006235,25.889720000377849],[-139.89880000041961,25.899999999600425],[-139.9195899995787,25.910540000021115],[-139.94037000007535,25.921069999980659],[-139.97228999988351,25.936119999738366],[-139.98293999998094,25.941140000111034],[-140.00446000042859,25.950919999658424],[-140.03802000032266,25.964339999791321],[-140.04929000023321,25.968729999889717],[-140.08283999966619,25.982150000022614],[-140.10526000024873,25.99105999991923],[-140.11638999999843,25.99557000015551],[-140.13794000003088,26.005360000164046],[-140.15924000022574,26.015390000448292],[-140.18050999993648,26.025419999833275],[-140.20129000043306,26.035960000253965],[-140.22207999959221,26.046499999775335],[-140.25351000018628,26.062050000107547],[-140.26389000042309,26.06732000031792],[-140.28469999960521,26.077850000277408],[-140.3166200003127,26.092900000035115],[-140.32727000041012,26.097920000407839],[-140.34882000044257,26.107699999955173],[-140.38234999985252,26.121120000088069],[-140.39361999976308,26.125510000186523],[-140.41588999972362,26.134549999782791],[-140.43844999956775,26.143320000417816],[-140.47148000020178,26.15724999978778],[-140.48226999956074,26.162139999561475],[-140.5035400001708,26.172169999845778],[-140.52484000036566,26.18220999969185],[-140.54561999996292,26.192739999651394],[-140.57693000041911,26.208419999683372],[-140.58746000037866,26.213560000193979],[-140.60821999995295,26.224099999715349],[-140.62903000003439,26.234629999674894],[-140.65004999990748,26.244920000257935],[-140.67083999996595,26.255459999779305],[-140.69161999956322,26.265989999738849],[-140.71264999989751,26.276269999860745],[-140.73343000039409,26.286810000281434],[-140.75420999999142,26.297340000240979],[-140.77551000018627,26.307380000087051],[-140.80757000015529,26.322300000145049],[-140.81832999992946,26.327189999918687],[-140.84061000035115,26.336219999953187],[-140.86315999973414,26.345009999711863],[-140.88544000015577,26.35403000018448],[-140.91910999972663,26.367330000179493],[-140.93024000037565,26.371849999977655],[-140.95181000043107,26.381630000424309],[-140.97308000014181,26.391659999809292],[-140.99438000033666,26.401690000093595],[-141.01517000039513,26.412229999614908],[-141.0359499999924,26.422759999574453],[-141.05698000032669,26.43305000015755],[-141.08816999974562,26.448850000327411],[-141.0985400004206,26.454119999638408],[-141.11956999985551,26.464410000221449],[-141.15076000017376,26.480210000391367],[-141.1611600004336,26.485479999702363],[-141.18218999986851,26.495759999824259],[-141.20297000036516,26.506300000244948],[-141.22374999996242,26.516830000204493],[-141.24480999988151,26.527119999888214],[-141.27596999971564,26.542920000058075],[-141.29689000037314,26.553329999879736],[-141.30740000030966,26.558479999952169],[-141.32819000036812,26.569009999911714],[-141.34896999996545,26.579539999871258],[-141.37000000029968,26.589829999554979],[-141.40114999967267,26.60562999972484],[-141.41156000039359,26.610899999935214],[-141.43262000031268,26.621189999618935],[-141.45339999991,26.631719999578479],[-141.47418000040659,26.642259999999169],[-141.49520999984151,26.652540000121064],[-141.51599000033815,26.663079999642434],[-141.53676999993547,26.673609999601922],[-141.55780000026971,26.68390000018502],[-141.5888500004271,26.69983000005459],[-141.59912000008785,26.705220000402846],[-141.6297000001548,26.721649999947658],[-141.63971000041607,26.72729999969539],[-141.65923999992594,26.73907999974233],[-141.67853000005937,26.751129999649891],[-141.69780999973159,26.7631600004338],[-141.71709999986501,26.77521000034136],[-141.73659999979009,26.786990000388357],[-141.75664999989749,26.798280000321881],[-141.77715999963419,26.809069999680901],[-141.80797000041508,26.82525000028744],[-141.82850999973664,26.836039999646403],[-141.83878000029671,26.841429999994659],[-141.85883000040411,26.852719999928183],[-141.87835999991398,26.864510000436326],[-141.8976399995862,26.876549999882741],[-141.92657000000543,26.894609999951683],[-141.93621999985305,26.900629999674891],[-141.95571999977807,26.912420000182976],[-141.97548999956376,26.92395999995415],[-141.99553999967117,26.935249999887731],[-142.01531999991795,26.946780000097078],[-142.03485000032714,26.958569999705844],[-142.05413999956124,26.970610000051579],[-142.07342999969467,26.982650000397371],[-142.09271000026621,26.994700000304931],[-142.11223999977608,27.006489999913697],[-142.13202000002292,27.018020000123045],[-142.15203999964621,27.029310000056626],[-142.17181000033116,27.040849999827799],[-142.19137999988698,27.052640000335884],[-142.22027999982203,27.070700000404827],[-142.22992000010782,27.07672999968986],[-142.24921000024125,27.088770000035595],[-142.26873999975112,27.100550000082592],[-142.28851000043608,27.112089999853765],[-142.30855999964416,27.123379999787289],[-142.32835000035215,27.134919999558463],[-142.35750999968667,27.152729999789813],[-142.36716000043361,27.15875000041234],[-142.38619999983007,27.171039999696347],[-142.40497000026522,27.183590000178526],[-142.42377000028517,27.196130000199503],[-142.43317000029521,27.202399999760303],[-142.46129999979507,27.221210000241456],[-142.48949999982506,27.240019999823289],[-142.49887000025024,27.246299999845235],[-142.51767000027019,27.258839999866268],[-142.53643999980608,27.271379999887245],[-142.55523999982603,27.283919999908221],[-142.57401000026124,27.296459999929198],[-142.59277000023525,27.30901000041132],[-142.6115700002552,27.321550000432296],[-142.63033999979109,27.334089999553953],[-142.63973999980107,27.34036000001413],[-142.67731000025623,27.365449999617908],[-142.6867100002662,27.371720000078085],[-142.71487000025024,27.390529999659918],[-142.72427000026022,27.396800000120038],[-142.74303999979605,27.409340000141015],[-142.7524300002442,27.415620000163017],[-142.78061000025122,27.43442999974485],[-142.79912999994946,27.447219999603419],[-142.8174100002712,27.46026999976084],[-142.83541999983305,27.47356000019397],[-142.85323999962617,27.487110000026632],[-142.87075999997393,27.500900000135061],[-142.89754999973263,27.521099999965145],[-142.9065599997441,27.527740000400854],[-142.92459000022825,27.541040000395867],[-142.94263000027422,27.554329999929678],[-142.96065999985905,27.567629999924691],[-142.98721000024125,27.588070000030598],[-142.99597000041513,27.594969999865725],[-143.01373000013933,27.608519999698387],[-143.03177000018525,27.621810000131518],[-143.04979999977007,27.635110000126531],[-143.06781000023125,27.648399999660398],[-143.08560000043957,27.661950000392324],[-143.10291000009636,27.675999999900228],[-143.11966000000893,27.69054000042081],[-143.13644000040563,27.705089999603956],[-143.15323000036415,27.719639999686365],[-143.17049999997494,27.733690000093588],[-143.18829000018326,27.747230000364368],[-143.20629999974511,27.760530000359381],[-143.22433000022926,27.773830000354394],[-143.24212999999941,27.787369999725854],[-143.25075999957426,27.79440000016001],[-143.27593999973112,27.816220000053079],[-143.29220999999143,27.831269999810786],[-143.30797999967717,27.846820000143055],[-143.31585999973913,27.854600000090102],[-143.3392900001333,27.87818000020701],[-143.35503999979608,27.893729999639902],[-143.36281999974312,27.901629999724832],[-143.38635000025221,27.925080000142032],[-143.40215999998395,27.940640000036126],[-143.41843000024426,27.955689999793776],[-143.43493999988101,27.970489999713834],[-143.45223999997592,27.984540000121058],[-143.46999999970012,27.998080000391838],[-143.48803999974609,28.01138000038685],[-143.50603999974612,28.024669999920718],[-143.52382999995444,28.038219999753323],[-143.54113999961123,28.052259999699345],[-143.55765000014731,28.067059999619403],[-143.56578000004686,28.074589999728857],[-143.58971999967815,28.097670000170524],[-143.60547000024025,28.113219999603416],[-143.62103000013434,28.129030000234479],[-143.63677999979706,28.144579999667371],[-143.65231000010635,28.160379999837289],[-143.66782999995445,28.17618000000715],[-143.6753499996027,28.184340000390876],[-143.69024999963767,28.200769999935687],[-143.71166999997041,28.226349999652882],[-143.72519000021828,28.244159999884232],[-143.73182999975461,28.253189999918732],[-143.75173999970116,28.280280000022117],[-143.75838000013681,28.289310000056616],[-143.77176000022376,28.307249999987675],[-143.78539999971014,28.324940000081085],[-143.80556999995542,28.351769999885732],[-143.81195000009234,28.36106000021897],[-143.82447999965217,28.379869999800803],[-143.8363500002522,28.399309999656907],[-143.84741000037116,28.419629999624931],[-143.85778999970864,28.440579999867225],[-143.86779999996992,28.461900000085052],[-143.87719999997995,28.483840000116061],[-143.88596000015377,28.506419999983166],[-143.89435000035218,28.529369999825747],[-143.90209999981505,28.552949999942712],[-143.90897000006538,28.57741000017154],[-143.91525000008733,28.602499999775318],[-143.92101999997294,28.628089999953659],[-143.92627000016029,28.654170000245472],[-143.93140000020975,28.68038999979882],[-143.93665000039709,28.706470000090576],[-143.94179999957026,28.732689999643924],[-143.9465300000594,28.759280000072067],[-143.95080999958174,28.786370000175509],[-143.95443999970615,28.814089999653902],[-143.95757000015527,28.84230000014503],[-143.9606900001433,28.87052999975981],[-143.96432000026772,28.898239999676377],[-143.96859999979006,28.925329999779819],[-143.97321999970313,28.952049999907729],[-143.97785999963918,28.978770000035638],[-143.9821000000149,29.005860000139023],[-143.98573000013931,29.033579999617416],[-143.98885999968917,29.06179999967037],[-143.99199000013829,29.090019999723324],[-143.99564000028568,29.117740000101094],[-143.99987999976207,29.144830000204479],[-144.00451999969815,29.171539999871243],[-144.00915999963419,29.198259999999152],[-144.01331000035614,29.225479999802303],[-144.01654000002091,29.253570000155548],[-144.01902999973461,29.282419999583453],[-144.02130000009484,29.311510000186502],[-144.02382000029269,29.340359999614407],[-144.02704999995746,29.368449999967652],[-144.03119000021826,29.395669999770803],[-144.03583000015431,29.422389999898712],[-144.04047000009035,29.449099999565476],[-144.04459000032816,29.476320000267947],[-144.04773000033916,29.504540000320901],[-144.04972999993947,29.533890000323424],[-144.05096000000393,29.563989999838782],[-144.05196999981555,29.594340000091051],[-144.05321999990298,29.624450000067611],[-144.05522000040261,29.653800000070078],[-144.05836000041361,29.682009999661886],[-144.06247000019027,29.709230000364357],[-144.06713999971115,29.735949999592947],[-144.07177999964719,29.76266000015903],[-144.075899999885,29.789879999962182],[-144.07903000033417,29.818100000015136],[-144.0811599996342,29.847320000317893],[-144.0827900001583,29.877040000295892],[-144.08439999976011,29.906769999835774],[-144.08652000039763,29.935999999700357],[-144.0896600004086,29.964219999753311],[-144.09377999974711,29.991429999994637],[-144.09841999968316,30.018150000122546],[-144.10309000010335,30.04485999978931],[-144.10721000034115,30.072079999592461],[-144.11031999986801,30.100299999645415],[-144.11247000009035,30.129519999948172],[-144.11407000013031,30.159250000387374],[-144.11571999977809,30.188970000365373],[-144.11784000041561,30.218200000229956],[-144.12096999996544,30.24642000028291],[-144.12509000020327,30.273629999624916],[-144.12973000013932,30.300349999752825],[-144.13437000007536,30.327069999880734],[-144.13849999987499,30.35428000012206],[-144.14174999956273,30.382380000037131],[-144.14426000019876,30.41121999990321],[-144.14650999963669,30.440320000068084],[-144.14902000027271,30.469170000395366],[-144.15226999996045,30.497270000310436],[-144.15639999976008,30.524479999652385],[-144.16103999969616,30.551199999780295],[-144.16579999977009,30.577790000208495],[-144.17041000012134,30.604499999875259],[-144.17468000008185,30.631589999978644],[-144.17868000018177,30.658929999919678],[-144.18293999968117,30.686029999584946],[-144.18771000021624,30.712620000013146],[-144.19296000040362,30.738700000304902],[-144.1987300002892,30.76428999958398],[-144.20485000012732,30.789500000224962],[-144.20809999981506,30.801920000108055],[-144.21788000026172,30.839170000195509],[-144.22476000007387,30.863619999963191],[-144.2320299998845,30.887710000216487],[-144.23990999994646,30.911159999734366],[-144.24830999970663,30.934120000038092],[-144.25692999971963,30.956820000043137],[-144.2659599997541,30.979139999611448],[-144.27059999969015,30.990179999707379],[-144.28436000021375,31.023409999671912],[-144.2890000001498,31.034449999767844],[-144.30304000009585,31.067440000355873],[-144.31293000021924,31.088890000273466],[-144.32329999999493,31.109830000054615],[-144.33432000006786,31.130150000022638],[-144.3457300001393,31.150089999553984],[-144.35724000032567,31.169909999846766],[-144.36876000007385,31.189730000139548],[-144.38015999968414,31.209669999670894],[-144.38591000044607,31.219579999817256],[-144.40318000005686,31.249299999795312],[-144.41506999978057,31.268739999651416],[-144.42721999980307,31.287929999669871],[-144.43961999966317,31.306869999850733],[-144.45225999979905,31.325560000194002],[-144.46518000025671,31.343999999800303],[-144.47844000020575,31.362059999869246],[-144.49923999982605,31.388269999860768],[-144.50662000021276,31.396550000382376],[-144.52150999978659,31.412979999927188],[-144.53665000009735,31.429159999634408],[-144.55181999999292,31.445340000240947],[-144.56670999956674,31.461769999785815],[-144.58112999994944,31.478699999905189],[-144.59502000017278,31.496140000161006],[-144.60879999982006,31.513690000093561],[-144.62279999972012,31.53099999975035],[-144.63746999994046,31.54768000003213],[-144.6612500002872,31.570890000173506],[-144.66977000018528,31.578039999846283],[-144.68703999979607,31.592079999792304],[-144.71332000031768,31.612780000197006],[-144.72196999991547,31.619800000170017],[-144.74713000004937,31.641629999624911],[-144.75527999997195,31.64915000017254],[-144.7714199996332,31.664329999629899],[-144.78758000021676,31.67950000042481],[-144.8039899997386,31.694430000044633],[-144.82089000027321,31.708850000427333],[-144.83842000018277,31.722650000097588],[-144.85646000022874,31.735939999631398],[-144.87485000022724,31.748860000089053],[-144.91229000008335,31.774069999830772],[-144.92169000009335,31.780349999852774],[-144.93109000010332,31.786620000312894],[-144.94985999963919,31.79916000033387],[-144.96863000007437,31.811700000354904],[-144.98741000007135,31.82424000037588],[-145.02548000020175,31.848830000304417],[-145.03513000004938,31.854850000027625],[-145.05465999955925,31.866639999636391],[-145.07470999966665,31.877929999569972],[-145.09520999984153,31.888710000266428],[-145.12615999988401,31.904769999835764],[-145.13654000012082,31.910029999584935],[-145.15758999957873,31.920309999706888],[-145.17833999959123,31.930850000127521],[-145.19916000013382,31.941389999648891],[-145.23105999991898,31.956440000305918],[-145.24169999955524,31.961450000217496],[-145.26324000002589,31.971240000225976],[-145.29681000038113,31.984660000358872],[-145.31921000004138,31.993559999794286],[-145.33035000025222,31.998079999592449],[-145.36417000044509,32.011249999887752],[-145.37544000035564,32.015639999986149],[-145.40898000022673,32.029060000119046],[-145.42025999969914,32.033450000217499],[-145.44354000037063,32.041470000440313],[-145.47948999986352,32.052509999636925],[-145.49163999988599,32.056019999623402],[-145.51641999958323,32.062550000382373],[-145.5539900000384,32.071950000392349],[-145.57903000003438,32.078219999953205],[-145.60407999959222,32.084499999975151],[-145.61661000005137,32.087630000424326],[-145.64163000002441,32.093899999985183],[-145.67970000015481,32.102809999881742],[-145.69246999999044,32.105689999593949],[-145.7312899996337,32.113849999977674],[-145.74431999976809,32.116479999852231],[-145.78361999996295,32.124130000099569],[-145.79663000007437,32.126759999974183],[-145.83585000017729,32.13453999992123],[-145.86239999966017,32.139309999556986],[-145.8895600002937,32.143440000255964],[-145.91772000027771,32.146580000266965],[-145.94701000021126,32.148590000328397],[-145.97720000027971,32.14972000027791],[-146.00797999967716,32.150219999953151],[-146.03917999955726,32.150340000091091],[-146.07047999955225,32.150340000091091],[-146.10178000044658,32.150340000091091],[-146.1330600004186,32.150340000091091],[-146.16438000043658,32.150340000091091],[-146.19568000043159,32.150340000091091],[-146.22696999996543,32.150340000091091],[-146.25830000044459,32.150340000091091],[-146.28960000043958,32.150340000091091],[-146.32088999997345,32.150340000091091],[-146.3522000004296,32.150340000091091],[-146.38350000042459,32.150340000091091],[-146.41466999982055,32.150219999953151],[-146.44547000014032,32.14972000027791],[-146.47564999974762,32.148590000328397],[-146.50497000016529,32.146580000266965],[-146.5331300001493,32.143440000255964],[-146.56028999988351,32.139309999556986],[-146.58684000026571,32.13453999992123],[-146.61301000021126,32.129400000309886],[-146.63904999955776,32.124130000099569],[-146.6652200004026,32.118989999588962],[-146.69139000034815,32.113849999977674],[-146.71729999999491,32.108450000067592],[-146.74297000026522,32.102809999881742],[-146.76840000025973,32.096910000296418],[-146.79354999993248,32.090770000435327],[-146.81848000025172,32.084370000275442],[-146.84313999981106,32.077720000277907],[-146.86755000043209,32.070820000442836],[-146.89171999987801,32.06366999987074],[-146.91552999980956,32.056150000222488],[-146.93906000031868,32.04837000027544],[-146.96258999992847,32.040599999890219],[-146.98598999983852,32.032699999805288],[-147.00905000025722,32.024420000183],[-147.03183000035415,32.015889999823798],[-147.05437000017528,32.007109999626948],[-147.07627999972212,31.99770000005509],[-147.09768999959371,31.987789999908728],[-147.1189699997656,31.977759999624425],[-147.15038999989849,31.962210000191476],[-147.16079999972013,31.956939999981159],[-147.18170000035465,31.946530000159498],[-147.20260999965168,31.936120000337894],[-147.22339999971013,31.925579999917204],[-147.24428999988351,31.9151700000956],[-147.26522999966465,31.904760000273939],[-147.2860100001613,31.894230000314394],[-147.30692000035765,31.88381999959347],[-147.33822999991449,31.868139999561492],[-147.35875000011234,31.857350000202473],[-147.36901999977309,31.851959999854273],[-147.38929999969514,31.840919999758341],[-147.41884999992746,31.82348999996367],[-147.42849999977508,31.817470000240462],[-147.44762999972463,31.805309999756844],[-147.47594999989249,31.786620000312894],[-147.48522999976458,31.780220000153008],[-147.50363000022423,31.767299999695354],[-147.52165000024723,31.754010000161543],[-147.54782000019276,31.733189999618958],[-147.57298000032668,31.711360000164007],[-147.58136000006388,31.704090000353403],[-147.59813999956125,31.689540000270938],[-147.61545000011733,31.675489999863771],[-147.63320999984154,31.661949999592935],[-147.65124999988751,31.648649999597922],[-147.66025000033716,31.641999999600444],[-147.67815000022225,31.628580000366867],[-147.71259999979009,31.600360000313913],[-147.7208600002887,31.592959999904224],[-147.74502999973461,31.570139999761352],[-147.75292999981954,31.562359999814305],[-147.76868000038164,31.546810000381356],[-147.7842400002757,31.53099999975035],[-147.79974000010083,31.515199999580489],[-147.81476000027371,31.498899999735329],[-147.82952999970962,31.482339999591431],[-147.84356999965567,31.4650299999347],[-147.85708999990348,31.44721999970335],[-147.87036000031367,31.429159999634408],[-147.88364000028571,31.411099999565465],[-147.89690999979658,31.393040000395843],[-147.91043000004439,31.375230000164493],[-147.92418999966867,31.357669999770792],[-147.93770999991648,31.339860000438819],[-147.95098999988849,31.321800000369876],[-147.96402000002288,31.303480000002139],[-147.97678000029669,31.284920000257955],[-147.99544999971764,31.256580000067117],[-148.00158999957873,31.247050000357376],[-148.01360999990149,31.227729999739836],[-148.03101000011134,31.19812999989972],[-148.03661999981307,31.188099999615417],[-148.04739000004838,31.167529999809801],[-148.06342000003289,31.136550000182524],[-148.0738200002927,31.115599999940173],[-148.08423000011433,31.094660000159024],[-148.09472999958973,31.073839999616439],[-148.10498000012683,31.052759999674379],[-148.1100199996232,31.042100000015125],[-148.12491000009635,31.009990000438336],[-148.12979000030819,30.999209999741822],[-148.14305000025723,30.965469999640902],[-148.15157999971714,30.942639999936205],[-148.15582000009286,30.93122999986474],[-148.16772000027771,30.896109999976659],[-148.17548999976358,30.872529999859751],[-148.18326000014881,30.848949999742842],[-148.18712999964967,30.83716000013402],[-148.19728000007186,30.800289999583981],[-148.20319000011833,30.774830000004613],[-148.20828000012182,30.748609999552002],[-148.21267999978207,30.721650000047589],[-148.21667000032016,30.694310000106555],[-148.22094999984253,30.667210000441287],[-148.22556000019378,30.64049999987526],[-148.23032000026771,30.61391000034638],[-148.23494999974261,30.58719000021847],[-148.23909000000342,30.559979999977145],[-148.24221999955324,30.531759999924191],[-148.24420000002991,30.502409999921724],[-148.24535000000242,30.472179999807281],[-148.24584999967766,30.441329999879713],[-148.24596999981554,30.410100000414843],[-148.24584999967766,30.378859999589451],[-148.24532999997942,30.348009999661883],[-148.2442299996147,30.317780000446817],[-148.24221999955324,30.288430000444293],[-148.23911000002639,30.260219999953165],[-148.23494999974261,30.233000000150014],[-148.2302200001528,30.20640999972187],[-148.22507000008036,30.180199999730348],[-148.21981999989299,30.154109999876709],[-148.21468999984353,30.127899999885244],[-148.20955000023224,30.101680000331896],[-148.20415999988401,30.075720000178023],[-148.19565000044707,30.037210000441291],[-148.19262999967466,30.024550000282431],[-148.18638999969863,29.999459999779333],[-148.17961000000142,29.974880000311884],[-148.17234999975261,29.950799999620415],[-148.16458000026671,29.927209999941681],[-148.15621999965319,29.904269999660926],[-148.1473099997566,29.881809999931704],[-148.13841000032119,29.859359999764308],[-148.12967000017028,29.836790000358349],[-148.12078999985852,29.814329999729864],[-148.11187999996196,29.791890000023614],[-148.10299999965017,29.769430000294449],[-148.09359999964019,29.74749000026344],[-148.08371000041609,29.726040000345904],[-148.07370000015479,29.70472000012802],[-148.06344999961772,29.683640000186017],[-148.04739000004838,29.652670000120565],[-148.0419900001383,29.642380000436788],[-148.02536000036363,29.612030000184518],[-148.01949000036313,29.602249999737865],[-148.00759999974011,29.582809999881761],[-147.99544000015581,29.563610000301423],[-147.98304999985751,29.544670000120561],[-147.97052000029768,29.525859999639408],[-147.95798999983853,29.507050000057575],[-147.94546999984053,29.488239999576479],[-147.92670000030469,29.460009999961699],[-147.91418000030669,29.441200000379865],[-147.90164000028571,29.422389999898712],[-147.89540000030968,29.412980000326911],[-147.88286999985053,29.394169999845758],[-147.87034999985252,29.375349999802779],[-147.85156000029369,29.347129999749825],[-147.84530999985651,29.33772999973985],[-147.83278999985853,29.318909999696871],[-147.82028000032167,29.300100000115037],[-147.80789000002341,29.281159999934175],[-147.79574999956276,29.261969999915721],[-147.78383999981605,29.242530000059617],[-147.76641999958323,29.212930000219501],[-147.76078999985853,29.202899999935198],[-147.75503999999592,29.192989999788779],[-147.73775000036215,29.16326999981078],[-147.7258599997391,29.143829999954676],[-147.71384000031568,29.124510000236455],[-147.70182999955475,29.105189999618915],[-147.68993999983104,29.085749999762811],[-147.67827999992198,29.066060000069115],[-147.67263999973611,29.056029999784812],[-147.65549999982505,29.026180000107047],[-147.64383999991597,29.006479999952205],[-147.63193999973112,28.987040000096044],[-147.61992999986953,28.967729999939706],[-147.60791000044608,28.948410000221486],[-147.59601999982306,28.928970000365382],[-147.58437999993697,28.909279999772309],[-147.56734999970263,28.879309999956661],[-147.56159999984004,28.869399999810298],[-147.54993999993096,28.849710000116545],[-147.5380599997691,28.830270000260441],[-147.52602999988451,28.810949999642901],[-147.50800000029969,28.781980000077112],[-147.50211999983804,28.772190000068576],[-147.49047999995196,28.75250000037488],[-147.47910000036464,28.732559999944158],[-147.46767999983203,28.712620000412812],[-147.45601999992297,28.692929999819796],[-147.44415000022224,28.673489999963692],[-147.4321099998765,28.654170000245472],[-147.41408999985353,28.625199999780307],[-147.40821999985303,28.615409999771828],[-147.39655999994395,28.5957299996399],[-147.38516000033366,28.575779999647409],[-147.37940999957175,28.565870000400366],[-147.36213999996093,28.53615000042231],[-147.35025000023722,28.516709999666887],[-147.33196999991549,28.487980000376865],[-147.31946000037863,28.469169999895712],[-147.31318999991848,28.459760000323911],[-147.30066000035865,28.440949999842758],[-147.2881299998995,28.422140000260924],[-147.27573000003937,28.403200000080062],[-147.26360000003987,28.384010000061608],[-147.25171000031617,28.364570000205504],[-147.24005000040711,28.344879999612431],[-147.22866999992047,28.324940000081085],[-147.21727000031018,28.304990000088594],[-147.20561000040112,28.285300000394841],[-147.19371000021624,28.265859999639417],[-147.18158000021674,28.246669999620906],[-147.1691699998955,28.227730000339363],[-147.15666000035864,28.208919999858267],[-147.14412999989949,28.190110000276434],[-147.13162000036263,28.171290000233455],[-147.11908999990348,28.152479999752302],[-147.10658000036665,28.13365999970938],[-147.09406000036864,28.114850000127547],[-147.08152999990949,28.096039999646393],[-147.06900000034966,28.077219999603415],[-147.05648999991348,28.058410000021638],[-147.04398000037662,28.039600000439805],[-147.03144999991747,28.020780000396826],[-147.01894000038064,28.00196999991573],[-147.00640999992149,27.983149999872751],[-146.99388000036166,27.964340000290917],[-146.98136999992548,27.945529999809764],[-146.96872000022773,27.926840000365871],[-146.94930999995645,27.899249999687868],[-146.93604000044559,27.881189999618925],[-146.92929000033317,27.872279999722366],[-146.91564999994745,27.854600000090102],[-146.90200999956176,27.836909999996635],[-146.88857999986701,27.818979999627402],[-146.87531999991799,27.800919999558459],[-146.86205999996895,27.782860000388837],[-146.84875000041211,27.764800000319894],[-146.83537000032518,27.746860000388835],[-146.81481999964319,27.720399999660401],[-146.8013299998795,27.702590000328371],[-146.79467999988199,27.693560000293928],[-146.78139999990998,27.675500000224986],[-146.76813999996094,27.657429999694898],[-146.75473000028919,27.639500000224984],[-146.74096999976558,27.621939999831284],[-146.72667999998194,27.604880000012145],[-146.71216000038362,27.588070000030598],[-146.69763000032418,27.571269999610934],[-146.67635999971412,27.545560000193973],[-146.66960000003988,27.536650000297413],[-146.65619999992998,27.518710000366355],[-146.64291000039611,27.500650000297412],[-146.62953000030919,27.482719999928179],[-146.61574999976258,27.465160000433798],[-146.60135000030218,27.448230000314425],[-146.58649000031318,27.431799999870236],[-146.56342000033266,27.40784000021597],[-146.54791000004639,27.392040000046109],[-146.53210000031467,27.376480000152014],[-146.51659999959023,27.360679999982153],[-146.50078999985851,27.345129999649885],[-146.48529000003339,27.329330000379343],[-146.4695099998865,27.313769999585929],[-146.45397999957723,27.297970000315388],[-146.4384799997521,27.282170000145527],[-146.43096999966568,27.274020000222947],[-146.40865999965916,27.249310000156527],[-146.40163999968615,27.24065000009756],[-146.3878899996237,27.223089999703859],[-146.36786000043858,27.196130000199503],[-146.36121000044108,27.187089999703858],[-146.34106000021876,27.16025999989921],[-146.33404999980755,27.151599999840244],[-146.31226000039862,27.126390000098581],[-146.30475000031217,27.118240000176002],[-146.28170999991647,27.094279999622415],[-146.26617000004538,27.078480000351874],[-146.25042999994446,27.062930000019605],[-146.23485999958922,27.047120000287919],[-146.21912000038762,27.03156999995565],[-146.20355000003238,27.015769999785789],[-146.18780999993146,27.000220000352897],[-146.17227000006037,26.984409999721834],[-146.15648999991348,26.968860000288942],[-146.14095999960421,26.953060000119081],[-146.12518000035664,26.937500000224986],[-146.1094099997716,26.921949999892718],[-146.09314000041061,26.906900000135067],[-146.07660000028969,26.892100000214953],[-146.05932999977958,26.878049999807786],[-146.04155999959423,26.864510000436326],[-146.0235000004246,26.851210000441313],[-146.01449999997493,26.84457000000566],[-145.98769999975511,26.82437000017552],[-145.97043000014432,26.810330000229442],[-145.95364000018577,26.795780000147033],[-145.93685999978908,26.781230000064568],[-145.92010000031468,26.766679999982159],[-145.90280000021974,26.752629999574935],[-145.88503999959622,26.739090000203475],[-145.86699999955025,26.725790000208463],[-145.83997000041509,26.705849999777797],[-145.83096000040362,26.699199999780319],[-145.81317000019527,26.685660000408859],[-145.78673999995095,26.665080000142041],[-145.77785999963919,26.658310000006622],[-145.75983000005436,26.645019999573492],[-145.74154999973263,26.631970000315391],[-145.72301999957324,26.619179999557502],[-145.70425000003738,26.606640000435789],[-145.68545999957922,26.594089999953667],[-145.65729000003338,26.57528000037189],[-145.64789000002341,26.569009999911714],[-145.6290900000034,26.556469999890737],[-145.61031999956825,26.543920000307935],[-145.59155000003238,26.531380000286902],[-145.5633500000024,26.512569999805805],[-145.5539900000384,26.506300000244948],[-145.53521999960321,26.493760000223972],[-145.51641999958323,26.48120999974185],[-145.49738000018678,26.468919999558466],[-145.47809000005338,26.456880000112051],[-145.45859000012831,26.445089999603965],[-145.42827999992198,26.428410000221447],[-145.4180300002842,26.423019999873247],[-145.38720999994146,26.406840000166028],[-145.36666999972061,26.396049999907689],[-145.35638000003689,26.390659999559489],[-145.32659999998992,26.373470000040584],[-145.31683000000442,26.367580000017142],[-145.29755000033217,26.355539999671407],[-145.26861999991297,26.337479999602465],[-145.25897000006537,26.331459999879257],[-145.2394700001403,26.319670000270435],[-145.2194200000329,26.308380000336911],[-145.19887999981205,26.297590000078571],[-145.17833999959123,26.286810000281434],[-145.15755999999391,26.276269999860745],[-145.13654000012082,26.265989999738849],[-145.11575000006238,26.255450000217479],[-145.09496999956573,26.244920000257935],[-145.07390999964667,26.234629999674894],[-145.04276000027372,26.218830000404353],[-145.03234999955276,26.213560000193979],[-145.01132000011782,26.203280000072084],[-144.99053999962121,26.192739999651394],[-144.96976000002391,26.18220999969185],[-144.94872999968965,26.171920000008129],[-144.91754000027072,26.156119999838268],[-144.90716999959571,26.150849999627951],[-144.88610999967665,26.140559999944173],[-144.85494999984255,26.124759999774312],[-144.84454000002088,26.119489999563996],[-144.82352000014779,26.109210000341363],[-144.80273000008935,26.09866999992073],[-144.77190999974661,26.082490000213454],[-144.76166000010883,26.077099999865254],[-144.74163999958623,26.065809999931673],[-144.72207999959221,26.054020000322907],[-144.70281999994296,26.041979999977173],[-144.68352999980956,26.029939999631438],[-144.66425000013732,26.017900000185023],[-144.6447100001663,26.00610999967688],[-144.61441000042109,25.989430000294419],[-144.60415999988399,25.984039999946162],[-144.58361999966317,25.97324999968788],[-144.56284000006588,25.96271000016651],[-144.53139999990998,25.947159999834241],[-144.52103000013432,25.941889999623925],[-144.50020999959173,25.93135999966438],[-144.47918999971861,25.921069999980659],[-144.45839999966017,25.910540000021115],[-144.43762000006288,25.899999999600425],[-144.41656000014382,25.889720000377849],[-144.39581000013132,25.879179999957159],[-144.37500000004988,25.868649999997672],[-144.34359999993995,25.853099999665403],[-144.33319000011832,25.84783000035435],[-144.30189999968516,25.832150000322372],[-144.29138000018676,25.827009999811764],[-144.27059999969015,25.816470000290451],[-144.24982000009285,25.805929999869761],[-144.22876000017379,25.795649999747809],[-144.20797999967715,25.785110000226496],[-144.18718999961871,25.774580000266951],[-144.16616999974562,25.764289999683854],[-144.13498000032666,25.748490000413312],[-144.12460000008986,25.743220000202996],[-144.10358000021674,25.732940000081101],[-144.0827900001583,25.722399999660411],[-144.0513500000024,25.706850000227462],[-144.04071000036615,25.701829999854738],[-144.01941000017129,25.691799999570492],[-143.99786000013881,25.682020000023101],[-143.96432000026772,25.668599999890205],[-143.95305999991899,25.664209999791808],[-143.91948999956372,25.650789999658912],[-143.89708999990347,25.641879999762295],[-143.88596000015377,25.637370000425335],[-143.86441000012132,25.627580000416856],[-143.84314000041059,25.617550000132553],[-143.82184000021573,25.60751999984825],[-143.80105999971914,25.59698000032688],[-143.78026999966067,25.58643999990619],[-143.75897000036514,25.576409999621944],[-143.72693000041909,25.561489999563946],[-143.70501999997293,25.552079999992145],[-143.69387999976209,25.547569999755808],[-143.6713300003791,25.538779999997132],[-143.64906000041861,25.529749999962689],[-143.62653000015928,25.520980000226984],[-143.59346000037863,25.507049999957701],[-143.57204000004589,25.497139999811282],[-143.56140000040961,25.492129999899703],[-143.53985999993898,25.482339999891224],[-143.51859000022824,25.472309999606921],[-143.48589999998495,25.458010000261424],[-143.47475999977411,25.453500000025144],[-143.45221000039112,25.444719999828294],[-143.4299499999924,25.435689999793794],[-143.39626999996045,25.422389999798781],[-143.38512999974961,25.417879999562444],[-143.35294000008088,25.403079999642387],[-143.34228999998345,25.398060000169039],[-143.31012000033763,25.383260000248981],[-143.28870000000489,25.373350000102562],[-143.26677999999691,25.363950000092586],[-143.25565000024721,25.359430000294424],[-143.22195000019229,25.346130000299411],[-143.19954999963267,25.337229999964677],[-143.18829000018326,25.332839999866223],[-143.16573999990101,25.324059999669373],[-143.14371000021623,25.314779999797281],[-143.11038000013679,25.301109999826792],[-143.09913999981103,25.296719999728339],[-143.06545999977908,25.283419999733326],[-143.05431999956824,25.278910000396365],[-143.03177000018525,25.270130000199515],[-142.99821000029118,25.256710000066619],[-142.98721000024125,25.252070000130516],[-142.96515000007236,25.242790000258424],[-142.94263000027422,25.233999999600428],[-142.90844999966765,25.221209999741859],[-142.88541000017131,25.21293000011957],[-142.86199999980005,25.20503000003464],[-142.85021999975311,25.201139999611428],[-142.82689999993494,25.193120000287934],[-142.79276000027369,25.180319999968162],[-142.77008000029167,25.171670000370341],[-142.75881999994294,25.167280000271944],[-142.73679000025822,25.158000000399852],[-142.70346000017878,25.144330000429306],[-142.68094000038064,25.135550000232456],[-142.66968000003192,25.131160000134059],[-142.63612000013779,25.117740000001163],[-142.62485000022724,25.113349999902709],[-142.60231000040613,25.104569999705859],[-142.56923999972611,25.090649999897721],[-142.55823000011435,25.086009999961675],[-142.53571000031616,25.077229999764825],[-142.50201000026124,25.063929999769812],[-142.47960000013978,25.055030000334398],[-142.46831999976808,25.050640000235944],[-142.44579000040812,25.041860000039094],[-142.42377000028517,25.032580000167002],[-142.39044000020579,25.018910000196513],[-142.379179999857,25.014509999636914],[-142.3563799997371,25.005989999738858],[-142.33359999964017,24.99746000027892],[-142.31029999984503,24.989429999594961],[-142.27515000037215,24.977639999986138],[-142.26348999956372,24.97363000032442],[-142.24069000034314,24.965099999965162],[-142.20664999989748,24.952180000406827],[-142.1953700004251,24.94779000030843],[-142.17333999984106,24.938510000436338],[-142.14002999978459,24.924839999566473],[-142.12875000031215,24.920450000367339],[-142.10595999975408,24.911920000008138],[-142.07153000020924,24.899379999987161],[-142.04815999988398,24.891479999902231],[-142.03637999983704,24.887590000378339],[-142.0128199997431,24.879810000431291],[-141.9895300004091,24.871779999747332],[-141.96599999989996,24.86401000026143],[-141.94243999980608,24.856230000314383],[-141.90729000033315,24.844439999806298],[-141.89563000042409,24.840430000144522],[-141.87207000033015,24.832650000197475],[-141.83691000039613,24.820859999689389],[-141.81387000000041,24.812580000067101],[-141.80245999992894,24.808319999668413],[-141.77969000029321,24.799790000208475],[-141.75714000001091,24.791010000011624],[-141.73511000032619,24.781730000139532],[-141.70180000026971,24.768060000168987],[-141.69051999989802,24.76367000007059],[-141.65634000019077,24.750880000211964],[-141.64495999970416,24.746610000251451],[-141.60991999990796,24.734699999605425],[-141.58635999981408,24.726919999658378],[-141.57457999976708,24.723030000134543],[-141.55129999999491,24.715000000349903],[-141.51599000033815,24.703340000440789],[-141.50421000029121,24.699450000017634],[-141.48067999978207,24.691670000070587],[-141.4574000000099,24.683649999847773],[-141.42209000035314,24.671980000376834],[-141.39855999984405,24.66420999999167],[-141.375119999888,24.656309999906739],[-141.35171999997795,24.648409999821752],[-141.32819000036812,24.640629999874761],[-141.30463000027419,24.632849999927714],[-141.29285000022725,24.628960000403822],[-141.25781000043111,24.617049999757796],[-141.23427999992197,24.609280000271951],[-141.21071999982803,24.601500000324904],[-141.18731999991797,24.593589999778828],[-141.16391000044609,24.585689999693898],[-141.14035000035216,24.577920000207996],[-141.12859999989001,24.574029999784784],[-141.09341000037114,24.562240000176018],[-141.0817899996087,24.558229999614923],[-141.04645000036714,24.546560000144041],[-141.022919999858,24.538789999758819],[-141.01113999981106,24.534900000234984],[-140.97607000043007,24.522980000027133],[-140.95257999996693,24.515209999641911],[-140.94079999991999,24.511320000118076],[-140.90609999961521,24.499029999934692],[-140.8833200004176,24.490499999575434],[-140.87191999990796,24.48622999961492],[-140.84938000008685,24.47745000031739],[-140.8163100003062,24.463529999609932],[-140.80529999979507,24.458889999673886],[-140.77136000036364,24.445849999977668],[-140.75997999987703,24.441580000017154],[-140.72555999989402,24.429039999996121],[-140.7138999999849,24.425030000334402],[-140.67859000032814,24.413359999964143],[-140.65517999995694,24.405459999879213],[-140.64354999963268,24.401450000217494],[-140.61999999999989,24.393670000270447],[-140.59647000039013,24.385899999885225],[-140.57291000029619,24.378119999938178],[-140.54962000006287,24.370090000153539],[-140.51433999999091,24.358430000244482],[-140.50255999994397,24.35453999982127],[-140.46735000040212,24.342750000212504],[-140.45572000007786,24.338730000089583],[-140.4204100004211,24.327070000180527],[-140.39685000032716,24.31929000023348],[-140.37347000044008,24.311390000148549],[-140.36182000009285,24.307379999587454],[-140.32651000043609,24.295719999678397],[-140.31475999997394,24.291830000154505],[-140.29119999988001,24.284050000207458],[-140.26788000006189,24.276020000422818],[-140.24434999955275,24.268250000037597],[-140.20905000035714,24.256579999667395],[-140.18563999998594,24.248679999582464],[-140.17400999966168,24.244669999920688],[-140.15044999956774,24.236889999973641],[-140.11513999991098,24.225230000064585],[-140.10337999988701,24.22133999964143],[-140.06832999962967,24.209420000332898],[-140.05654999958273,24.205529999909686],[-140.03301999997291,24.197760000423841],[-139.9983500001523,24.185470000240457],[-139.98694000008084,24.181200000279944],[-139.95287999961221,24.168290000283434],[-139.9416200001628,24.163889999723835],[-139.9195899995787,24.154609999851743],[-139.89751999984804,24.145329999979651],[-139.87500000004985,24.136549999782801],[-139.84082000034266,24.123759999924175],[-139.8294100002712,24.119500000424807],[-139.80612000003788,24.111469999740848],[-139.77081000038112,24.099800000269965],[-139.75903000033418,24.095920000307899],[-139.72400000009986,24.084000000100048],[-139.70046999959072,24.076229999714883],[-139.67691000039611,24.068449999767836],[-139.65350000002491,24.060549999682905],[-139.63010000011485,24.052640000036092],[-139.60654000002091,24.044869999650928],[-139.58301000041109,24.03708999970388],[-139.55960000003989,24.02918999961895],[-139.53618999966864,24.021290000433339],[-139.5244099996217,24.017400000010127],[-139.48911000042608,24.005740000101071],[-139.46568000003191,23.99784000001614],[-139.44226000009883,23.989930000369384],[-139.41876000007386,23.982150000422337],[-139.39532000011781,23.974250000337406],[-139.37227999972214,23.965980000276943],[-139.34949999962521,23.957449999917685],[-139.33810000001489,23.953179999957172],[-139.31556999975561,23.944410000221467],[-139.28249999997496,23.930479999952183],[-139.26021999955327,23.921449999917684],[-139.2375500000324,23.912800000319919],[-139.22617000044505,23.908539999921175],[-139.19174000000089,23.895990000338372],[-139.16830000004489,23.888090000253442],[-139.1447799999969,23.880310000306395],[-139.1213699996257,23.872410000221464],[-139.09796000015382,23.864510000136534],[-139.08618000010682,23.860619999713379],[-139.05086999955074,23.848959999804265],[-139.02744999961772,23.841050000157509],[-139.00402999968463,23.833150000072578],[-138.99228000012181,23.829270000110569],[-138.95696999956573,23.81759999974031],[-138.93352999960973,23.809699999655379],[-138.91016000018379,23.801799999570449],[-138.88660000008986,23.794019999623401],[-138.86303999999592,23.786239999676411],[-138.8512900004331,23.782359999714345],[-138.81622000015278,23.770440000405813],[-138.7926899996437,23.762659999559446],[-138.76928999973359,23.754760000373835],[-138.74625000023724,23.746490000313429],[-138.73482999970463,23.742220000352859],[-138.70079000015829,23.729299999895204],[-138.67850000017478,23.720269999860761],[-138.65646000002891,23.710989999988669],[-138.6454500004171,23.706350000052623],[-138.61151000008635,23.693310000356348],[-138.58870999996645,23.684779999997147],[-138.56566999957073,23.676500000374858],[-138.54230000014479,23.668600000289928],[-138.51874000005085,23.660820000342881],[-138.49530000009486,23.65292000025795],[-138.47192000020777,23.64502000017302],[-138.44836000011384,23.637249999787798],[-138.4248000000199,23.629469999840751],[-138.4130600000189,23.625580000316916],[-138.37798999973859,23.613660000109064],[-138.35446000012882,23.605889999723843],[-138.34270999966668,23.602000000200007],[-138.30750000012483,23.590209999691865],[-138.28408999975358,23.582309999606935],[-138.26056000014381,23.574529999659887],[-138.23700000004987,23.566760000173986],[-138.21358999967867,23.55884999962791],[-138.19018999976856,23.550950000442299],[-138.1666600001588,23.543169999595932],[-138.14310000006486,23.53540000011003],[-138.11956999955572,23.52762000016304],[-138.09575999962419,23.520099999615411],[-138.07161999976307,23.512949999942691],[-138.04721000004139,23.506050000107564],[-138.02254000002091,23.499400000110086],[-137.99774000030067,23.49287999981226],[-137.97307999984201,23.486229999814782],[-137.94867000012033,23.4793400004408],[-137.92449999977509,23.47218999986876],[-137.90070000030471,23.464659999759306],[-137.87716999979557,23.456890000273461],[-137.85364000018575,23.449110000326414],[-137.83008000009187,23.441330000379367],[-137.80666999972061,23.433430000294436],[-137.78326000024873,23.425530000209505],[-137.75970000015479,23.417750000262458],[-137.73618000010686,23.409979999877237],[-137.71262999957474,23.40219999993019],[-137.68883999966619,23.394680000281937],[-137.66467000022027,23.387529999709841],[-137.64025999959921,23.380629999874714],[-137.61560000003988,23.373979999877236],[-137.59082000034266,23.367459999579467],[-137.56615999988401,23.360809999581932],[-137.54175000016227,23.353909999746804],[-137.51757999981703,23.346760000074084],[-137.49364999974762,23.339359999664396],[-137.46973000013929,23.331960000154027],[-137.44559000027823,23.32480999958193],[-137.42113999961123,23.31790999974686],[-137.39648000005189,23.31127000021047],[-137.37158000021674,23.304870000050585],[-137.34652999975958,23.298599999590465],[-137.32148999976357,23.292330000029608],[-137.29642999974459,23.286059999569488],[-137.27138999974858,23.279790000008632],[-137.24648999991348,23.273389999848746],[-137.22179999987003,23.266739999851268],[-137.19739000014829,23.25984000001614],[-137.17321999980305,23.252690000343364],[-137.14932000021776,23.24530000039482],[-137.12543000019429,23.237899999985132],[-137.10125999984905,23.230739999851266],[-137.07683999966616,23.223849999577965],[-137.05214999962271,23.21719999958043],[-137.02724999978756,23.210800000319921],[-137.00220000022972,23.204529999859744],[-136.97716999979559,23.198260000298944],[-136.95212000023776,23.191989999838768],[-136.92708000024174,23.185720000277911],[-136.90204999980756,23.179449999817791],[-136.87688000011184,23.173300000394818],[-136.8514700001403,23.167410000371376],[-136.82579000030819,23.161759999724325],[-136.79987000020026,23.156370000275444],[-136.77370000025473,23.151229999764837],[-136.74753000030915,23.146079999692347],[-136.72161999976311,23.140690000243467],[-136.69593999993094,23.135050000057618],[-136.67052999995946,23.129149999572974],[-136.64536000026374,23.123009999711883],[-136.62032000026772,23.116740000151026],[-136.59528000027171,23.110469999690849],[-136.57022000025273,23.104189999668904],[-136.54520000027969,23.097920000108047],[-136.52014000026071,23.091649999647927],[-136.49512000028767,23.085380000087071],[-136.4699400001308,23.07924000022598],[-136.44451999969812,23.073339999741336],[-136.41885000032715,23.067699999555487],[-136.39293000021922,23.062299999645404],[-136.3667600002737,23.057160000034116],[-136.34059000032818,23.052020000422829],[-136.32758000021676,23.049380000087069],[-136.28901999997294,23.040980000326897],[-136.2635800004166,23.035090000303398],[-136.23842999984453,23.028939999981162],[-136.21338000028669,23.022670000420305],[-136.18820000012983,23.016529999659895],[-136.16281000018125,23.01063000007457],[-136.13713000034915,23.004989999888721],[-136.11121999980304,22.999589999978639],[-136.08504999985752,22.994450000367351],[-136.05887999991199,22.989309999856744],[-136.03297000026521,22.983920000407807],[-136.0072900004331,22.978269999760812],[-135.99451999969813,22.975390000048606],[-135.95670000030469,22.966230000314397],[-135.93166999987051,22.959959999854277],[-135.90648999971364,22.953810000431304],[-135.88107000018027,22.947920000407862],[-135.85541000037114,22.942269999760811],[-135.82949999982503,22.93688000031193],[-135.80330999985654,22.931739999801266],[-135.77715999993399,22.926589999728833],[-135.75111000012629,22.921329999979662],[-135.72506999988047,22.916059999769288],[-135.69902000007284,22.910789999558972],[-135.67299000028817,22.905529999809801],[-135.64682000034264,22.900379999737311],[-135.62065000039712,22.895240000126023],[-135.59461999971313,22.889969999915706],[-135.5685400003207,22.88469999970539],[-135.54250999963671,22.879439999956162],[-135.51645999982907,22.874169999745845],[-135.49030000034463,22.869030000134558],[-135.46413000039911,22.863880000062068],[-135.43809999971512,22.858620000312897],[-135.41204999990748,22.85335000010258],[-135.38600000009984,22.848079999892207],[-135.3599500002922,22.84280999968189],[-135.33380000036965,22.837670000070602],[-135.30761999996292,22.832529999559995],[-135.28159000017826,22.827260000248941],[-135.25552000034764,22.821990000038625],[-135.22948999966366,22.816719999828251],[-135.20345000031716,22.811449999617935],[-135.17728999993346,22.806310000006647],[-135.15111999998794,22.801170000395359],[-135.1250599997191,22.795900000184986],[-135.09902999993449,22.790640000435815],[-135.07298000012679,22.785370000225498],[-135.04693999988098,22.780100000015125],[-135.02076999993545,22.774960000403837],[-134.99459999998993,22.76981999989323],[-134.96857000020526,22.764549999682856],[-134.94252000039762,22.759280000371859],[-134.91646999969066,22.754010000161543],[-134.89043999990599,22.748739999951169],[-134.86426000039859,22.743600000339882],[-134.83810000001489,22.738459999829274],[-134.8120399997461,22.733189999618901],[-134.78586000023876,22.728050000007613],[-134.75945999957924,22.723160000233975],[-134.73276999993544,22.718520000297929],[-134.70573000033914,22.714250000337358],[-134.67844000000593,22.71023999977632],[-134.65140000040958,22.705969999815807],[-134.6247299998895,22.701340000340906],[-134.59831000010632,22.696440000106065],[-134.5721400001608,22.691299999595458],[-134.54609999991499,22.686030000284404],[-134.51994000043061,22.680889999773797],[-134.49376000002388,22.675750000162509],[-134.46771000021624,22.670479999952192],[-134.44168000043157,22.665209999741819],[-134.41562999972462,22.659949999992648],[-134.38959000037812,22.654679999782331],[-134.3634200004326,22.649540000170987],[-134.3372499995877,22.644390000098554],[-134.31121999980309,22.639130000349382],[-134.28516999999539,22.633860000139009],[-134.25912000018775,22.628589999928693],[-134.23305999991896,22.623319999718376],[-134.20688999997344,22.618180000107088],[-134.18074000005089,22.613039999596424],[-134.15469000024325,22.607770000285427],[-134.12864999999744,22.602500000075111],[-134.1026000001898,22.597229999864737],[-134.07657000040513,22.591959999654421],[-134.05038000043658,22.586820000043133],[-134.0242299996147,22.581680000431788],[-133.99817999980706,22.576410000221472],[-133.97202000032269,22.571269999710864],[-133.94559000007837,22.566379999937169],[-133.91893000001937,22.561740000001123],[-133.89187999996193,22.55747000004061],[-133.86458999962866,22.553460000378834],[-133.83755000003237,22.549199999980146],[-133.8108800004116,22.5445600000441],[-133.7843300000294,22.539790000408345],[-133.7577799996472,22.535019999873214],[-133.73111000002638,22.530379999937168],[-133.70405999996893,22.5261200004378],[-133.67676999963567,22.522100000314879],[-133.64971999957822,22.517839999916191],[-133.6230600004186,22.513199999980145],[-133.59653000005937,22.50843000034439],[-133.56997999967717,22.503670000270461],[-133.54329999959521,22.499030000334415],[-133.51625000043708,22.494760000373844],[-133.48894999964267,22.490749999812806],[-133.46191000004637,22.486479999852236],[-133.43524000042561,22.481850000377335],[-133.40871000006638,22.47707999984226],[-133.38213999966115,22.472310000206505],[-133.35547000004038,22.467670000270459],[-133.32843000044409,22.463409999871715],[-133.30112999964967,22.459389999748851],[-133.27407999959223,22.455130000249426],[-133.24742000043261,22.45049000031338],[-133.22087000005035,22.445719999778305],[-133.19420999999141,22.441079999842259],[-133.16717999995694,22.436820000342891],[-133.13949999962517,22.433179999757328],[-133.11133000007936,22.430039999746327],[-133.08315999963418,22.426910000196472],[-133.05546999974058,22.423269999610909],[-133.02843999970611,22.419010000111541],[-133.00177000008534,22.414370000175495],[-132.97521999970314,22.40959999964042],[-132.94855000008232,22.404959999704374],[-132.9215099995867,22.400700000205006],[-132.89420999969167,22.396680000082085],[-132.86715999963417,22.392419999683398],[-132.84047999955226,22.387779999747352],[-132.81393000006938,22.38301000011154],[-132.78739999971015,22.378239999576465],[-132.76073000008932,22.373599999640419],[-132.73392999986953,22.369340000141051],[-132.70740000040962,22.365329999579956],[-132.68185000027722,22.361059999619442],[-132.65767999993199,22.356419999683396],[-132.63489999983506,22.351650000047584],[-132.61275999957422,22.347010000111538],[-132.59035999991397,22.342869999850734]]]},"properties":{"objectid":226,"stormname":"Genevieve","stormtype":"TS","basin":"EP","advdate":"1100 PM HST Fri Jul 31 2026","advisnum":"33","fcstprd":120,"stormnum":7,"idp_source":"ep072026-033_5day_pgn","idp_filedate":1785575331000,"idp_ingestdate":1785575458000,"st_area(shape)":36.219377150599627,"st_perimeter(shape)":40.217845798512293,"binnumber":"EP2"}}]}