{"type":"FeatureCollection","features":[{"type":"Feature","id":838,"geometry":{"type":"LineString","coordinates":[[-93.400000000299656,7.6000000001999979],[-94.199999999600209,7.7000000000001592],[-94.999999999800025,7.7999999998002636],[-95.899999999800059,7.8999999996004249],[-96.899999999600197,8.1000000001000672],[-97.799999999600175,8.2999999997003897],[-98.999999999899956,8.5000000001999751],[-100.20000000019974,8.6999999998002977]]},"properties":{"objectid":838,"stormtype":"DB","stormnum":7,"ss":0,"idp_source":"EP072026_lin","idp_filedate":1785187676000,"idp_ingestdate":1785187722000,"st_length(shape)":6.8928534238963088,"binnumber":"EP2"}},{"type":"Feature","id":839,"geometry":{"type":"LineString","coordinates":[[-100.20000000019974,8.6999999998002977],[-101.19999999999987,8.9000000002998831]]},"properties":{"objectid":839,"stormtype":"TD","stormnum":7,"ss":0,"idp_source":"EP072026_lin","idp_filedate":1785187676000,"idp_ingestdate":1785187722000,"st_length(shape)":1.0198039026205534,"binnumber":"EP2"}},{"type":"Feature","id":840,"geometry":{"type":"LineString","coordinates":[[-101.19999999999987,8.9000000002998831],[-102.09999999999991,9.300000000399848],[-102.90000000019973,9.9000000001000785],[-103.89999999999992,10.499999999800309],[-104.99999999960022,11.100000000399859],[-106.10000000009984,11.799999999900194]]},"properties":{"objectid":840,"stormtype":"TS","stormnum":7,"ss":0,"idp_source":"EP072026_lin","idp_filedate":1785187676000,"idp_ingestdate":1785187722000,"st_length(shape)":5.7079130485878808,"binnumber":"EP2"}},{"type":"Feature","id":841,"geometry":{"type":"LineString","coordinates":[[-106.10000000009984,11.799999999900194],[-107.59999999980005,12.600000000100067],[-108.80000000009983,13.199999999800298]]},"properties":{"objectid":841,"stormtype":"HU","stormnum":7,"ss":1,"idp_source":"EP072026_lin","idp_filedate":1785187676000,"idp_ingestdate":1785187722000,"st_length(shape)":3.0416407864634802,"binnumber":"EP2"}},{"type":"Feature","id":842,"geometry":{"type":"LineString","coordinates":[[-108.80000000009983,13.199999999800298],[-109.89999999970013,13.599999999900206]]},"properties":{"objectid":842,"stormtype":"HU","stormnum":7,"ss":3,"idp_source":"EP072026_lin","idp_filedate":1785187676000,"idp_ingestdate":1785187722000,"st_length(shape)":1.1704699907304699,"binnumber":"EP2"}},{"type":"Feature","id":843,"geometry":{"type":"LineString","coordinates":[[-109.89999999970013,13.599999999900206],[-110.79999999970011,14.400000000100079],[-111.69999999970014,15.099999999600414]]},"properties":{"objectid":843,"stormtype":"HU","stormnum":7,"ss":4,"idp_source":"EP072026_lin","idp_filedate":1785187676000,"idp_ingestdate":1785187722000,"st_length(shape)":2.3443348828044011,"binnumber":"EP2"}},{"type":"Feature","id":844,"geometry":{"type":"LineString","coordinates":[[-111.69999999970014,15.099999999600414],[-112.7000000003996,15.700000000199964]]},"properties":{"objectid":844,"stormtype":"HU","stormnum":7,"ss":5,"idp_source":"EP072026_lin","idp_filedate":1785187676000,"idp_ingestdate":1785187722000,"st_length(shape)":1.1661903798773068,"binnumber":"EP2"}},{"type":"Feature","id":845,"geometry":{"type":"LineString","coordinates":[[-112.7000000003996,15.700000000199964],[-113.49999999970015,16.399999999700356]]},"properties":{"objectid":845,"stormtype":"HU","stormnum":7,"ss":5,"idp_source":"EP072026_lin","idp_filedate":1785187676000,"idp_ingestdate":1785187722000,"st_length(shape)":1.0630145804180833,"binnumber":"EP2"}}]}