{"type": "FeatureCollection", "features": [{"type": "Feature", "id": 1857, "geometry": {"type": "Point", "coordinates": [-137.29999999980004, 23.900000000000148]}, "properties": {"objectid": 1857, "stormname": "Tropical Storm Genevieve", "stormtype": "TS", "dvlbl": "S", "basin": "EP", "advdate": "1100 PM HST Sat Aug 01 2026", "advisnum": "37", "fcstprd": 120, "gust": 55, "maxwind": 45, "mslp": 1003, "ssnum": 0, "datelbl": "11:00 PM Sat", "tcdvlp": "Tropical Storm", "tcdir": 290, "tcspd": 11, "fldatelbl": "2026-08-01 8:00 PM Sat HST", "lat": 24, "lon": -137, "stormnum": 7, "stormsrc": "Tropical Cyclone", "tau": 0, "timezone": "HST", "validtime": "02/0600", "idp_source": "ep072026-037_5day_pts", "idp_filedate": 1785661731000, "idp_ingestdate": 1785661744000, "binnumber": "EP2", "MAXWIND": 45, "VALIDTIME": "02/0600"}}, {"type": "Feature", "id": 1858, "geometry": {"type": "Point", "coordinates": [-138.9999999999999, 24.49999999970038]}, "properties": {"objectid": 1858, "stormname": "Tropical Storm Genevieve", "stormtype": "TS", "dvlbl": "S", "basin": "EP", "advdate": "1100 PM HST Sat Aug 01 2026", "advisnum": "37", "fcstprd": 120, "gust": 50, "maxwind": 40, "mslp": 9999, "ssnum": 0, "datelbl": "8:00 AM Sun", "tcdvlp": "Tropical Storm", "tcdir": 9999, "tcspd": 9999, "fldatelbl": "2026-08-02 8:00 AM Sun HST", "lat": 24, "lon": -139, "stormnum": 7, "stormsrc": "Tropical Cyclone", "tau": 12, "timezone": "HST", "validtime": "02/1800", "idp_source": "ep072026-037_5day_pts", "idp_filedate": 1785661731000, "idp_ingestdate": 1785661744000, "binnumber": "EP2", "MAXWIND": 40, "VALIDTIME": "02/1800"}}, {"type": "Feature", "id": 1859, "geometry": {"type": "Point", "coordinates": [-141.20000000009986, 25.399999999700356]}, "properties": {"objectid": 1859, "stormname": "Tropical Storm Genevieve", "stormtype": "STS", "dvlbl": "S", "basin": "EP", "advdate": "1100 PM HST Sat Aug 01 2026", "advisnum": "37", "fcstprd": 120, "gust": 45, "maxwind": 35, "mslp": 9999, "ssnum": 0, "datelbl": "8:00 PM Sun", "tcdvlp": "Subtropical Storm", "tcdir": 9999, "tcspd": 9999, "fldatelbl": "2026-08-02 8:00 PM Sun HST", "lat": 25, "lon": -141, "stormnum": 7, "stormsrc": "Post-Tropical Cyclone", "tau": 24, "timezone": "HST", "validtime": "03/0600", "idp_source": "ep072026-037_5day_pts", "idp_filedate": 1785661731000, "idp_ingestdate": 1785661744000, "binnumber": "EP2", "MAXWIND": 35, "VALIDTIME": "03/0600"}}, {"type": "Feature", "id": 1860, "geometry": {"type": "Point", "coordinates": [-143.09999999989998, 26.100000000100067]}, "properties": {"objectid": 1860, "stormname": "Tropical Storm Genevieve", "stormtype": "STS", "dvlbl": "S", "basin": "EP", "advdate": "1100 PM HST Sat Aug 01 2026", "advisnum": "37", "fcstprd": 120, "gust": 45, "maxwind": 35, "mslp": 9999, "ssnum": 0, "datelbl": "8:00 AM Mon", "tcdvlp": "Subtropical Storm", "tcdir": 9999, "tcspd": 9999, "fldatelbl": "2026-08-03 8:00 AM Mon HST", "lat": 26, "lon": -143, "stormnum": 7, "stormsrc": "Post-Tropical Cyclone", "tau": 36, "timezone": "HST", "validtime": "03/1800", "idp_source": "ep072026-037_5day_pts", "idp_filedate": 1785661731000, "idp_ingestdate": 1785661744000, "binnumber": "EP2", "MAXWIND": 35, "VALIDTIME": "03/1800"}}, {"type": "Feature", "id": 1861, "geometry": {"type": "Point", "coordinates": [-144.49999999980005, 26.699999999800298]}, "properties": {"objectid": 1861, "stormname": "Tropical Storm Genevieve", "stormtype": "STD", "dvlbl": "D", "basin": "EP", "advdate": "1100 PM HST Sat Aug 01 2026", "advisnum": "37", "fcstprd": 120, "gust": 40, "maxwind": 30, "mslp": 9999, "ssnum": 0, "datelbl": "8:00 PM Mon", "tcdvlp": "Subtropical Depression", "tcdir": 9999, "tcspd": 9999, "fldatelbl": "2026-08-03 8:00 PM Mon HST", "lat": 27, "lon": -144, "stormnum": 7, "stormsrc": "Post-Tropical Cyclone", "tau": 48, "timezone": "HST", "validtime": "04/0600", "idp_source": "ep072026-037_5day_pts", "idp_filedate": 1785661731000, "idp_ingestdate": 1785661744000, "binnumber": "EP2", "MAXWIND": 30, "VALIDTIME": "04/0600"}}, {"type": "Feature", "id": 1862, "geometry": {"type": "Point", "coordinates": [-145.20000000019976, 27.300000000399848]}, "properties": {"objectid": 1862, "stormname": "Tropical Storm Genevieve", "stormtype": "STD", "dvlbl": "D", "basin": "EP", "advdate": "1100 PM HST Sat Aug 01 2026", "advisnum": "37", "fcstprd": 120, "gust": 35, "maxwind": 25, "mslp": 9999, "ssnum": 0, "datelbl": "8:00 AM Tue", "tcdvlp": "Subtropical Depression", "tcdir": 9999, "tcspd": 9999, "fldatelbl": "2026-08-04 8:00 AM Tue HST", "lat": 27, "lon": -145, "stormnum": 7, "stormsrc": "Post-Tropical Cyclone", "tau": 60, "timezone": "HST", "validtime": "04/1800", "idp_source": "ep072026-037_5day_pts", "idp_filedate": 1785661731000, "idp_ingestdate": 1785661744000, "binnumber": "EP2", "MAXWIND": 25, "VALIDTIME": "04/1800"}}, {"type": "Feature", "id": 1863, "geometry": {"type": "Point", "coordinates": [-145.7999999999, 27.99999999990024]}, "properties": {"objectid": 1863, "stormname": "Tropical Storm Genevieve", "stormtype": "STD", "dvlbl": "D", "basin": "EP", "advdate": "1100 PM HST Sat Aug 01 2026", "advisnum": "37", "fcstprd": 120, "gust": 35, "maxwind": 25, "mslp": 9999, "ssnum": 0, "datelbl": "8:00 PM Tue", "tcdvlp": "Subtropical Depression", "tcdir": 9999, "tcspd": 9999, "fldatelbl": "2026-08-04 8:00 PM Tue HST", "lat": 28, "lon": -146, "stormnum": 7, "stormsrc": "Post-Tropical Cyclone", "tau": 72, "timezone": "HST", "validtime": "05/0600", "idp_source": "ep072026-037_5day_pts", "idp_filedate": 1785661731000, "idp_ingestdate": 1785661744000, "binnumber": "EP2", "MAXWIND": 25, "VALIDTIME": "05/0600"}}]}