{"type": "FeatureCollection", "features": [{"type": "Feature", "id": 241, "geometry": {"type": "Point", "coordinates": [-132.1000000002997, 15.60000000039986]}, "properties": {"objectid": 241, "stormname": "Tropical Depression Hernan", "stormtype": "TD", "dvlbl": "D", "basin": "EP", "advdate": "1100 AM HST Fri Aug 14 2026", "advisnum": "8", "fcstprd": 120, "gust": 40, "maxwind": 30, "mslp": 1006, "ssnum": 0, "datelbl": "11:00 AM Fri", "tcdvlp": "Tropical Depression", "tcdir": 360, "tcspd": 0, "fldatelbl": "2026-08-14 8:00 AM Fri HST", "lat": 16, "lon": -132, "stormnum": 8, "stormsrc": "Tropical Cyclone", "tau": 0, "timezone": "HST", "validtime": "14/1800", "idp_source": "ep082026-008_5day_pts", "idp_filedate": 1786741383000, "idp_ingestdate": 1786741529000, "binnumber": "EP3", "MAXWIND": 30, "VALIDTIME": "14/1800"}}, {"type": "Feature", "id": 242, "geometry": {"type": "Point", "coordinates": [-133.1999999999, 15.499999999700378]}, "properties": {"objectid": 242, "stormname": "Tropical Depression Hernan", "stormtype": "TD", "dvlbl": "D", "basin": "EP", "advdate": "1100 AM HST Fri Aug 14 2026", "advisnum": "8", "fcstprd": 120, "gust": 40, "maxwind": 30, "mslp": 9999, "ssnum": 0, "datelbl": "8:00 PM Fri", "tcdvlp": "Tropical Depression", "tcdir": 9999, "tcspd": 9999, "fldatelbl": "2026-08-14 8:00 PM Fri HST", "lat": 16, "lon": -133, "stormnum": 8, "stormsrc": "Tropical Cyclone", "tau": 12, "timezone": "HST", "validtime": "15/0600", "idp_source": "ep082026-008_5day_pts", "idp_filedate": 1786741383000, "idp_ingestdate": 1786741529000, "binnumber": "EP3", "MAXWIND": 30, "VALIDTIME": "15/0600"}}, {"type": "Feature", "id": 243, "geometry": {"type": "Point", "coordinates": [-135.09999999970012, 15.399999999900217]}, "properties": {"objectid": 243, "stormname": "Tropical Depression Hernan", "stormtype": "STD", "dvlbl": "D", "basin": "EP", "advdate": "1100 AM HST Fri Aug 14 2026", "advisnum": "8", "fcstprd": 120, "gust": 40, "maxwind": 30, "mslp": 9999, "ssnum": 0, "datelbl": "8:00 AM Sat", "tcdvlp": "Subtropical Depression", "tcdir": 9999, "tcspd": 9999, "fldatelbl": "2026-08-15 8:00 AM Sat HST", "lat": 15, "lon": -135, "stormnum": 8, "stormsrc": "Post-Tropical Cyclone", "tau": 24, "timezone": "HST", "validtime": "15/1800", "idp_source": "ep082026-008_5day_pts", "idp_filedate": 1786741383000, "idp_ingestdate": 1786741529000, "binnumber": "EP3", "MAXWIND": 30, "VALIDTIME": "15/1800"}}, {"type": "Feature", "id": 244, "geometry": {"type": "Point", "coordinates": [-137.19999999999993, 15.399999999900217]}, "properties": {"objectid": 244, "stormname": "Tropical Depression Hernan", "stormtype": "STD", "dvlbl": "D", "basin": "EP", "advdate": "1100 AM HST Fri Aug 14 2026", "advisnum": "8", "fcstprd": 120, "gust": 35, "maxwind": 25, "mslp": 9999, "ssnum": 0, "datelbl": "8:00 PM Sat", "tcdvlp": "Subtropical Depression", "tcdir": 9999, "tcspd": 9999, "fldatelbl": "2026-08-15 8:00 PM Sat HST", "lat": 15, "lon": -137, "stormnum": 8, "stormsrc": "Post-Tropical Cyclone", "tau": 36, "timezone": "HST", "validtime": "16/0600", "idp_source": "ep082026-008_5day_pts", "idp_filedate": 1786741383000, "idp_ingestdate": 1786741529000, "binnumber": "EP3", "MAXWIND": 25, "VALIDTIME": "16/0600"}}, {"type": "Feature", "id": 245, "geometry": {"type": "Point", "coordinates": [-139.4999999999, 15.399999999900217]}, "properties": {"objectid": 245, "stormname": "Tropical Depression Hernan", "stormtype": "STD", "dvlbl": "D", "basin": "EP", "advdate": "1100 AM HST Fri Aug 14 2026", "advisnum": "8", "fcstprd": 120, "gust": 35, "maxwind": 25, "mslp": 9999, "ssnum": 0, "datelbl": "8:00 AM Sun", "tcdvlp": "Subtropical Depression", "tcdir": 9999, "tcspd": 9999, "fldatelbl": "2026-08-16 8:00 AM Sun HST", "lat": 15, "lon": -140, "stormnum": 8, "stormsrc": "Post-Tropical Cyclone", "tau": 48, "timezone": "HST", "validtime": "16/1800", "idp_source": "ep082026-008_5day_pts", "idp_filedate": 1786741383000, "idp_ingestdate": 1786741529000, "binnumber": "EP3", "MAXWIND": 25, "VALIDTIME": "16/1800"}}, {"type": "Feature", "id": 246, "geometry": {"type": "Point", "coordinates": [-141.69999999999993, 15.499999999700378]}, "properties": {"objectid": 246, "stormname": "Tropical Depression Hernan", "stormtype": "STD", "dvlbl": "D", "basin": "EP", "advdate": "1100 AM HST Fri Aug 14 2026", "advisnum": "8", "fcstprd": 120, "gust": 30, "maxwind": 20, "mslp": 9999, "ssnum": 0, "datelbl": "8:00 PM Sun", "tcdvlp": "Subtropical Depression", "tcdir": 9999, "tcspd": 9999, "fldatelbl": "2026-08-16 8:00 PM Sun HST", "lat": 16, "lon": -142, "stormnum": 8, "stormsrc": "Post-Tropical Cyclone", "tau": 60, "timezone": "HST", "validtime": "17/0600", "idp_source": "ep082026-008_5day_pts", "idp_filedate": 1786741383000, "idp_ingestdate": 1786741529000, "binnumber": "EP3", "MAXWIND": 20, "VALIDTIME": "17/0600"}}]}