{"type":"FeatureCollection","features":[{"type":"Feature","id":266,"geometry":{"type":"Point","coordinates":[-127.20000000019974,14.300000000299917]},"properties":{"objectid":266,"stormname":"GENESIS015","stormtype":"DB","stormnum":8,"intensity":20,"basin":"ep","mslp":0,"dtg":2026081018,"year":2026,"month":"08","day":10,"hhmm":"1800","lat":14,"lon":-127,"ss":0,"idp_source":"EP082026_pts","idp_filedate":1786634863000,"idp_ingestdate":1786634943000,"binnumber":"EP3"}},{"type":"Feature","id":267,"geometry":{"type":"Point","coordinates":[-127.70000000009981,14.700000000399825]},"properties":{"objectid":267,"stormname":"GENESIS015","stormtype":"DB","stormnum":8,"intensity":20,"basin":"ep","mslp":0,"dtg":2026081100,"year":2026,"month":"08","day":11,"hhmm":"0000","lat":15,"lon":-128,"ss":0,"idp_source":"EP082026_pts","idp_filedate":1786634863000,"idp_ingestdate":1786634943000,"binnumber":"EP3"}},{"type":"Feature","id":268,"geometry":{"type":"Point","coordinates":[-128.19999999999993,14.999999999800309]},"properties":{"objectid":268,"stormname":"GENESIS015","stormtype":"DB","stormnum":8,"intensity":20,"basin":"ep","mslp":0,"dtg":2026081106,"year":2026,"month":"08","day":11,"hhmm":"0600","lat":15,"lon":-128,"ss":0,"idp_source":"EP082026_pts","idp_filedate":1786634863000,"idp_ingestdate":1786634943000,"binnumber":"EP3"}},{"type":"Feature","id":269,"geometry":{"type":"Point","coordinates":[-128.6999999999,15.499999999700378]},"properties":{"objectid":269,"stormname":"GENESIS015","stormtype":"DB","stormnum":8,"intensity":25,"basin":"ep","mslp":1008,"dtg":2026081112,"year":2026,"month":"08","day":11,"hhmm":"1200","lat":16,"lon":-129,"ss":0,"idp_source":"EP082026_pts","idp_filedate":1786634863000,"idp_ingestdate":1786634943000,"binnumber":"EP3"}},{"type":"Feature","id":270,"geometry":{"type":"Point","coordinates":[-129.19999999980007,15.899999999800286]},"properties":{"objectid":270,"stormname":"INVEST","stormtype":"LO","stormnum":8,"intensity":25,"basin":"ep","mslp":1008,"dtg":2026081118,"year":2026,"month":"08","day":11,"hhmm":"1800","lat":16,"lon":-129,"ss":0,"idp_source":"EP082026_pts","idp_filedate":1786634863000,"idp_ingestdate":1786634943000,"binnumber":"EP3"}},{"type":"Feature","id":271,"geometry":{"type":"Point","coordinates":[-129.80000000039962,16.600000000199998]},"properties":{"objectid":271,"stormname":"INVEST","stormtype":"LO","stormnum":8,"intensity":25,"basin":"ep","mslp":1008,"dtg":2026081200,"year":2026,"month":"08","day":12,"hhmm":"0000","lat":17,"lon":-130,"ss":0,"idp_source":"EP082026_pts","idp_filedate":1786634863000,"idp_ingestdate":1786634943000,"binnumber":"EP3"}},{"type":"Feature","id":272,"geometry":{"type":"Point","coordinates":[-130.09999999980005,17.100000000100067]},"properties":{"objectid":272,"stormname":"INVEST","stormtype":"LO","stormnum":8,"intensity":25,"basin":"ep","mslp":1008,"dtg":2026081206,"year":2026,"month":"08","day":12,"hhmm":"0600","lat":17,"lon":-130,"ss":0,"idp_source":"EP082026_pts","idp_filedate":1786634863000,"idp_ingestdate":1786634943000,"binnumber":"EP3"}},{"type":"Feature","id":273,"geometry":{"type":"Point","coordinates":[-130.59999999970012,17.400000000399814]},"properties":{"objectid":273,"stormname":"INVEST","stormtype":"LO","stormnum":8,"intensity":25,"basin":"ep","mslp":1008,"dtg":2026081212,"year":2026,"month":"08","day":12,"hhmm":"1200","lat":17,"lon":-131,"ss":0,"idp_source":"EP082026_pts","idp_filedate":1786634863000,"idp_ingestdate":1786634943000,"binnumber":"EP3"}},{"type":"Feature","id":274,"geometry":{"type":"Point","coordinates":[-130.99999999980008,17.600000000000136]},"properties":{"objectid":274,"stormname":"INVEST","stormtype":"LO","stormnum":8,"intensity":25,"basin":"ep","mslp":1009,"dtg":2026081218,"year":2026,"month":"08","day":12,"hhmm":"1800","lat":18,"lon":-131,"ss":0,"idp_source":"EP082026_pts","idp_filedate":1786634863000,"idp_ingestdate":1786634943000,"binnumber":"EP3"}},{"type":"Feature","id":275,"geometry":{"type":"Point","coordinates":[-131.20000000029967,17.699999999800298]},"properties":{"objectid":275,"stormname":"EIGHT","stormtype":"TD","stormnum":8,"intensity":30,"basin":"ep","mslp":1006,"dtg":2026081300,"year":2026,"month":"08","day":13,"hhmm":"0000","lat":18,"lon":-131,"ss":0,"idp_source":"EP082026_pts","idp_filedate":1786634863000,"idp_ingestdate":1786634943000,"binnumber":"EP3"}},{"type":"Feature","id":276,"geometry":{"type":"Point","coordinates":[-131.49999999970015,17.90000000029994]},"properties":{"objectid":276,"stormname":"HERNAN","stormtype":"TS","stormnum":8,"intensity":40,"basin":"ep","mslp":1004,"dtg":2026081306,"year":2026,"month":"08","day":13,"hhmm":"0600","lat":18,"lon":-132,"ss":0,"idp_source":"EP082026_pts","idp_filedate":1786634863000,"idp_ingestdate":1786634943000,"binnumber":"EP3"}},{"type":"Feature","id":277,"geometry":{"type":"Point","coordinates":[-131.89999999980006,18.099999999900206]},"properties":{"objectid":277,"stormname":"HERNAN","stormtype":"TS","stormnum":8,"intensity":40,"basin":"ep","mslp":1004,"dtg":2026081312,"year":2026,"month":"08","day":13,"hhmm":"1200","lat":18,"lon":-132,"ss":0,"idp_source":"EP082026_pts","idp_filedate":1786634863000,"idp_ingestdate":1786634943000,"binnumber":"EP3"}}]}