{"type":"FeatureCollection","features":[{"type":"Feature","id":28,"geometry":{"type":"LineString","coordinates":[[-127.20000000019974,14.300000000299917],[-127.70000000009981,14.700000000399825],[-128.19999999999993,14.999999999800309],[-128.6999999999,15.499999999700378],[-129.19999999980007,15.899999999800286]]},"properties":{"objectid":28,"stormtype":"DB","stormnum":8,"ss":0,"idp_source":"EP082026_lin","idp_filedate":1786611780000,"idp_ingestdate":1786611917000,"st_length(shape)":2.570826817590993,"binnumber":"EP3"}},{"type":"Feature","id":29,"geometry":{"type":"LineString","coordinates":[[-129.19999999980007,15.899999999800286],[-129.80000000039962,16.600000000199998],[-130.09999999980005,17.100000000100067],[-130.59999999970012,17.400000000399814],[-130.99999999980008,17.600000000000136],[-131.70000000019974,18.000000000100044]]},"properties":{"objectid":29,"stormtype":"LO","stormnum":8,"ss":0,"idp_source":"EP082026_lin","idp_filedate":1786611780000,"idp_ingestdate":1786611917000,"st_length(shape)":3.3415841957034242,"binnumber":"EP3"}},{"type":"Feature","id":30,"geometry":{"type":"LineString","coordinates":[[-131.70000000019974,18.000000000100044],[-131.7999999999999,18.099999999900206]]},"properties":{"objectid":30,"stormtype":"TD","stormnum":8,"ss":0,"idp_source":"EP082026_lin","idp_filedate":1786611780000,"idp_ingestdate":1786611917000,"st_length(shape)":0.14142135595469488,"binnumber":"EP3"}},{"type":"Feature","id":31,"geometry":{"type":"LineString","coordinates":[[-131.70000000019974,18.000000000100044],[-131.7999999999999,18.099999999900206]]},"properties":{"objectid":31,"stormtype":"TD","stormnum":8,"ss":0,"idp_source":"EP082026_lin","idp_filedate":1786611780000,"idp_ingestdate":1786611917000,"st_length(shape)":0.14142135595469488,"binnumber":"EP3"}}]}