{"type":"FeatureCollection","features":[{"type":"Feature","id":29,"geometry":{"type":"LineString","coordinates":[[-131.89999999980006,16.100000000299929],[-132.39999999970013,15.899999999800286],[-133.90000000029971,15.499999999700378],[-135.80000000009983,15.200000000299895],[-137.79999999970016,15.099999999600414],[-140.09999999960024,15.099999999600414]]},"properties":{"objectid":29,"stormname":"Hernan","stormtype":"TS","basin":"EP","advdate":"1100 PM HST Thu Aug 13 2026","advisnum":"6","fcstprd":120,"stormnum":8,"idp_source":"ep082026-006_5day_lin","idp_filedate":1786698175000,"idp_ingestdate":1786698182000,"st_length(shape)":8.3169707958994294,"binnumber":"EP3"}}]}