{"type":"FeatureCollection","features":[{"type":"Feature","id":32,"geometry":{"type":"Polygon","coordinates":[[[-140.24967999983204,13.969709999816757],[-140.24171000011631,13.968399999660392],[-140.2156400002857,13.966150000222456],[-140.19643999980605,13.965359999764303],[-140.1761500003222,13.965020000272943],[-140.15511000042608,13.964929999719857],[-140.13358999997843,13.964929999719857],[-140.11193999983107,13.964929999719857],[-140.09026000009885,13.964929999719857],[-140.06856999990549,13.964929999719857],[-140.04687999971213,13.964929999719857],[-140.02522000000289,13.964929999719857],[-140.00354000027073,13.964929999719857],[-139.9818599996392,13.964929999719857],[-139.9602100003911,13.964929999719857],[-139.93852000019774,13.964929999719857],[-139.91683999956626,13.964929999719857],[-139.8951700002952,13.964929999719857],[-139.87348999966366,13.964929999719857],[-139.85180999993145,13.964929999719857],[-139.83011999973809,13.964929999719857],[-139.80846999959073,13.964929999719857],[-139.78678999985851,13.964929999719857],[-139.7651100001263,13.964929999719857],[-139.74343999995597,13.964929999719857],[-139.72176999978558,13.964929999719857],[-139.70009999961519,13.964929999719857],[-139.67841999988298,13.964929999719857],[-139.65674000015082,13.964929999719857],[-139.6350600004186,13.964929999719857],[-139.61339999981004,13.964929999719857],[-139.59172000007783,13.964929999719857],[-139.57004000034567,13.964929999719857],[-139.54833999969117,13.964929999719857],[-139.52669000044307,13.964929999719857],[-139.50500000024971,13.964929999719857],[-139.48331999961817,13.964929999719857],[-139.46167000037013,13.964929999719857],[-139.4399899997386,13.964929999719857],[-139.41830000044456,13.964929999719857],[-139.39663999983605,13.964929999719857],[-139.37494999964269,13.964929999719857],[-139.35326999991048,13.964929999719857],[-139.33159000017827,13.964929999719857],[-139.30994000003091,13.964929999719857],[-139.28824999983755,13.964929999719857],[-139.26657000010533,13.964929999719857],[-139.24489999993494,13.964929999719857],[-139.22324000022576,13.964929999719857],[-139.20157000005537,13.964929999719857],[-139.17989000032316,13.964929999719857],[-139.1582000001298,13.964929999719857],[-139.13652000039764,13.964929999719857],[-139.11487000025022,13.964929999719857],[-139.09318999961869,13.964929999719857],[-139.07150000032465,13.964929999719857],[-139.04983999971614,13.964929999719857],[-139.02817000044507,13.964929999719857],[-139.00650000027468,13.964929999719857],[-138.98481999964321,13.964929999719857],[-138.96313000034917,13.964929999719857],[-138.94144999971763,13.964929999719857],[-138.91976999998542,13.964929999719857],[-138.89809999981503,13.964929999719857],[-138.87642000008287,13.964929999719857],[-138.85474000035066,13.964929999719857],[-138.83315999983404,13.965020000272943],[-138.81183000005439,13.965359999764303],[-138.79095000034215,13.966150000222456],[-138.77065999995892,13.967539999571443],[-138.75116000003391,13.969709999816757],[-138.74186999970061,13.971269999810772],[-138.71384999987748,13.975789999608935],[-138.69537000022524,13.979000000150052],[-138.67655999974409,13.981870000300432],[-138.6665999999899,13.98273999995115],[-138.63677999989699,13.985429999894734],[-138.61588000016178,13.986209999891742],[-138.60512999994944,13.986300000444828],[-138.58372000007785,13.986559999844246],[-138.55129999969512,13.986639999936187],[-138.52963000042411,13.986639999936187],[-138.50802999988451,13.986729999589954],[-138.48670999966669,13.987080000441779],[-138.47639000039811,13.987600000140048],[-138.4455300000094,13.989249999787774],[-138.42601000006135,13.991420000033088],[-138.41673000018926,13.992980000027103],[-138.3887300003891,13.997499999825266],[-138.37024000027571,14.000710000366382],[-138.35144000025571,14.003579999617443],[-138.33194000033069,14.005749999862758],[-138.3216200001628,14.006269999560971],[-138.29075999977408,14.007920000108072],[-138.26943999955625,14.008270000060577],[-138.24792000000792,14.008439999806285],[-138.23735000000244,14.00870000010508],[-138.20568999959374,14.009569999755797],[-138.18542000013281,14.010960000004161],[-138.16590999974659,14.013130000249475],[-138.14708999970361,14.016000000399856],[-138.12863000007434,14.019210000041596],[-138.11017000044507,14.022430000144539],[-138.09133999994094,14.025289999833774],[-138.08138999974858,14.026160000383868],[-138.05156999965567,14.028850000327395],[-138.03075999957423,14.02971999997817],[-138.00977000018526,14.030419999883236],[-137.99945000001742,14.030939999581449],[-137.96866999972065,14.032670000220492],[-137.93964000008583,14.036149999722852],[-137.93036000021374,14.037709999716867],[-137.91187999966218,14.040920000257927],[-137.89340000000993,14.044140000360869],[-137.87457000040513,14.047000000050105],[-137.85506999958073,14.049179999857245],[-137.83486999975059,14.050650000197493],[-137.81433000042909,14.051780000147005],[-137.79379000020828,14.052910000096574],[-137.78381000043106,14.053779999747348],[-137.75408999955374,14.056560000243962],[-137.73525999994894,14.059419999933198],[-137.71680000031967,14.062640000036083],[-137.69829999974513,14.06584999967788],[-137.6794900001633,14.068719999828261],[-137.66009999991496,14.070970000165516],[-137.64014000036065,14.072710000366385],[-137.62003000018427,14.074270000360343],[-137.60010000021475,14.076009999661892],[-137.58066000035865,14.078269999560973],[-137.56182999985452,14.081130000149528],[-137.54337999978708,14.084350000252471],[-137.52492999971963,14.087559999894211],[-137.50610000011483,14.090430000044591],[-137.48660000018975,14.092600000289906],[-137.46640000035961,14.09408000019198],[-137.44586000013879,14.095210000141549],[-137.42531000035615,14.096329999629916],[-137.40512000008783,14.097810000431309],[-137.37603999994593,14.101280000371844],[-137.36676000007384,14.102849999927685],[-137.34831000000639,14.106059999569482],[-137.33901999967316,14.10761999956344],[-137.31103999989597,14.112140000260922],[-137.29160999960169,14.114400000160003],[-137.27167000007034,14.116140000360872],[-137.25155999989397,14.117700000354887],[-137.23162999992445,14.119439999656379],[-137.21219000006835,14.121689999993635],[-137.19335999956422,14.124560000144015],[-137.1749100003961,14.127769999785812],[-137.15646000032865,14.130989999888698],[-137.1376200002627,14.133849999577933],[-137.11818999996842,14.136110000376334],[-137.09826999956073,14.137849999677883],[-137.07816000028367,14.139409999671898],[-137.06827000016028,14.140369999875759],[-137.03877000043508,14.143409999771791],[-137.02950000012481,14.144969999765806],[-137.00150000032465,14.149489999563968],[-136.98303000023424,14.152700000105085],[-136.96423000021423,14.155570000255466],[-136.94481000038115,14.157830000154547],[-136.92484999992746,14.159559999894213],[-136.90475000021223,14.161130000349374],[-136.88482999980454,14.162860000089097],[-136.85582999975458,14.166419999683399],[-136.84656000034363,14.167990000138559],[-136.82809000025321,14.171199999780299],[-136.80962999972462,14.174410000321416],[-136.79082000014279,14.177279999572477],[-136.77132000021777,14.179449999817791],[-136.75110999992648,14.180929999719865],[-136.73056000014378,14.182059999669377],[-136.72034000009086,14.182660000358851],[-136.68982000009282,14.184659999959194],[-136.67032000016781,14.186830000204509],[-136.65148999966368,14.18970000035489],[-136.63303000003441,14.19290999999663],[-136.61455999994394,14.196130000099572],[-136.60503000023425,14.197429999794792],[-136.57625000043708,14.201160000034122],[-136.55604999970762,14.202639999936196],[-136.54573000043911,14.203159999634408],[-136.51493999968113,14.204899999835277],[-136.49475000031219,14.206370000175525],[-136.48519999968016,14.207669999870745],[-136.456419999883,14.211409999671901],[-136.43796000025372,14.21462000021296],[-136.41949000016331,14.217840000315903],[-136.40067000012033,14.220700000005138],[-136.38125999984902,14.222959999904219],[-136.3613000002947,14.224700000105031],[-136.34119999968016,14.226260000099046],[-136.33130999955677,14.227220000302907],[-136.30182999985453,14.230260000198996],[-136.2830200002727,14.233119999888231],[-136.26455999974411,14.236339999991117],[-136.24608999965369,14.239549999632914],[-136.22726000004889,14.242419999783294],[-136.20782000019278,14.24467000012055],[-136.18789999978509,14.246410000321418],[-136.16778999960871,14.247970000315377],[-136.15790000038464,14.248929999619918],[-136.12841999978309,14.251970000415326],[-136.10961999976308,14.254839999666387],[-136.09116000013381,14.258050000207504],[-136.07269000004339,14.261259999849244],[-136.05386000043859,14.264129999999625],[-136.0343599996142,14.266300000244939],[-136.01413999976108,14.267780000147013],[-135.99361999956324,14.268899999635437],[-135.97304999975762,14.270029999584949],[-135.95284999992748,14.271510000386343],[-135.93335000000241,14.273679999732337],[-135.9145499999824,14.276549999882718],[-135.89609000035313,14.279760000423835],[-135.87758999977859,14.282979999627401],[-135.85880000021973,14.285840000215956],[-135.83928999983351,14.28800999956195],[-135.82904000019579,14.288619999813307],[-135.80874999981256,14.290010000061613],[-135.77797999997694,14.291750000262425],[-135.75778000014679,14.293219999703354],[-135.73826999976058,14.295389999948668],[-135.7194499997176,14.298260000099049],[-135.70099000008832,14.301469999740846],[-135.68249999997494,14.304689999843731],[-135.66369999995493,14.307550000432286],[-135.64420000002991,14.309719999778281],[-135.62398999973863,14.311199999680355],[-135.60345000041707,14.312329999629924],[-135.5828999997351,14.313459999579436],[-135.56271000036611,14.314929999919684],[-135.54317999995692,14.317109999726824],[-135.52435000035217,14.319970000315379],[-135.50588999982352,14.323179999957176],[-135.48743000019425,14.326400000060119],[-135.4686300001743,14.329259999749354],[-135.44919999988002,14.331519999648378],[-135.42924000032565,14.333259999849247],[-135.4091500001723,14.334819999843262],[-135.38922000020278,14.33656000004413],[-135.37966999957075,14.337859999739351],[-135.35094999984256,14.34167999963239],[-135.33249000021323,14.344899999735333],[-135.31402999968464,14.348110000276449],[-135.29520999964166,14.35098000042683],[-135.2758200002927,14.353240000325911],[-135.25585999983906,14.354970000065578],[-135.23574999966269,14.356530000059593],[-135.22586000043856,14.357490000263454],[-135.19637999983701,14.360530000159542],[-135.17755000023226,14.363400000309923],[-135.15910000016481,14.366609999951663],[-135.14061999961319,14.36981999959346],[-135.12191999970815,14.372780000296927],[-135.10274999971261,14.375299999595427],[-135.08322000020274,14.377469999840741],[-135.06372000027773,14.379640000086056],[-135.04455999984401,14.382160000283932],[-135.02581999989297,14.385109999626934],[-135.00734999980256,14.388320000167994],[-134.98889000017328,14.391540000270936],[-134.97017999980704,14.394489999613938],[-134.95102000027271,14.397009999811758],[-134.93150000032466,14.399180000057072],[-134.91202000042261,14.401350000302386],[-134.89285000042707,14.403869999600943],[-134.87410999957672,14.406819999843265],[-134.85564999994745,14.410030000384324],[-134.82808999975362,14.414989999788816],[-134.8187899998585,14.416549999782774],[-134.80008000039163,14.419500000025096],[-134.78116999979557,14.422279999622447],[-134.77190000038462,14.423850000077607],[-134.74399000023823,14.428449999967654],[-134.72560000023975,14.431750000162538],[-134.70721000024122,14.435050000357364],[-134.68874999971263,14.438259999999161],[-134.67000999976159,14.441210000241483],[-134.65112000008787,14.443989999838777],[-134.63238999969866,14.446949999642925],[-134.61391999960819,14.450160000183985],[-134.59564000018577,14.453550000032635],[-134.57750999958671,14.457109999626937],[-134.56851000003638,14.45892999991969],[-134.5413500003022,14.464320000267946],[-134.52321999970314,14.467879999862248],[-134.50519999968014,14.471530000009636],[-134.48717000009532,14.475169999695879],[-134.46915000007237,14.478819999843267],[-134.4511100000264,14.482469999990656],[-134.43298000032667,14.486029999584957],[-134.40581999969316,14.491410000371332],[-134.39682000014278,14.493240000225967],[-134.36977999964716,14.498709999766788],[-134.36074999961272,14.500530000059598],[-134.34274000005087,14.504180000206986],[-134.32461999991295,14.507739999801288],[-134.30649000021327,14.511300000294909],[-134.28853999982107,14.515040000096064],[-134.27968999999342,14.517030000134525],[-134.26201000036116,14.521030000234475],[-134.22706999978055,14.529450000017619],[-134.2184800002517,14.5317099999167],[-134.20142000043256,14.536320000267949],[-134.19299000018827,14.538749999912682],[-134.16776000042358,14.546039999746313],[-134.15120999984151,14.551169999795775],[-134.13464000013579,14.556290000283411],[-134.12622000035265,14.558719999928201],[-134.10100999971161,14.566020000222977],[-134.09242000018276,14.568280000122058],[-134.07532000031767,14.572880000012105],[-134.04967999963219,14.579739999801291],[-134.04125999984905,14.5821700003454],[-134.02444000030567,14.587029999634922],[-133.99955999959423,14.594679999882203],[-133.99138999964867,14.597369999825787],[-133.97510000026472,14.602749999712842],[-133.95064999959772,14.610830000004626],[-133.93444999986752,14.616300000444824],[-133.91823999967613,14.621769999985645],[-133.9019300002692,14.627160000333902],[-133.88565000044707,14.632540000220956],[-133.86135999996395,14.640790000258448],[-133.85321000004137,14.643489999763801],[-133.82874999981254,14.65155999959444],[-133.82059000032814,14.654259999999113],[-133.8043800001368,14.659730000439311],[-133.78818000040661,14.665199999980132],[-133.77187999966219,14.670579999867243],[-133.76372999973961,14.673280000271916],[-133.74750999998645,14.678749999812794],[-133.71503000043407,14.689600000140047],[-133.7068599995892,14.6922999996454],[-133.69063999983604,14.697770000085598],[-133.67466999992047,14.703499999925214],[-133.65890999979655,14.709409999971683],[-133.64322000020275,14.715400000110037],[-133.62778000044659,14.721649999647923],[-133.61251999999791,14.728080000291925],[-133.5970800002417,14.734329999829754],[-133.58138999974858,14.740319999968165],[-133.56560999960169,14.746230000014634],[-133.54965000014732,14.75195999985425],[-133.53345000041708,14.757430000294391],[-133.51720999974162,14.762910000296415],[-133.501279999872,14.768640000136031],[-133.49339000024821,14.771590000378353],[-133.46981999969313,14.780540000320912],[-133.45437999993698,14.78678999985874],[-133.43912000038762,14.793210000041597],[-133.41589000022321,14.80250999993666],[-133.40807999979205,14.805549999832749],[-133.39257999996693,14.811709999716868],[-133.37704000009586,14.817880000062075],[-133.3614200001328,14.823959999854253],[-133.35378999990849,14.827170000395313],[-133.33075000041208,14.836640000036084],[-133.31530999975661,14.84288999957397],[-133.29960999970166,14.848890000173526],[-133.2917299996397,14.851840000415848],[-133.26787999966217,14.860519999598466],[-133.25165999990895,14.865999999600433],[-133.23544000015579,14.871470000040631],[-133.21951000028622,14.877199999880247],[-133.20369999965516,14.883109999926717],[-133.18801999962318,14.889100000065071],[-133.17261000035114,14.895349999602956],[-133.15734999990246,14.901780000246958],[-133.14191000014631,14.908029999784787],[-133.12621999965319,14.914019999923198],[-133.11831999956826,14.916979999727346],[-133.09448000005187,14.925659999809284],[-133.07828000032168,14.931130000249425],[-133.05382999965468,14.939209999641889],[-133.04575000026222,14.94199000013856],[-133.02954000007088,14.947459999679381],[-133.0213900001483,14.950149999622909],[-132.99703999959621,14.958319999568459],[-132.9891400004106,14.961269999810781],[-132.9652999999949,14.969960000353865],[-132.95748999956373,14.972989999788808],[-132.93408000009185,14.982110000376338],[-132.92626999966069,14.985150000272426],[-132.90270999956675,14.994100000214985],[-132.89446999999041,14.996699999605426],[-132.87798999993845,15.001909999746829],[-132.85274999971261,15.009210000041605],[-132.83542000003291,15.013549999632914],[-132.82657000020527,15.015550000132521],[-132.80005000030718,15.021540000270932],[-132.78209000035315,15.025280000072087],[-132.76397999977706,15.028839999666388],[-132.74585000007733,15.03240000016001],[-132.72781000003141,15.036050000307398],[-132.70972000037762,15.0396099999017],[-132.69142000003291,15.04299999975035],[-132.67294000038061,15.04621000029141],[-132.66350000032469,15.047599999640397],[-132.63530999985653,15.051940000131026],[-132.61658000036664,15.054890000373348],[-132.60739000014831,15.05654000002113],[-132.57974000030066,15.061409999771797],[-132.57055999964416,15.063060000318899],[-132.54290999979656,15.067919999608421],[-132.52414999982255,15.070869999850743],[-132.50528000017181,15.073650000347357],[-132.4865099997366,15.076610000151504],[-132.46805000010733,15.079819999793301],[-132.44968000013182,15.083119999988128],[-132.4312100000414,15.086329999629925],[-132.41239999956025,15.089199999780305],[-132.39297000016529,15.091459999679387],[-132.3730499997576,15.093190000318373],[-132.35293999958122,15.094759999874213],[-132.34305000035715,15.095709999616929],[-132.31354999973263,15.098750000412338],[-132.30428999988351,15.100319999968178],[-132.27629000008335,15.104830000204458],[-132.25781000043111,15.108050000307401],[-132.23908999960372,15.110999999650403],[-132.21991000004635,15.113519999848279],[-132.20041000012134,15.115690000093593],[-132.18091000019626,15.117860000338908],[-132.17145000011732,15.119249999687895],[-132.14300999981157,15.123329999879729],[-132.12463000027418,15.126630000074556],[-132.10651999969815,15.130189999668914],[-132.08849000011332,15.133839999816303],[-132.07937999998694,15.135580000017114],[-132.05234000039064,15.141049999557993],[-132.03463999983603,15.14504000009606],[-132.01739999981004,15.149470000240456],[-132.00924999988752,15.152160000183983],[-131.98494999984251,15.160419999783301],[-131.97006000026869,15.167189999918719],[-131.95600999986152,15.174829999704855],[-131.94289999963519,15.183429999694852],[-131.93069000044306,15.192900000234943],[-131.91350999958672,15.208270000360358],[-131.90822999981452,15.213829999554946],[-131.89782999955474,15.225120000387847],[-131.88318000025674,15.243009999811761],[-131.87867999958223,15.249349999902734],[-131.86565999990898,15.26888999987375],[-131.86165999980904,15.275749999662878],[-131.85040000035963,15.297029999834763],[-131.84343999955627,15.311800000170024],[-131.83721999960324,15.327250000387323],[-131.83004999990749,15.352440000106071],[-131.82822000005285,15.360950000442301],[-131.82569999985503,15.378930000419302],[-131.82491999985803,15.407420000332877],[-131.82577999994697,15.41635999981429],[-131.83109000020323,15.453270000410328],[-131.8332499999874,15.461790000308383],[-131.84088000021177,15.486710000166511],[-131.84408999985351,15.494349999952647],[-131.8508500004271,15.509290000033616],[-131.85845999972912,15.523359999564491],[-131.87154999993248,15.542820000342886],[-131.88144000005587,15.554629999974679],[-131.89166000010886,15.566089999653911],[-131.90243999990599,15.577029999634931],[-131.91335999986399,15.587799999870242],[-131.92462000021277,15.598220000153049],[-131.93607000033018,15.608469999790771],[-131.9482099998915,15.618029999984628],[-131.96103000023425,15.62689000027342],[-131.97472999978959,15.634880000012117],[-131.98929000033314,15.64200000010004],[-132.00489999983506,15.648079999892218],[-132.02962999992445,15.655890000323382],[-132.0380200001228,15.658330000429316],[-132.06392999976958,15.664929999919707],[-132.07268999994346,15.667009999611935],[-132.0903899995987,15.671000000150002],[-132.10825000033714,15.674829999604924],[-132.12627999992196,15.678470000190487],[-132.14446999969067,15.681949999692847],[-132.17145000011732,15.687509999786812],[-132.18038999959873,15.689419999733332],[-132.20681999984305,15.695500000424829],[-132.21558000001687,15.697580000117057],[-132.23290999969663,15.701919999708366],[-132.25024000027571,15.706269999760821],[-132.2762799996222,15.712779999597444],[-132.28493999968117,15.714949999842759],[-132.30229000028322,15.719290000333388],[-132.32828999958372,15.725809999731837],[-132.3369800001268,15.727979999977151],[-132.36298000032667,15.734489999813775],[-132.37164000038564,15.736660000059089],[-132.39767000017031,15.743180000356858],[-132.41501000031116,15.747519999948167],[-132.43242999964468,15.751780000346855],[-132.45003000008433,15.755859999639426],[-132.46780000026973,15.759770000085553],[-132.48574999976262,15.763500000324882],[-132.49475000021226,15.765319999718372],[-132.52199000003839,15.770620000412805],[-132.53100999961168,15.77245000026744],[-132.55817000024524,15.777830000154495],[-132.57654000022075,15.781130000349378],[-132.59524999968767,15.784079999692381],[-132.60470999976661,15.785469999940688],[-132.62410999957672,15.787729999839769],[-132.64374000010082,15.789819999993142],[-132.67260999955175,15.793459999679385],[-132.6820699996307,15.794849999927692],[-132.70979000000841,15.799630000024592],[-132.71896000020377,15.801279999672374],[-132.73751999994795,15.80441000012155],[-132.76656999960574,15.807880000062084],[-132.78686999955073,15.809270000310391],[-132.80777000018526,15.810050000307399],[-132.82909999996491,15.810400000259961],[-132.83983999971611,15.810489999913727],[-132.86150999988649,15.810489999913727],[-132.88320999964168,15.810489999913727],[-132.90487999981207,15.810489999913727],[-132.92654000042057,15.810489999913727],[-132.94820999969164,15.810489999913727],[-132.96987999986203,15.810489999913727],[-132.99155000003236,15.810489999913727],[-133.01324000022572,15.810489999913727],[-133.03491000039611,15.810489999913727],[-133.05657999966718,15.810489999913727],[-133.07828000032168,15.810489999913727],[-133.0999499995927,15.810489999913727],[-133.12161000020126,15.810489999913727],[-133.14328000037165,15.810489999913727],[-133.16498000012683,15.810489999913727],[-133.18665000029716,15.810489999913727],[-133.20831000000641,15.810489999913727],[-133.22998000017679,15.810489999913727],[-133.25165000034713,15.810489999913727],[-133.27335000010231,15.810489999913727],[-133.30576000002389,15.810400000259961],[-133.32708999980355,15.810050000307399],[-133.34799000043807,15.809270000310391],[-133.35795999975409,15.808399999760297],[-133.3877900003082,15.80570999981677],[-133.406619999913,15.802839999666389],[-133.4250800004416,15.799630000024592],[-133.45281999994296,15.794849999927692],[-133.46236000011385,15.793550000232472],[-133.48186000003886,15.791379999987157],[-133.50213999996095,15.78998999973885],[-133.52295000004239,15.789120000088076],[-133.5439499998925,15.788429999744835],[-133.56473000038909,15.787560000094061],[-133.57471000016631,15.786690000443286],[-133.60453999982104,15.783999999600439],[-133.6233500003022,15.781130000349378],[-133.64182000039261,15.777919999808262],[-133.66028000002188,15.774699999705376],[-133.67908000004189,15.771840000016141],[-133.69860999955176,15.769669999770827],[-133.70892000015778,15.769150000072557],[-133.7396899999934,15.767409999871745],[-133.7606800002817,15.766709999966679],[-133.78149000036314,15.76584999987773],[-133.80179000030819,15.764459999629423],[-133.82129000023326,15.762279999822283],[-133.84009000025321,15.759420000133048],[-133.85858000036666,15.756200000030105],[-133.87703999999593,15.752990000388365],[-133.89586999960073,15.75012999979981],[-133.91537000042507,15.747959999554496],[-133.93567000037012,15.746559999744306],[-133.95644999996745,15.745699999655415],[-133.97744999981757,15.744999999750348],[-133.99825999989901,15.744130000099574],[-134.01853999982103,15.742739999851267],[-134.03805999976908,15.740569999605952],[-134.05687000025023,15.737709999916717],[-134.0753299998795,15.734489999813775],[-134.09377999994695,15.731280000172035],[-134.11262999957472,15.728410000021597],[-134.13211000037614,15.726239999776283],[-134.15239999985999,15.724850000427296],[-134.17331000005635,15.724070000430288],[-134.19463999983606,15.723719999578464],[-134.20547000014028,15.723719999578464],[-134.23788000006186,15.723640000385842],[-134.25957000025522,15.723640000385842],[-134.28124999998744,15.723640000385842],[-134.30292999971959,15.723640000385842],[-134.32457999986701,15.723640000385842],[-134.34627000006037,15.723640000385842],[-134.36794999979259,15.723640000385842],[-134.38965000044709,15.723640000385842],[-134.41129999969513,15.723640000385842],[-134.43298000032667,15.723640000385842],[-134.45466999962071,15.723640000385842],[-134.47631999976807,15.723640000385842],[-134.4980000003996,15.723640000385842],[-134.51968000013181,15.723640000385842],[-134.5413500003022,15.723640000385842],[-134.56303000003436,15.723640000385842],[-134.58472000022772,15.723640000385842],[-134.60639999995993,15.723640000385842],[-134.62805000010735,15.723640000385842],[-134.64972999983951,15.723640000385842],[-134.67139000044807,15.723640000385842],[-134.69307000018028,15.723640000385842],[-134.7147499999125,15.723640000385842],[-134.73642000008283,15.723640000385842],[-134.75809999981504,15.723640000385842],[-134.7797900000084,15.723640000385842],[-134.80146999974062,15.723640000385842],[-134.82311999988798,15.723640000385842],[-134.84479999962019,15.723640000385842],[-134.86648999981355,15.723640000385842],[-134.88815000042212,15.723640000385842],[-134.90981999969313,15.723640000385842],[-134.93148999986352,15.723640000385842],[-134.95316999959573,15.723640000385842],[-134.97485000022726,15.723640000385842],[-134.99654000042057,15.723640000385842],[-135.01822000015278,15.723640000385842],[-135.03989000032317,15.723640000385842],[-135.06157000005538,15.723640000385842],[-135.0832499997876,15.723640000385842],[-135.10493000041907,15.723640000385842],[-135.12659000012832,15.723640000385842],[-135.14826999986053,15.723640000385842],[-135.16983000035412,15.723719999578464],[-135.19118000015681,15.724070000430288],[-135.21207000033019,15.724850000427296],[-135.22238000003688,15.725370000125565],[-135.25187999976208,15.728410000021597],[-135.27069000024323,15.731280000172035],[-135.28914000031068,15.734489999813775],[-135.29832000006786,15.736140000360876],[-135.32641999998293,15.740569999605952],[-135.33596999971564,15.741870000200493],[-135.36621000029118,15.744130000099574],[-135.38711999958821,15.744919999658407],[-135.40845000026724,15.745260000049086],[-135.43002000032266,15.745349999702853],[-135.4517099996167,15.745349999702853],[-135.47339000024823,15.745349999702853],[-135.49506999998044,15.745349999702853],[-135.5167499997126,15.745349999702853],[-135.53841999988299,15.745349999702853],[-135.5600999996152,15.745349999702853],[-135.5817000001548,15.74544000025594],[-135.59243999990599,15.745520000347881],[-135.62390000008486,15.746559999744306],[-135.64420000002991,15.747959999554496],[-135.65417000024524,15.748819999643388],[-135.67322000010284,15.75143000039435],[-135.70099000008832,15.756200000030105],[-135.7101699998455,15.757860000139033],[-135.73828000022172,15.762279999822283],[-135.75778000014679,15.764459999629423],[-135.77808000009185,15.765840000315904],[-135.78838999979854,15.766369999575943],[-135.82028000002191,15.766970000265417],[-135.84187000010036,15.767059999919184],[-135.86356000029372,15.767059999919184],[-135.8852200000029,15.767059999919184],[-135.90689000017329,15.767059999919184],[-135.92856000034368,15.767059999919184],[-135.95024000007584,15.767059999919184],[-135.97191999980805,15.767059999919184],[-135.99350000032467,15.76714999957295],[-136.01483000010433,15.767500000424832],[-136.02542000013284,15.76775999982425],[-136.05602000022276,15.769669999770827],[-136.06597999997695,15.770540000320921],[-136.08508000034163,15.773139999711361],[-136.11281999984305,15.777919999808262],[-136.13128999993347,15.781130000349378],[-136.15010000041462,15.783999999600439],[-136.16960000033964,15.786169999845754],[-136.18988000026172,15.787560000094061],[-136.20020000042956,15.788079999792274],[-136.23212000023773,15.78869000004363],[-136.25371000031618,15.788770000135514],[-136.27539000004839,15.788770000135514],[-136.2970699997806,15.788770000135514],[-136.31873000038911,15.788770000135514],[-136.34041000012132,15.788770000135514],[-136.36208999985354,15.788770000135514],[-136.38376000002387,15.788770000135514],[-136.40543000019426,15.788770000135514],[-136.4270899999035,15.788770000135514],[-136.44878000009686,15.788770000135514],[-136.47045999982902,15.788770000135514],[-136.49213999956123,15.788770000135514],[-136.51378999970865,15.788770000135514],[-136.53547999990201,15.788770000135514],[-136.55715999963417,15.788770000135514],[-136.57876999973558,15.788859999789281],[-136.5895100003861,15.788950000342368],[-136.62096999966565,15.78998999973885],[-136.6412699996107,15.791379999987157],[-136.66077000043509,15.793550000232472],[-136.67028999968363,15.794849999927692],[-136.6980399996462,15.799630000024592],[-136.70720999984155,15.801279999672374],[-136.72580000006985,15.80441000012155],[-136.75484999972764,15.807880000062084],[-136.77514999967264,15.809270000310391],[-136.79603999984602,15.810050000307399],[-136.8173499996027,15.810400000259961],[-136.82809000025321,15.810489999913727],[-136.8497600004236,15.810489999913727],[-136.87142999969467,15.810489999913727],[-136.89313000034917,15.810489999913727],[-136.91479000005836,15.810489999913727],[-136.93646000022875,15.810489999913727],[-136.95815999998393,15.810489999913727],[-136.97983000015432,15.810489999913727],[-137.00150000032465,15.810489999913727],[-137.0231600000339,15.810489999913727],[-137.04485999978908,15.810489999913727],[-137.07726999971061,15.810400000259961],[-137.09860000038964,15.810050000307399],[-137.11950999968667,15.809270000310391],[-137.12947000034018,15.808399999760297],[-137.15929999999491,15.80570999981677],[-137.17810000001492,15.802839999666389],[-137.19657999966716,15.799630000024592],[-137.22432999962967,15.794849999927692],[-137.23388999982353,15.793550000232472],[-137.25338999974861,15.791379999987157],[-137.27368000013183,15.78998999973885],[-137.29457000030516,15.789209999741843],[-137.31588999962372,15.788859999789281],[-137.32671999992795,15.788859999789281],[-137.35912999984953,15.788770000135514],[-137.38080999958174,15.788770000135514],[-137.4024999997751,15.788770000135514],[-137.42416000038361,15.788770000135514],[-137.44584999967765,15.788770000135514],[-137.46753000030918,15.788770000135514],[-137.4892100000414,15.788770000135514],[-137.51086000018876,15.788770000135514],[-137.53255000038212,15.788770000135514],[-137.55423000011433,15.788770000135514],[-137.57590000028472,15.788770000135514],[-137.5975599999939,15.788770000135514],[-137.61923000016429,15.788770000135514],[-137.64090999989651,15.788770000135514],[-137.66260000008987,15.788770000135514],[-137.68427999982202,15.788770000135514],[-137.70595999955424,15.788770000135514],[-137.72762999972463,15.788770000135514],[-137.74931000035616,15.788770000135514],[-137.7709999996502,15.788770000135514],[-137.79268000028168,15.788770000135514],[-137.81433000042909,15.788770000135514],[-137.83601000016131,15.788770000135514],[-137.8576699998705,15.788770000135514],[-137.87934999960271,15.788770000135514],[-137.90103000023424,15.788770000135514],[-137.92270000040463,15.788770000135514],[-137.94438000013679,15.788770000135514],[-137.966059999869,15.788770000135514],[-137.98775000006236,15.788770000135514],[-138.00940000020978,15.788770000135514],[-138.03107999994194,15.788770000135514],[-138.05275999967415,15.788770000135514],[-138.07442999984454,15.788770000135514],[-138.09601000036116,15.788859999789281],[-138.10677999969715,15.788950000342368],[-138.13823999987602,15.78998999973885],[-138.15851999979805,15.791379999987157],[-138.17803999974609,15.793550000232472],[-138.18755999989401,15.794849999927692],[-138.21532000031766,15.799630000024592],[-138.22452000009781,15.801279999672374],[-138.24307000028023,15.80441000012155],[-138.2721300003991,15.807880000062084],[-138.29241999988301,15.809270000310391],[-138.31329000003336,15.810050000307399],[-138.33463000027422,15.810400000259961],[-138.34537000002541,15.810489999913727],[-138.3670299997346,15.810489999913727],[-138.3887300003891,15.810489999913727],[-138.41039999966017,15.810489999913727],[-138.43206999983056,15.810489999913727],[-138.45376999958575,15.810489999913727],[-138.47543000019425,15.810489999913727],[-138.49710000036464,15.810489999913727],[-138.51876999963571,15.810489999913727],[-138.54047000029021,15.810489999913727],[-138.5621299999994,15.810489999913727],[-138.58380000016979,15.810489999913727],[-138.61621000009137,15.810570000005612],[-138.63753999987102,15.810919999958173],[-138.65845000006738,15.811699999955181],[-138.66875999977407,15.812219999653394],[-138.69824000037562,15.815260000448802],[-138.70775999962422,15.816560000144023],[-138.7355299996097,15.82134000024098],[-138.74471999982802,15.822989999888705],[-138.77283000020424,15.827420000033101],[-138.78235000035215,15.828719999728321],[-138.80230999990647,15.83045999992919],[-138.8334000001098,15.831850000177496],[-138.84389999958523,15.832200000130058],[-138.87521000004136,15.833410000171511],[-138.89548999996344,15.834800000419818],[-138.91500999991149,15.836980000226959],[-138.93384000041561,15.839839999916194],[-138.95228999958374,15.843049999557991],[-138.96145999977909,15.844700000105036],[-138.98004000044557,15.847829999654891],[-139.00900000044959,15.851390000148513],[-139.02893000041911,15.853130000349381],[-139.04903999969616,15.854690000343396],[-139.0690000001498,15.856429999644888],[-139.08841999998293,15.858690000443289],[-139.10724000002591,15.861550000132524],[-139.12569999965518,15.864770000235467],[-139.13488999987351,15.866419999883249],[-139.16288999967367,15.870930000119529],[-139.17232999972964,15.872320000367836],[-139.19174000000089,15.874580000266917],[-139.21136000006385,15.876670000420347],[-139.2402300004141,15.880310000106533],[-139.25897000036514,15.883260000348855],[-139.26825000023723,15.884829999904696],[-139.28658999972862,15.888130000099579],[-139.3049900001883,15.891430000294406],[-139.32354999993248,15.894559999844262],[-139.35189999968514,15.898720000128037],[-139.37061000005139,15.901679999932185],[-139.37990000038462,15.9032399999262],[-139.40747000014028,15.908189999768808],[-139.41666000035866,15.90984000031591],[-139.44433999979105,15.914699999605432],[-139.46303999969615,15.917660000308899],[-139.48195999985404,15.920439999906193],[-139.50067000022023,15.923390000148515],[-139.50995000009232,15.92495000014253],[-139.5375100002862,15.929899999985139],[-139.55588999982353,15.933200000180022],[-139.56508999960369,15.934849999827748],[-139.58365000024725,15.937980000276923],[-139.61199999999991,15.942150000122524],[-139.62146000007886,15.943540000370831],[-139.64001000026121,15.946660000358861],[-139.66747999990201,15.951699999855236],[-139.67657000000543,15.953440000056105],[-139.70364000008584,15.958909999596926],[-139.71265000009731,15.960740000350881],[-139.73988000036167,15.966029999684849],[-139.75792000040758,15.969679999832238],[-139.76693999998093,15.971509999686873],[-139.78512999974959,15.974979999627408],[-139.81281000008136,15.979839999816249],[-139.82208000039162,15.98141000027141],[-139.85043000014429,15.985569999655922],[-139.86913999961121,15.98853000035939],[-139.87842999994444,15.990090000353348],[-139.90591000004639,15.99512999984978],[-139.92403999974613,15.998690000343402],[-139.94207999979204,16.00233999959147],[-139.95110999982654,16.004159999884223],[-139.96929999959519,16.007629999824758],[-139.99634999965269,16.013109999826781],[-140.01436999967564,16.016750000412344],[-140.03240999972161,16.020399999660413],[-140.04143999975611,16.022219999953165],[-140.0685400003207,16.027610000301422],[-140.07766999957073,16.029349999602914],[-140.09570000005488,16.032999999750302],[-140.11374000010085,16.036640000335865],[-140.13176999968567,16.040289999583933],[-140.14980999973159,16.043939999731322],[-140.16784999977756,16.047580000316884],[-140.18604000044559,16.051059999819302],[-140.20409999961521,16.05470999996669],[-140.2312000001798,16.060089999853744],[-140.24029999984504,16.061830000054613],[-140.25870000030466,16.065130000249439],[-140.28670000010482,16.069639999586457],[-140.30560000023974,16.072420000083071],[-140.31506000031868,16.073810000331378],[-140.34279999982004,16.078590000428335],[-140.35199000003837,16.08024000007606],[-140.37920999984152,16.08553999987123],[-140.39724999988749,16.089190000018618],[-140.4153700000254,16.09274999961292],[-140.42446999969064,16.094480000251963],[-140.45151999974809,16.09996000025393],[-140.46054000022076,16.10177999964742],[-140.48757999981706,16.107250000087561],[-140.4966099998515,16.109079999942196],[-140.52374000000088,16.114459999829251],[-140.54186999970062,16.118020000322872],[-140.55089999973512,16.119850000177507],[-140.57802999988451,16.125230000064562],[-140.5962999997451,16.128619999913212],[-140.61480999988152,16.131829999554952],[-140.63350999978655,16.134779999797274],[-140.65242000038262,16.137560000293945],[-140.66187000000042,16.138949999642932],[-140.6896100004011,16.143729999739833],[-140.70798000037661,16.147029999934716],[-140.71716000013379,16.148679999582441],[-140.73553000010935,16.151979999777325],[-140.76356999995545,16.156490000013605],[-140.77301000001142,16.157880000261969],[-140.80121000004141,16.162230000314423],[-140.8104899999135,16.163790000308381],[-140.83803999964618,16.168740000151047],[-140.84722999986451,16.170389999798772],[-140.87487999971211,16.17524999998767],[-140.8841599995842,16.176820000442831],[-140.91251000023624,16.180990000288432],[-140.92197000031518,16.182379999637419],[-140.94051999959822,16.185499999625449],[-140.9680900002532,16.190450000367377],[-140.9865699999055,16.193669999570943],[-140.99584999977759,16.195229999564958],[-141.01491000009634,16.197829999854775],[-141.03484999962768,16.199570000055587],[-141.0660700004301,16.200869999750807],[-141.07662999997444,16.201139999611428],[-141.10889000017329,16.201219999703369],[-141.13021999995294,16.200869999750807],[-141.14052999965969,16.200350000052595],[-141.16108999990348,16.199220000103082],[-141.19091999955822,16.196530000159498],[-141.20971999957823,16.193669999570943],[-141.22818000010682,16.190450000367377],[-141.24657000010535,16.187150000172494],[-141.26504999975759,16.183939999631434],[-141.28376999968566,16.180990000288432],[-141.30266999982052,16.178209999791818],[-141.32140999977156,16.17524999998767],[-141.33977999974712,16.171949999792787],[-141.35781999979309,16.168299999645399],[-141.37550000032468,16.164310000006651],[-141.39293000011935,16.160060000069109],[-141.41019000016831,16.155629999924713],[-141.4186900000434,16.153280000371865],[-141.4356699997706,16.148589999928674],[-141.46905999991895,16.138599999690371],[-141.47702000007286,16.135740000001135],[-141.49288999987351,16.129919999608433],[-141.50860999995143,16.123930000369342],[-141.5162400001758,16.120710000266456],[-141.53927999967215,16.111250000187511],[-141.55472000032768,16.104990000188479],[-141.57032999982954,16.098919999958184],[-141.58584999967763,16.09274999961292],[-141.60129000033317,16.086489999613946],[-141.60883000000439,16.083190000318382],[-141.63126999971064,16.073119999988137],[-141.64542000023272,16.065560000293942],[-141.65909999976509,16.057569999655925],[-141.6725500003821,16.049319999618433],[-141.68589999998494,16.040990000388319],[-141.69934000014081,16.032729999889739],[-141.71982000029271,16.02065999995915],[-141.72672999968967,16.016750000412344],[-141.74043000014433,16.008759999774327],[-141.76038000013682,15.996170000145526],[-141.76678000029671,15.99174000000113],[-141.77945000001739,15.982709999966687],[-141.79784999957775,15.968549999882725],[-141.81015000022222,15.959169999895721],[-141.81641000022125,15.954570000005617],[-141.82885999968914,15.945359999764321],[-141.84135000010235,15.93615999998417],[-141.85992000030768,15.922169999645917],[-141.86587999996192,15.917310000356395],[-141.88330000019477,15.902199999630398],[-141.88894999994244,15.896990000388371],[-141.9000399996462,15.886389999898711],[-141.91097999962722,15.8756199996634],[-141.92180999993144,15.864770000235467],[-141.93256000014378,15.853819999793302],[-141.94832999982953,15.8370600003189],[-141.95856000034365,15.825599999740348],[-141.96829000028322,15.813609999901701],[-141.97765999980908,15.801279999672374],[-141.9868500000274,15.788770000135514],[-141.99142000033265,15.782519999698366],[-142.00989999998495,15.757590000278412],[-142.01459000042809,15.75143000039435],[-142.02878999965867,15.733099999565468],[-142.03348000010186,15.726939999681406],[-142.04265999985904,15.714430000144546],[-142.05612000003788,15.695320000217976],[-142.0605300001593,15.688900000035119],[-142.0691999997801,15.675869999900726],[-142.08185000037713,15.655979999977149],[-142.08600000019976,15.649289999933671],[-142.09417999970714,15.635740000101066],[-142.10570999991648,15.614729999789802],[-142.10944000015581,15.607609999701879],[-142.11687999971213,15.59335999996415],[-142.1241800000069,15.578939999581451],[-142.13458000026674,15.556800000219994],[-142.14142000003289,15.541949999792791],[-142.14480999988149,15.534479999752307],[-142.15398000007684,15.511110000326369],[-142.15691999985802,15.503210000241438],[-142.16561999996293,15.479329999779793],[-142.16836999997543,15.471250000387329],[-142.17376999988551,15.45492000005811],[-142.18181999969312,15.430430000244428],[-142.1845099996367,15.42226999986076],[-142.18953999957125,15.405589999578979],[-142.19439999976009,15.38873999955149],[-142.19909999976511,15.371719999778293],[-142.20576000022373,15.345839999716361],[-142.2079499995927,15.337159999634423],[-142.21210000031465,15.319609999701868],[-142.2158800001618,15.301720000277953],[-142.21918000035663,15.283310000256449],[-142.22310999992646,15.254649999697847],[-142.22524999968766,15.235109999726831],[-142.22743000039412,15.215569999755814],[-142.22858000036666,15.205839999816305],[-142.23291000039609,15.177610000201469],[-142.23439000029816,15.168410000421318],[-142.23743000019425,15.150259999799289],[-142.23993000036916,15.132279999822288],[-142.24174000020076,15.104830000204458],[-142.24096999976558,15.086679999582429],[-142.23993000036916,15.077909999846781],[-142.23601999992297,15.050460000228952],[-142.2345400000209,15.041260000448801],[-142.23160000023972,15.022499999575473],[-142.22778000034663,14.993750000262423],[-142.22604000014582,14.973780000246961],[-142.22450000017477,14.953630000024646],[-142.22277999999693,14.933650000447301],[-142.22048999961373,14.914200000130052],[-142.21885999998892,14.904989999888699],[-142.21399999980008,14.877290000433334],[-142.21001000016128,14.859569999855751],[-142.20785999993893,14.850880000211987],[-142.20133999964116,14.824830000404347],[-142.19675000021226,14.807720000078064],[-142.19199000013833,14.790780000396865],[-142.18694999974258,14.774109999676909],[-142.1786199996132,14.749880000162022],[-142.1756700002702,14.741980000077092],[-142.16960000003991,14.726340000091056],[-142.16309999976511,14.711139999711349],[-142.15625000043707,14.696290000183524],[-142.14932000011783,14.681530000309408],[-142.13854999988251,14.659730000439311],[-142.1349199997581,14.652519999798301],[-142.13134999970265,14.645220000402844],[-142.12052999985951,14.623510000186513],[-142.11324999958771,14.609089999803814],[-142.10605000030716,14.594590000228493],[-142.0988500001273,14.580089999753852],[-142.09148999976361,14.565759999924182],[-142.0840100001613,14.551510000186511],[-142.07631000030619,14.537530000309403],[-142.06806999983053,14.524070000130564],[-142.05940000020973,14.511039999996115],[-142.04581000033119,14.492110000276455],[-142.04103000023423,14.486029999584957],[-142.03159000017826,14.473780000346892],[-142.01769999995497,14.455110000026593],[-142.01310999962669,14.448859999589445],[-142.00390999984654,14.436350000052585],[-141.9946400004356,14.423930000169491],[-141.98026000009884,14.405780000446782],[-141.96999999999991,14.39431999986823],[-141.96480999988148,14.388670000120555],[-141.94885000042711,14.372080000391861],[-141.9381099997766,14.361140000410842],[-141.92180999993144,14.344899999735333],[-141.91643999960621,14.339430000194511],[-141.90015000022225,14.323190000418322],[-141.90015000022225,14.323179999957176],[-141.88385000037715,14.306940000180987],[-141.87291999995796,14.296180000406821],[-141.86163000002438,14.285749999662869],[-141.85019000036812,14.275509999586973],[-141.83823000011432,14.265779999647407],[-141.82591000034614,14.256399999660403],[-141.81345000041711,14.247190000318426],[-141.79470999956675,14.233380000186969],[-141.78848000005189,14.228780000296922],[-141.77614999982256,14.219400000309918],[-141.76401000026124,14.209849999677886],[-141.75153000030917,14.200640000335909],[-141.73870999996643,14.191780000047117],[-141.72551999964816,14.183269999710831],[-141.71182000009287,14.175279999972133],[-141.69759999993994,14.167809999931706],[-141.68337999978706,14.160339999891221],[-141.66900999991145,14.15305000005759],[-141.6544199997831,14.145929999969667],[-141.64004999990749,14.13862999967489],[-141.62563999998594,14.131339999841259],[-141.6110699998805,14.124210000191511],[-141.59667999998192,14.116920000357879],[-141.58227999962219,14.109620000063103],[-141.5675399997711,14.102669999720831],[-141.55279999991996,14.095729999839762],[-141.53018000000691,14.085819999693342],[-141.5145600000439,14.079750000362367],[-141.50667999998194,14.076789999658899],[-141.48285000002738,14.068109999576961],[-141.47478999975857,14.065329999979667],[-141.45034999955277,14.057249999687883],[-141.43404000014579,14.051869999800772],[-141.42587000020029,14.049179999857245],[-141.40906000021874,14.044310000106577],[-141.39190999984652,14.03979999987024],[-141.3654500000174,14.033720000078063],[-141.35650999963667,14.031810000131543],[-141.32930000029467,14.026510000336373],[-141.32027999982205,14.024679999582474],[-141.29314999967266,14.019299999695363],[-141.27475000011231,14.016000000399856],[-141.25595000009235,14.013130000249475],[-141.24640000035964,14.011829999654879],[-141.21615999978405,14.009569999755797],[-141.1952499995877,14.008789999758847],[-141.17391999980805,14.008439999806285],[-141.15234000019075,14.008359999714344],[-141.13065999955927,14.008359999714344],[-141.10897999982706,14.008359999714344],[-141.08730999965667,14.008359999714344],[-141.06562999992445,14.008359999714344],[-141.0439500001923,14.008359999714344],[-141.02236999967567,14.008270000060577],[-141.00103999989597,14.007920000108072],[-140.98016000018379,14.007140000111065],[-140.96981999999292,14.006620000412852],[-140.9498900000234,14.004880000211983],[-140.92154000027068,14.000710000366382],[-140.91226000039859,13.999150000372367],[-140.89385999993897,13.995850000177484],[-140.87530999975661,13.992719999728365],[-140.85623000031416,13.990120000337868],[-140.83630000034464,13.988380000137056],[-140.80508000044159,13.987080000441779],[-140.79452999955976,13.986820000143041],[-140.76217999970714,13.986639999936187],[-140.74051000043607,13.986639999936187],[-140.71884000026569,13.986639999936187],[-140.69717000009535,13.986639999936187],[-140.67549000036314,13.986639999936187],[-140.65380999973161,13.986639999936187],[-140.63212999999939,13.986639999936187],[-140.61043999980603,13.986639999936187],[-140.58878000009685,13.986639999936187],[-140.56708999990349,13.986639999936187],[-140.54541000017127,13.986639999936187],[-140.52373000043906,13.986639999936187],[-140.5020800002917,13.986639999936187],[-140.48039000009834,13.986639999936187],[-140.45873999995098,13.986639999936187],[-140.43706000021876,13.986639999936187],[-140.4153700000254,13.986639999936187],[-140.39379999996993,13.986559999844246],[-140.37247000019028,13.986209999891742],[-140.36196999981553,13.985949999592947],[-140.33197000041508,13.984039999646427],[-140.32253000035917,13.983169999995653],[-140.3048400002657,13.98056000014401],[-140.28054999978258,13.975789999608935],[-140.25731000005635,13.971269999810772],[-140.24967999983204,13.969709999816757]]]},"properties":{"objectid":32,"stormname":"Hernan","stormtype":"TS","basin":"EP","advdate":"500 AM HST Fri Aug 14 2026","advisnum":"7","fcstprd":120,"stormnum":8,"idp_source":"ep082026-007_5day_pgn","idp_filedate":1786719798000,"idp_ingestdate":1786719987000,"st_area(shape)":15.800164490046294,"st_perimeter(shape)":22.553566354514995,"binnumber":"EP3"}}]}