{"type":"FeatureCollection","features":[{"type":"Feature","id":191,"geometry":{"type":"LineString","coordinates":[[-121.80000000019976,21.000000000399837],[-122.99999999960022,21.299999999800264],[-124.69999999980007,21.79999999970039],[-126.59999999960019,22.40000000029994],[-128.6999999999,23.000000000000114],[-130.59999999970012,23.49999999990024]]},"properties":{"objectid":191,"stormname":"Iselle","stormtype":"TS","basin":"EP","advdate":"200 PM PDT Tue Aug 25 2026","advisnum":"10","fcstprd":120,"stormnum":9,"idp_source":"ep092026-010_5day_lin","idp_filedate":1787695396000,"idp_ingestdate":1787695496000,"st_length(shape)":9.1501433235059864,"binnumber":"EP4"}}]}