{"type":"FeatureCollection","features":[{"type":"Feature","id":1090,"geometry":{"type":"LineString","coordinates":[[-104.99999999960022,9.9999999999002398],[-106.40000000039959,10.800000000100056],[-107.49999999999989,11.399999999800286],[-108.59999999960019,12.000000000399837],[-109.89999999970013,12.500000000299906],[-111.69999999970014,13.199999999800298],[-111.90000000019973,14.099999999800275],[-112.59999999970012,14.599999999700344],[-113.70000000019974,15.499999999700378]]},"properties":{"objectid":1090,"stormtype":"DB","stormnum":9,"ss":0,"idp_source":"EP092026_lin","idp_filedate":1787518991000,"idp_ingestdate":1787519069000,"st_length(shape)":10.646057999119698,"binnumber":"EP4"}},{"type":"Feature","id":1091,"geometry":{"type":"LineString","coordinates":[[-113.70000000019974,15.499999999700378],[-114.60000000019977,16.600000000199998]]},"properties":{"objectid":1091,"stormtype":"DB","stormnum":9,"ss":0,"idp_source":"EP092026_lin","idp_filedate":1787518991000,"idp_ingestdate":1787519069000,"st_length(shape)":1.4212670407418952,"binnumber":"EP4"}}]}