{"type":"FeatureCollection","features":[{"type":"Feature","id":6715,"geometry":{"type":"Point","coordinates":[-104.99999999960022,9.9999999999002398]},"properties":{"objectid":6715,"stormname":"GENESIS016","stormtype":"DB","stormnum":9,"intensity":20,"basin":"ep","mslp":0,"dtg":2026082112,"year":2026,"month":"08","hhmm":"1200","day":21,"lat":10,"lon":-105,"ss":0,"idp_source":"EP092026_pts","idp_filedate":1787736174000,"idp_ingestdate":1787736244000,"binnumber":"EP4"}},{"type":"Feature","id":6716,"geometry":{"type":"Point","coordinates":[-106.40000000039959,10.800000000100056]},"properties":{"objectid":6716,"stormname":"GENESIS016","stormtype":"DB","stormnum":9,"intensity":20,"basin":"ep","mslp":0,"dtg":2026082118,"year":2026,"month":"08","hhmm":"1800","day":21,"lat":11,"lon":-106,"ss":0,"idp_source":"EP092026_pts","idp_filedate":1787736174000,"idp_ingestdate":1787736244000,"binnumber":"EP4"}},{"type":"Feature","id":6717,"geometry":{"type":"Point","coordinates":[-107.49999999999989,11.399999999800286]},"properties":{"objectid":6717,"stormname":"GENESIS016","stormtype":"DB","stormnum":9,"intensity":20,"basin":"ep","mslp":0,"dtg":2026082200,"year":2026,"month":"08","hhmm":"0000","day":22,"lat":11,"lon":-108,"ss":0,"idp_source":"EP092026_pts","idp_filedate":1787736174000,"idp_ingestdate":1787736244000,"binnumber":"EP4"}},{"type":"Feature","id":6718,"geometry":{"type":"Point","coordinates":[-108.59999999960019,12.000000000399837]},"properties":{"objectid":6718,"stormname":"INVEST","stormtype":"DB","stormnum":9,"intensity":20,"basin":"ep","mslp":1009,"dtg":2026082206,"year":2026,"month":"08","hhmm":"0600","day":22,"lat":12,"lon":-109,"ss":0,"idp_source":"EP092026_pts","idp_filedate":1787736174000,"idp_ingestdate":1787736244000,"binnumber":"EP4"}},{"type":"Feature","id":6719,"geometry":{"type":"Point","coordinates":[-109.89999999970013,12.500000000299906]},"properties":{"objectid":6719,"stormname":"INVEST","stormtype":"DB","stormnum":9,"intensity":25,"basin":"ep","mslp":1009,"dtg":2026082212,"year":2026,"month":"08","hhmm":"1200","day":22,"lat":12,"lon":-110,"ss":0,"idp_source":"EP092026_pts","idp_filedate":1787736174000,"idp_ingestdate":1787736244000,"binnumber":"EP4"}},{"type":"Feature","id":6720,"geometry":{"type":"Point","coordinates":[-111.69999999970014,13.199999999800298]},"properties":{"objectid":6720,"stormname":"INVEST","stormtype":"DB","stormnum":9,"intensity":30,"basin":"ep","mslp":1008,"dtg":2026082218,"year":2026,"month":"08","hhmm":"1800","day":22,"lat":13,"lon":-112,"ss":0,"idp_source":"EP092026_pts","idp_filedate":1787736174000,"idp_ingestdate":1787736244000,"binnumber":"EP4"}},{"type":"Feature","id":6721,"geometry":{"type":"Point","coordinates":[-111.90000000019973,14.099999999800275]},"properties":{"objectid":6721,"stormname":"INVEST","stormtype":"DB","stormnum":9,"intensity":35,"basin":"ep","mslp":1005,"dtg":2026082300,"year":2026,"month":"08","hhmm":"0000","day":23,"lat":14,"lon":-112,"ss":0,"idp_source":"EP092026_pts","idp_filedate":1787736174000,"idp_ingestdate":1787736244000,"binnumber":"EP4"}},{"type":"Feature","id":6722,"geometry":{"type":"Point","coordinates":[-112.59999999970012,14.599999999700344]},"properties":{"objectid":6722,"stormname":"INVEST","stormtype":"DB","stormnum":9,"intensity":40,"basin":"ep","mslp":1005,"dtg":2026082306,"year":2026,"month":"08","hhmm":"0600","day":23,"lat":15,"lon":-113,"ss":0,"idp_source":"EP092026_pts","idp_filedate":1787736174000,"idp_ingestdate":1787736244000,"binnumber":"EP4"}},{"type":"Feature","id":6723,"geometry":{"type":"Point","coordinates":[-113.70000000019974,15.499999999700378]},"properties":{"objectid":6723,"stormname":"ISELLE","stormtype":"TS","stormnum":9,"intensity":40,"basin":"ep","mslp":1003,"dtg":2026082312,"year":2026,"month":"08","hhmm":"1200","day":23,"lat":16,"lon":-114,"ss":0,"idp_source":"EP092026_pts","idp_filedate":1787736174000,"idp_ingestdate":1787736244000,"binnumber":"EP4"}},{"type":"Feature","id":6724,"geometry":{"type":"Point","coordinates":[-114.60000000019977,16.600000000199998]},"properties":{"objectid":6724,"stormname":"ISELLE","stormtype":"TS","stormnum":9,"intensity":45,"basin":"ep","mslp":1001,"dtg":2026082318,"year":2026,"month":"08","hhmm":"1800","day":23,"lat":17,"lon":-115,"ss":0,"idp_source":"EP092026_pts","idp_filedate":1787736174000,"idp_ingestdate":1787736244000,"binnumber":"EP4"}},{"type":"Feature","id":6725,"geometry":{"type":"Point","coordinates":[-114.8999999996002,16.799999999800264]},"properties":{"objectid":6725,"stormname":"ISELLE","stormtype":"TS","stormnum":9,"intensity":45,"basin":"ep","mslp":999,"dtg":2026082400,"year":2026,"month":"08","hhmm":"0000","day":24,"lat":17,"lon":-115,"ss":0,"idp_source":"EP092026_pts","idp_filedate":1787736174000,"idp_ingestdate":1787736244000,"binnumber":"EP4"}},{"type":"Feature","id":6726,"geometry":{"type":"Point","coordinates":[-115.79999999960023,17.600000000000136]},"properties":{"objectid":6726,"stormname":"ISELLE","stormtype":"TS","stormnum":9,"intensity":50,"basin":"ep","mslp":996,"dtg":2026082406,"year":2026,"month":"08","hhmm":"0600","day":24,"lat":18,"lon":-116,"ss":0,"idp_source":"EP092026_pts","idp_filedate":1787736174000,"idp_ingestdate":1787736244000,"binnumber":"EP4"}},{"type":"Feature","id":6727,"geometry":{"type":"Point","coordinates":[-116.69999999960021,18.199999999700367]},"properties":{"objectid":6727,"stormname":"ISELLE","stormtype":"TS","stormnum":9,"intensity":55,"basin":"ep","mslp":992,"dtg":2026082412,"year":2026,"month":"08","hhmm":"1200","day":24,"lat":18,"lon":-117,"ss":0,"idp_source":"EP092026_pts","idp_filedate":1787736174000,"idp_ingestdate":1787736244000,"binnumber":"EP4"}},{"type":"Feature","id":6728,"geometry":{"type":"Point","coordinates":[-117.59999999960019,18.900000000100079]},"properties":{"objectid":6728,"stormname":"ISELLE","stormtype":"TS","stormnum":9,"intensity":60,"basin":"ep","mslp":988,"dtg":2026082418,"year":2026,"month":"08","hhmm":"1800","day":24,"lat":19,"lon":-118,"ss":0,"idp_source":"EP092026_pts","idp_filedate":1787736174000,"idp_ingestdate":1787736244000,"binnumber":"EP4"}},{"type":"Feature","id":6729,"geometry":{"type":"Point","coordinates":[-118.2999999999999,19.499999999800309]},"properties":{"objectid":6729,"stormname":"ISELLE","stormtype":"TS","stormnum":9,"intensity":60,"basin":"ep","mslp":988,"dtg":2026082500,"year":2026,"month":"08","hhmm":"0000","day":25,"lat":20,"lon":-118,"ss":0,"idp_source":"EP092026_pts","idp_filedate":1787736174000,"idp_ingestdate":1787736244000,"binnumber":"EP4"}},{"type":"Feature","id":6730,"geometry":{"type":"Point","coordinates":[-119.50000000029968,20.200000000199964]},"properties":{"objectid":6730,"stormname":"ISELLE","stormtype":"TS","stormnum":9,"intensity":60,"basin":"ep","mslp":988,"dtg":2026082506,"year":2026,"month":"08","hhmm":"0600","day":25,"lat":20,"lon":-120,"ss":0,"idp_source":"EP092026_pts","idp_filedate":1787736174000,"idp_ingestdate":1787736244000,"binnumber":"EP4"}},{"type":"Feature","id":6731,"geometry":{"type":"Point","coordinates":[-120.59999999989998,20.70000000010009]},"properties":{"objectid":6731,"stormname":"ISELLE","stormtype":"TS","stormnum":9,"intensity":55,"basin":"ep","mslp":992,"dtg":2026082512,"year":2026,"month":"08","hhmm":"1200","day":25,"lat":21,"lon":-121,"ss":0,"idp_source":"EP092026_pts","idp_filedate":1787736174000,"idp_ingestdate":1787736244000,"binnumber":"EP4"}},{"type":"Feature","id":6732,"geometry":{"type":"Point","coordinates":[-121.40000000009985,20.899999999700356]},"properties":{"objectid":6732,"stormname":"ISELLE","stormtype":"TS","stormnum":9,"intensity":50,"basin":"ep","mslp":994,"dtg":2026082518,"year":2026,"month":"08","hhmm":"1800","day":25,"lat":21,"lon":-121,"ss":0,"idp_source":"EP092026_pts","idp_filedate":1787736174000,"idp_ingestdate":1787736244000,"binnumber":"EP4"}},{"type":"Feature","id":6733,"geometry":{"type":"Point","coordinates":[-122.09999999960019,21.100000000199998]},"properties":{"objectid":6733,"stormname":"ISELLE","stormtype":"TS","stormnum":9,"intensity":45,"basin":"ep","mslp":996,"dtg":2026082600,"year":2026,"month":"08","hhmm":"0000","day":26,"lat":21,"lon":-122,"ss":0,"idp_source":"EP092026_pts","idp_filedate":1787736174000,"idp_ingestdate":1787736244000,"binnumber":"EP4"}},{"type":"Feature","id":6734,"geometry":{"type":"Point","coordinates":[-122.89999999980006,21.500000000299906]},"properties":{"objectid":6734,"stormname":"ISELLE","stormtype":"TS","stormnum":9,"intensity":45,"basin":"ep","mslp":996,"dtg":2026082606,"year":2026,"month":"08","hhmm":"0600","day":26,"lat":22,"lon":-123,"ss":0,"idp_source":"EP092026_pts","idp_filedate":1787736174000,"idp_ingestdate":1787736244000,"binnumber":"EP4"}}]}