{"type":"FeatureCollection","features":[{"type":"Feature","id":192,"geometry":{"type":"Polygon","coordinates":[[[-122.57696000000391,21.038100000115037],[-122.56817999980706,21.036669999820788],[-122.53958000021674,21.034280000221997],[-122.51887999981204,21.033799999670407],[-122.5083899998985,21.034089999553998],[-122.47585999983903,21.035809999731839],[-122.45498999968862,21.038579999767308],[-122.43513999981104,21.042590000328403],[-122.42608999975357,21.045459999579464],[-122.39890000043459,21.054050000007635],[-122.38230999980658,21.061310000256469],[-122.36629000028319,21.06915000027243],[-122.34330000039461,21.081949999692881],[-122.32184000001587,21.096280000421814],[-122.30172000027773,21.111949999992646],[-122.29561000000143,21.117779999947174],[-122.27787999986202,21.135829999554971],[-122.27254000002091,21.142429999944682],[-122.25745999977909,21.16315999993418],[-122.24181999979305,21.195259999949201],[-122.24107000028022,21.194490000413339],[-122.2349500004421,21.21225999969937],[-122.23017999990697,21.23136999962594],[-122.22685000012729,21.25172000007808],[-122.22455999974409,21.284490000413314],[-122.22455000018226,21.306649999797799],[-122.22580000026971,21.328529999759837],[-122.22847000019027,21.349549999632927],[-122.23257000040508,21.369320000317884],[-122.23801000036116,21.387759999924185],[-122.24869999960521,21.412889999573963],[-122.25747000024023,21.427989999838758],[-122.2672000001798,21.442120000337866],[-122.27769000009334,21.45550000042482],[-122.28893999998093,21.468110000076592],[-122.30057000030519,21.480340000191006],[-122.31278999995845,21.492000000100063],[-122.3253799995872,21.503270000010616],[-122.33871999962821,21.513779999947189],[-122.35283999966617,21.523520000347901],[-122.36771000011635,21.532499999875256],[-122.38335999966415,21.540720000327894],[-122.39166000020873,21.544349999552992],[-122.41693000001942,21.554860000388828],[-122.44248999971364,21.56508000044181],[-122.45106999968067,21.568419999783316],[-122.46824999963769,21.575109999826793],[-122.48503000003439,21.582180000306892],[-122.5018199999929,21.589249999887727],[-122.52766000000889,21.599189999618943],[-122.53632999962969,21.602440000206002],[-122.56257000010532,21.611989999938714],[-122.57143999995594,21.615049999857774],[-122.59832999982956,21.623930000169537],[-122.60729999979509,21.626889999973685],[-122.62502999993444,21.633009999811804],[-122.6429699998655,21.638930000319419],[-122.66088999977359,21.64486000038886],[-122.67863000037414,21.650969999765834],[-122.70466999972064,21.660719999728371],[-122.71334999980257,21.663959999854228],[-122.73050999973663,21.670649999897705],[-122.74729999969514,21.67772000037786],[-122.76408000009184,21.684789999958696],[-122.78992999966965,21.694729999689855],[-122.79860999975159,21.697980000276914],[-122.82483999976608,21.707530000009626],[-122.83372000007785,21.710580000366861],[-122.85163999998593,21.716510000436301],[-122.86957000035517,21.722430000044596],[-122.89628000002187,21.731509999686864],[-122.9052499999874,21.734470000390331],[-122.92316999989549,21.740389999998627],[-122.93203999974611,21.743449999917686],[-122.96694999984254,21.756250000237458],[-122.97562999992448,21.759499999925197],[-122.9842099998915,21.762840000166022],[-123.00957000025522,21.773260000448829],[-123.03496000020374,21.783670000270433],[-123.04352999970962,21.787009999611939],[-123.0608899998735,21.793509999886737],[-123.08713000034913,21.803070000080595],[-123.09598999973861,21.806120000437829],[-123.11392000010784,21.81204999960795],[-123.13165999980907,21.818159999884244],[-123.15770000005489,21.827900000284899],[-123.17496000010385,21.834499999775289],[-123.1835499996327,21.837840000016115],[-123.20031999956825,21.84490999959695],[-123.21711999998791,21.851980000077106],[-123.23429000038311,21.858670000120526],[-123.25993000016928,21.868790000058596],[-123.26841999958322,21.872230000414334],[-123.28558000041659,21.878919999558491],[-123.31077999969716,21.88952999960992],[-123.31896999966568,21.893250000287424],[-123.33519000031816,21.900890000073559],[-123.34340000030966,21.904620000312889],[-123.37600999956175,21.919719999678364],[-123.38421999955324,21.923440000355868],[-123.40118000015678,21.930320000168024],[-123.41834999965266,21.937010000211501],[-123.43533000027918,21.9438900000236],[-123.45249999977506,21.950569999605932],[-123.46946999994043,21.957450000317408],[-123.48588999992347,21.964900000334865],[-123.50208999965366,21.972549999682883],[-123.5183100003062,21.980190000368339],[-123.53414999962268,21.98820999969189],[-123.54206000016876,21.992229999814754],[-123.56599000023823,22.004069999930721],[-123.58182999955477,22.01209999971536],[-123.59766000020875,22.020119999938174],[-123.61367999973208,22.027959999954192],[-123.62159999984004,22.03196999961591],[-123.64534999970266,22.044009999961645],[-123.66137999968714,22.051840000415837],[-123.67719999987997,22.059870000200476],[-123.70104000029568,22.071810000431299],[-123.70905999961917,22.075730000439307],[-123.72489000027321,22.083749999762802],[-123.74072000002786,22.091780000446818],[-123.75673999955126,22.099610000001633],[-123.77257000020523,22.107639999786329],[-123.78841000042109,22.115660000009143],[-123.80444000040558,22.123500000025103],[-123.82027000016029,22.131520000247974],[-123.83609000035312,22.139550000032614],[-123.85210999987652,22.147379999587429],[-123.86795000009232,22.1553999998103],[-123.88359000007836,22.163620000262938],[-123.89923000006434,22.171839999816257],[-123.91448999961369,22.18043999980631],[-123.92936999962569,22.18940999977184],[-123.94405000030719,22.198590000428339],[-123.95873999965119,22.207759999724374],[-123.97342999989451,22.216929999919728],[-123.98832000036765,22.225910000346403],[-124.00357000035513,22.2345100003364],[-124.01921000034116,22.242729999889718],[-124.03485000032714,22.250939999881211],[-124.05870000030467,22.262880000112034],[-124.06671000006634,22.266800000120043],[-124.0825500002822,22.274829999904739],[-124.09836999957571,22.282850000127553],[-124.11441000002139,22.290690000143513],[-124.13023000021423,22.298710000366384],[-124.13815000032218,22.302720000028103],[-124.1620800003916,22.314569999705839],[-124.17791999970814,22.322589999928709],[-124.19375000036212,22.330619999713349],[-124.21768000043159,22.342470000290405],[-124.22559999964017,22.34647999995218],[-124.24123000006438,22.354689999943673],[-124.25687999961218,22.362910000396369],[-124.27214000006086,22.371510000386365],[-124.28702999963468,22.380489999913721],[-124.30904999975758,22.394250000437296],[-124.3310899999035,22.407999999600463],[-124.34596000035361,22.416980000027138],[-124.36121999990297,22.425580000017135],[-124.38467000032017,22.437910000246461],[-124.39249999987499,22.442020000023149],[-124.4083299996297,22.450040000245963],[-124.42435000005236,22.457869999800778],[-124.44019000026822,22.465899999585474],[-124.45602000002287,22.473930000269434],[-124.47205000000741,22.481759999824249],[-124.48787999976207,22.489780000047119],[-124.50371000041611,22.497809999831759],[-124.51972999993944,22.505649999847776],[-124.5355700001553,22.51367000007059],[-124.55139000034814,22.521690000293404],[-124.56742000033267,22.529530000309421],[-124.58325000008733,22.537549999632915],[-124.59907999984205,22.545580000316875],[-124.61510999982653,22.553409999871747],[-124.63885000012732,22.565450000217481],[-124.64677000023522,22.569459999879257],[-124.66280000021976,22.577299999895217],[-124.67862999997442,22.585320000118031],[-124.69445999972913,22.593349999902728],[-124.71048000015179,22.601180000356862],[-124.72632000036765,22.609210000141559],[-124.74196000035363,22.617420000133052],[-124.76522999966465,22.629940000131057],[-124.77285999988896,22.634239999676367],[-124.78773000033914,22.643220000103042],[-124.80243000014428,22.652390000298396],[-124.81710999992646,22.661559999594431],[-124.83180000016978,22.670729999789785],[-124.84668000018178,22.67971000021646],[-124.86193999973113,22.688310000206513],[-124.87759000017826,22.696529999759832],[-124.89323000016429,22.704739999751325],[-124.90905999991895,22.712770000435285],[-124.92527000011034,22.720410000221477],[-124.94148000030168,22.728050000007613],[-124.95788999982352,22.735509999586952],[-124.97485999998889,22.742379999837283],[-124.99203000038409,22.749069999880703],[-125.0089999996502,22.755949999692859],[-125.0261700000454,22.762639999736336],[-125.05135000020226,22.773240000225996],[-125.05956000019376,22.776969999565949],[-125.07575999992395,22.784610000251462],[-125.09197999967716,22.792259999599423],[-125.10781999989297,22.800279999822294],[-125.1316699998705,22.812229999614942],[-125.13164999984753,22.812220000053117],[-125.15549999982505,22.824169999845765],[-125.17132999957971,22.832190000068579],[-125.18735999956425,22.840019999623451],[-125.20319000021823,22.84805000030741],[-125.21901999997294,22.856080000092049],[-125.23504999995743,22.863909999646921],[-125.25087000015031,22.871929999869735],[-125.26671000036612,22.879959999654375],[-125.28270999986648,22.887790000108566],[-125.29855000008234,22.895819999893206],[-125.3143900002982,22.903840000116077],[-125.33059999959022,22.911490000363358],[-125.33871000036612,22.915310000256454],[-125.3632299997646,22.926580000167007],[-125.38019999992997,22.933459999979164],[-125.38879000035814,22.936800000219989],[-125.41433999959122,22.94702999983474],[-125.44000000029968,22.95714999977281],[-125.44848999971362,22.960590000128548],[-125.46488999967363,22.968040000146004],[-125.48111000032617,22.975690000393342],[-125.49731000005636,22.983330000179478],[-125.52105999991898,22.99536999962595],[-125.52898000002688,22.999380000186989],[-125.5451999997801,23.007019999973181],[-125.56142000043258,23.014670000220462],[-125.57782000039259,23.022120000237976],[-125.58630000024471,23.025559999694394],[-125.6119499995927,23.035679999632407],[-125.6289399997811,23.042560000343883],[-125.64609999971515,23.04925000038736],[-125.66306999988052,23.056130000199516],[-125.67948999986351,23.063580000216973],[-125.70380000036965,23.075050000357351],[-125.71191000024623,23.078870000250447],[-125.72774999956272,23.086889999573941],[-125.74358000021675,23.094920000257957],[-125.75979999996991,23.102560000044093],[-125.77599999970016,23.110199999830286],[-125.80088999997344,23.12109000020348],[-125.81796999981555,23.12788000036187],[-125.82654999978257,23.131219999703376],[-125.84351999994794,23.138100000414852],[-125.86069000034314,23.144789999558952],[-125.87767000007034,23.151659999809283],[-125.89407000003041,23.159109999826796],[-125.91028999978357,23.166760000074078],[-125.92670000020473,23.174210000091591],[-125.94289999993498,23.181849999877727],[-125.95110999992647,23.185580000117056],[-125.98487999961219,23.199530000409311],[-125.99345000001739,23.202869999750817],[-126.01042000018276,23.209749999562973],[-126.03618000010681,23.219779999847276],[-126.05315999983401,23.226659999659375],[-126.06155000003241,23.230200000130026],[-126.0869300004191,23.240609999951687],[-126.09549999992498,23.243950000192513],[-126.11267000032018,23.25064000023599],[-126.1382300000144,23.26086999985074],[-126.14680999998143,23.264210000091566],[-126.16380000016977,23.271089999903722],[-126.18020000012979,23.278539999921179],[-126.19641000032118,23.286179999707372],[-126.21281000028119,23.293640000185974],[-126.22903000003436,23.301279999972166],[-126.24543999955625,23.308729999989623],[-126.26240999972163,23.315609999801779],[-126.27958000011682,23.322299999845256],[-126.2965500002822,23.329170000095587],[-126.31371999977807,23.335860000139064],[-126.33068999994344,23.342739999951164],[-126.34710999992649,23.350189999968677],[-126.36330999965668,23.357829999754813],[-126.37970999961669,23.365290000233472],[-126.39593999983106,23.372930000019608],[-126.41233999979107,23.380380000037121],[-126.42932000041759,23.387259999849277],[-126.44648999991347,23.393949999892698],[-126.46346000007884,23.400829999704854],[-126.48062000001289,23.407519999748331],[-126.49779999996991,23.414200000229982],[-126.51456999990546,23.421269999810761],[-126.53137000032518,23.428340000290916],[-126.55711000022626,23.438369999675899],[-126.56569999975511,23.44172000037787],[-126.58266999992048,23.44860000018997],[-126.59984000031568,23.455279999772301],[-126.61700000024973,23.461969999815778],[-126.63379000020825,23.469040000295934],[-126.65056999970562,23.476109999876712],[-126.66776000012379,23.482799999920189],[-126.68492000005784,23.489489999963666],[-126.71047000019024,23.499710000016648],[-126.71905999971909,23.503050000257474],[-126.74460999985155,23.513279999872225],[-126.76141000027121,23.520339999891235],[-126.76979000000841,23.523880000361885],[-126.78696999996544,23.53055999994416],[-126.82188000006187,23.543369999825757],[-126.82169000029319,23.543559999594436],[-126.83942999999442,23.54966999987073],[-126.85736000036366,23.555599999940171],[-126.88376999968563,23.564959999904204],[-126.9011299998495,23.571460000179002],[-126.90980999993144,23.574700000304915],[-126.92698999988852,23.581390000348392],[-126.95215999958424,23.592000000399821],[-126.96056000024373,23.595530000409326],[-126.97772000017778,23.602219999553483],[-126.99488999967366,23.60890999959696],[-127.0204500002672,23.619129999649886],[-127.02901999977308,23.622469999890711],[-127.05458000036663,23.632689999943693],[-127.06296999966565,23.636230000414344],[-127.08835999961423,23.646640000235948],[-127.09693999958125,23.649990000038599],[-127.11429999974513,23.656490000313397],[-127.14052000019774,23.66604000004611],[-127.15834999955274,23.672059999769317],[-127.16730999995644,23.675019999573465],[-127.1852499998875,23.68094000008108],[-127.20298999958874,23.6870599999192],[-127.22091999995791,23.692980000426815],[-127.23885000032715,23.69890000003511],[-127.25677000023524,23.70483000010455],[-127.27452000039762,23.710940000380845],[-127.29246000032867,23.716869999550966],[-127.31038000023671,23.722790000058581],[-127.32830999970662,23.728709999666876],[-127.34605000030717,23.734830000404315],[-127.37294999974262,23.743709999816758],[-127.38191000014632,23.746669999620906],[-127.39983999961618,23.752590000128521],[-127.43550999968664,23.764629999574936],[-127.44447000009035,23.767590000278403],[-127.45342999959473,23.770550000082551],[-127.47137000042511,23.776480000152048],[-127.48911000012629,23.782590000428343],[-127.51600999956173,23.791480000301931],[-127.52496000040361,23.794440000106079],[-127.54290999989649,23.800359999714374],[-127.56960000043955,23.809440000255961],[-127.58754000037061,23.815359999864256],[-127.59649999987499,23.818330000129549],[-127.61443999980605,23.824249999737845],[-127.63216999994546,23.830360000014139],[-127.65010000031469,23.836279999622434],[-127.66802999978455,23.842209999691875],[-127.68596999971561,23.84813000019949],[-127.70369999985502,23.854250000037609],[-127.72163000022425,23.860169999645905],[-127.73955999969417,23.86609000015352],[-127.7663700003751,23.875069999680875],[-127.77524000022572,23.878129999599935],[-127.79316999969564,23.884059999669375],[-127.82005999956925,23.892939999981138],[-127.8290300004341,23.895899999785286],[-127.84675999967413,23.902019999623406],[-127.86469999960519,23.90794000013102],[-127.89159000037813,23.916820000442783],[-127.90056000034366,23.919780000246931],[-127.91828999958375,23.925900000085051],[-127.93623000041407,23.931819999693346],[-127.95415000032216,23.937740000201018],[-127.97207999979207,23.943670000270458],[-127.98982000039263,23.949779999647433],[-128.01671999982801,23.958670000420341],[-128.02568000023172,23.961630000224488],[-128.04360999970163,23.967549999832784],[-128.06133999984104,23.973669999670904],[-128.0792799997721,23.979590000178518],[-128.09721000014133,23.985520000247959],[-128.11513999961119,23.991439999856254],[-128.13306999998042,23.997360000363869],[-128.15137999988701,24.002900000434806],[-128.16989000002337,24.008249999837744],[-128.18858000036664,24.01341000037138],[-128.20745999957921,24.018380000236959],[-128.22635000015231,24.023350000102539],[-128.24503000003438,24.028500000175029],[-128.26354999973262,24.033860000039112],[-128.28185999963921,24.039400000110049],[-128.29979999957021,24.045319999718345],[-128.31772000037762,24.051249999787785],[-128.34459999979009,24.060130000099548],[-128.36245999962921,24.066149999822755],[-128.37133999994097,24.069209999741815],[-128.38925000028718,24.07513000024943],[-128.41614000016079,24.084009999661873],[-128.42511000012632,24.086979999927223],[-128.44286999985053,24.09309000020346],[-128.46975999972409,24.101969999615903],[-128.47872999968962,24.104930000319428],[-128.49664000003588,24.110860000388868],[-128.52373999970115,24.119550000032632],[-128.53288000031165,24.1223200000681],[-128.55139000044807,24.127670000370358],[-128.57953000040908,24.135310000156551],[-128.58896000000391,24.137799999870253],[-128.60784999967763,24.142769999735833],[-128.62652999955975,24.147930000269412],[-128.65420999989146,24.156049999707875],[-128.6633499996027,24.158819999743343],[-128.68127000041011,24.164740000250958],[-128.70818999986852,24.173630000124547],[-128.7171300002492,24.176589999928694],[-128.74404999970761,24.185470000240457],[-128.75301000011132,24.18843999960643],[-128.77132000001791,24.193979999677367],[-128.79915999963418,24.201910000246471],[-128.80851999959822,24.204480000052115],[-128.83681999974311,24.211939999631397],[-128.84627999982206,24.214419999783331],[-128.86499000018824,24.21958000031691],[-128.88348000030169,24.224929999719848],[-128.91076999973563,24.233429999594932],[-128.91973999970111,24.236399999860225],[-128.9466200000129,24.245280000171988],[-128.95560000043957,24.248239999976136],[-128.97350999988652,24.254159999584431],[-129.00060999955173,24.262859999689397],[-129.01901000001141,24.268299999645421],[-129.03760999980153,24.273560000293912],[-129.04694999974259,24.276139999661382],[-129.07526000034864,24.283589999678895],[-129.08472000042758,24.286069999830772],[-129.1033899998485,24.291230000364351],[-129.12192000000789,24.296590000228491],[-129.14022999991448,24.302119999838283],[-129.16711000022622,24.311009999711871],[-129.17608999975357,24.313970000415338],[-129.1940200001228,24.319890000023634],[-129.2209000004346,24.328779999897222],[-129.22987000040013,24.331739999701369],[-129.24818000030666,24.337279999772306],[-129.26669000044308,24.342630000074564],[-129.28539000034817,24.34778999970888],[-129.31372000007786,24.355239999726336],[-129.32314999967264,24.357730000339359],[-129.34182999955476,24.362880000411849],[-129.36035000015232,24.368229999814787],[-129.38763000002439,24.376740000151017],[-129.39660999955174,24.379699999955164],[-129.42348999986353,24.388580000266927],[-129.44140999977157,24.394510000336368],[-129.45037999973709,24.397470000140515],[-129.46831999966815,24.403389999748811],[-129.48662999957475,24.40894000028095],[-129.50513000014928,24.414289999683888],[-129.52381999959323,24.419450000217466],[-129.54271999972809,24.424409999621901],[-129.56157999981707,24.429380000386857],[-129.58953999957123,24.437209999941672],[-129.59878999985852,24.439890000323373],[-129.61709999976506,24.445430000394367],[-129.63521999990297,24.451160000233983],[-129.65352000024774,24.45670000030492],[-129.67203999994592,24.462049999707858],[-129.70015999988402,24.469699999955196],[-129.70959000037811,24.472180000107073],[-129.73784999957775,24.479730000239442],[-129.75643999980605,24.484980000426845],[-129.77484000026573,24.490429999944695],[-129.78399999999993,24.493199999980163],[-129.80212000013779,24.498929999819779],[-129.82043000004438,24.504469999890716],[-129.8389299997196,24.509820000192974],[-129.85764000008584,24.51497999982729],[-129.87650999973658,24.519949999692869],[-129.89538999984853,24.524919999558449],[-129.91408999975357,24.530080000092084],[-129.9417599996242,24.538200000429811],[-129.95090999979658,24.540969999565959],[-129.96904000039564,24.546700000304895],[-129.99659999969015,24.554910000296445],[-130.00586000043859,24.557589999778827],[-130.0340000003996,24.565229999564963],[-130.04342999999443,24.56770999971684],[-130.06229999964518,24.572690000043622],[-130.09026000029871,24.580519999598437],[-130.11772000037763,24.588829999704842],[-130.1178100000314,24.588740000051075],[-130.13593999973114,24.594469999890748],[-130.15424999963767,24.600009999961685],[-130.17273000018929,24.605360000263943],[-130.19143999965615,24.610519999898202],[-130.21985999993893,24.617869999800803],[-130.22940000010982,24.620260000298913],[-130.25801000016128,24.627429999994661],[-130.26755000033216,24.629819999593451],[-130.28662000021274,24.634590000128526],[-130.30569000009336,24.639370000225483],[-130.33391999970814,24.646920000357852],[-130.34325999964915,24.649499999725322],[-130.36178999980854,24.654850000027636],[-130.38007999969216,24.660390000098573],[-130.40735999956422,24.668889999973658],[-130.41652000019775,24.671669999570952],[-130.43503000033417,24.677010000311384],[-130.45371999977806,24.6821699999457],[-130.47259999989001,24.687139999811279],[-130.49148999956373,24.692109999676859],[-130.51941999973309,24.699940000131051],[-130.53784000021574,24.705389999648901],[-130.54699999994995,24.708159999684369],[-130.56512000008786,24.713890000423305],[-130.59268000028169,24.722109999976681],[-130.60192999966966,24.724779999897237],[-130.62062000001288,24.729940000430815],[-130.63952999970962,24.734910000296395],[-130.65838999979854,24.739880000162032],[-130.67708999970364,24.745030000234465],[-130.69559000027817,24.750390000098548],[-130.71390000018476,24.755930000169542],[-130.7320299998845,24.761660000009158],[-130.75031999976807,24.767200000080095],[-130.76884000036563,24.772550000382353],[-130.7969699998655,24.780190000168488],[-130.80640000035964,24.782670000320422],[-130.82529999959519,24.787640000186002],[-130.84398999993846,24.792799999820261],[-130.86248999961373,24.798150000122575],[-130.88080000041958,24.803699999755338],[-130.89893000011932,24.809429999594954],[-130.92647999985201,24.817650000047593],[-130.9357300001393,24.820319999968149],[-130.95443999960622,24.825479999602464],[-130.97331000015629,24.830439999906218],[-130.99238999959869,24.835220000003119],[-131.01146999994046,24.840000000100076],[-131.03055000028218,24.844780000196977],[-131.05916000033363,24.851940000330899],[-131.07823000021426,24.856720000427799],[-131.09740999977157,24.861400000409844],[-131.11684999962768,24.865789999608921],[-131.12667999968215,24.867899999785323],[-131.14670000020476,24.871719999678362],[-131.17751999964815,24.876690000443318],[-131.1983000001448,24.879739999901233],[-131.20868999994343,24.881270000310394],[-131.23920000037964,24.886530000059622],[-131.24932999987948,24.88833999989123],[-131.2797499997626,24.893690000193487],[-131.3004500001673,24.896839999766314],[-131.3109299996197,24.898279999622446],[-131.34421000009132,24.900759999774323],[-131.3671999999799,24.901619999863271],[-131.37885000032719,24.901909999746806],[-131.40239999995993,24.902000000299893],[-131.43778999970863,24.901619999863271],[-131.46075000001241,24.900759999774323],[-131.48308999960369,24.899230000264424],[-131.50454999998243,24.896839999766314],[-131.51473999955124,24.895119999588474],[-131.54555999989401,24.890160000183982],[-131.56577999974712,24.88651999959842],[-131.58609000015332,24.882989999588972],[-131.60670000000493,24.879739999901233],[-131.62749000006335,24.876690000443318],[-131.64809000035314,24.873439999856259],[-131.6682999997451,24.869809999731842],[-131.68814000006086,24.865800000070067],[-131.70761000040113,24.861400000409844],[-131.72678000039662,24.856720000427799],[-131.7457599997241,24.851849999777812],[-131.77389999968517,24.844200000429794],[-131.78314000041058,24.841529999609918],[-131.80145000031717,24.835990000438301],[-131.81927000011035,24.829969999815773],[-131.84540000000993,24.820319999968149],[-131.85389999988502,24.816879999612411],[-131.87058999972862,24.809720000377865],[-131.88690000003487,24.802170000245439],[-131.90311999978809,24.794519999998158],[-131.92706000031865,24.782679999882248],[-131.93496999996546,24.778659999759327],[-131.95089999983503,24.7707300000896],[-131.96682999970466,24.762800000419816],[-131.98266999992046,24.754780000197002],[-131.99859999979009,24.746849999627898],[-132.01452999965966,24.738919999958171],[-132.03808999975359,24.726689999843757],[-132.04590000018476,24.722580000067069],[-132.06133999994097,24.714180000306897],[-132.0838599997391,24.700900000334912],[-132.09120000007982,24.696310000006633],[-132.10579999977006,24.687050000157512],[-132.12734999980256,24.672809999981666],[-132.1414600002787,24.663060000019129],[-132.15540000010981,24.653129999849739],[-132.1689299999195,24.642809999681901],[-132.17551000028618,24.637460000278907],[-132.20125999974908,24.615489999763838],[-132.22044000020577,24.598859999989145],[-132.22701999967313,24.593509999686887],[-132.24694999964265,24.577650000347376],[-132.26030999970664,24.567140000410859],[-132.27947999970212,24.550520000197992],[-132.28567999963218,24.544790000358375],[-132.30254999968264,24.525870000200484],[-132.30798000007684,24.519369999925686],[-132.31323000026418,24.512690000343355],[-132.32895000034216,24.492629999774806],[-132.34517000009532,24.473040000196022],[-132.35069000014329,24.466640000036136],[-132.36177000028522,24.453839999716365],[-132.37283000040412,24.441040000295914],[-132.3834999996252,24.427849999977639],[-132.3987699996357,24.407309999756819],[-132.40372999993946,24.400340000290896],[-132.41821000039113,24.379029999634895],[-132.42300000004985,24.371870000400349],[-132.43233999999092,24.357349999902738],[-132.44598000037661,24.335180000057107],[-132.45046999969065,24.327730000039594],[-132.46312999984951,24.304609999551985],[-132.46725000008735,24.296770000435288],[-132.47946000017879,24.273179999857234],[-132.48346000027868,24.265250000187507],[-132.49530000039459,24.24126999961095],[-132.50331000015632,24.225410000271438],[-132.50731999981804,24.217479999702391],[-132.5149500000424,24.201239999926202],[-132.52256999980557,24.185000000150012],[-132.53003000028417,24.168560000144055],[-132.53687000005038,24.151560000393829],[-132.54337999988701,24.134169999745836],[-132.55251999959819,24.107520000148043],[-132.55538999974863,24.098439999606455],[-132.56072999958974,24.079899999885242],[-132.5658599996392,24.061179999957176],[-132.5708300004041,24.042259999799285],[-132.57560999960174,24.023160000333917],[-132.58227999962219,23.994020000123044],[-132.58438000023671,23.98417999960742],[-132.58799999989998,23.963919999708367],[-132.59183000025422,23.931919999808258],[-132.59277000043511,23.920930000219471],[-132.59421000029118,23.886539999821252],[-132.59456999980557,23.863039999796285],[-132.59466999992048,23.839249999887727],[-132.59466999992048,23.827300000095079],[-132.59466999992048,23.791480000301931],[-132.59466999992048,23.767599999840286],[-132.59456999980557,23.743800000369845],[-132.59421000029118,23.720300000344878],[-132.59333999974109,23.697279999972181],[-132.59238000043661,23.686290000383337],[-132.58941999973314,23.653430000394337],[-132.58762000036262,23.643299999995122],[-132.58227999962219,23.612820000043087],[-132.57787999996197,23.593329999679895],[-132.57321000044107,23.574130000099558],[-132.56835999981405,23.5551200002879],[-132.56072999958974,23.526940000280945],[-132.55803999964616,23.517669999970678],[-132.55251999959819,23.499320000018145],[-132.54651000033618,23.481460000179027],[-132.54013000019927,23.463979999877211],[-132.53003000028417,23.438280000022132],[-132.52630999960672,23.430059999569494],[-132.52248999971363,23.421940000131031],[-132.51113999971113,23.397479999902203],[-132.50713000004936,23.389550000232475],[-132.49128999983355,23.357650000447279],[-132.48346999984051,23.34158999997868],[-132.47946000017879,23.333660000308896],[-132.47535999996393,23.325829999854761],[-132.45904999965768,23.29440000016001],[-132.45475999967414,23.286760000373874],[-132.44149999972512,23.264210000091566],[-132.43233999999092,23.249499999825275],[-132.42300000004985,23.234969999765838],[-132.4182300004141,23.227809999631916],[-132.40372999993946,23.206499999875234],[-132.39379999977007,23.192560000044125],[-132.38876000027369,23.185680000231969],[-132.3734100001713,23.165229999664916],[-132.3629200002577,23.151860000039107],[-132.35262000011284,23.138290000183531],[-132.34250999973659,23.124529999659899],[-132.33240000025972,23.110779999597469],[-132.32230000034463,23.097019999973156],[-132.31200999976159,23.08345000011758],[-132.30112000028771,23.070460000029129],[-132.28948999996345,23.058229999914715],[-132.27727999987201,23.046579999567484],[-132.27079999962018,23.041130000049577],[-132.24390000018479,23.020299999945166],[-132.23702999993446,23.01524000042582],[-132.223299999895,23.005110000026605],[-132.20975000006234,22.994789999858767],[-132.1965799997671,22.98409999971534],[-132.18380999993144,22.973010000011641],[-132.17102000007287,22.961929999869767],[-132.15825000023722,22.950849999727836],[-132.14507999994197,22.940150000022641],[-132.13155000013234,22.929829999854746],[-132.12457000020527,22.924859999989167],[-132.103519999848,22.910149999722876],[-132.09633999969117,22.905369999625918],[-132.07470999956672,22.89124000002613],[-132.06000000019975,22.88206000026895],[-132.04512000018775,22.873079999842275],[-132.02985999973913,22.864479999852279],[-132.0142199997531,22.856269999860729],[-131.99065999965916,22.844039999746315],[-131.98275999957423,22.840019999623451],[-131.96655000028221,22.832379999837258],[-131.95032000006785,22.824740000051122],[-131.93390999964669,22.817290000033609],[-131.90836000041361,22.807060000418801],[-131.89978000044658,22.803720000178032],[-131.88277999979704,22.796840000365876],[-131.86563000032419,22.790150000322399],[-131.83998000007688,22.780030000384329],[-131.83148000020174,22.776590000028648],[-131.81432000026768,22.769899999985171],[-131.78752000004789,22.760919999558496],[-131.77846999999042,22.758050000307435],[-131.759959999854,22.75270000000512],[-131.73144999991746,22.745439999756343],[-131.71209999971512,22.740950000442297],[-131.70236000021373,22.738749999712866],[-131.68270999966666,22.734550000282411],[-131.65285999998889,22.728629999774796],[-131.64284000016579,22.726719999828276],[-131.61308000014179,22.720700000105069],[-131.6031600004336,22.71869000004358],[-131.57291999985802,22.713149999972643],[-131.55224999993743,22.710000000399816],[-131.53084999962772,22.707520000247939],[-131.51998999973858,22.706459999929223],[-131.49787999996192,22.704750000212471],[-131.47575000016229,22.703019999573485],[-131.45401000036117,22.700919999858229],[-131.42282000004286,22.696330000429327],[-131.41259999998994,22.694619999813256],[-131.3924000001598,22.690989999688895],[-131.36147999970211,22.686119999938171],[-131.34002999978458,22.683730000339381],[-131.31769999975512,22.682199999930219],[-131.29483000000442,22.681239999726358],[-131.27174000000093,22.680479999752322],[-131.26020999979158,22.680100000214964],[-131.23752000024774,22.67895000024248],[-131.21558000021673,22.677040000295904],[-131.19458000036661,22.674170000145523],[-131.16408000039161,22.668919999958177],[-131.15395999955427,22.667099999665368],[-131.13354000037066,22.663660000209006],[-131.10161000010135,22.65984000031591],[-131.07938000018675,22.658220000252925],[-131.06811999983802,22.657549999932712],[-131.03418000040659,22.655729999639902],[-131.01196000005388,22.654109999576974],[-131.00098000002691,22.653150000272433],[-130.96978999970861,22.648570000405357],[-130.95958999967866,22.64685000022746],[-130.92916999979559,22.641499999925202],[-130.90845999982906,22.638350000352375],[-130.89798000037661,22.636909999596924],[-130.87604000034565,22.634999999650404],[-130.84216000008382,22.633089999703884],[-130.83083000010436,22.632520000397847],[-130.797359999864,22.630219999553503],[-130.78637999983704,22.629269999810788],[-130.75519000041811,22.624680000381829],[-130.74499999994993,22.622960000203989],[-130.71456999960571,22.617609999901731],[-130.70434999955273,22.615889999723834],[-130.68338000018679,22.613030000034598],[-130.66144000015578,22.611109999626933],[-130.62759000037812,22.609210000141559],[-130.61624000037563,22.608630000374376],[-130.59375000016229,22.607300000194982],[-130.56130999975659,22.603950000392331],[-130.54061999981303,22.600799999920184],[-130.52029000028318,22.597260000348854],[-130.49997000031516,22.593730000339406],[-130.47926000034863,22.590579999867259],[-130.45781999999292,22.588190000268412],[-130.43561000010135,22.586559999744338],[-130.41299000018824,22.585320000118031],[-130.40164000018575,22.584749999912731],[-130.37914999997241,22.583410000171511],[-130.34670999956671,22.580069999930686],[-130.33623000011431,22.578630000074611],[-130.30569000009336,22.573379999887209],[-130.29559000017827,22.571570000055601],[-130.27517999965715,22.568129999699863],[-130.24323000026419,22.564300000244941],[-130.22100999991147,22.562680000182013],[-130.19843000004437,22.561439999656386],[-130.18706999958073,22.560859999889203],[-130.16454999978259,22.559529999709866],[-130.14262000021273,22.557619999763347],[-130.12164000038564,22.554749999612909],[-130.1012099998415,22.551310000156548],[-130.07080000041958,22.545959999854233],[-130.06058999992848,22.544239999676392],[-130.03961000010133,22.541379999987157],[-130.00681000018125,22.538409999721864],[-129.99573000003937,22.537560000094061],[-129.96274000035066,22.534779999597447],[-129.94138000008684,22.53230000034489],[-129.93087999971215,22.530859999589438],[-129.91045999962921,22.527429999694846],[-129.89025999979907,22.523799999570485],[-129.85934000024071,22.518920000257935],[-129.84885999988899,22.517489999963686],[-129.81603999994593,22.514530000159539],[-129.7939100001463,22.512809999981641],[-129.78287000005037,22.511949999892749],[-129.75060999985152,22.508419999883245],[-129.72991999990796,22.505259999849272],[-129.70963000042411,22.501729999839768],[-129.69950999958672,22.499910000446278],[-129.67907999994196,22.496470000090596],[-129.64763000022424,22.492180000107055],[-129.63692999961972,22.490930000019603],[-129.60471000036614,22.487400000010155],[-129.58361999996293,22.484629999974686],[-129.56301999967314,22.481380000286947],[-129.55283000010434,22.47966000010905],[-129.53259000022825,22.476029999984632],[-129.50217000034513,22.470679999682375],[-129.48157000005534,22.467429999994636],[-129.47116000023374,22.465899999585474],[-129.44019000016829,22.461120000387837],[-129.42997999967713,22.459400000209996],[-129.40975999982402,22.455770000085579],[-129.37942999959472,22.450330000129554],[-129.35910000006487,22.446789999658904],[-129.34890999959669,22.445070000380326],[-129.32808999995342,22.442020000023149],[-129.29711999988797,22.437239999926192],[-129.28691000029619,22.435519999748351],[-129.26669000044308,22.431889999623934],[-129.24646000012882,22.428260000398836],[-129.22624000027571,22.424630000274419],[-129.20584000021574,22.421189999918681],[-129.1746499998975,22.41659999959046],[-129.15404999960771,22.413349999902721],[-129.13372999963968,22.409819999893216],[-129.11352999980954,22.406189999768799],[-129.10342000033268,22.404379999937191],[-129.08319000001842,22.400749999812774],[-129.06278999995845,22.39729999989521],[-129.03159999964021,22.392720000028135],[-129.02120999984152,22.391189999618916],[-129.00078999975858,22.387750000162498],[-128.97046999999043,22.382310000206473],[-128.96035999961418,22.380489999913721],[-128.92995000019226,22.375139999611406],[-128.91973999970111,22.373420000332885],[-128.89892999961967,22.370369999975651],[-128.87813999956126,22.367310000056591],[-128.84763000002437,22.36205000030742],[-128.83751999964818,22.360239999576436],[-128.81729000023324,22.356610000351395],[-128.786879999912,22.351260000049081],[-128.77667000032017,22.34953999987124],[-128.75586000023873,22.34647999995218],[-128.72487999971213,22.341699999855223],[-128.71467999968218,22.339979999677382],[-128.69445999982906,22.336349999552965],[-128.66451000003639,22.330519999598437],[-128.65459000032814,22.32851999999815],[-128.62473000018929,22.322600000389855],[-128.61471999992796,22.320690000443335],[-128.5948799996122,22.316670000320414],[-128.56502000037261,22.310749999812799],[-128.54489000017327,22.307030000034615],[-128.52457999976707,22.303489999563965],[-128.50400000039963,22.300239999876226],[-128.49358999967865,22.298710000366384],[-128.4626199996132,22.293930000269427],[-128.44229000008335,22.290400000259922],[-128.43217000014528,22.288590000428314],[-128.41216000008387,22.284760000074073],[-128.38238999959873,22.278749999912691],[-128.36245999962921,22.274829999904739],[-128.35243000024423,22.272919999958162],[-128.33260000038962,22.268899999835241],[-128.31276000007387,22.264890000173523],[-128.29291999975811,22.260879999612428],[-128.27306999988048,22.256869999950652],[-128.24324000022574,22.250939999881211],[-128.22329999979507,22.24701999987326],[-128.21338000008683,22.245020000272916],[-128.19353999977108,22.241000000150052],[-128.17352000014779,22.237189999818781],[-128.14308000024175,22.231829999954698],[-128.12247999995196,22.228580000266959],[-128.11209000015327,22.227060000318886],[-128.09130999965669,22.224000000399826],[-128.07088999957375,22.220560000044088],[-128.04064999989748,22.215019999973151],[-128.03063999963621,22.213110000026631],[-128.01080000021972,22.209100000364856],[-127.98096000010383,22.203170000295415],[-127.96103000013431,22.199259999849232],[-127.95111000042607,22.1972499997878],[-127.92135999996395,22.191230000064593],[-127.90149999962517,22.187220000402817],[-127.89159000037813,22.185210000341385],[-127.86173999980105,22.17928999983377],[-127.85171999997795,22.177379999887251],[-127.83189000012334,22.173370000225475],[-127.81204999980753,22.169350000102554],[-127.78230000024473,22.163330000379347],[-127.77237999963717,22.16132999987974],[-127.74252000039763,22.155410000271445],[-127.73249999967516,22.153500000324868],[-127.70283999976607,22.147379999587429],[-127.69302000017279,22.14527999987223],[-127.66392999956975,22.138589999828753],[-127.65429999974509,22.136300000344875],[-127.6352200003027,22.131520000247974],[-127.60651999969815,22.124449999767819],[-127.59688000031167,22.122160000283941],[-127.56761000040109,22.115660000009143],[-127.55778999990849,22.113560000293944],[-127.53794999959274,22.109549999732849],[-127.51790999994643,22.105729999839753],[-127.49808000009182,22.101720000178034],[-127.47823999977606,22.097700000055113],[-127.44810000021477,22.092059999869264],[-127.43798999983852,22.090250000037599],[-127.4071900004181,22.08528000017202],[-127.39679000015826,22.083760000223947],[-127.37600000009985,22.080700000304887],[-127.35558999957874,22.077259999949206],[-127.32534999990247,22.071719999878212],[-127.3054300003941,22.06779999987026],[-127.29550999978659,22.065789999808771],[-127.27567000037016,22.061780000147053],[-127.25562999982452,22.057960000253956],[-127.23579000040809,22.053949999692861],[-127.21595999965416,22.04992999956994],[-127.19612000023773,22.045919999908222],[-127.17627999992197,22.041910000246446],[-127.15645000006737,22.037899999685351],[-127.13641000042111,22.034070000230486],[-127.10665999995894,22.028049999607958],[-127.09674000025075,22.026050000007615],[-127.06698999978858,22.020030000284407],[-127.05707000008033,22.018020000222975],[-127.03722999976458,22.01400999966188],[-127.01721000014129,22.010189999768841],[-126.98743999965615,22.004170000045633],[-126.97751999994796,22.002159999984144],[-126.94777000038511,21.996149999822762],[-126.92793000006935,21.992129999699841],[-126.91801000036116,21.990119999638409],[-126.88805999966917,21.984300000145026],[-126.87813999996092,21.982290000083594],[-126.84839000039813,21.976270000360387],[-126.83846999979056,21.974269999860724],[-126.80872000022777,21.968250000137516],[-126.7987999996202,21.966240000076084],[-126.77875999997394,21.962420000182988],[-126.75893000011934,21.958409999621949],[-126.7295499996327,21.952010000361383],[-126.71981999969313,21.949809999631896],[-126.70056000004388,21.945220000202994],[-126.68149000016331,21.940449999667919],[-126.65277999999694,21.933380000087084],[-126.63342000023272,21.928889999873718],[-126.61386999980056,21.924590000328408],[-126.60403999974608,21.922489999713832],[-126.57419000006837,21.916559999644392],[-126.56415999978407,21.914649999697872],[-126.53449999987498,21.908540000320897],[-126.51495000034214,21.904239999876211],[-126.49558999967866,21.899749999662902],[-126.485959999854,21.897460000179024],[-126.46688999997343,21.892680000082066],[-126.43819000026821,21.885609999601968],[-126.4188200000429,21.881120000287922],[-126.40909000010333,21.878919999558491],[-126.3894500000174,21.874720000128036],[-126.35958999987849,21.868790000058596],[-126.34957999961722,21.866880000112076],[-126.31991999970813,21.860769999835782],[-126.30037000017529,21.856470000290415],[-126.29064999979755,21.854269999560984],[-126.26184000041559,21.847300000095061],[-126.2523000002447,21.84490999959695],[-126.22369000019324,21.837750000362348],[-126.20460999985153,21.832970000265448],[-126.19506999968064,21.830579999767338],[-126.16645999962918,21.82341000007159],[-126.15692000035762,21.821030000034625],[-126.13784999957772,21.816249999937668],[-126.11858999992847,21.811659999609446],[-126.0991199995882,21.807270000410313],[-126.07948000040159,21.80305999961945],[-126.04964000028571,21.797140000011154],[-126.0396100000014,21.795230000064578],[-126.0197800001468,21.791220000402859],[-125.99039999966016,21.784820000242973],[-125.97105000035714,21.780330000029608],[-125.96141000007134,21.778030000084584],[-125.94234000019077,21.773260000448829],[-125.92325999984899,21.768480000351872],[-125.89464000023571,21.761309999756804],[-125.88510000006488,21.75892999971984],[-125.86603000018425,21.754149999622939],[-125.84694999984254,21.749370000425301],[-125.81833999979108,21.742210000291436],[-125.79926999991045,21.737430000194479],[-125.78972999973962,21.735039999696369],[-125.76111999968816,21.727879999562447],[-125.75158999997842,21.725489999963656],[-125.7325099996367,21.720709999866756],[-125.71343999975608,21.715940000230944],[-125.69436999987551,21.711160000134043],[-125.66575999982405,21.703990000438296],[-125.65621000009133,21.701599999940186],[-125.62758999957873,21.694439999806264],[-125.60853000015931,21.689659999709363],[-125.59898000042659,21.687270000110573],[-125.57992000010785,21.682499999575441],[-125.56083999976607,21.67772000037786],[-125.53222999971462,21.670560000243938],[-125.52269000044305,21.668169999745828],[-125.50361999966316,21.663389999648928],[-125.48454000022076,21.65860999955197],[-125.46545000031716,21.653839999916215],[-125.44638999999842,21.649059999819258],[-125.41777000038513,21.641890000123567],[-125.40823000021425,21.639510000086602],[-125.37962000016279,21.632340000390855],[-125.37008999955373,21.629949999892744],[-125.34185999993895,21.622399999760319],[-125.32326000014882,21.617149999572973],[-125.31400999986153,21.614470000090591],[-125.28664000033564,21.606070000330419],[-125.2775700002552,21.603200000179982],[-125.25001999962319,21.594979999727343],[-125.24077000023522,21.592309999806787],[-125.222079999892,21.587150000172528],[-125.20319000021823,21.582180000306892],[-125.18429999964519,21.577210000441312],[-125.16561999976307,21.572060000368879],[-125.14710999962671,21.566710000066564],[-125.11982999975459,21.558199999730334],[-125.10190000028467,21.552280000122039],[-125.09293000031914,21.549320000317891],[-125.06604000044558,21.540440000006129],[-125.05706999958073,21.537469999740836],[-125.02998000037661,21.528780000097072],[-125.01157999991699,21.523329999679902],[-125.00232000006787,21.520659999759346],[-124.97420000012983,21.513019999973153],[-124.96474999961271,21.51053000025945],[-124.94585999993893,21.505560000393871],[-124.91792000020774,21.497729999939679],[-124.90868000038159,21.495049999557978],[-124.89036999957574,21.48951000038636],[-124.86308000014179,21.481009999611956],[-124.85392999996941,21.478239999576488],[-124.83541999983305,21.472890000173493],[-124.8167300003891,21.467729999639914],[-124.78841000022123,21.460279999622401],[-124.77895999970411,21.457789999908698],[-124.76027000026022,21.452639999836265],[-124.74178000014678,21.447279999972181],[-124.72345000021727,21.441739999901188],[-124.70551999984804,21.435820000292892],[-124.67862999997442,21.426930000419304],[-124.66966000000889,21.423969999715837],[-124.65172999963966,21.418050000107542],[-124.6338000001698,21.412120000038101],[-124.61549000026321,21.406590000428309],[-124.58764999974761,21.398650000297437],[-124.57828999978358,21.396079999592473],[-124.55940999967163,21.391109999726837],[-124.53118999961868,21.383559999594468],[-124.52184000011584,21.380980000226941],[-124.49417999980705,21.372859999889215],[-124.48502000007284,21.370089999853747],[-124.46689999993498,21.36436000001413],[-124.44859000002839,21.358819999943194],[-124.42073000038914,21.350890000273409],[-124.41139000044808,21.34831000000662],[-124.38305999981907,21.340850000427338],[-124.37363000022424,21.338370000275461],[-124.34568999959373,21.330539999821269],[-124.33642999974461,21.327860000338887],[-124.31811999983802,21.32232000026795],[-124.29083000040413,21.313820000392866],[-124.27242999994445,21.308369999975639],[-124.26317999965715,21.305700000055083],[-124.24447999975212,21.300540000420824],[-124.21606000036866,21.293180000057077],[-124.19698999958871,21.288410000421322],[-124.18745000031714,21.286019999923212],[-124.16838000043657,21.281239999826255],[-124.13975999992397,21.27407999969239],[-124.13023000021423,21.271690000093542],[-124.11114999987251,21.266909999996642],[-124.09207999999194,21.262129999899742],[-124.07299999965016,21.25736000026393],[-124.05392999976959,21.252580000167029],[-124.03485000032714,21.247800000070072],[-124.01578000044657,21.243030000434317],[-123.99670000010485,21.238250000337359],[-123.96809000005339,21.231079999742349],[-123.95856000034365,21.228690000143558],[-123.93948000000188,21.223919999608427],[-123.92041000012131,21.219140000410846],[-123.89141000007135,21.212359999814282],[-123.87185999963918,21.208060000268915],[-123.85212000033766,21.203949999592965],[-123.8421999997301,21.201940000430795],[-123.82216999964567,21.198119999638436],[-123.80233000022923,21.194109999976661],[-123.77257999976706,21.188090000253453],[-123.75272999988948,21.184079999692358],[-123.74281000018129,21.182069999630926],[-123.72298000032669,21.17805999996915],[-123.70295999980408,21.174240000076111],[-123.67319999978008,21.168220000352846],[-123.6533499999025,21.164209999791808],[-123.63350999958669,21.160189999668887],[-123.62360000033965,21.158190000068601],[-123.59374999976257,21.152269999560986],[-123.57381999979305,21.148349999552977],[-123.55398999993844,21.144339999891201],[-123.54407000023025,21.142329999829769],[-123.52402999968467,21.138509999936673],[-123.49321999980305,21.133540000071093],[-123.48283000000441,21.132009999661875],[-123.45068000038162,21.128380000436835],[-123.43989999968517,21.12724000002612],[-123.41854999988249,21.124750000312417],[-123.38753999977109,21.11997000021546],[-123.37733999974108,21.118259999599445],[-123.34691999985802,21.112910000196507],[-123.32622000035263,21.109750000162535],[-123.30486000008887,21.107270000010658],[-123.29398999973859,21.10622000015303],[-123.2718700004001,21.104499999975133],[-123.23885999978904,21.101729999939664],[-123.22799000033814,21.100680000082093],[-123.19680999958172,21.096089999753815],[-123.18659999998994,21.094369999575974],[-123.15616999964567,21.089020000173036],[-123.14596999961572,21.087299999995139],[-123.11402999978458,21.083480000102043],[-123.10306000021876,21.082530000359384],[-123.06872999988951,21.081089999603932],[-123.04526000034866,21.080710000066574],[-123.02160000013981,21.080520000297895],[-123.00976999958573,21.080420000182983],[-122.97515999983403,21.079279999772325],[-122.96380999983154,21.078700000005142],[-122.94186000023871,21.076790000058622],[-122.92088000041161,21.073930000369387],[-122.9004699998905,21.070479999552504],[-122.88025000003739,21.066859999889232],[-122.84934999960268,21.061990000138564],[-122.83887000015028,21.060550000282433],[-122.81693000011933,21.058640000335913],[-122.78259000022825,21.057210000041607],[-122.75913000024923,21.056820000043103],[-122.73547999960221,21.056630000274424],[-122.71201999962318,21.056249999837746],[-122.6892200004026,21.055389999748854],[-122.6781600002837,21.054820000442817],[-122.65708999990346,21.05290999959692],[-122.63761999956324,21.050040000345859],[-122.61090000033465,21.044779999697369],[-122.58535000020225,21.039820000292934],[-122.57696000000391,21.038100000115037]]]},"properties":{"objectid":192,"stormname":"Iselle","stormtype":"TS","basin":"EP","advdate":"800 PM PDT Tue Aug 25 2026","advisnum":"11","fcstprd":120,"stormnum":9,"idp_source":"ep092026-011_5day_pgn","idp_filedate":1787713382000,"idp_ingestdate":1787713476000,"st_area(shape)":15.702261775185903,"st_perimeter(shape)":23.078724227246589,"binnumber":"EP4"}}]}