{"type": "FeatureCollection", "features": [{"type": "Feature", "id": 1461, "geometry": {"type": "Point", "coordinates": [-119.90000000039959, 20.70000000010009]}, "properties": {"objectid": 1461, "stormname": "Tropical Storm Iselle", "stormtype": "TS", "dvlbl": "S", "basin": "EP", "advdate": "200 AM PDT Tue Aug 25 2026", "advisnum": "8", "fcstprd": 120, "gust": 75, "maxwind": 60, "mslp": 988, "ssnum": 0, "datelbl": "2:00 AM Tue", "tcdir": 305, "tcdvlp": "Tropical Storm", "tcspd": 13, "fldatelbl": "2026-08-24 11:00 PM Mon PDT", "lat": 21, "lon": -120, "stormnum": 9, "stormsrc": "Tropical Cyclone", "tau": 0, "timezone": "PDT", "validtime": "25/0600", "idp_source": "ep092026-008_5day_pts", "idp_filedate": 1787648551000, "idp_ingestdate": 1787648583000, "binnumber": "EP4", "MAXWIND": 60, "VALIDTIME": "25/0600"}}, {"type": "Feature", "id": 1462, "geometry": {"type": "Point", "coordinates": [-121.40000000009985, 21.299999999800264]}, "properties": {"objectid": 1462, "stormname": "Tropical Storm Iselle", "stormtype": "TS", "dvlbl": "S", "basin": "EP", "advdate": "200 AM PDT Tue Aug 25 2026", "advisnum": "8", "fcstprd": 120, "gust": 65, "maxwind": 55, "mslp": 9999, "ssnum": 0, "datelbl": "11:00 AM Tue", "tcdir": 9999, "tcdvlp": "Tropical Storm", "tcspd": 9999, "fldatelbl": "2026-08-25 11:00 AM Tue PDT", "lat": 21, "lon": -121, "stormnum": 9, "stormsrc": "Tropical Cyclone", "tau": 12, "timezone": "PDT", "validtime": "25/1800", "idp_source": "ep092026-008_5day_pts", "idp_filedate": 1787648551000, "idp_ingestdate": 1787648583000, "binnumber": "EP4", "MAXWIND": 55, "VALIDTIME": "25/1800"}}, {"type": "Feature", "id": 1463, "geometry": {"type": "Point", "coordinates": [-123.2000000000998, 21.900000000399814]}, "properties": {"objectid": 1463, "stormname": "Tropical Storm Iselle", "stormtype": "TS", "dvlbl": "S", "basin": "EP", "advdate": "200 AM PDT Tue Aug 25 2026", "advisnum": "8", "fcstprd": 120, "gust": 60, "maxwind": 50, "mslp": 9999, "ssnum": 0, "datelbl": "11:00 PM Tue", "tcdir": 9999, "tcdvlp": "Tropical Storm", "tcspd": 9999, "fldatelbl": "2026-08-25 11:00 PM Tue PDT", "lat": 22, "lon": -123, "stormnum": 9, "stormsrc": "Tropical Cyclone", "tau": 24, "timezone": "PDT", "validtime": "26/0600", "idp_source": "ep092026-008_5day_pts", "idp_filedate": 1787648551000, "idp_ingestdate": 1787648583000, "binnumber": "EP4", "MAXWIND": 50, "VALIDTIME": "26/0600"}}, {"type": "Feature", "id": 1464, "geometry": {"type": "Point", "coordinates": [-124.90000000029966, 22.699999999700367]}, "properties": {"objectid": 1464, "stormname": "Tropical Storm Iselle", "stormtype": "TS", "dvlbl": "S", "basin": "EP", "advdate": "200 AM PDT Tue Aug 25 2026", "advisnum": "8", "fcstprd": 120, "gust": 55, "maxwind": 45, "mslp": 9999, "ssnum": 0, "datelbl": "11:00 AM Wed", "tcdir": 9999, "tcdvlp": "Tropical Storm", "tcspd": 9999, "fldatelbl": "2026-08-26 11:00 AM Wed PDT", "lat": 23, "lon": -125, "stormnum": 9, "stormsrc": "Tropical Cyclone", "tau": 36, "timezone": "PDT", "validtime": "26/1800", "idp_source": "ep092026-008_5day_pts", "idp_filedate": 1787648551000, "idp_ingestdate": 1787648583000, "binnumber": "EP4", "MAXWIND": 45, "VALIDTIME": "26/1800"}}, {"type": "Feature", "id": 1465, "geometry": {"type": "Point", "coordinates": [-126.80000000009983, 23.40000000010008]}, "properties": {"objectid": 1465, "stormname": "Tropical Storm Iselle", "stormtype": "TS", "dvlbl": "S", "basin": "EP", "advdate": "200 AM PDT Tue Aug 25 2026", "advisnum": "8", "fcstprd": 120, "gust": 45, "maxwind": 35, "mslp": 9999, "ssnum": 0, "datelbl": "11:00 PM Wed", "tcdir": 9999, "tcdvlp": "Tropical Storm", "tcspd": 9999, "fldatelbl": "2026-08-26 11:00 PM Wed PDT", "lat": 23, "lon": -127, "stormnum": 9, "stormsrc": "Tropical Cyclone", "tau": 48, "timezone": "PDT", "validtime": "27/0600", "idp_source": "ep092026-008_5day_pts", "idp_filedate": 1787648551000, "idp_ingestdate": 1787648583000, "binnumber": "EP4", "MAXWIND": 35, "VALIDTIME": "27/0600"}}, {"type": "Feature", "id": 1466, "geometry": {"type": "Point", "coordinates": [-128.79999999970016, 23.900000000000148]}, "properties": {"objectid": 1466, "stormname": "Tropical Storm Iselle", "stormtype": "TD", "dvlbl": "D", "basin": "EP", "advdate": "200 AM PDT Tue Aug 25 2026", "advisnum": "8", "fcstprd": 120, "gust": 40, "maxwind": 30, "mslp": 9999, "ssnum": 0, "datelbl": "11:00 AM Thu", "tcdir": 9999, "tcdvlp": "Tropical Depression", "tcspd": 9999, "fldatelbl": "2026-08-27 11:00 AM Thu PDT", "lat": 24, "lon": -129, "stormnum": 9, "stormsrc": "Tropical Cyclone", "tau": 60, "timezone": "PDT", "validtime": "27/1800", "idp_source": "ep092026-008_5day_pts", "idp_filedate": 1787648551000, "idp_ingestdate": 1787648583000, "binnumber": "EP4", "MAXWIND": 30, "VALIDTIME": "27/1800"}}, {"type": "Feature", "id": 1467, "geometry": {"type": "Point", "coordinates": [-130.7000000003996, 24.300000000100056]}, "properties": {"objectid": 1467, "stormname": "Tropical Storm Iselle", "stormtype": "STD", "dvlbl": "D", "basin": "EP", "advdate": "200 AM PDT Tue Aug 25 2026", "advisnum": "8", "fcstprd": 120, "gust": 35, "maxwind": 25, "mslp": 9999, "ssnum": 0, "datelbl": "11:00 PM Thu", "tcdir": 9999, "tcdvlp": "Subtropical Depression", "tcspd": 9999, "fldatelbl": "2026-08-27 11:00 PM Thu PDT", "lat": 24, "lon": -131, "stormnum": 9, "stormsrc": "Post-Tropical Cyclone", "tau": 72, "timezone": "PDT", "validtime": "28/0600", "idp_source": "ep092026-008_5day_pts", "idp_filedate": 1787648551000, "idp_ingestdate": 1787648583000, "binnumber": "EP4", "MAXWIND": 25, "VALIDTIME": "28/0600"}}]}