{"type":"FeatureCollection","features":[{"type":"Feature","id":180,"geometry":{"type":"Polygon","coordinates":[[[-120.37820000042956,14.246210000091594],[-120.36121000024121,14.243540000171038],[-120.34255999994394,14.241980000177023],[-120.3223600001138,14.241240000225957],[-120.30122999966466,14.241240000225957],[-120.27973999970112,14.241980000177023],[-120.25853000005935,14.243540000171038],[-120.2382300001143,14.246210000091594],[-120.2192200003027,14.250170000145545],[-120.20149000016329,14.255409999871745],[-120.18515000027219,14.262039999846252],[-120.16282999980456,14.274180000306899],[-120.1560199996232,14.27886999985077],[-120.14281000018127,14.288619999813307],[-120.13031000020624,14.299109999726852],[-120.11838000043656,14.310149999822784],[-120.1012900001333,14.327539999571457],[-120.0904500002672,14.339689999593929],[-120.08540000030968,14.346120000237931],[-120.07097999992698,14.366179999907217],[-120.05839999986,14.388079999892227],[-120.05094999984254,14.403630000224496],[-120.04425000023724,14.419910000046627],[-120.04103999969612,14.428189999668916],[-120.03497999992697,14.44511999978829],[-120.02945999987901,14.462600000090049],[-120.02432000026772,14.480450000367341],[-120.01935999996391,14.498479999952167],[-120.01229999994496,14.525899999985143],[-120.00999000043805,14.535099999765293],[-120.00310999972663,14.562700000005123],[-120.0008200002427,14.571899999785273],[-119.99392999996945,14.599500000025103],[-119.99163000002437,14.60869999980531],[-119.98483000030416,14.636389999698849],[-119.98264000003587,14.645680000032087],[-119.9763800000369,14.673929999669895],[-119.97436999997541,14.683400000209986],[-119.96866000015876,14.712200000030123],[-119.96683000030418,14.721860000338893],[-119.96277999969715,14.740810000081581],[-119.95599000043808,14.768510000436322],[-119.95359999993997,14.777610000101561],[-119.94846000032868,14.795460000378853],[-119.94294999984254,14.812939999781292],[-119.93779999977011,14.830790000058585],[-119.93303000013429,14.849010000311409],[-119.92658999992847,14.877070000180481],[-119.92457999986703,14.886539999821252],[-119.91897999972713,14.915430000194476],[-119.91501999967318,14.934480000052076],[-119.91088999987352,14.953340000141054],[-119.90659000032815,14.972009999561976],[-119.90436999957575,14.981310000356359],[-119.89978999970862,14.999709999916718],[-119.89290000033463,15.027310000156547],[-119.88831000000641,15.045709999716848],[-119.88601000006133,15.054910000396319],[-119.87911999978809,15.082509999736828],[-119.87453000035913,15.100910000196507],[-119.86992999956971,15.119309999756808],[-119.86764999964765,15.128510000436336],[-119.86304999975761,15.146909999996637],[-119.8584499998675,15.165309999556996],[-119.8515599995942,15.192909999796768],[-119.84927000011032,15.202109999576976],[-119.84237999983702,15.229709999816805],[-119.840079999892,15.238909999596956],[-119.83548999956372,15.257310000056577],[-119.82860999975162,15.284910000296406],[-119.82630999980654,15.294110000076557],[-119.82172000037764,15.312509999636916],[-119.81481999964319,15.340109999876745],[-119.81023999977606,15.358510000336366],[-119.80793999983104,15.367710000116574],[-119.80106000001888,15.395310000356346],[-119.79874999961271,15.404510000136554],[-119.79416999974558,15.422909999696856],[-119.78956999985553,15.441310000156534],[-119.78267999958223,15.468919999958189],[-119.78039000009835,15.47811999973834],[-119.77599000043807,15.496700000404815],[-119.77175999962418,15.515469999940706],[-119.76772000037761,15.534419999683394],[-119.76384999997742,15.55356000009408],[-119.76019000026821,15.572879999812301],[-119.75613000009935,15.591829999554989],[-119.74933999994096,15.619520000347904],[-119.74695999990399,15.628629999574969],[-119.73905999981906,15.655220000003112],[-119.73630000024474,15.66396000015402],[-119.73096999996545,15.681619999763313],[-119.72581999989296,15.699470000040606],[-119.71847999955224,15.726609999751815],[-119.71608999995345,15.735719999878256],[-119.71149999962518,15.754120000337878],[-119.70707999994193,15.772709999666915],[-119.70287000005038,15.791469999640924],[-119.69882000034266,15.810420000282932],[-119.6949800004266,15.829559999794299],[-119.69129999979504,15.848880000411839],[-119.68542000023274,15.877489999563977],[-119.68127000041011,15.896360000114043],[-119.67916999979553,15.905740000101048],[-119.67247000019029,15.933519999648411],[-119.67017000024521,15.942720000327881],[-119.66557000035516,15.96111999988824],[-119.66100000004985,15.979520000347861],[-119.65638999969866,15.997930000369365],[-119.6518000002697,16.016329999929667],[-119.6449099999964,16.043930000169496],[-119.64261000005138,16.053129999949704],[-119.63803000018424,16.071530000409325],[-119.63343999985602,16.089929999969684],[-119.6265400000209,16.117530000209456],[-119.62194999969262,16.135929999769814],[-119.61964999974759,16.145130000449285],[-119.61506999988052,16.163530000009644],[-119.61046999999041,16.181929999569945],[-119.60357999971711,16.209529999809774],[-119.60129000023323,16.218729999589925],[-119.59439000039811,16.246329999829754],[-119.59210000001491,16.255529999609905],[-119.58750999968663,16.273930000069583],[-119.58292000025773,16.292329999629942],[-119.57832000036763,16.310730000089563],[-119.57143999965615,16.338330000329393],[-119.56913999971113,16.347530000109543],[-119.56455000028217,16.365929999669902],[-119.55995999995395,16.384330000129523],[-119.55306999968064,16.411930000369352],[-119.55076999973562,16.421130000149503],[-119.54637000007534,16.439720000377861],[-119.54214000016077,16.458480000351869],[-119.53810000001488,16.477439999656383],[-119.53424000007584,16.496569999605924],[-119.53056999990548,16.51589999978529],[-119.52652000019776,16.534850000427298],[-119.51973000003937,16.562540000320894],[-119.51735000000241,16.571650000447278],[-119.51219999992998,16.58949999982525],[-119.50667999988201,16.606980000127066],[-119.50154000027072,16.624819999943156],[-119.49456999990548,16.652340000091044],[-119.49235999961422,16.661619999963193],[-119.48648000005187,16.690239999576477],[-119.48465000019723,16.699899999885247],[-119.4807900002582,16.719040000295934],[-119.4767500001123,16.737990000038621],[-119.47252000019773,16.756759999574456],[-119.46811000007636,16.775340000240931],[-119.46351999974809,16.793739999801289],[-119.45891999985804,16.812140000260968],[-119.45202999958474,16.83973999960142],[-119.4497400001008,16.848940000280948],[-119.44514000021076,16.867339999841249],[-119.44056000034362,16.885740000300927],[-119.43367000007038,16.913339999641437],[-119.43137999968712,16.922540000320907],[-119.42677999979708,16.940939999881209],[-119.42219999992994,16.959340000340887],[-119.41758999957875,16.977750000362391],[-119.4107099997666,17.005349999702844],[-119.40842000028272,17.014550000382371],[-119.40152000044759,17.042140000160998],[-119.39693999968114,17.060550000182502],[-119.39463999973611,17.069749999962653],[-119.38738999994843,17.096980000226949],[-119.38231999996793,17.114920000158008],[-119.37975000016229,17.12383999961645],[-119.37443999990597,17.141509999686889],[-119.36891999985801,17.158989999988648],[-119.36101999977308,17.185580000416849],[-119.35844999996743,17.194499999875234],[-119.35348999966368,17.212530000359379],[-119.34642000008284,17.239950000392355],[-119.34412999969965,17.249150000172506],[-119.33952999980954,17.267549999732864],[-119.33264000043556,17.295149999972637],[-119.32805000010734,17.313550000432315],[-119.32345999977906,17.331949999992617],[-119.31885999988901,17.350349999552975],[-119.31426999956074,17.368750000012653],[-119.30968999969366,17.387149999572955],[-119.30738999974858,17.396350000252426],[-119.30280000031968,17.414749999812784],[-119.29820000042957,17.433150000272406],[-119.2913199997181,17.460749999612915],[-119.28671000026623,17.479150000072593],[-119.28441999988297,17.488360000313889],[-119.27743999995596,17.515860000438806],[-119.27257999976706,17.533990000138544],[-119.26752000024771,17.551930000069603],[-119.26227999962219,17.569680000231983],[-119.25962999972461,17.578510000036601],[-119.25145000021723,17.604829999704862],[-119.2487899998585,17.613660000408856],[-119.24115000007237,17.640530000259446],[-119.23630000034467,17.658650000397358],[-119.23160000033965,17.676960000303893],[-119.2270199995732,17.695359999864252],[-119.22471999962818,17.704559999644403],[-119.22011999973813,17.722960000104081],[-119.21323999992597,17.750560000343853],[-119.2109500004421,17.759760000124061],[-119.20634000009085,17.778159999684362],[-119.19946000027869,17.805759999924192],[-119.19716999989549,17.814959999704342],[-119.19027999962219,17.842559999944172],[-119.18797999967717,17.851759999724322],[-119.18321000004136,17.869979999977147],[-119.1756900003931,17.896929999919678],[-119.17311000012631,17.905859999839265],[-119.16779000030817,17.923520000347878],[-119.16227999982203,17.940999999750318],[-119.15439000019825,17.967590000178518],[-119.14932000021776,17.985530000109577],[-119.14684000006588,17.994549999682874],[-119.13976999958572,18.02196999971585],[-119.1374699996407,18.031170000395321],[-119.13288000021174,18.049560000393853],[-119.12828999988352,18.067970000415301],[-119.12139999961022,18.09556999975581],[-119.11911000012628,18.104770000435337],[-119.11221000029121,18.13236999977579],[-119.10991999990796,18.141569999555998],[-119.10532999957974,18.159970000015619],[-119.09842999974461,18.187570000255448],[-119.09614999982256,18.196770000035599],[-119.09154999993245,18.215169999595958],[-119.08695999960423,18.233570000055579],[-119.08237000017527,18.251969999615937],[-119.07777000028517,18.270370000075559],[-119.07317999995695,18.288769999635917],[-119.06858999962867,18.307170000095596],[-119.06215999988399,18.335229999964668],[-119.0602299999145,18.344620000412817],[-119.05700999981156,18.363840000016125],[-119.0542700002602,18.393749999762804],[-119.05425000023723,18.413799999870264],[-119.05573000013931,18.433669999770814],[-119.05848999971363,18.453180000157033],[-119.06215999988399,18.472310000106575],[-119.06638000023673,18.491079999642409],[-119.07096999966564,18.509480000102087],[-119.07592999996945,18.527509999686856],[-119.08124999978759,18.545179999757295],[-119.08703999969612,18.562379999737345],[-119.093479999902,18.578939999881243],[-119.10045000026719,18.594949999842754],[-119.1077099996167,18.610680000381876],[-119.11525000018725,18.626140000161001],[-119.12305000015726,18.641319999618418],[-119.13095000024225,18.656410000321387],[-119.14335999966414,18.67848999961393],[-119.15234999965264,18.692470000390358],[-119.1571299997496,18.699190000018632],[-119.17200000019977,18.718790000058618],[-119.18284999962771,18.730929999619946],[-119.18834999965264,18.736910000196474],[-119.20525000018728,18.754480000152],[-119.21683000000439,18.765890000223465],[-119.22877000023522,18.776930000319396],[-119.24090000023472,18.787790000208474],[-119.25375000016226,18.797910000146544],[-119.26715999983401,18.807479999902228],[-119.28111000012632,18.816489999913699],[-119.29562000016278,18.824960000203987],[-119.31068000038164,18.832869999850743],[-119.32575000016226,18.840780000396819],[-119.34100000014979,18.848509999836779],[-119.35660999965165,18.855870000200468],[-119.37222000005289,18.863229999664895],[-119.38802000022275,18.870409999821788],[-119.40436999967562,18.87703000023447],[-119.4210900000034,18.883290000233444],[-119.43798999963866,18.889359999564476],[-119.46480000031966,18.896989999788786],[-119.48354000027069,18.901230000164503],[-119.49309999956523,18.903160000134051],[-119.51310999962669,18.906099999915227],[-119.54516999959571,18.908490000413337],[-119.55610000001491,18.909050000157549],[-119.58990000018474,18.909689999993645],[-119.61268000028167,18.909689999993645],[-119.62389000012331,18.90940999967188],[-119.65738999994846,18.908499999975163],[-119.67889000037314,18.907020000073089],[-119.69946999974059,18.904629999574979],[-119.71902999973463,18.901230000164503],[-119.73776999968567,18.896989999788786],[-119.74658999992846,18.894330000329376],[-119.77304000019575,18.886319999668387],[-119.78983999971609,18.880159999784325],[-119.80637000027519,18.873719999578441],[-119.83034999995243,18.863229999664895],[-119.83816999994542,18.85954999993271],[-119.86158000031668,18.848509999836779],[-119.86920000007984,18.84464999989774],[-119.88434000039064,18.836829999904694],[-119.89941000017126,18.828909999796792],[-119.91419999963017,18.820730000289416],[-119.92843999980607,18.811990000138508],[-119.94881999984301,18.797910000146544],[-119.95524999958769,18.792849999727821],[-119.97381000023125,18.776930000319396],[-119.97968999979355,18.771319999718344],[-119.99676999963566,18.753929999969671],[-120.00220000002986,18.747859999739319],[-120.01790000008486,18.729090000203485],[-120.02781999979305,18.716029999584975],[-120.03735999996394,18.702590000328371],[-120.04673999995094,18.688980000426795],[-120.05591999970812,18.675179999857221],[-120.06490999969662,18.661190000418344],[-120.07372999993947,18.647019999873237],[-120.08649999977507,18.625309999656906],[-120.09064000003588,18.617950000192479],[-120.09833999989098,18.602680000181977],[-120.10570000025473,18.587040000195998],[-120.11231000020626,18.57066999982078],[-120.11800999956176,18.553369999725874],[-120.12296999986552,18.535340000141048],[-120.12737000042506,18.51674999991269],[-120.13123000036416,18.497610000401323],[-120.13509000030319,18.478479999552462],[-120.13895000024223,18.459340000041095],[-120.14262000041259,18.440020000322875],[-120.14730000039464,18.410209999791789],[-120.14868000018174,18.400089999853776],[-120.15106999978059,18.36798000027693],[-120.15188999982354,18.3458100004313],[-120.15235999991398,18.323269999710874],[-120.15254000012084,18.311950000192496],[-120.15309000030317,18.289509999586926],[-120.15510999992648,18.257030000034604],[-120.15603000008434,18.246449999567972],[-120.16042999974462,18.216370000075585],[-120.16208999985349,18.206519999998136],[-120.16723000036416,18.17716999999567],[-120.17027000026019,18.157210000441296],[-120.1716399995862,18.147089999603963],[-120.17403000008431,18.114980000027117],[-120.17493999978109,18.092899999835254],[-120.17567000017027,18.070629999874711],[-120.17659999989002,18.048549999682905],[-120.17715000007234,18.037609999701885],[-120.18035999971414,18.006320000167989],[-120.18174999996245,17.996200000229976],[-120.18679999991997,17.966759999674366],[-120.18854999968266,17.957009999711829],[-120.19322999966465,17.927200000080063],[-120.19461000035113,17.91708000014205],[-120.1969900003881,17.88498000012703],[-120.1979099996467,17.862890000373341],[-120.19864000003588,17.840629999974681],[-120.1995499997326,17.818549999782817],[-120.20009999991498,17.807600000239972],[-120.20332000001787,17.776320000267958],[-120.20469999980503,17.766200000329889],[-120.20802000002288,17.746509999736816],[-120.21150000042456,17.727009999811798],[-120.21620000042958,17.697200000179976],[-120.21848999991346,17.676499999775331],[-120.21941000007138,17.665920000207961],[-120.22078000029666,17.632799999920223],[-120.22123999992596,17.610260000099061],[-120.22168999999343,17.587720000277955],[-120.22251999959821,17.565539999971179],[-120.22306999978059,17.55459999999016],[-120.22489999963517,17.533439999956158],[-120.22766999967064,17.513200000080076],[-120.23096999986552,17.493510000386323],[-120.23611000037613,17.464160000383856],[-120.23778000004688,17.454319999868233],[-120.24051999959823,17.434070000430324],[-120.24291000009634,17.401970000415304],[-120.24373999970112,17.379790000108585],[-120.24418999976859,17.357250000287422],[-120.24465000029716,17.33470999956694],[-120.24547999990199,17.312539999721366],[-120.24693999978109,17.291009999711832],[-120.24785999993895,17.28043000014452],[-120.25062999997442,17.260190000268437],[-120.2539199997081,17.240499999675365],[-120.25742000013281,17.220999999750347],[-120.26072999988946,17.201310000056594],[-120.26347999990196,17.181070000180512],[-120.26532000021774,17.15991000014651],[-120.2671599996342,17.127250000387335],[-120.26770999981653,17.11629999994517],[-120.26899999994993,17.094589999728839],[-120.27082999980456,17.073429999694895],[-120.27357000025523,17.053189999818755],[-120.27688999957371,17.033500000125059],[-120.28038000043659,17.01398999973884],[-120.28369000019325,16.994300000045087],[-120.28644999976757,16.974060000169004],[-120.28929000033315,16.942419999783283],[-120.29013000039913,16.931740000101058],[-120.29178000004686,16.91039999986026],[-120.29379000010834,16.889420000033113],[-120.29654000012084,16.86918000015703],[-120.29986999990047,16.849489999563957],[-120.303339999841,16.829989999638883],[-120.30803999984602,16.800180000007117],[-120.30941999963318,16.790060000069104],[-120.31142999969461,16.769080000241956],[-120.31310000026468,16.747740000001158],[-120.31575000016227,16.715909999846758],[-120.31675999997395,16.705419999933213],[-120.31950999998639,16.685180000057073],[-120.32457000040512,16.65574000040084],[-120.32630999970661,16.645979999977158],[-120.32962999992446,16.62629999984523],[-120.33330000009482,16.59546999994069],[-120.33420999979154,16.584899999935203],[-120.33603999964618,16.552240000176027],[-120.33658999982856,16.541289999733863],[-120.33878999965867,16.508999999950163],[-120.33970999981653,16.498409999921705],[-120.3441300003991,16.468330000429319],[-120.34578000004689,16.458489999913695],[-120.35091999965817,16.429139999911229],[-120.3525799997671,16.419289999833779],[-120.3553299997796,16.399049999957697],[-120.35717000009532,16.377889999923696],[-120.35899999994996,16.34523000016452],[-120.36018999996844,16.323430000294422],[-120.36082999980454,16.312570000405344],[-120.36265999965917,16.291410000371343],[-120.36708000024174,16.261329999979637],[-120.36874000035067,16.251479999902188],[-120.3738900004231,16.222129999899721],[-120.37552999960968,16.212290000283417],[-120.37829000008333,16.192050000407335],[-120.38030000014481,16.171069999680867],[-120.38280000031966,16.13906000021899],[-120.38362000036261,16.128379999637389],[-120.38563999998593,16.107410000271443],[-120.39005000010735,16.077320000317911],[-120.39345000041709,16.057729999839751],[-120.39518999971864,16.047970000315388],[-120.39986999970063,16.018170000245448],[-120.40125000038711,16.008050000307435],[-120.40372999963967,15.976030000384355],[-120.40491999965815,15.954220000053112],[-120.40548000030168,15.943280000072093],[-120.40675999997393,15.921560000293937],[-120.40860000028971,15.900400000259935],[-120.41135999986403,15.880160000383853],[-120.41466000005886,15.860480000251926],[-120.41815999958425,15.840969999865763],[-120.42145999977907,15.82128000017201],[-120.42514000041058,15.790459999829295],[-120.42605999966918,15.779880000261926],[-120.42789000042308,15.747219999603431],[-120.42908000044156,15.725419999733333],[-120.42972000027771,15.714559999844255],[-120.43155999969412,15.693399999810254],[-120.43430999970661,15.673159999934171],[-120.43762000036264,15.653470000240475],[-120.44111999988797,15.633970000315401],[-120.44442999964468,15.614279999722328],[-120.44735999986403,15.594220000053099],[-120.44975000036214,15.573610000201484],[-120.45195000019226,15.552820000143015],[-120.45433000022922,15.5322100002914],[-120.45727999957222,15.512160000183997],[-120.46059000022825,15.492469999590924],[-120.46572999983954,15.463119999588457],[-120.46738999994847,15.453270000410328],[-120.47013999996096,15.433029999634925],[-120.47262000011284,15.401020000172991],[-120.47381000013132,15.379209999841748],[-120.47500000014981,15.357409999971651],[-120.4756399999859,15.346550000082573],[-120.4788499996277,15.315270000110559],[-120.48189000042311,15.295309999656922],[-120.48354000007083,15.285459999579473],[-120.48869000014332,15.25610999957695],[-120.49171999957821,15.236150000022633],[-120.49310000026469,15.226030000084563],[-120.49493000011933,15.204870000050619],[-120.49677000043511,15.172210000291443],[-120.49797000001541,15.150399999960143],[-120.49953000000937,15.128970000065578],[-120.50043999970615,15.118389999598946],[-120.50318999971864,15.098149999722864],[-120.50823999967616,15.068710000066574],[-120.51166000000887,15.049110000026644],[-120.51330999965666,15.03927000041034],[-120.5160700001303,15.019029999634938],[-120.51808000019179,14.99804999980779],[-120.51974000030066,14.976709999566992],[-120.52138999994844,14.955359999764312],[-120.52477999979703,14.924259999999151],[-120.52615000002237,14.914140000061082],[-120.52947000024022,14.894450000367385],[-120.53460999985151,14.865109999926688],[-120.53626999996044,14.855259999849238],[-120.53901999997294,14.835019999973156],[-120.54150000012481,14.803009999611959],[-120.54269999970512,14.781200000179979],[-120.54390000018475,14.759400000309881],[-120.5445400000209,14.748540000420803],[-120.54636999987548,14.727380000386859],[-120.54911999988798,14.707139999611456],[-120.55244000010583,14.687449999917703],[-120.55591999960819,14.667949999992629],[-120.55923000026422,14.648260000298933],[-120.56290000043458,14.617439999956162],[-120.56438000033666,14.595909999946684],[-120.5652000003796,14.573740000101054],[-120.56557000035514,14.551100000165036],[-120.56557000035514,14.528289999583933],[-120.5652000003796,14.50566000010906],[-120.56438000033666,14.483479999802285],[-120.56334999960268,14.473000000349884],[-120.56015000042208,14.44172000037787],[-120.55784999957774,14.432510000136517],[-120.55096000020376,14.404909999896688],[-120.54435000025222,14.388540000420846],[-120.53222999981455,14.366179999907217],[-120.52286000028869,14.352560000443816],[-120.51276000037365,14.339680000032104],[-120.50734000044059,14.333609999801808],[-120.49072000022772,14.315769999985662],[-120.47894999974261,14.304540000121051],[-120.46691999985802,14.293680000231973],[-120.45443000034413,14.283560000293903],[-120.44167000007036,14.274180000306899],[-120.42172000007787,14.262039999846252],[-120.41529999989501,14.258349999652921],[-120.38563999998593,14.248510000036617],[-120.37820000042956,14.246210000091594]]]},"properties":{"objectid":180,"stormname":"Ten-E","stormtype":"TD","basin":"EP","advdate":"800 PM PDT Mon Aug 24 2026","advisnum":"2","fcstprd":120,"stormnum":10,"idp_source":"ep102026-002_5day_pgn","idp_filedate":1787648553000,"idp_ingestdate":1787648641000,"st_area(shape)":3.7099992689507695,"st_perimeter(shape)":10.4417038854548,"binnumber":"EP5"}}]}