{"type": "FeatureCollection", "features": [{"type": "Feature", "id": 1468, "geometry": {"type": "Point", "coordinates": [-120.29999999960023, 14.49999999990024]}, "properties": {"objectid": 1468, "stormname": "Tropical Depression Ten-E", "stormtype": "TD", "dvlbl": "D", "basin": "EP", "advdate": "800 PM PDT Mon Aug 24 2026", "advisnum": "2", "fcstprd": 120, "gust": 50, "maxwind": 30, "mslp": 1006, "ssnum": 0, "datelbl": "8:00 PM Mon", "tcdvlp": "Tropical Depression", "tcdir": 30, "tcspd": 11, "fldatelbl": "2026-08-24 5:00 PM Mon PDT", "lat": 14, "lon": -120, "stormnum": 10, "stormsrc": "Tropical Cyclone", "tau": 0, "timezone": "PDT", "validtime": "25/0000", "idp_source": "ep102026-002_5day_pts", "idp_filedate": 1787648553000, "idp_ingestdate": 1787648635000, "binnumber": "EP5", "MAXWIND": 30, "VALIDTIME": "25/0000"}}, {"type": "Feature", "id": 1469, "geometry": {"type": "Point", "coordinates": [-119.60000000009984, 18.40000000020001]}, "properties": {"objectid": 1469, "stormname": "Tropical Depression Ten-E", "stormtype": "TS", "dvlbl": "S", "basin": "EP", "advdate": "800 PM PDT Mon Aug 24 2026", "advisnum": "2", "fcstprd": 120, "gust": 55, "maxwind": 45, "mslp": 9999, "ssnum": 0, "datelbl": "11:00 AM Tue", "tcdvlp": "Tropical Storm", "tcdir": 9999, "tcspd": 9999, "fldatelbl": "2026-08-25 11:00 AM Tue PDT", "lat": 18, "lon": -120, "stormnum": 10, "stormsrc": "Tropical Cyclone", "tau": 12, "timezone": "PDT", "validtime": "25/1800", "idp_source": "ep102026-002_5day_pts", "idp_filedate": 1787648553000, "idp_ingestdate": 1787648635000, "binnumber": "EP5", "MAXWIND": 45, "VALIDTIME": "25/1800"}}]}