{"type":"FeatureCollection","features":[{"type":"Feature","id":1342,"geometry":{"type":"LineString","coordinates":[[-110.00000000039961,9.5000000000001137],[-111.00000000019975,9.199999999700367],[-112.09999999980005,8.9000000002998831],[-112.99999999980008,8.5000000001999751],[-113.99999999960022,8.4000000003998139],[-114.8999999996002,8.4000000003998139],[-115.00000000029968,9.0000000001000444],[-114.50000000039961,9.199999999700367],[-115.59999999999991,9.300000000399848],[-116.69999999960021,9.4000000002000093],[-117.49999999980008,9.8000000002999172],[-118.20000000019974,9.9000000001000785],[-119.3999999996002,9.9999999999002398],[-120.90000000019978,10.200000000399825],[-122.70000000019974,10.300000000199987],[-121.30000000029969,10.700000000299895]]},"properties":{"objectid":1342,"stormtype":"DB","stormnum":10,"ss":0,"idp_source":"EP102026_lin","idp_filedate":1787673826000,"idp_ingestdate":1787673954000,"st_length(shape)":16.007709994716262,"binnumber":"EP5"}},{"type":"Feature","id":1343,"geometry":{"type":"LineString","coordinates":[[-121.30000000029969,10.700000000299895],[-121.30000000029969,11.499999999600448],[-121.30000000029969,11.70000000010009],[-121.30000000029969,12.500000000299906],[-120.99999999999989,13.100000000000136]]},"properties":{"objectid":1343,"stormtype":"LO","stormnum":10,"ss":0,"idp_source":"EP102026_lin","idp_filedate":1787673826000,"idp_ingestdate":1787673954000,"st_length(shape)":2.4708203931159027,"binnumber":"EP5"}},{"type":"Feature","id":1344,"geometry":{"type":"LineString","coordinates":[[-120.99999999999989,13.100000000000136],[-120.50000000009982,13.800000000399848]]},"properties":{"objectid":1344,"stormtype":"TD","stormnum":10,"ss":0,"idp_source":"EP102026_lin","idp_filedate":1787673826000,"idp_ingestdate":1787673954000,"st_length(shape)":0.86023252697143782,"binnumber":"EP5"}},{"type":"Feature","id":1345,"geometry":{"type":"LineString","coordinates":[[-120.50000000009982,13.800000000399848],[-119.60000000009984,15.300000000100056],[-119.10000000019977,17.000000000299906]]},"properties":{"objectid":1345,"stormtype":"TD","stormnum":10,"ss":0,"idp_source":"EP102026_lin","idp_filedate":1787673826000,"idp_ingestdate":1787673954000,"st_length(shape)":3.521290083026976,"binnumber":"EP5"}}]}