{"type":"FeatureCollection","features":[{"type":"Feature","id":5787,"geometry":{"type":"Point","coordinates":[-110.00000000039961,9.5000000000001137]},"properties":{"objectid":5787,"stormname":"GENESIS018","stormtype":"DB","stormnum":10,"intensity":15,"basin":"ep","mslp":0,"dtg":2026082000,"year":2026,"month":"08","day":20,"hhmm":"0000","lat":10,"lon":-110,"idp_source":"EP102026_pts","ss":0,"idp_filedate":1787648553000,"idp_ingestdate":1787648655000,"binnumber":"EP5"}},{"type":"Feature","id":5788,"geometry":{"type":"Point","coordinates":[-111.00000000019975,9.199999999700367]},"properties":{"objectid":5788,"stormname":"GENESIS018","stormtype":"DB","stormnum":10,"intensity":15,"basin":"ep","mslp":0,"dtg":2026082006,"year":2026,"month":"08","day":20,"hhmm":"0600","lat":9,"lon":-111,"idp_source":"EP102026_pts","ss":0,"idp_filedate":1787648553000,"idp_ingestdate":1787648655000,"binnumber":"EP5"}},{"type":"Feature","id":5789,"geometry":{"type":"Point","coordinates":[-112.09999999980005,8.9000000002998831]},"properties":{"objectid":5789,"stormname":"GENESIS018","stormtype":"DB","stormnum":10,"intensity":15,"basin":"ep","mslp":0,"dtg":2026082012,"year":2026,"month":"08","day":20,"hhmm":"1200","lat":9,"lon":-112,"idp_source":"EP102026_pts","ss":0,"idp_filedate":1787648553000,"idp_ingestdate":1787648655000,"binnumber":"EP5"}},{"type":"Feature","id":5790,"geometry":{"type":"Point","coordinates":[-112.99999999980008,8.5000000001999751]},"properties":{"objectid":5790,"stormname":"GENESIS018","stormtype":"DB","stormnum":10,"intensity":20,"basin":"ep","mslp":0,"dtg":2026082018,"year":2026,"month":"08","day":20,"hhmm":"1800","lat":8,"lon":-113,"idp_source":"EP102026_pts","ss":0,"idp_filedate":1787648553000,"idp_ingestdate":1787648655000,"binnumber":"EP5"}},{"type":"Feature","id":5791,"geometry":{"type":"Point","coordinates":[-113.99999999960022,8.4000000003998139]},"properties":{"objectid":5791,"stormname":"INVEST","stormtype":"DB","stormnum":10,"intensity":20,"basin":"ep","mslp":1009,"dtg":2026082100,"year":2026,"month":"08","day":21,"hhmm":"0000","lat":8,"lon":-114,"idp_source":"EP102026_pts","ss":0,"idp_filedate":1787648553000,"idp_ingestdate":1787648655000,"binnumber":"EP5"}},{"type":"Feature","id":5792,"geometry":{"type":"Point","coordinates":[-114.8999999996002,8.4000000003998139]},"properties":{"objectid":5792,"stormname":"INVEST","stormtype":"DB","stormnum":10,"intensity":20,"basin":"ep","mslp":1009,"dtg":2026082106,"year":2026,"month":"08","day":21,"hhmm":"0600","lat":8,"lon":-115,"idp_source":"EP102026_pts","ss":0,"idp_filedate":1787648553000,"idp_ingestdate":1787648655000,"binnumber":"EP5"}},{"type":"Feature","id":5793,"geometry":{"type":"Point","coordinates":[-115.00000000029968,9.0000000001000444]},"properties":{"objectid":5793,"stormname":"INVEST","stormtype":"DB","stormnum":10,"intensity":20,"basin":"ep","mslp":1009,"dtg":2026082112,"year":2026,"month":"08","day":21,"hhmm":"1200","lat":9,"lon":-115,"idp_source":"EP102026_pts","ss":0,"idp_filedate":1787648553000,"idp_ingestdate":1787648655000,"binnumber":"EP5"}},{"type":"Feature","id":5794,"geometry":{"type":"Point","coordinates":[-114.50000000039961,9.199999999700367]},"properties":{"objectid":5794,"stormname":"INVEST","stormtype":"DB","stormnum":10,"intensity":20,"basin":"ep","mslp":1009,"dtg":2026082118,"year":2026,"month":"08","day":21,"hhmm":"1800","lat":9,"lon":-114,"idp_source":"EP102026_pts","ss":0,"idp_filedate":1787648553000,"idp_ingestdate":1787648655000,"binnumber":"EP5"}},{"type":"Feature","id":5795,"geometry":{"type":"Point","coordinates":[-115.59999999999991,9.300000000399848]},"properties":{"objectid":5795,"stormname":"INVEST","stormtype":"DB","stormnum":10,"intensity":20,"basin":"ep","mslp":1009,"dtg":2026082200,"year":2026,"month":"08","day":22,"hhmm":"0000","lat":9,"lon":-116,"idp_source":"EP102026_pts","ss":0,"idp_filedate":1787648553000,"idp_ingestdate":1787648655000,"binnumber":"EP5"}},{"type":"Feature","id":5796,"geometry":{"type":"Point","coordinates":[-116.69999999960021,9.4000000002000093]},"properties":{"objectid":5796,"stormname":"INVEST","stormtype":"DB","stormnum":10,"intensity":20,"basin":"ep","mslp":1009,"dtg":2026082206,"year":2026,"month":"08","day":22,"hhmm":"0600","lat":9,"lon":-117,"idp_source":"EP102026_pts","ss":0,"idp_filedate":1787648553000,"idp_ingestdate":1787648655000,"binnumber":"EP5"}},{"type":"Feature","id":5797,"geometry":{"type":"Point","coordinates":[-117.49999999980008,9.8000000002999172]},"properties":{"objectid":5797,"stormname":"INVEST","stormtype":"DB","stormnum":10,"intensity":20,"basin":"ep","mslp":1009,"dtg":2026082212,"year":2026,"month":"08","day":22,"hhmm":"1200","lat":10,"lon":-118,"idp_source":"EP102026_pts","ss":0,"idp_filedate":1787648553000,"idp_ingestdate":1787648655000,"binnumber":"EP5"}},{"type":"Feature","id":5798,"geometry":{"type":"Point","coordinates":[-118.20000000019974,9.9000000001000785]},"properties":{"objectid":5798,"stormname":"INVEST","stormtype":"DB","stormnum":10,"intensity":25,"basin":"ep","mslp":1009,"dtg":2026082218,"year":2026,"month":"08","day":22,"hhmm":"1800","lat":10,"lon":-118,"idp_source":"EP102026_pts","ss":0,"idp_filedate":1787648553000,"idp_ingestdate":1787648655000,"binnumber":"EP5"}},{"type":"Feature","id":5799,"geometry":{"type":"Point","coordinates":[-119.3999999996002,9.9999999999002398]},"properties":{"objectid":5799,"stormname":"INVEST","stormtype":"DB","stormnum":10,"intensity":25,"basin":"ep","mslp":1009,"dtg":2026082300,"year":2026,"month":"08","day":23,"hhmm":"0000","lat":10,"lon":-119,"idp_source":"EP102026_pts","ss":0,"idp_filedate":1787648553000,"idp_ingestdate":1787648655000,"binnumber":"EP5"}},{"type":"Feature","id":5800,"geometry":{"type":"Point","coordinates":[-120.90000000019978,10.200000000399825]},"properties":{"objectid":5800,"stormname":"INVEST","stormtype":"DB","stormnum":10,"intensity":25,"basin":"ep","mslp":1009,"dtg":2026082306,"year":2026,"month":"08","day":23,"hhmm":"0600","lat":10,"lon":-121,"idp_source":"EP102026_pts","ss":0,"idp_filedate":1787648553000,"idp_ingestdate":1787648655000,"binnumber":"EP5"}},{"type":"Feature","id":5801,"geometry":{"type":"Point","coordinates":[-122.70000000019974,10.300000000199987]},"properties":{"objectid":5801,"stormname":"INVEST","stormtype":"DB","stormnum":10,"intensity":25,"basin":"ep","mslp":1007,"dtg":2026082312,"year":2026,"month":"08","day":23,"hhmm":"1200","lat":10,"lon":-123,"idp_source":"EP102026_pts","ss":0,"idp_filedate":1787648553000,"idp_ingestdate":1787648655000,"binnumber":"EP5"}},{"type":"Feature","id":5802,"geometry":{"type":"Point","coordinates":[-121.30000000029969,10.700000000299895]},"properties":{"objectid":5802,"stormname":"INVEST","stormtype":"LO","stormnum":10,"intensity":25,"basin":"ep","mslp":1009,"dtg":2026082318,"year":2026,"month":"08","day":23,"hhmm":"1800","lat":11,"lon":-121,"idp_source":"EP102026_pts","ss":0,"idp_filedate":1787648553000,"idp_ingestdate":1787648655000,"binnumber":"EP5"}},{"type":"Feature","id":5803,"geometry":{"type":"Point","coordinates":[-121.30000000029969,11.499999999600448]},"properties":{"objectid":5803,"stormname":"INVEST","stormtype":"LO","stormnum":10,"intensity":25,"basin":"ep","mslp":1008,"dtg":2026082400,"year":2026,"month":"08","day":24,"hhmm":"0000","lat":12,"lon":-121,"idp_source":"EP102026_pts","ss":0,"idp_filedate":1787648553000,"idp_ingestdate":1787648655000,"binnumber":"EP5"}},{"type":"Feature","id":5804,"geometry":{"type":"Point","coordinates":[-121.30000000029969,11.70000000010009]},"properties":{"objectid":5804,"stormname":"INVEST","stormtype":"LO","stormnum":10,"intensity":30,"basin":"ep","mslp":1008,"dtg":2026082406,"year":2026,"month":"08","day":24,"hhmm":"0600","lat":12,"lon":-121,"idp_source":"EP102026_pts","ss":0,"idp_filedate":1787648553000,"idp_ingestdate":1787648655000,"binnumber":"EP5"}},{"type":"Feature","id":5805,"geometry":{"type":"Point","coordinates":[-121.30000000029969,12.500000000299906]},"properties":{"objectid":5805,"stormname":"INVEST","stormtype":"LO","stormnum":10,"intensity":30,"basin":"ep","mslp":1007,"dtg":2026082412,"year":2026,"month":"08","day":24,"hhmm":"1200","lat":12,"lon":-121,"idp_source":"EP102026_pts","ss":0,"idp_filedate":1787648553000,"idp_ingestdate":1787648655000,"binnumber":"EP5"}},{"type":"Feature","id":5806,"geometry":{"type":"Point","coordinates":[-120.99999999999989,13.100000000000136]},"properties":{"objectid":5806,"stormname":"TEN","stormtype":"TD","stormnum":10,"intensity":30,"basin":"ep","mslp":1006,"dtg":2026082418,"year":2026,"month":"08","day":24,"hhmm":"1800","lat":13,"lon":-121,"idp_source":"EP102026_pts","ss":0,"idp_filedate":1787648553000,"idp_ingestdate":1787648655000,"binnumber":"EP5"}},{"type":"Feature","id":5807,"geometry":{"type":"Point","coordinates":[-120.50000000009982,13.800000000399848]},"properties":{"objectid":5807,"stormname":"TEN","stormtype":"TD","stormnum":10,"intensity":30,"basin":"ep","mslp":1006,"dtg":2026082500,"year":2026,"month":"08","day":25,"hhmm":"0000","lat":14,"lon":-120,"idp_source":"EP102026_pts","ss":0,"idp_filedate":1787648553000,"idp_ingestdate":1787648655000,"binnumber":"EP5"}},{"type":"Feature","id":5808,"geometry":{"type":"Point","coordinates":[-119.90000000039959,14.900000000000148]},"properties":{"objectid":5808,"stormname":"JULIO","stormtype":"TS","stormnum":10,"intensity":40,"basin":"ep","mslp":1003,"dtg":2026082506,"year":2026,"month":"08","day":25,"hhmm":"0600","lat":15,"lon":-120,"idp_source":"EP102026_pts","ss":0,"idp_filedate":1787648553000,"idp_ingestdate":1787648655000,"binnumber":"EP5"}}]}