{"type":"FeatureCollection","features":[{"type":"Feature","id":180,"geometry":{"type":"LineString","coordinates":[[-120.29999999960023,14.49999999990024],[-119.60000000009984,18.400000000200009]]},"properties":{"objectid":180,"stormname":"Ten-E","stormtype":"TD","basin":"EP","advdate":"800 PM PDT Mon Aug 24 2026","advisnum":"2","fcstprd":120,"stormnum":10,"idp_source":"ep102026-002_5day_lin","idp_filedate":1787648553000,"idp_ingestdate":1787648646000,"st_length(shape)":3.9623225514385814,"binnumber":"EP5"}}]}