{"type": "FeatureCollection", "features": [{"type": "Feature", "id": 3795, "geometry": {"type": "Point", "coordinates": [-145.49999999960022, 22.90000000020001]}, "properties": {"objectid": 3795, "stormname": "Tropical Storm Karina", "stormtype": "TS", "dvlbl": "S", "basin": "EP", "advdate": "1100 AM HST Sun Sep 06 2026", "advisnum": "42", "fcstprd": 120, "gust": 55, "maxwind": 45, "mslp": 996, "ssnum": 0, "datelbl": "11:00 AM Sun", "tcdvlp": "Tropical Storm", "tcdir": 300, "tcspd": 5, "fldatelbl": "2026-09-06 8:00 AM Sun HST", "lat": 23, "lon": -146, "stormnum": 11, "stormsrc": "Tropical Cyclone", "tau": 0, "timezone": "HST", "validtime": "06/1800", "idp_source": "ep112026-042_5day_pts", "idp_filedate": 1788728588000, "idp_ingestdate": 1788728800000, "binnumber": "CP5", "MAXWIND": 45, "VALIDTIME": "06/1800"}}, {"type": "Feature", "id": 3796, "geometry": {"type": "Point", "coordinates": [-146.6999999999, 23.000000000000114]}, "properties": {"objectid": 3796, "stormname": "Tropical Storm Karina", "stormtype": "STS", "dvlbl": "S", "basin": "EP", "advdate": "1100 AM HST Sun Sep 06 2026", "advisnum": "42", "fcstprd": 120, "gust": 50, "maxwind": 40, "mslp": 9999, "ssnum": 0, "datelbl": "8:00 PM Sun", "tcdvlp": "Subtropical Storm", "tcdir": 9999, "tcspd": 9999, "fldatelbl": "2026-09-06 8:00 PM Sun HST", "lat": 23, "lon": -147, "stormnum": 11, "stormsrc": "Post-Tropical Cyclone", "tau": 12, "timezone": "HST", "validtime": "07/0600", "idp_source": "ep112026-042_5day_pts", "idp_filedate": 1788728588000, "idp_ingestdate": 1788728800000, "binnumber": "CP5", "MAXWIND": 40, "VALIDTIME": "07/0600"}}, {"type": "Feature", "id": 3797, "geometry": {"type": "Point", "coordinates": [-148.80000000019976, 23.300000000299917]}, "properties": {"objectid": 3797, "stormname": "Tropical Storm Karina", "stormtype": "STS", "dvlbl": "S", "basin": "EP", "advdate": "1100 AM HST Sun Sep 06 2026", "advisnum": "42", "fcstprd": 120, "gust": 45, "maxwind": 35, "mslp": 9999, "ssnum": 0, "datelbl": "8:00 AM Mon", "tcdvlp": "Subtropical Storm", "tcdir": 9999, "tcspd": 9999, "fldatelbl": "2026-09-07 8:00 AM Mon HST", "lat": 23, "lon": -149, "stormnum": 11, "stormsrc": "Post-Tropical Cyclone", "tau": 24, "timezone": "HST", "validtime": "07/1800", "idp_source": "ep112026-042_5day_pts", "idp_filedate": 1788728588000, "idp_ingestdate": 1788728800000, "binnumber": "CP5", "MAXWIND": 35, "VALIDTIME": "07/1800"}}, {"type": "Feature", "id": 3798, "geometry": {"type": "Point", "coordinates": [-151.50000000019978, 23.900000000000148]}, "properties": {"objectid": 3798, "stormname": "Tropical Storm Karina", "stormtype": "STD", "dvlbl": "D", "basin": "EP", "advdate": "1100 AM HST Sun Sep 06 2026", "advisnum": "42", "fcstprd": 120, "gust": 40, "maxwind": 30, "mslp": 9999, "ssnum": 0, "datelbl": "8:00 PM Mon", "tcdvlp": "Subtropical Depression", "tcdir": 9999, "tcspd": 9999, "fldatelbl": "2026-09-07 8:00 PM Mon HST", "lat": 24, "lon": -152, "stormnum": 11, "stormsrc": "Post-Tropical Cyclone", "tau": 36, "timezone": "HST", "validtime": "08/0600", "idp_source": "ep112026-042_5day_pts", "idp_filedate": 1788728588000, "idp_ingestdate": 1788728800000, "binnumber": "CP5", "MAXWIND": 30, "VALIDTIME": "08/0600"}}]}