{"type":"FeatureCollection","features":[{"type":"Feature","id":1664,"geometry":{"type":"LineString","coordinates":[[-103.80000000019976,8.6000000000001364],[-104.39999999989999,8.6999999998002977],[-104.7999999999999,8.799999999600459],[-105.29999999989997,8.9000000002998831],[-106.00000000029968,9.0000000001000444],[-106.59999999999991,9.0000000001000444],[-107.00000000009982,9.0999999999002057],[-107.80000000029969,9.4000000002000093],[-108.70000000029967,9.5000000000001137],[-109.70000000009981,9.5000000000001137],[-110.6999999999,9.9999999999002398],[-111.50000000009982,10.800000000100056]]},"properties":{"objectid":1664,"stormtype":"DB","stormnum":11,"ss":0,"idp_source":"EP112026_lin","idp_filedate":1787887378000,"idp_ingestdate":1787887464000,"st_length(shape)":8.2592498376979204,"binnumber":"EP1"}},{"type":"Feature","id":1665,"geometry":{"type":"LineString","coordinates":[[-111.50000000009982,10.800000000100056],[-112.30000000029969,11.600000000299929]]},"properties":{"objectid":1665,"stormtype":"DB","stormnum":11,"ss":0,"idp_source":"EP112026_lin","idp_filedate":1787887378000,"idp_ingestdate":1787887464000,"st_length(shape)":1.1313708501811388,"binnumber":"EP1"}}]}