{"type":"FeatureCollection","features":[{"type":"Feature","id":15384,"geometry":{"type":"Point","coordinates":[-135.2000000003996,19.499999999800309]},"properties":{"objectid":15384,"stormname":"KARINA","stormtype":"HU","stormnum":11,"intensity":105,"basin":"ep","mslp":957,"dtg":2026090306,"year":2026,"month":"09","day":3,"hhmm":"0600","lat":20,"lon":-135,"ss":3,"idp_source":"EP112026_pts","idp_filedate":1788729189000,"idp_ingestdate":1788729339000,"binnumber":"CP5"}},{"type":"Feature","id":15385,"geometry":{"type":"Point","coordinates":[-136.20000000019974,19.700000000299895]},"properties":{"objectid":15385,"stormname":"KARINA","stormtype":"HU","stormnum":11,"intensity":100,"basin":"ep","mslp":961,"dtg":2026090312,"year":2026,"month":"09","day":3,"hhmm":"1200","lat":20,"lon":-136,"ss":3,"idp_source":"EP112026_pts","idp_filedate":1788729189000,"idp_ingestdate":1788729339000,"binnumber":"CP5"}},{"type":"Feature","id":15386,"geometry":{"type":"Point","coordinates":[-137.19999999999993,19.700000000299895]},"properties":{"objectid":15386,"stormname":"KARINA","stormtype":"HU","stormnum":11,"intensity":90,"basin":"ep","mslp":969,"dtg":2026090318,"year":2026,"month":"09","day":3,"hhmm":"1800","lat":20,"lon":-137,"ss":2,"idp_source":"EP112026_pts","idp_filedate":1788729189000,"idp_ingestdate":1788729339000,"binnumber":"CP5"}},{"type":"Feature","id":15387,"geometry":{"type":"Point","coordinates":[-138.00000000019975,19.999999999700378]},"properties":{"objectid":15387,"stormname":"KARINA","stormtype":"HU","stormnum":11,"intensity":90,"basin":"ep","mslp":969,"dtg":2026090400,"year":2026,"month":"09","day":4,"hhmm":"0000","lat":20,"lon":-138,"ss":2,"idp_source":"EP112026_pts","idp_filedate":1788729189000,"idp_ingestdate":1788729339000,"binnumber":"CP5"}},{"type":"Feature","id":15388,"geometry":{"type":"Point","coordinates":[-138.90000000019978,20.300000000000125]},"properties":{"objectid":15388,"stormname":"KARINA","stormtype":"HU","stormnum":11,"intensity":85,"basin":"ep","mslp":972,"dtg":2026090406,"year":2026,"month":"09","day":4,"hhmm":"0600","lat":20,"lon":-139,"ss":2,"idp_source":"EP112026_pts","idp_filedate":1788729189000,"idp_ingestdate":1788729339000,"binnumber":"CP5"}},{"type":"Feature","id":15389,"geometry":{"type":"Point","coordinates":[-139.89999999999992,20.300000000000125]},"properties":{"objectid":15389,"stormname":"KARINA","stormtype":"HU","stormnum":11,"intensity":85,"basin":"ep","mslp":972,"dtg":2026090412,"year":2026,"month":"09","day":4,"hhmm":"1200","lat":20,"lon":-140,"ss":2,"idp_source":"EP112026_pts","idp_filedate":1788729189000,"idp_ingestdate":1788729339000,"binnumber":"CP5"}},{"type":"Feature","id":15390,"geometry":{"type":"Point","coordinates":[-140.70000000019974,20.399999999800286]},"properties":{"objectid":15390,"stormname":"KARINA","stormtype":"HU","stormnum":11,"intensity":75,"basin":"ep","mslp":978,"dtg":2026090418,"year":2026,"month":"09","day":4,"hhmm":"1800","lat":20,"lon":-141,"ss":1,"idp_source":"EP112026_pts","idp_filedate":1788729189000,"idp_ingestdate":1788729339000,"binnumber":"CP5"}},{"type":"Feature","id":15391,"geometry":{"type":"Point","coordinates":[-141.60000000019977,20.600000000299929]},"properties":{"objectid":15391,"stormname":"KARINA","stormtype":"HU","stormnum":11,"intensity":75,"basin":"ep","mslp":978,"dtg":2026090500,"year":2026,"month":"09","day":5,"hhmm":"0000","lat":21,"lon":-142,"ss":1,"idp_source":"EP112026_pts","idp_filedate":1788729189000,"idp_ingestdate":1788729339000,"binnumber":"CP5"}},{"type":"Feature","id":15392,"geometry":{"type":"Point","coordinates":[-142.1999999999,21.200000000000159]},"properties":{"objectid":15392,"stormname":"KARINA","stormtype":"HU","stormnum":11,"intensity":65,"basin":"ep","mslp":984,"dtg":2026090506,"year":2026,"month":"09","day":5,"hhmm":"0600","lat":21,"lon":-142,"ss":1,"idp_source":"EP112026_pts","idp_filedate":1788729189000,"idp_ingestdate":1788729339000,"binnumber":"CP5"}},{"type":"Feature","id":15393,"geometry":{"type":"Point","coordinates":[-142.69999999980007,21.399999999600425]},"properties":{"objectid":15393,"stormname":"KARINA","stormtype":"HU","stormnum":11,"intensity":65,"basin":"ep","mslp":985,"dtg":2026090512,"year":2026,"month":"09","day":5,"hhmm":"1200","lat":21,"lon":-143,"ss":1,"idp_source":"EP112026_pts","idp_filedate":1788729189000,"idp_ingestdate":1788729339000,"binnumber":"CP5"}},{"type":"Feature","id":15394,"geometry":{"type":"Point","coordinates":[-143.30000000039962,21.500000000299906]},"properties":{"objectid":15394,"stormname":"KARINA","stormtype":"TS","stormnum":11,"intensity":60,"basin":"ep","mslp":988,"dtg":2026090518,"year":2026,"month":"09","day":5,"hhmm":"1800","lat":22,"lon":-143,"ss":0,"idp_source":"EP112026_pts","idp_filedate":1788729189000,"idp_ingestdate":1788729339000,"binnumber":"CP5"}},{"type":"Feature","id":15395,"geometry":{"type":"Point","coordinates":[-143.69999999960021,21.79999999970039]},"properties":{"objectid":15395,"stormname":"KARINA","stormtype":"TS","stormnum":11,"intensity":55,"basin":"ep","mslp":990,"dtg":2026090600,"year":2026,"month":"09","day":6,"hhmm":"0000","lat":22,"lon":-144,"ss":0,"idp_source":"EP112026_pts","idp_filedate":1788729189000,"idp_ingestdate":1788729339000,"binnumber":"CP5"}},{"type":"Feature","id":15396,"geometry":{"type":"Point","coordinates":[-144.09999999970015,22.199999999800298]},"properties":{"objectid":15396,"stormname":"KARINA","stormtype":"TS","stormnum":11,"intensity":55,"basin":"ep","mslp":990,"dtg":2026090606,"year":2026,"month":"09","day":6,"hhmm":"0600","lat":22,"lon":-144,"ss":0,"idp_source":"EP112026_pts","idp_filedate":1788729189000,"idp_ingestdate":1788729339000,"binnumber":"CP5"}},{"type":"Feature","id":15397,"geometry":{"type":"Point","coordinates":[-144.7000000002997,22.599999999900206]},"properties":{"objectid":15397,"stormname":"KARINA","stormtype":"TS","stormnum":11,"intensity":50,"basin":"ep","mslp":992,"dtg":2026090612,"year":2026,"month":"09","day":6,"hhmm":"1200","lat":23,"lon":-145,"ss":0,"idp_source":"EP112026_pts","idp_filedate":1788729189000,"idp_ingestdate":1788729339000,"binnumber":"CP5"}},{"type":"Feature","id":15398,"geometry":{"type":"Point","coordinates":[-145.1000000003996,22.800000000399848]},"properties":{"objectid":15398,"stormname":"KARINA","stormtype":"TS","stormnum":11,"intensity":45,"basin":"ep","mslp":996,"dtg":2026090618,"year":2026,"month":"09","day":6,"hhmm":"1800","lat":23,"lon":-145,"ss":0,"idp_source":"EP112026_pts","idp_filedate":1788729189000,"idp_ingestdate":1788729339000,"binnumber":"CP5"}},{"type":"Feature","id":15347,"geometry":{"type":"Point","coordinates":[-103.80000000019976,8.6000000000001364]},"properties":{"objectid":15347,"stormname":"GENESIS019","stormtype":"DB","stormnum":11,"intensity":15,"basin":"ep","mslp":1008,"dtg":2026082500,"year":2026,"month":"08","day":25,"hhmm":"0000","lat":9,"lon":-104,"ss":0,"idp_source":"EP112026_pts","idp_filedate":1788729189000,"idp_ingestdate":1788729339000,"binnumber":"CP5"}},{"type":"Feature","id":15348,"geometry":{"type":"Point","coordinates":[-104.39999999989999,8.6999999998002977]},"properties":{"objectid":15348,"stormname":"GENESIS019","stormtype":"DB","stormnum":11,"intensity":15,"basin":"ep","mslp":1008,"dtg":2026082506,"year":2026,"month":"08","day":25,"hhmm":"0600","lat":9,"lon":-104,"ss":0,"idp_source":"EP112026_pts","idp_filedate":1788729189000,"idp_ingestdate":1788729339000,"binnumber":"CP5"}},{"type":"Feature","id":15349,"geometry":{"type":"Point","coordinates":[-104.7999999999999,8.799999999600459]},"properties":{"objectid":15349,"stormname":"GENESIS019","stormtype":"DB","stormnum":11,"intensity":15,"basin":"ep","mslp":1008,"dtg":2026082512,"year":2026,"month":"08","day":25,"hhmm":"1200","lat":9,"lon":-105,"ss":0,"idp_source":"EP112026_pts","idp_filedate":1788729189000,"idp_ingestdate":1788729339000,"binnumber":"CP5"}},{"type":"Feature","id":15350,"geometry":{"type":"Point","coordinates":[-105.29999999989997,8.9000000002998831]},"properties":{"objectid":15350,"stormname":"GENESIS019","stormtype":"DB","stormnum":11,"intensity":15,"basin":"ep","mslp":1008,"dtg":2026082518,"year":2026,"month":"08","day":25,"hhmm":"1800","lat":9,"lon":-105,"ss":0,"idp_source":"EP112026_pts","idp_filedate":1788729189000,"idp_ingestdate":1788729339000,"binnumber":"CP5"}},{"type":"Feature","id":15351,"geometry":{"type":"Point","coordinates":[-106.00000000029968,9.0000000001000444]},"properties":{"objectid":15351,"stormname":"INVEST","stormtype":"DB","stormnum":11,"intensity":20,"basin":"ep","mslp":1007,"dtg":2026082600,"year":2026,"month":"08","day":26,"hhmm":"0000","lat":9,"lon":-106,"ss":0,"idp_source":"EP112026_pts","idp_filedate":1788729189000,"idp_ingestdate":1788729339000,"binnumber":"CP5"}},{"type":"Feature","id":15352,"geometry":{"type":"Point","coordinates":[-106.59999999999991,9.0000000001000444]},"properties":{"objectid":15352,"stormname":"INVEST","stormtype":"DB","stormnum":11,"intensity":20,"basin":"ep","mslp":1007,"dtg":2026082606,"year":2026,"month":"08","day":26,"hhmm":"0600","lat":9,"lon":-107,"ss":0,"idp_source":"EP112026_pts","idp_filedate":1788729189000,"idp_ingestdate":1788729339000,"binnumber":"CP5"}},{"type":"Feature","id":15353,"geometry":{"type":"Point","coordinates":[-107.00000000009982,9.0999999999002057]},"properties":{"objectid":15353,"stormname":"INVEST","stormtype":"DB","stormnum":11,"intensity":25,"basin":"ep","mslp":1007,"dtg":2026082612,"year":2026,"month":"08","day":26,"hhmm":"1200","lat":9,"lon":-107,"ss":0,"idp_source":"EP112026_pts","idp_filedate":1788729189000,"idp_ingestdate":1788729339000,"binnumber":"CP5"}},{"type":"Feature","id":15354,"geometry":{"type":"Point","coordinates":[-107.80000000029969,9.4000000002000093]},"properties":{"objectid":15354,"stormname":"INVEST","stormtype":"DB","stormnum":11,"intensity":25,"basin":"ep","mslp":1007,"dtg":2026082618,"year":2026,"month":"08","day":26,"hhmm":"1800","lat":9,"lon":-108,"ss":0,"idp_source":"EP112026_pts","idp_filedate":1788729189000,"idp_ingestdate":1788729339000,"binnumber":"CP5"}},{"type":"Feature","id":15355,"geometry":{"type":"Point","coordinates":[-108.70000000029967,9.5000000000001137]},"properties":{"objectid":15355,"stormname":"INVEST","stormtype":"DB","stormnum":11,"intensity":25,"basin":"ep","mslp":1006,"dtg":2026082700,"year":2026,"month":"08","day":27,"hhmm":"0000","lat":10,"lon":-109,"ss":0,"idp_source":"EP112026_pts","idp_filedate":1788729189000,"idp_ingestdate":1788729339000,"binnumber":"CP5"}},{"type":"Feature","id":15356,"geometry":{"type":"Point","coordinates":[-109.70000000009981,9.5000000000001137]},"properties":{"objectid":15356,"stormname":"INVEST","stormtype":"DB","stormnum":11,"intensity":30,"basin":"ep","mslp":1006,"dtg":2026082706,"year":2026,"month":"08","day":27,"hhmm":"0600","lat":10,"lon":-110,"ss":0,"idp_source":"EP112026_pts","idp_filedate":1788729189000,"idp_ingestdate":1788729339000,"binnumber":"CP5"}},{"type":"Feature","id":15357,"geometry":{"type":"Point","coordinates":[-110.6999999999,9.9999999999002398]},"properties":{"objectid":15357,"stormname":"INVEST","stormtype":"DB","stormnum":11,"intensity":30,"basin":"ep","mslp":1006,"dtg":2026082712,"year":2026,"month":"08","day":27,"hhmm":"1200","lat":10,"lon":-111,"ss":0,"idp_source":"EP112026_pts","idp_filedate":1788729189000,"idp_ingestdate":1788729339000,"binnumber":"CP5"}},{"type":"Feature","id":15358,"geometry":{"type":"Point","coordinates":[-111.50000000009982,10.800000000100056]},"properties":{"objectid":15358,"stormname":"KARINA","stormtype":"TS","stormnum":11,"intensity":40,"basin":"ep","mslp":1001,"dtg":2026082718,"year":2026,"month":"08","day":27,"hhmm":"1800","lat":11,"lon":-112,"ss":0,"idp_source":"EP112026_pts","idp_filedate":1788729189000,"idp_ingestdate":1788729339000,"binnumber":"CP5"}},{"type":"Feature","id":15359,"geometry":{"type":"Point","coordinates":[-112.59999999970012,11.70000000010009]},"properties":{"objectid":15359,"stormname":"KARINA","stormtype":"TS","stormnum":11,"intensity":45,"basin":"ep","mslp":1000,"dtg":2026082800,"year":2026,"month":"08","day":28,"hhmm":"0000","lat":12,"lon":-113,"ss":0,"idp_source":"EP112026_pts","idp_filedate":1788729189000,"idp_ingestdate":1788729339000,"binnumber":"CP5"}},{"type":"Feature","id":15360,"geometry":{"type":"Point","coordinates":[-113.89999999980006,12.399999999600425]},"properties":{"objectid":15360,"stormname":"KARINA","stormtype":"TS","stormnum":11,"intensity":45,"basin":"ep","mslp":999,"dtg":2026082806,"year":2026,"month":"08","day":28,"hhmm":"0600","lat":12,"lon":-114,"ss":0,"idp_source":"EP112026_pts","idp_filedate":1788729189000,"idp_ingestdate":1788729339000,"binnumber":"CP5"}},{"type":"Feature","id":15361,"geometry":{"type":"Point","coordinates":[-114.69999999999993,12.900000000399814]},"properties":{"objectid":15361,"stormname":"KARINA","stormtype":"TS","stormnum":11,"intensity":50,"basin":"ep","mslp":995,"dtg":2026082812,"year":2026,"month":"08","day":28,"hhmm":"1200","lat":13,"lon":-115,"ss":0,"idp_source":"EP112026_pts","idp_filedate":1788729189000,"idp_ingestdate":1788729339000,"binnumber":"CP5"}},{"type":"Feature","id":15362,"geometry":{"type":"Point","coordinates":[-115.1999999999,13.40000000029994]},"properties":{"objectid":15362,"stormname":"KARINA","stormtype":"TS","stormnum":11,"intensity":55,"basin":"ep","mslp":990,"dtg":2026082818,"year":2026,"month":"08","day":28,"hhmm":"1800","lat":13,"lon":-115,"ss":0,"idp_source":"EP112026_pts","idp_filedate":1788729189000,"idp_ingestdate":1788729339000,"binnumber":"CP5"}},{"type":"Feature","id":15363,"geometry":{"type":"Point","coordinates":[-115.90000000029966,13.900000000200009]},"properties":{"objectid":15363,"stormname":"KARINA","stormtype":"TS","stormnum":11,"intensity":55,"basin":"ep","mslp":988,"dtg":2026082900,"year":2026,"month":"08","day":29,"hhmm":"0000","lat":14,"lon":-116,"ss":0,"idp_source":"EP112026_pts","idp_filedate":1788729189000,"idp_ingestdate":1788729339000,"binnumber":"CP5"}},{"type":"Feature","id":15364,"geometry":{"type":"Point","coordinates":[-116.59999999980005,14.400000000100079]},"properties":{"objectid":15364,"stormname":"KARINA","stormtype":"TS","stormnum":11,"intensity":55,"basin":"ep","mslp":989,"dtg":2026082906,"year":2026,"month":"08","day":29,"hhmm":"0600","lat":14,"lon":-117,"ss":0,"idp_source":"EP112026_pts","idp_filedate":1788729189000,"idp_ingestdate":1788729339000,"binnumber":"CP5"}},{"type":"Feature","id":15365,"geometry":{"type":"Point","coordinates":[-117.2000000003996,15.300000000100056]},"properties":{"objectid":15365,"stormname":"KARINA","stormtype":"TS","stormnum":11,"intensity":55,"basin":"ep","mslp":989,"dtg":2026082912,"year":2026,"month":"08","day":29,"hhmm":"1200","lat":15,"lon":-117,"ss":0,"idp_source":"EP112026_pts","idp_filedate":1788729189000,"idp_ingestdate":1788729339000,"binnumber":"CP5"}},{"type":"Feature","id":15366,"geometry":{"type":"Point","coordinates":[-118.2999999999999,16.100000000299929]},"properties":{"objectid":15366,"stormname":"KARINA","stormtype":"TS","stormnum":11,"intensity":60,"basin":"ep","mslp":987,"dtg":2026082918,"year":2026,"month":"08","day":29,"hhmm":"1800","lat":16,"lon":-118,"ss":0,"idp_source":"EP112026_pts","idp_filedate":1788729189000,"idp_ingestdate":1788729339000,"binnumber":"CP5"}},{"type":"Feature","id":15367,"geometry":{"type":"Point","coordinates":[-119.60000000009984,16.700000000000159]},"properties":{"objectid":15367,"stormname":"KARINA","stormtype":"TS","stormnum":11,"intensity":60,"basin":"ep","mslp":987,"dtg":2026083000,"year":2026,"month":"08","day":30,"hhmm":"0000","lat":17,"lon":-120,"ss":0,"idp_source":"EP112026_pts","idp_filedate":1788729189000,"idp_ingestdate":1788729339000,"binnumber":"CP5"}},{"type":"Feature","id":15368,"geometry":{"type":"Point","coordinates":[-120.69999999970014,17.199999999900228]},"properties":{"objectid":15368,"stormname":"KARINA","stormtype":"HU","stormnum":11,"intensity":65,"basin":"ep","mslp":983,"dtg":2026083006,"year":2026,"month":"08","day":30,"hhmm":"0600","lat":17,"lon":-121,"ss":1,"idp_source":"EP112026_pts","idp_filedate":1788729189000,"idp_ingestdate":1788729339000,"binnumber":"CP5"}},{"type":"Feature","id":15369,"geometry":{"type":"Point","coordinates":[-121.7000000003996,17.29999999970039]},"properties":{"objectid":15369,"stormname":"KARINA","stormtype":"HU","stormnum":11,"intensity":70,"basin":"ep","mslp":980,"dtg":2026083012,"year":2026,"month":"08","day":30,"hhmm":"1200","lat":17,"lon":-122,"ss":1,"idp_source":"EP112026_pts","idp_filedate":1788729189000,"idp_ingestdate":1788729339000,"binnumber":"CP5"}},{"type":"Feature","id":15370,"geometry":{"type":"Point","coordinates":[-122.39999999989999,17.100000000100067]},"properties":{"objectid":15370,"stormname":"KARINA","stormtype":"HU","stormnum":11,"intensity":80,"basin":"ep","mslp":973,"dtg":2026083018,"year":2026,"month":"08","day":30,"hhmm":"1800","lat":17,"lon":-122,"ss":1,"idp_source":"EP112026_pts","idp_filedate":1788729189000,"idp_ingestdate":1788729339000,"binnumber":"CP5"}},{"type":"Feature","id":15371,"geometry":{"type":"Point","coordinates":[-123.29999999989997,17.100000000100067]},"properties":{"objectid":15371,"stormname":"KARINA","stormtype":"HU","stormnum":11,"intensity":110,"basin":"ep","mslp":954,"dtg":2026083100,"year":2026,"month":"08","day":31,"hhmm":"0000","lat":17,"lon":-123,"ss":3,"idp_source":"EP112026_pts","idp_filedate":1788729189000,"idp_ingestdate":1788729339000,"binnumber":"CP5"}},{"type":"Feature","id":15372,"geometry":{"type":"Point","coordinates":[-124.00000000029968,17.199999999900228]},"properties":{"objectid":15372,"stormname":"KARINA","stormtype":"HU","stormnum":11,"intensity":120,"basin":"ep","mslp":945,"dtg":2026083106,"year":2026,"month":"08","day":31,"hhmm":"0600","lat":17,"lon":-124,"ss":4,"idp_source":"EP112026_pts","idp_filedate":1788729189000,"idp_ingestdate":1788729339000,"binnumber":"CP5"}},{"type":"Feature","id":15373,"geometry":{"type":"Point","coordinates":[-124.69999999980007,17.29999999970039]},"properties":{"objectid":15373,"stormname":"KARINA","stormtype":"HU","stormnum":11,"intensity":120,"basin":"ep","mslp":945,"dtg":2026083112,"year":2026,"month":"08","day":31,"hhmm":"1200","lat":17,"lon":-125,"ss":4,"idp_source":"EP112026_pts","idp_filedate":1788729189000,"idp_ingestdate":1788729339000,"binnumber":"CP5"}},{"type":"Feature","id":15374,"geometry":{"type":"Point","coordinates":[-125.40000000019978,17.400000000399814]},"properties":{"objectid":15374,"stormname":"KARINA","stormtype":"HU","stormnum":11,"intensity":115,"basin":"ep","mslp":950,"dtg":2026083118,"year":2026,"month":"08","day":31,"hhmm":"1800","lat":17,"lon":-125,"ss":4,"idp_source":"EP112026_pts","idp_filedate":1788729189000,"idp_ingestdate":1788729339000,"binnumber":"CP5"}},{"type":"Feature","id":15375,"geometry":{"type":"Point","coordinates":[-126.30000000019976,17.699999999800298]},"properties":{"objectid":15375,"stormname":"KARINA","stormtype":"HU","stormnum":11,"intensity":115,"basin":"ep","mslp":950,"dtg":2026090100,"year":2026,"month":"09","day":1,"hhmm":"0000","lat":18,"lon":-126,"ss":4,"idp_source":"EP112026_pts","idp_filedate":1788729189000,"idp_ingestdate":1788729339000,"binnumber":"CP5"}},{"type":"Feature","id":15376,"geometry":{"type":"Point","coordinates":[-127.39999999980006,18.000000000100044]},"properties":{"objectid":15376,"stormname":"KARINA","stormtype":"HU","stormnum":11,"intensity":120,"basin":"ep","mslp":945,"dtg":2026090106,"year":2026,"month":"09","day":1,"hhmm":"0600","lat":18,"lon":-127,"ss":4,"idp_source":"EP112026_pts","idp_filedate":1788729189000,"idp_ingestdate":1788729339000,"binnumber":"CP5"}},{"type":"Feature","id":15377,"geometry":{"type":"Point","coordinates":[-128.50000000029968,18.000000000100044]},"properties":{"objectid":15377,"stormname":"KARINA","stormtype":"HU","stormnum":11,"intensity":120,"basin":"ep","mslp":945,"dtg":2026090112,"year":2026,"month":"09","day":1,"hhmm":"1200","lat":18,"lon":-128,"ss":4,"idp_source":"EP112026_pts","idp_filedate":1788729189000,"idp_ingestdate":1788729339000,"binnumber":"CP5"}},{"type":"Feature","id":15378,"geometry":{"type":"Point","coordinates":[-129.40000000029966,18.099999999900206]},"properties":{"objectid":15378,"stormname":"KARINA","stormtype":"HU","stormnum":11,"intensity":115,"basin":"ep","mslp":949,"dtg":2026090118,"year":2026,"month":"09","day":1,"hhmm":"1800","lat":18,"lon":-129,"ss":4,"idp_source":"EP112026_pts","idp_filedate":1788729189000,"idp_ingestdate":1788729339000,"binnumber":"CP5"}},{"type":"Feature","id":15379,"geometry":{"type":"Point","coordinates":[-130.30000000029969,18.199999999700367]},"properties":{"objectid":15379,"stormname":"KARINA","stormtype":"HU","stormnum":11,"intensity":120,"basin":"ep","mslp":946,"dtg":2026090200,"year":2026,"month":"09","day":2,"hhmm":"0000","lat":18,"lon":-130,"ss":4,"idp_source":"EP112026_pts","idp_filedate":1788729189000,"idp_ingestdate":1788729339000,"binnumber":"CP5"}},{"type":"Feature","id":15380,"geometry":{"type":"Point","coordinates":[-131.20000000029967,18.500000000000114]},"properties":{"objectid":15380,"stormname":"KARINA","stormtype":"HU","stormnum":11,"intensity":125,"basin":"ep","mslp":940,"dtg":2026090206,"year":2026,"month":"09","day":2,"hhmm":"0600","lat":18,"lon":-131,"ss":4,"idp_source":"EP112026_pts","idp_filedate":1788729189000,"idp_ingestdate":1788729339000,"binnumber":"CP5"}},{"type":"Feature","id":15381,"geometry":{"type":"Point","coordinates":[-132.29999999989997,18.699999999600436]},"properties":{"objectid":15381,"stormname":"KARINA","stormtype":"HU","stormnum":11,"intensity":125,"basin":"ep","mslp":940,"dtg":2026090212,"year":2026,"month":"09","day":2,"hhmm":"1200","lat":19,"lon":-132,"ss":4,"idp_source":"EP112026_pts","idp_filedate":1788729189000,"idp_ingestdate":1788729339000,"binnumber":"CP5"}},{"type":"Feature","id":15382,"geometry":{"type":"Point","coordinates":[-133.29999999970016,18.800000000299917]},"properties":{"objectid":15382,"stormname":"KARINA","stormtype":"HU","stormnum":11,"intensity":120,"basin":"ep","mslp":943,"dtg":2026090218,"year":2026,"month":"09","day":2,"hhmm":"1800","lat":19,"lon":-133,"ss":4,"idp_source":"EP112026_pts","idp_filedate":1788729189000,"idp_ingestdate":1788729339000,"binnumber":"CP5"}},{"type":"Feature","id":15383,"geometry":{"type":"Point","coordinates":[-134.19999999970014,19.200000000399825]},"properties":{"objectid":15383,"stormname":"KARINA","stormtype":"HU","stormnum":11,"intensity":115,"basin":"ep","mslp":947,"dtg":2026090300,"year":2026,"month":"09","day":3,"hhmm":"0000","lat":19,"lon":-134,"ss":4,"idp_source":"EP112026_pts","idp_filedate":1788729189000,"idp_ingestdate":1788729339000,"binnumber":"CP5"}}]}