{"type":"FeatureCollection","features":[{"type":"Feature","id":473,"geometry":{"type":"Polygon","coordinates":[[[-147.19794000013081,22.583160000333862],[-147.18172000037762,22.581010000111576],[-147.16424999963769,22.57963999988624],[-147.14525999984903,22.578859999889232],[-147.1252099997416,22.578520000397816],[-147.10433999959122,22.578429999844786],[-147.08308000034165,22.578429999844786],[-147.06161000040112,22.578429999844786],[-147.04019000006838,22.578429999844786],[-147.01872000012781,22.578429999844786],[-146.99727000021025,22.578429999844786],[-146.97582999985451,22.578429999844786],[-146.95439000039812,22.578429999844786],[-146.93293999958124,22.578429999844786],[-146.91150000012482,22.578429999844786],[-146.89005000020725,22.578429999844786],[-146.86860999985151,22.578429999844786],[-146.84717000039512,22.578429999844786],[-146.82571000001641,22.578429999844786],[-146.80428000012182,22.578429999844786],[-146.78281000018129,22.578429999844786],[-146.76138000028669,22.578429999844786],[-146.73991000034616,22.578429999844786],[-146.71846000042859,22.578429999844786],[-146.69702000007285,22.578429999844786],[-146.67557999971712,22.578429999844786],[-146.65412999979958,22.578429999844786],[-146.63269000034316,22.578429999844786],[-146.6112400004256,22.578429999844786],[-146.58980000006986,22.578429999844786],[-146.56833000012932,22.578429999844786],[-146.54690999979658,22.578429999844786],[-146.52543999985602,22.578429999844786],[-146.50398000037663,22.578429999844786],[-146.48254000002089,22.578429999844786],[-146.46109000010333,22.578429999844786],[-146.43964999974762,22.578429999844786],[-146.4182100002912,22.578429999844786],[-146.39676999993546,22.578429999844786],[-146.37532000001789,22.578429999844786],[-146.35385000007736,22.578429999844786],[-146.33242999974462,22.578429999844786],[-146.31095999980406,22.578429999844786],[-146.28950999988649,22.578429999844786],[-146.26816000008384,22.578520000397816],[-146.24706000011884,22.578859999889232],[-146.22637999973711,22.57963999988624],[-146.21652000009783,22.580499999975132],[-146.18700999991148,22.583160000333862],[-146.16839999966018,22.585990000438301],[-146.15012000023773,22.589169999595924],[-146.13187000040011,22.592349999652924],[-146.11324000012581,22.595190000218452],[-146.09392999996945,22.597340000440795],[-146.07385000027722,22.598709999766811],[-146.06338999994844,22.598970000065606],[-146.03206999993046,22.599830000154498],[-146.01070000010483,22.599919999808264],[-145.98925999974909,22.599919999808264],[-145.96790000038462,22.599999999900206],[-145.95742999959472,22.600260000199],[-145.92612000003788,22.601120000287949],[-145.91626000039861,22.601980000376841],[-145.89660999985153,22.60377999974736],[-145.86813000039911,22.607480000401836],[-145.84985000007737,22.610659999559459],[-145.83158999977857,22.613839999616403],[-145.81296000040362,22.616669999720841],[-145.79365999980905,22.618819999943184],[-145.78345000021724,22.619339999641397],[-145.75289999973512,22.620970000165528],[-145.74226000009884,22.621059999819295],[-145.71044999996744,22.621400000209974],[-145.6890099996117,22.621400000209974],[-145.66755999969413,22.621400000209974],[-145.64620999989151,22.621489999863741],[-145.63573000043908,22.62173999970139],[-145.60443000044407,22.622599999790282],[-145.58434999985252,22.623979999577443],[-145.5650500001573,22.626129999799787],[-145.54643000034415,22.628959999904225],[-145.52815000002241,22.632139999961169],[-145.5099800002767,22.635409999671879],[-145.49169999995496,22.638589999728822],[-145.47318000025672,22.641510000386347],[-145.45446999989051,22.644260000398845],[-145.43599999980006,22.64726999981076],[-145.42719000001841,22.649159999734366],[-145.4007599997741,22.654909999596953],[-145.3927000004046,22.657580000416829],[-145.36861000015131,22.665659999809293],[-145.35385000027722,22.672360000313915],[-145.33994000003088,22.67992000000811],[-145.32070999996645,22.692899999635415],[-145.30905000005737,22.70270000010504],[-145.29790999984652,22.713009999811788],[-145.28741000037112,22.724009999861721],[-145.27730999955673,22.73535000030239],[-145.26787999996193,22.747380000186979],[-145.25476000017377,22.766459999629433],[-145.2505500002822,22.772990000388347],[-145.24659999979008,22.779779999647417],[-145.23543999955626,22.800830000004623],[-145.22857999976708,22.815440000156002],[-145.22241000032116,22.830739999751302],[-145.21529999979506,22.855659999609429],[-145.21348999996343,22.864080000291949],[-145.21100000024973,22.881869999600951],[-145.21032999992946,22.909970000415342],[-145.21205000010733,22.92818999976879],[-145.21383999991599,22.93660999955199],[-145.21777000038512,22.953799999970158],[-145.22549000026322,22.978289999783783],[-145.23202999968464,22.993240000325898],[-145.23904000009586,23.007679999832249],[-145.24661000025122,23.021599999640387],[-145.25080999968165,23.028130000399358],[-145.26342999979457,23.047719999978142],[-145.27266999962069,23.059930000069585],[-145.27791000024624,23.06543000009458],[-145.29891999965818,23.087339999641415],[-145.31075999977409,23.096970000365388],[-145.32980000006987,23.110110000176519],[-145.33632999992946,23.114320000068062],[-145.34987999976209,23.122229999714875],[-145.37142999979457,23.132879999812303],[-145.38628000022175,23.139500000224984],[-145.39383000035414,23.142680000281928],[-145.40960999960171,23.148350000052574],[-145.44272000032765,23.158149999622935],[-145.45104999955774,23.160560000144017],[-145.45953000030917,23.162789999558981],[-145.48562999972464,23.16889000027345],[-145.49434999985252,23.170869999850765],[-145.52096999986551,23.176449999967645],[-145.5298799997621,23.178259999799309],[-145.55682000014281,23.183500000424829],[-145.57457999986701,23.187200000179985],[-145.59214999982254,23.191060000119023],[-145.60088999997345,23.193039999696396],[-145.62681999964317,23.199310000156515],[-145.63541000007137,23.201460000378859],[-145.65256000044357,23.205759999924226],[-145.67865000029718,23.211859999739318],[-145.68740999957174,23.213840000215953],[-145.70505999961921,23.217620000063107],[-145.731899999885,23.222950000342394],[-145.74985000027721,23.226469999890696],[-145.76767000007035,23.230079999992142],[-145.78552000034765,23.233690000093588],[-145.80338000018676,23.237300000194978],[-145.81229999964518,23.239099999565497],[-145.83913999991097,23.244429999844783],[-145.85709000030317,23.247950000292406],[-145.86600000019976,23.24976000012407],[-145.88384999957773,23.253370000225459],[-145.90169999985503,23.256980000326905],[-145.92846999959073,23.262389999798813],[-145.93738000038661,23.264190000068595],[-145.95538000038661,23.267630000424333],[-145.9820700000304,23.273130000449328],[-145.9909100002962,23.275020000372876],[-146.01706000021875,23.281040000096084],[-146.02572999983954,23.283099999765341],[-146.04288000021177,23.287400000209971],[-146.06004000014582,23.291690000193512],[-146.07736000026372,23.295819999993171],[-146.09487999971213,23.299769999585976],[-146.12145999967916,23.305360000164001],[-146.13939999961022,23.30887999971236],[-146.15735000000242,23.312400000160039],[-146.17516999979557,23.316010000261429],[-146.18411000017628,23.317820000093093],[-146.20197000001539,23.321430000194482],[-146.21978999980857,23.325040000295928],[-146.24663999963619,23.330369999675895],[-146.26459000002839,23.333890000123574],[-146.27349999992498,23.335690000393356],[-146.29131999971813,23.339299999595426],[-146.31811999993795,23.344720000427799],[-146.33593999973112,23.348329999629925],[-146.34488000011183,23.350129999899707],[-146.36288000011183,23.353570000255445],[-146.38956000019377,23.35907000028044],[-146.39841000002139,23.360960000203988],[-146.41589000032317,23.364909999796794],[-146.43322999956473,23.369039999596453],[-146.45037999993696,23.373329999579937],[-146.47623000041409,23.379689999693881],[-146.49362000016279,23.383729999839773],[-146.50238000033667,23.385710000316408],[-146.52005000040711,23.389490000163505],[-146.54690999979658,23.394820000442792],[-146.55591000024623,23.396530000159544],[-146.5737599996242,23.400140000260933],[-146.60016000028369,23.405899999685403],[-146.61757999961719,23.409939999831295],[-146.6262500001373,23.412000000399814],[-146.64339999961021,23.416299999945181],[-146.66914000041061,23.422740000151009],[-146.67772000037763,23.424890000373352],[-146.70346000027871,23.431340000141063],[-146.71204000024574,23.433490000363349],[-146.73776000012381,23.439929999669914],[-146.74634999965267,23.442079999892201],[-146.76370000025472,23.446200000130034],[-146.79001999992298,23.452050000107533],[-146.79886000018877,23.453940000031139],[-146.81670999956674,23.457550000132528],[-146.84362999992447,23.462789999858728],[-146.86138999964868,23.466480000052115],[-146.87897000006538,23.47034999955298],[-146.88773000023923,23.472330000029615],[-146.91363999988602,23.478599999590472],[-146.93079999982004,23.482900000035102],[-146.94797000021526,23.487190000018643],[-146.96511999968814,23.491489999563953],[-146.97369000009334,23.493639999786296],[-147.00800000039962,23.502239999776293],[-147.0165699999055,23.504380000436811],[-147.03384000041561,23.508590000328411],[-147.0425100000364,23.510649999997668],[-147.05999999989999,23.514610000051618],[-147.08661000035116,23.520199999730323],[-147.10451999979807,23.523720000178002],[-147.11354000027072,23.5254400003559],[-147.14022999991448,23.530940000380838],[-147.14905999971913,23.532830000304386],[-147.17522999966468,23.538839999566449],[-147.19246000012882,23.543050000357368],[-147.2010299996347,23.545199999680392],[-147.22677999999692,23.551650000347365],[-147.23535000040212,23.553790000108563],[-147.252499999875,23.55808999965393],[-147.26965000024722,23.56239000009856],[-147.28679999972013,23.566680000082101],[-147.31265000019727,23.573040000195988],[-147.33005000040711,23.57708000034188],[-147.34764000038564,23.580949999842744],[-147.36542000013281,23.584649999597957],[-147.38332999957973,23.588170000045579],[-147.40127999997193,23.591689999593939],[-147.42779999987002,23.597360000263961],[-147.43660999965167,23.59925000018751],[-147.44536999982554,23.601229999764826],[-147.47128000037165,23.607509999786828],[-147.47986000033865,23.609650000447289],[-147.51416000018378,23.618250000437286],[-147.52274999971263,23.620399999760309],[-147.53130999965668,23.622540000420827],[-147.55704999955776,23.62899000018848],[-147.56563999998593,23.631140000410824],[-147.58279000035816,23.635439999956191],[-147.60012999959972,23.639560000193967],[-147.6176099999015,23.643509999786829],[-147.63529999999491,23.647289999633927],[-147.65313999981106,23.650899999735316],[-147.67117000029521,23.654340000091054],[-147.68899999965018,23.6579500001925],[-147.71542000033267,23.663709999616913],[-147.7241799996072,23.665679999632403],[-147.74151999974811,23.669810000331381],[-147.76723999962618,23.676249999637889],[-147.78438999999841,23.680550000082576],[-147.80156000039361,23.684840000066117],[-147.81012000033766,23.686990000288404],[-147.82728999983354,23.691289999833771],[-147.85302999973462,23.697730000039599],[-147.86160000013982,23.699880000261942],[-147.87874999961269,23.704179999807309],[-147.90449999997495,23.710629999574962],[-147.91307000038012,23.71277000023548],[-147.93023999987602,23.71706999978079],[-147.95605000030719,23.723429999894734],[-147.96471999992798,23.72548999956399],[-147.99105999961921,23.731340000440809],[-147.99991000034615,23.733230000364358],[-148.02676000017379,23.738559999744325],[-148.04459999998991,23.742160000283945],[-148.06210000031467,23.746120000337896],[-148.07924999978758,23.750419999883206],[-148.08774999966266,23.752650000197491],[-148.1043899998985,23.757459999879245],[-148.12070000020475,23.762620000412824],[-148.13714999977259,23.767599999840286],[-148.1537900000084,23.772419999983128],[-148.17059000042809,23.777059999919175],[-148.18759000017829,23.781519999648424],[-148.21333000007937,23.787970000315397],[-148.23049999957524,23.792269999860764],[-148.24764999994747,23.796559999844249],[-148.26480000031967,23.800860000288935],[-148.28194999979257,23.80515000027242],[-148.29054000022074,23.807299999595443],[-148.31628000012182,23.813750000262417],[-148.32486000008885,23.81589999958544],[-148.3506200000129,23.822339999791325],[-148.3591900004181,23.824490000013611],[-148.376339999891,23.828789999558978],[-148.39349000026323,23.833080000441782],[-148.4278300001543,23.841680000431836],[-148.43639000009833,23.843829999754803],[-148.44497999962721,23.845979999977146],[-148.4707200004276,23.852420000183031],[-148.48786999990048,23.856719999728341],[-148.49644000030568,23.858869999950684],[-148.52216999974561,23.865310000156512],[-148.53924999958772,23.86968999979382],[-148.54773000033916,23.871929999669874],[-148.56456000034365,23.87656999960592],[-148.59757999961721,23.886450000167542],[-148.5976700001703,23.886359999614456],[-148.61397999957723,23.891520000148034],[-148.63043000004438,23.89649999957544],[-148.65549000006337,23.903639999686391],[-148.67238999969865,23.90818999996867],[-148.68947000044008,23.912569999605921],[-148.69805999996893,23.914719999828264],[-148.71521000034116,23.919020000272951],[-148.74093999978109,23.925459999579459],[-148.74953000020926,23.927609999801803],[-148.76665999965917,23.931910000246432],[-148.78366000030869,23.936380000436827],[-148.80047999985203,23.941020000372873],[-148.82535000010233,23.94831999976833],[-148.83358999967865,23.950819999943178],[-148.84987999996196,23.955970000015611],[-148.86636000001391,23.960959999904219],[-148.88300000024972,23.965769999585973],[-148.89981000023124,23.970410000421339],[-148.92528999983355,23.977110000026642],[-148.94221000039113,23.981660000308921],[-148.95892000025773,23.986389999898734],[-148.96725000038711,23.988800000419815],[-148.99188000036165,23.996360000114066],[-149.00001999982305,23.998940000380856],[-149.02480999998144,24.006330000329399],[-149.04153000030919,24.011050000357386],[-149.04993999963119,24.013379999887206],[-149.06692999981956,24.017839999616456],[-149.08408999975362,24.022140000061086],[-149.10982999965466,24.028589999828796],[-149.11840999962169,24.030740000051082],[-149.1526300002742,24.039409999671875],[-149.15271000036614,24.039329999579934],[-149.18643000044409,24.048519999798316],[-149.19481999974312,24.05083999976631],[-149.21139999990999,24.055740000001151],[-149.21964000038562,24.058240000175999],[-149.24384000031569,24.066229999914697],[-149.25189000012332,24.068890000273427],[-149.27609000005339,24.076880000012125],[-149.28415000032217,24.079549999932681],[-149.30851999999791,24.087360000363844],[-149.32506999968066,24.092259999699365],[-149.35030000034465,24.099219999603463],[-149.35870000010485,24.101539999571457],[-149.36719000041811,24.103780000346887],[-149.3841900001683,24.108249999637906],[-149.40098999968865,24.112889999573952],[-149.41762999992449,24.117700000155025],[-149.44225000033717,24.125259999849277],[-149.45040999982155,24.127840000116066],[-149.4668600002887,24.132820000442791],[-149.48351999964819,24.137639999686371],[-149.50881999994297,24.144509999936702],[-149.51731999981806,24.146749999812755],[-149.53430000044457,24.15122000000315],[-149.55945000011732,24.158259999999132],[-149.56774999976258,24.16066999962095],[-149.59231999966818,24.168319999868231],[-149.60037000037514,24.170980000226962],[-149.61649000001341,24.176309999606929],[-149.63262999967466,24.181639999886215],[-149.6568000000199,24.189629999624913],[-149.67311000032618,24.194790000158548],[-149.68966999957075,24.199679999932187],[-149.70638999989851,24.204410000421319],[-149.71478000009685,24.206730000389371],[-149.73177999984702,24.211199999680389],[-149.75716999979556,24.217989999838778],[-149.76558999957874,24.220309999806773],[-149.78222999981455,24.225120000387847],[-149.7987099998665,24.230099999815309],[-149.81500000014981,24.235260000348887],[-149.83148000020176,24.240250000237438],[-149.86502000007286,24.249610000201471],[-149.87341000027121,24.251930000169523],[-149.88193000016929,24.254170000045633],[-149.89890999989649,24.258629999774826],[-149.92407000003038,24.265680000231953],[-149.93236999967567,24.268089999853771],[-149.95690999999641,24.275740000101052],[-149.96497000026523,24.278399999560463],[-149.98917000019526,24.28639000019848],[-150.00528000027171,24.291719999578447],[-150.02133000027919,24.297129999949675],[-150.03734999980256,24.302549999882729],[-150.04543999965617,24.305210000241459],[-150.06158000021676,24.310539999621426],[-150.07769999985501,24.315869999900713],[-150.1020500004071,24.323689999893702],[-150.11862000011283,24.328590000128543],[-150.1353500000024,24.33331000015653],[-150.14374000020078,24.335630000124524],[-150.16073999995095,24.340100000314919],[-150.17771999967815,24.344569999605937],[-150.20287999981207,24.351620000063122],[-150.21118000035665,24.354020000123057],[-150.22764999994746,24.359010000011608],[-150.25182999985452,24.366999999750306],[-150.25991999970813,24.369660000109036],[-150.27602999978458,24.374990000388323],[-150.30022999971465,24.38298000012702],[-150.30828999998343,24.385650000047633],[-150.32477000003539,24.390630000374358],[-150.3498100000314,24.397760000024107],[-150.35822000025271,24.400089999553984],[-150.37517999995694,24.404550000182496],[-150.39217999970714,24.409020000372834],[-150.41733000027921,24.416069999930698],[-150.42564000038561,24.41847999955246],[-150.45019999983003,24.426120000237972],[-150.4582499996377,24.428790000158529],[-150.47437999973712,24.434120000437815],[-150.49050999983655,24.439440000255956],[-150.50661999991297,24.444769999635923],[-150.52277000003539,24.45009999991521],[-150.54756000019378,24.457489999863753],[-150.55587999986201,24.459889999923689],[-150.58118000015679,24.466769999735845],[-150.58966000000891,24.46900000005013],[-150.6066599997591,24.473470000240468],[-150.62346999974062,24.47811999973834],[-150.64012000043758,24.482930000319413],[-150.65659000002839,24.487909999746819],[-150.67270999966667,24.493240000026105],[-150.68885999978909,24.498570000305392],[-150.72109999996493,24.50922000040282],[-150.72918999981854,24.511879999862231],[-150.75377999974711,24.519450000017628],[-150.75369000009334,24.519539999671395],[-150.77031999986801,24.524350000252468],[-150.78716000033367,24.528990000188514],[-150.80414000006087,24.533449999917707],[-150.82953000000941,24.540240000076096],[-150.83794999979258,24.542560000044091],[-150.86282000004289,24.549869999900693],[-150.87105999961921,24.552359999614453],[-150.88718999971863,24.557689999893739],[-150.90333999984102,24.563020000173026],[-150.91946000037862,24.568349999552993],[-150.9355800000169,24.573670000270454],[-150.95171999967815,24.578999999650421],[-150.96817000014531,24.583990000438291],[-150.98479999991997,24.588800000120045],[-151.00162000036264,24.593440000056091],[-151.02709999996495,24.600139999661394],[-151.03561000030118,24.602380000436824],[-151.05242999984452,24.60702000037287],[-151.06905999961921,24.611830000054624],[-151.08553999967117,24.616810000381349],[-151.11005999996894,24.624459999729368],[-151.11830000044458,24.62695000034239],[-151.14335999956424,24.634079999992139],[-151.15176000022376,24.63639999996019],[-151.16875999997393,24.640870000150528],[-151.1857300001393,24.645340000340866],[-151.20254999968265,24.649980000276912],[-151.21920999994146,24.654789999958666],[-151.23566000040861,24.659779999847274],[-151.25196999981554,24.664929999919707],[-151.27719000001841,24.671889999823748],[-151.28574999996243,24.674040000046091],[-151.30344000005587,24.677819999893245],[-151.32158999977858,24.681089999603955],[-151.34030000014482,24.683839999616453],[-151.36819000026821,24.688140000061082],[-151.37737999958722,24.689689999593952],[-151.39557000025522,24.692949999742837],[-151.4137600000239,24.696220000352866],[-151.44157000005538,24.700599999990175],[-151.45090999999641,24.701799999570483],[-151.47038000033666,24.703260000348905],[-151.50043000024422,24.703690000393351],[-151.51004000004588,24.703089999703877],[-151.5393700000254,24.700599999990175],[-151.5579800002767,24.69776000032391],[-151.57625000013732,24.694580000266967],[-151.59454000002091,24.691400000209967],[-151.61307000018027,24.688479999552499],[-151.63201999992299,24.685989999838739],[-151.65131999961821,24.683839999616453],[-151.67062000021275,24.681690000293429],[-151.69876000017379,24.677650000147537],[-151.70767000007035,24.675849999877755],[-151.71625000003738,24.673699999655412],[-151.73349000006337,24.669489999763812],[-151.75844999996744,24.662269999560976],[-151.76651000023625,24.659610000101566],[-151.7826499998975,24.654279999822279],[-151.8067600001738,24.646200000429815],[-151.82254000032069,24.640529999759849],[-151.83816999984555,24.634690000243438],[-151.86862000021276,24.622230000314403],[-151.88327000041011,24.615440000156013],[-151.89785999963919,24.608560000343857],[-151.91225999999892,24.60150999988673],[-151.93362000026272,24.590690000043594],[-151.94085999958924,24.587160000034089],[-151.9551700002952,24.58003000038434],[-151.97637999993697,24.569030000334408],[-151.98339999990998,24.56534000014102],[-151.99719000001841,24.557689999893739],[-152.01049999957525,24.549519999948188],[-152.02337999998693,24.540930000419337],[-152.03589000042311,24.531990000038604],[-152.05408999975361,24.517990000138525],[-152.06018000000691,24.513350000202479],[-152.07245000016729,24.504150000422328],[-152.08480999998145,24.495040000295944],[-152.09716999979557,24.485939999731329],[-152.10941999993298,24.476739999951178],[-152.12142999979457,24.467290000333378],[-152.13302999963469,24.457409999771812],[-152.14414999982256,24.447089999603918],[-152.16013000019927,24.430849999827785],[-152.17023000011434,24.419510000286436],[-152.17503000023424,24.413580000216996],[-152.18447999985202,24.401550000332406],[-152.1982099998915,24.383069999780787],[-152.20730999955674,24.370689999943693],[-152.21183999981605,24.364510000036603],[-152.22564999994745,24.346120000038127],[-152.23508000044157,24.334090000153537],[-152.24416999964569,24.321710000316386],[-152.25713999971114,24.302460000228962],[-152.25713000014932,24.302460000228962],[-152.26922999966467,24.282350000052588],[-152.28030000024472,24.261210000041615],[-152.28399999999991,24.254170000045633],[-152.29120000017977,24.239900000284933],[-152.30150000032467,24.217989999838778],[-152.30493000021926,24.210679999982176],[-152.31160999980156,24.195900000085089],[-152.31780999973162,24.18059999959047],[-152.32361999966318,24.164959999604434],[-152.33426999976061,24.13264999979782],[-152.3368500000274,24.124490000313415],[-152.33925000008736,24.116149999722836],[-152.34610000031469,24.090799999820263],[-152.34832999972963,24.082290000383352],[-152.35657000020527,24.047579999617426],[-152.35864000033567,24.038900000434808],[-152.3604999997751,24.030049999707842],[-152.36507000008035,24.002379999837274],[-152.36720000027969,23.983040000096082],[-152.36806999993047,23.973160000433836],[-152.36934999960272,23.942219999953181],[-152.3697100000164,23.921079999942208],[-152.36977999964719,23.89967999963244],[-152.3697100000164,23.878289999783817],[-152.36934999960272,23.857149999772787],[-152.36858999962871,23.836430000244434],[-152.36722000030269,23.816329999629943],[-152.36507999964218,23.796989999888751],[-152.36345999957925,23.78787999976231],[-152.36026000039863,23.769580000316921],[-152.35468999984354,23.742940000280953],[-152.3525399996212,23.734340000290899],[-152.34826999966069,23.717160000333877],[-152.34155000003238,23.69163000022445],[-152.3368500000274,23.67488000031193],[-152.329279999872,23.650210000291395],[-152.32646000022874,23.642310000206464],[-152.32071000036615,23.626579999667399],[-152.31470999976659,23.611110000326391],[-152.30828999958374,23.596079999692392],[-152.30142000023275,23.581470000440333],[-152.29067999958224,23.559979999577479],[-152.28683000010435,23.553110000226468],[-152.27492000035764,23.532830000304386],[-152.26665999985903,23.519590000378344],[-152.26244999996743,23.513059999619429],[-152.25397000011532,23.50008999955395],[-152.24529999959523,23.48727999967241],[-152.23646999979059,23.474649999997666],[-152.22735999966417,23.462279999722341],[-152.21795999965417,23.450240000275926],[-152.20319000021826,23.432800000020109],[-152.1982099998915,23.427039999696376],[-152.19315000037213,23.421369999925673],[-152.17316000033367,23.398420000083092],[-152.16321000014131,23.386909999896716],[-152.15307999974212,23.375570000355367],[-152.14244000010584,23.364740000051086],[-152.13162000026273,23.354080000391832],[-152.12598000007685,23.34901000041134],[-152.10882999970465,23.333970000215459],[-152.09735000000242,23.324009999561952],[-152.08599999999993,23.313869999600968],[-152.08025999969914,23.30887999971236],[-152.06301999967317,23.293930000069565],[-152.05117999955726,23.284309999806794],[-152.03899999994997,23.275020000372876],[-152.02645999992896,23.266089999553969],[-152.01375999972413,23.257319999818264],[-152.00088999977359,23.248730000289413],[-151.98785000007737,23.240300000045124],[-151.97463999973613,23.232050000007632],[-151.9612399996262,23.223980000176994],[-151.94754000007086,23.216240000275945],[-151.93346000007887,23.208850000327402],[-151.91940000010985,23.201460000378859],[-151.90517000039512,23.194240000176023],[-151.89058000026671,23.187369999925693],[-151.8759900001383,23.180490000113537],[-151.86123999982604,23.173789999608914],[-151.84596000025374,23.167600000140055],[-151.83034999985253,23.161759999724325],[-151.80643000024423,23.153509999686889],[-151.79828000032168,23.15093000031942],[-151.7732200003027,23.143799999770295],[-151.76479999962021,23.1414799998023],[-151.74781999989301,23.137009999611962],[-151.72197999987702,23.130650000397338],[-151.70455999964418,23.126610000251446],[-151.69582999995444,23.124640000235956],[-151.66924999998741,23.119049999657875],[-151.66030999960671,23.117239999826268],[-151.64230000004488,23.113809999931675],[-151.62444999976759,23.110199999830286],[-151.60662999997444,23.10658999972884],[-151.58858999992847,23.103150000272421],[-151.57025000043708,23.100059999869245],[-151.55154000007087,23.097309999856748],[-151.52260999965168,23.094040000146038],[-151.50330999995646,23.09190000038484],[-151.49370999971663,23.090779999997153],[-151.46581999959324,23.086479999552466],[-151.4566300002742,23.084930000019654],[-151.4384599996292,23.081669999870712],[-151.41109000010334,23.07684999972787],[-151.39255000038213,23.073929999969664],[-151.37384000001592,23.071179999957167],[-151.36450000007486,23.069809999731831],[-151.33703999999591,23.065080000142018],[-151.32796999991547,23.063449999617944],[-151.30978000014682,23.060179999907234],[-151.28242000018278,23.05537000022548],[-151.27324999998743,23.053830000254436],[-151.24517999965718,23.049699999555457],[-151.23581999969315,23.048319999768296],[-151.21746999974062,23.045230000264439],[-151.19927999997194,23.041970000115555],[-151.18109000020326,23.038700000404845],[-151.16288999997343,23.035429999794815],[-151.13518999961872,23.030970000065565],[-151.11648999971362,23.028220000053125],[-151.10714999977259,23.026840000265963],[-151.07970000015479,23.022109999776831],[-151.07059999959023,23.02048000015202],[-151.05240000025972,23.017220000003135],[-151.03422999961469,23.013950000292425],[-151.00649999967516,23.009480000102087],[-150.98781999979306,23.00673000008959],[-150.9784500002672,23.005359999864254],[-150.96010999987652,23.002259999899195],[-150.94192999966967,22.998999999750311],[-150.91464000023575,22.994100000414846],[-150.90555000013231,22.992469999890716],[-150.87784000021574,22.987999999700378],[-150.85912999984953,22.985249999687881],[-150.84061000015132,22.982329999929675],[-150.82234000029069,22.979149999872732],[-150.81325000018728,22.977520000247978],[-150.78595999985401,22.972620000013137],[-150.7768899997736,22.970990000388326],[-150.74917999985703,22.966520000197988],[-150.73981000033118,22.965140000410827],[-150.71190999974661,22.960850000427342],[-150.69365000034716,22.957659999909197],[-150.67545999967916,22.954399999760312],[-150.66634999955275,22.952770000135558],[-150.64815999978407,22.949500000424848],[-150.62982000029268,22.946410000021615],[-150.61110999992647,22.943660000009118],[-150.58321999980308,22.939359999564488],[-150.56494000038063,22.936180000406807],[-150.55587999986201,22.934549999882734],[-150.5285900004281,22.929649999647893],[-150.51033000012933,22.92646999959095],[-150.49179000040812,22.923549999832744],[-150.48244999956773,22.922170000045583],[-150.4637299996397,22.919420000033142],[-150.4362800000219,22.914700000005155],[-150.41809000025322,22.911430000294445],[-150.39980999993148,22.908250000237445],[-150.39063999973612,22.906699999805312],[-150.3719300002692,22.903949999792815],[-150.34301999987301,22.90068999964393],[-150.32372000017779,22.898540000320907],[-150.31411999993796,22.897419999933163],[-150.29540999957175,22.894669999920723],[-150.26797000041509,22.889949999892735],[-150.25888000031168,22.888320000267925],[-150.24068999964368,22.885049999657895],[-150.22235000015229,22.881949999692893],[-150.19427000026022,22.877830000354379],[-150.17574999966268,22.874909999696854],[-150.16656000034365,22.873360000164041],[-150.14838000013683,22.870100000015157],[-150.12108999980356,22.865199999780316],[-150.10281000038114,22.862019999723373],[-150.08428999978358,22.859099999965167],[-150.07494000028069,22.857720000178006],[-150.05624000037562,22.854970000165508],[-150.03787000040012,22.851879999762332],[-150.01060000008985,22.846980000426811],[-149.99243000034414,22.843720000277926],[-149.98334000024073,22.84208000019197],[-149.96497000026523,22.838989999788794],[-149.94625999989898,22.836239999776296],[-149.92755000043209,22.833489999763799],[-149.90011999993797,22.828760000173986],[-149.89100999981156,22.827129999649912],[-149.8728299996047,22.823859999939202],[-149.8544599996292,22.820770000435289],[-149.83575000016231,22.818020000422848],[-149.80683999976608,22.814749999812761],[-149.78754000007086,22.81261000005162],[-149.77793999983103,22.811489999663877],[-149.75006000016879,22.807190000118567],[-149.73177999984702,22.804010000061567],[-149.72272000022775,22.802380000436813],[-149.69499000028819,22.797910000246475],[-149.67603000008435,22.795419999633395],[-149.6664400003057,22.794300000145029],[-149.64703000003439,22.792239999576452],[-149.62781999999291,22.789999999700342],[-149.59992999986952,22.785709999716858],[-149.58166999957075,22.782529999659914],[-149.57256999990548,22.780900000035103],[-149.5543800001368,22.777630000324393],[-149.52667000022026,22.773160000134055],[-149.50797000031517,22.770410000121558],[-149.49859999988999,22.769039999896222],[-149.47115999983404,22.764310000306409],[-149.45297000006536,22.761039999696379],[-149.44387999996195,22.759410000071568],[-149.41608000039162,22.755030000434317],[-149.39685000032716,22.752800000120033],[-149.37713999971115,22.751079999942192],[-149.35724000022574,22.749530000409322],[-149.34727000001041,22.748759999974141],[-149.3277300000394,22.746859999589446],[-149.29967999973212,22.742740000250933],[-149.28140000030967,22.73956000019399],[-149.26311000042608,22.736380000137046],[-149.25394000023076,22.734840000166002],[-149.23508000014181,22.732259999899213],[-149.20556999995546,22.729589999978657],[-149.18566999957073,22.728050000007613],[-149.16591999980807,22.726329999829773],[-149.15616000028371,22.725380000087057],[-149.13726999971064,22.722810000281413],[-149.10980000006987,22.71807999979228],[-149.09155000023225,22.714899999735337],[-149.07302999963468,22.711979999977132],[-149.05405000030717,22.709479999802284],[-149.0347400001508,22.707340000041086],[-149.01543999955626,22.705189999818799],[-148.99648999981355,22.70270000010504],[-148.97797000011533,22.699769999885746],[-148.96877999989698,22.698229999914702],[-148.94143999995595,22.693409999771802],[-148.92280999968165,22.690579999667364],[-148.9035000004246,22.688430000344397],[-148.89363000032418,22.687570000255448],[-148.86282000044258,22.686200000030112],[-148.8524499997676,22.685850000077608],[-148.82147000014032,22.684649999597923],[-148.80140999957175,22.683269999810761],[-148.78210000031467,22.68113000004962],[-148.77266999982055,22.679839999916226],[-148.74522000020275,22.675110000326413],[-148.72695999990398,22.671930000269413],[-148.70832999962968,22.669089999703885],[-148.68904000039561,22.666949999942688],[-148.66897999982706,22.665570000155526],[-148.64828000032168,22.664799999720344],[-148.63781999999293,22.664540000320926],[-148.60590000018479,22.664280000022131],[-148.58480999978158,22.663939999631395],[-148.57433000032916,22.663680000231977],[-148.5440400001458,22.661790000308429],[-148.5341799996072,22.66093000021948],[-148.50613000019928,22.656809999981647],[-148.49696000000392,22.655260000448777],[-148.46960000003989,22.65044999986776],[-148.45098999978859,22.647610000201496],[-148.44154000017079,22.646320000068101],[-148.41159000037814,22.644080000191991],[-148.39093000001941,22.643309999756809],[-148.36981000003138,22.64297000026545],[-148.34846000022876,22.642879999712363],[-148.33773999960121,22.642879999712363],[-148.3164699998905,22.642709999966655],[-148.28531000005637,22.641680000132055],[-148.27509000000342,22.641160000433786],[-148.2459299997696,22.638159999684376],[-148.23650999973663,22.636869999550981],[-148.20906000011882,22.632139999961169],[-148.19997000001541,22.630510000336415],[-148.1721800000069,22.626129999799787],[-148.16273000038913,22.624839999666392],[-148.13277999969714,22.622599999790282],[-148.11208999975361,22.621830000254477],[-148.09100000024972,22.621489999863741],[-148.0696300004241,22.621400000209974],[-148.04817000004539,22.621400000209974],[-148.02672999968965,22.621400000209974],[-148.00527999977209,22.621400000209974],[-147.98384000031567,22.621400000209974],[-147.97311000012633,22.621400000209974],[-147.95184000041561,22.621229999564946],[-147.93091999975809,22.620709999866733],[-147.90062999957473,22.618819999943184],[-147.88132999987951,22.616669999720841],[-147.86271999962818,22.613839999616403],[-147.85355000033218,22.61229000008359],[-147.82617000034514,22.607480000401836],[-147.80756000009384,22.604639999836252],[-147.78824999993745,22.602489999613908],[-147.76815999978407,22.601120000287949],[-147.75797000021527,22.60059999969036],[-147.73703000043409,22.600089999553973],[-147.70502999963469,22.599919999808264],[-147.68359000017827,22.599919999808264],[-147.66216000028371,22.599919999808264],[-147.640699999905,22.599919999808264],[-147.61922999996443,22.599919999808264],[-147.59780999963169,22.599919999808264],[-147.57633999969116,22.599919999808264],[-147.55488999977359,22.599919999808264],[-147.53345000031717,22.599919999808264],[-147.51200999996144,22.599919999808264],[-147.49054999958273,22.599919999808264],[-147.46911999968816,22.599919999808264],[-147.44766000020877,22.599919999808264],[-147.42621999985303,22.599919999808264],[-147.40478999995844,22.599919999808264],[-147.38332999957973,22.599919999808264],[-147.36189000012331,22.599919999808264],[-147.34052000029769,22.599830000154498],[-147.31942999989448,22.599489999763819],[-147.29888999967366,22.598709999766811],[-147.28894000038062,22.598199999630424],[-147.26107999984202,22.595190000218452],[-147.252499999875,22.593900000085057],[-147.22086000038863,22.587629999624937],[-147.21329999979508,22.586000000000126],[-147.19794000013081,22.583160000333862]]]},"properties":{"objectid":473,"stormname":"Karina","stormtype":"TS","basin":"EP","advdate":"1100 AM HST Sun Sep 06 2026","advisnum":"42","fcstprd":120,"stormnum":11,"idp_source":"ep112026-042_5day_pgn","idp_filedate":1788728588000,"idp_ingestdate":1788728804000,"st_area(shape)":8.2360228545118037,"st_perimeter(shape)":15.733743205280815,"binnumber":"CP5"}}]}