{"type":"FeatureCollection","features":[{"type":"Feature","id":473,"geometry":{"type":"LineString","coordinates":[[-145.49999999960022,22.900000000200009],[-146.6999999999,23.000000000000114],[-148.80000000019976,23.300000000299917],[-151.50000000019978,23.900000000000148]]},"properties":{"objectid":473,"stormname":"Karina","stormtype":"TS","basin":"EP","advdate":"1100 AM HST Sun Sep 06 2026","advisnum":"42","fcstprd":120,"stormnum":11,"idp_source":"ep112026-042_5day_lin","idp_filedate":1788728588000,"idp_ingestdate":1788728808000,"st_length(shape)":6.0913431391830146,"binnumber":"CP5"}}]}