{"type":"FeatureCollection","features":[{"type":"Feature","id":474,"geometry":{"type":"LineString","coordinates":[[-157.98999999999992,21.730000000199993],[-158.26999999980006,21.560000000000116],[-158.12000000009985,21.270000000399818],[-157.63999999980007,21.280000000200005],[-157.98999999999992,21.730000000199993]]},"properties":{"objectid":474,"stormname":"Lowell","stormtype":"HU","basin":"EP","advdate":"200 PM HST Mon Sep 07 2026","advisnum":"47A","fcstprd":120,"stormnum":12,"tcww":"TWR","idp_source":"ep122026-047A_ww_wwlin","idp_filedate":1788825779000,"idp_ingestdate":1788825790000,"st_length(shape)":1.7042552092037433,"binnumber":"CP4"}},{"type":"Feature","id":475,"geometry":{"type":"LineString","coordinates":[[-161.91999999970014,23.049999999900194],[-166.26999999999992,23.859999999900197]]},"properties":{"objectid":475,"stormname":"Lowell","stormtype":"HU","basin":"EP","advdate":"200 PM HST Mon Sep 07 2026","advisnum":"47A","fcstprd":120,"stormnum":12,"tcww":"HWR","idp_source":"ep122026-047A_ww_wwlin","idp_filedate":1788825779000,"idp_ingestdate":1788825790000,"st_length(shape)":4.4247711808192012,"binnumber":"CP4"}},{"type":"Feature","id":476,"geometry":{"type":"LineString","coordinates":[[-159.79999999980006,22.040000000299926],[-159.43999999980008,21.86000000029992],[-159.28000000029968,22.170000000399853],[-159.59000000039961,22.270000000200014],[-159.79999999980006,22.040000000299926]]},"properties":{"objectid":476,"stormname":"Lowell","stormtype":"HU","basin":"EP","advdate":"200 PM HST Mon Sep 07 2026","advisnum":"47A","fcstprd":120,"stormnum":12,"tcww":"HWR","idp_source":"ep122026-047A_ww_wwlin","idp_filedate":1788825779000,"idp_ingestdate":1788825790000,"st_length(shape)":1.3885256857615751,"binnumber":"CP4"}},{"type":"Feature","id":477,"geometry":{"type":"LineString","coordinates":[[-160.01000000009984,22.069999999700372],[-160.31000000039961,21.699999999900228]]},"properties":{"objectid":477,"stormname":"Lowell","stormtype":"HU","basin":"EP","advdate":"200 PM HST Mon Sep 07 2026","advisnum":"47A","fcstprd":120,"stormnum":12,"tcww":"HWR","idp_source":"ep122026-047A_ww_wwlin","idp_filedate":1788825779000,"idp_ingestdate":1788825790000,"st_length(shape)":0.47634021458614112,"binnumber":"CP4"}}]}