{"type":"FeatureCollection","features":[{"type":"Feature","id":15514,"geometry":{"type":"Point","coordinates":[-136.70000000009986,10.099999999700344]},"properties":{"objectid":15514,"stormname":"GENESIS021","stormtype":"DB","stormnum":12,"intensity":15,"basin":"ep","mslp":0,"dtg":2026082518,"year":2026,"month":"08","day":25,"hhmm":"1800","lat":10,"lon":-137,"ss":0,"idp_source":"EP122026_pts","idp_filedate":1788732207000,"idp_ingestdate":1788732368000,"binnumber":"CP4"}},{"type":"Feature","id":15515,"geometry":{"type":"Point","coordinates":[-136.39999999980006,10.200000000399825]},"properties":{"objectid":15515,"stormname":"GENESIS021","stormtype":"DB","stormnum":12,"intensity":15,"basin":"ep","mslp":0,"dtg":2026082600,"year":2026,"month":"08","day":26,"hhmm":"0000","lat":10,"lon":-136,"ss":0,"idp_source":"EP122026_pts","idp_filedate":1788732207000,"idp_ingestdate":1788732368000,"binnumber":"CP4"}},{"type":"Feature","id":15516,"geometry":{"type":"Point","coordinates":[-135.99999999970015,10.300000000199987]},"properties":{"objectid":15516,"stormname":"GENESIS021","stormtype":"DB","stormnum":12,"intensity":15,"basin":"ep","mslp":0,"dtg":2026082606,"year":2026,"month":"08","day":26,"hhmm":"0600","lat":10,"lon":-136,"ss":0,"idp_source":"EP122026_pts","idp_filedate":1788732207000,"idp_ingestdate":1788732368000,"binnumber":"CP4"}},{"type":"Feature","id":15517,"geometry":{"type":"Point","coordinates":[-135.49999999980008,10.400000000000148]},"properties":{"objectid":15517,"stormname":"GENESIS021","stormtype":"DB","stormnum":12,"intensity":15,"basin":"ep","mslp":0,"dtg":2026082612,"year":2026,"month":"08","day":26,"hhmm":"1200","lat":10,"lon":-136,"ss":0,"idp_source":"EP122026_pts","idp_filedate":1788732207000,"idp_ingestdate":1788732368000,"binnumber":"CP4"}},{"type":"Feature","id":15518,"geometry":{"type":"Point","coordinates":[-135.09999999970012,10.599999999600414]},"properties":{"objectid":15518,"stormname":"INVEST","stormtype":"LO","stormnum":12,"intensity":20,"basin":"ep","mslp":1008,"dtg":2026082618,"year":2026,"month":"08","day":26,"hhmm":"1800","lat":11,"lon":-135,"ss":0,"idp_source":"EP122026_pts","idp_filedate":1788732207000,"idp_ingestdate":1788732368000,"binnumber":"CP4"}},{"type":"Feature","id":15519,"geometry":{"type":"Point","coordinates":[-134.99999999990001,10.800000000100056]},"properties":{"objectid":15519,"stormname":"INVEST","stormtype":"DB","stormnum":12,"intensity":20,"basin":"ep","mslp":1009,"dtg":2026082700,"year":2026,"month":"08","day":27,"hhmm":"0000","lat":11,"lon":-135,"ss":0,"idp_source":"EP122026_pts","idp_filedate":1788732207000,"idp_ingestdate":1788732368000,"binnumber":"CP4"}},{"type":"Feature","id":15520,"geometry":{"type":"Point","coordinates":[-134.80000000029969,10.899999999900217]},"properties":{"objectid":15520,"stormname":"INVEST","stormtype":"DB","stormnum":12,"intensity":25,"basin":"ep","mslp":1008,"dtg":2026082706,"year":2026,"month":"08","day":27,"hhmm":"0600","lat":11,"lon":-135,"ss":0,"idp_source":"EP122026_pts","idp_filedate":1788732207000,"idp_ingestdate":1788732368000,"binnumber":"CP4"}},{"type":"Feature","id":15521,"geometry":{"type":"Point","coordinates":[-134.40000000019978,10.999999999700378]},"properties":{"objectid":15521,"stormname":"INVEST","stormtype":"DB","stormnum":12,"intensity":25,"basin":"ep","mslp":1008,"dtg":2026082712,"year":2026,"month":"08","day":27,"hhmm":"1200","lat":11,"lon":-134,"ss":0,"idp_source":"EP122026_pts","idp_filedate":1788732207000,"idp_ingestdate":1788732368000,"binnumber":"CP4"}},{"type":"Feature","id":15522,"geometry":{"type":"Point","coordinates":[-134.00000000009982,11.200000000199964]},"properties":{"objectid":15522,"stormname":"LOWELL","stormtype":"TS","stormnum":12,"intensity":35,"basin":"ep","mslp":1006,"dtg":2026082718,"year":2026,"month":"08","day":27,"hhmm":"1800","lat":11,"lon":-134,"ss":0,"idp_source":"EP122026_pts","idp_filedate":1788732207000,"idp_ingestdate":1788732368000,"binnumber":"CP4"}},{"type":"Feature","id":15523,"geometry":{"type":"Point","coordinates":[-133.59999999999991,11.300000000000125]},"properties":{"objectid":15523,"stormname":"LOWELL","stormtype":"TS","stormnum":12,"intensity":35,"basin":"ep","mslp":1004,"dtg":2026082800,"year":2026,"month":"08","day":28,"hhmm":"0000","lat":11,"lon":-134,"ss":0,"idp_source":"EP122026_pts","idp_filedate":1788732207000,"idp_ingestdate":1788732368000,"binnumber":"CP4"}},{"type":"Feature","id":15524,"geometry":{"type":"Point","coordinates":[-133.00000000029968,11.600000000299929]},"properties":{"objectid":15524,"stormname":"LOWELL","stormtype":"TS","stormnum":12,"intensity":40,"basin":"ep","mslp":1003,"dtg":2026082806,"year":2026,"month":"08","day":28,"hhmm":"0600","lat":12,"lon":-133,"ss":0,"idp_source":"EP122026_pts","idp_filedate":1788732207000,"idp_ingestdate":1788732368000,"binnumber":"CP4"}},{"type":"Feature","id":15525,"geometry":{"type":"Point","coordinates":[-132.69999999999993,12.299999999800264]},"properties":{"objectid":15525,"stormname":"LOWELL","stormtype":"TS","stormnum":12,"intensity":40,"basin":"ep","mslp":1003,"dtg":2026082812,"year":2026,"month":"08","day":28,"hhmm":"1200","lat":12,"lon":-133,"ss":0,"idp_source":"EP122026_pts","idp_filedate":1788732207000,"idp_ingestdate":1788732368000,"binnumber":"CP4"}},{"type":"Feature","id":15526,"geometry":{"type":"Point","coordinates":[-133.10000000009984,12.399999999600425]},"properties":{"objectid":15526,"stormname":"LOWELL","stormtype":"TS","stormnum":12,"intensity":40,"basin":"ep","mslp":1003,"dtg":2026082818,"year":2026,"month":"08","day":28,"hhmm":"1800","lat":12,"lon":-133,"ss":0,"idp_source":"EP122026_pts","idp_filedate":1788732207000,"idp_ingestdate":1788732368000,"binnumber":"CP4"}},{"type":"Feature","id":15527,"geometry":{"type":"Point","coordinates":[-133.79999999960023,12.399999999600425]},"properties":{"objectid":15527,"stormname":"LOWELL","stormtype":"TS","stormnum":12,"intensity":40,"basin":"ep","mslp":1003,"dtg":2026082900,"year":2026,"month":"08","day":29,"hhmm":"0000","lat":12,"lon":-134,"ss":0,"idp_source":"EP122026_pts","idp_filedate":1788732207000,"idp_ingestdate":1788732368000,"binnumber":"CP4"}},{"type":"Feature","id":15528,"geometry":{"type":"Point","coordinates":[-134.49999999999989,12.600000000100067]},"properties":{"objectid":15528,"stormname":"LOWELL","stormtype":"TS","stormnum":12,"intensity":40,"basin":"ep","mslp":1003,"dtg":2026082906,"year":2026,"month":"08","day":29,"hhmm":"0600","lat":13,"lon":-134,"ss":0,"idp_source":"EP122026_pts","idp_filedate":1788732207000,"idp_ingestdate":1788732368000,"binnumber":"CP4"}},{"type":"Feature","id":15529,"geometry":{"type":"Point","coordinates":[-135.30000000019976,12.900000000399814]},"properties":{"objectid":15529,"stormname":"LOWELL","stormtype":"TS","stormnum":12,"intensity":40,"basin":"ep","mslp":1003,"dtg":2026082912,"year":2026,"month":"08","day":29,"hhmm":"1200","lat":13,"lon":-135,"ss":0,"idp_source":"EP122026_pts","idp_filedate":1788732207000,"idp_ingestdate":1788732368000,"binnumber":"CP4"}},{"type":"Feature","id":15530,"geometry":{"type":"Point","coordinates":[-136.39999999980006,13.100000000000136]},"properties":{"objectid":15530,"stormname":"LOWELL","stormtype":"TS","stormnum":12,"intensity":40,"basin":"ep","mslp":1003,"dtg":2026082918,"year":2026,"month":"08","day":29,"hhmm":"1800","lat":13,"lon":-136,"ss":0,"idp_source":"EP122026_pts","idp_filedate":1788732207000,"idp_ingestdate":1788732368000,"binnumber":"CP4"}},{"type":"Feature","id":15531,"geometry":{"type":"Point","coordinates":[-137.60000000009984,13.199999999800298]},"properties":{"objectid":15531,"stormname":"LOWELL","stormtype":"TS","stormnum":12,"intensity":45,"basin":"ep","mslp":1001,"dtg":2026083000,"year":2026,"month":"08","day":30,"hhmm":"0000","lat":13,"lon":-138,"ss":0,"idp_source":"EP122026_pts","idp_filedate":1788732207000,"idp_ingestdate":1788732368000,"binnumber":"CP4"}},{"type":"Feature","id":15532,"geometry":{"type":"Point","coordinates":[-138.59999999989998,13.199999999800298]},"properties":{"objectid":15532,"stormname":"LOWELL","stormtype":"TS","stormnum":12,"intensity":45,"basin":"ep","mslp":1000,"dtg":2026083006,"year":2026,"month":"08","day":30,"hhmm":"0600","lat":13,"lon":-139,"ss":0,"idp_source":"EP122026_pts","idp_filedate":1788732207000,"idp_ingestdate":1788732368000,"binnumber":"CP4"}},{"type":"Feature","id":15533,"geometry":{"type":"Point","coordinates":[-139.80000000019976,13.299999999600459]},"properties":{"objectid":15533,"stormname":"LOWELL","stormtype":"TS","stormnum":12,"intensity":45,"basin":"ep","mslp":1000,"dtg":2026083012,"year":2026,"month":"08","day":30,"hhmm":"1200","lat":13,"lon":-140,"ss":0,"idp_source":"EP122026_pts","idp_filedate":1788732207000,"idp_ingestdate":1788732368000,"binnumber":"CP4"}},{"type":"Feature","id":15534,"geometry":{"type":"Point","coordinates":[-141.29999999989997,13.299999999600459]},"properties":{"objectid":15534,"stormname":"LOWELL","stormtype":"TS","stormnum":12,"intensity":45,"basin":"ep","mslp":999,"dtg":2026083018,"year":2026,"month":"08","day":30,"hhmm":"1800","lat":13,"lon":-141,"ss":0,"idp_source":"EP122026_pts","idp_filedate":1788732207000,"idp_ingestdate":1788732368000,"binnumber":"CP4"}},{"type":"Feature","id":15535,"geometry":{"type":"Point","coordinates":[-142.79999999960023,13.199999999800298]},"properties":{"objectid":15535,"stormname":"LOWELL","stormtype":"TS","stormnum":12,"intensity":45,"basin":"ep","mslp":999,"dtg":2026083100,"year":2026,"month":"08","day":31,"hhmm":"0000","lat":13,"lon":-143,"ss":0,"idp_source":"EP122026_pts","idp_filedate":1788732207000,"idp_ingestdate":1788732368000,"binnumber":"CP4"}},{"type":"Feature","id":15536,"geometry":{"type":"Point","coordinates":[-143.69999999960021,13.000000000199975]},"properties":{"objectid":15536,"stormname":"LOWELL","stormtype":"TS","stormnum":12,"intensity":50,"basin":"ep","mslp":997,"dtg":2026083106,"year":2026,"month":"08","day":31,"hhmm":"0600","lat":13,"lon":-144,"ss":0,"idp_source":"EP122026_pts","idp_filedate":1788732207000,"idp_ingestdate":1788732368000,"binnumber":"CP4"}},{"type":"Feature","id":15537,"geometry":{"type":"Point","coordinates":[-145.20000000019976,12.79999999970039]},"properties":{"objectid":15537,"stormname":"LOWELL","stormtype":"TS","stormnum":12,"intensity":55,"basin":"ep","mslp":995,"dtg":2026083112,"year":2026,"month":"08","day":31,"hhmm":"1200","lat":13,"lon":-145,"ss":0,"idp_source":"EP122026_pts","idp_filedate":1788732207000,"idp_ingestdate":1788732368000,"binnumber":"CP4"}},{"type":"Feature","id":15538,"geometry":{"type":"Point","coordinates":[-146.00000000039961,12.79999999970039]},"properties":{"objectid":15538,"stormname":"LOWELL","stormtype":"TS","stormnum":12,"intensity":55,"basin":"ep","mslp":995,"dtg":2026083118,"year":2026,"month":"08","day":31,"hhmm":"1800","lat":13,"lon":-146,"ss":0,"idp_source":"EP122026_pts","idp_filedate":1788732207000,"idp_ingestdate":1788732368000,"binnumber":"CP4"}},{"type":"Feature","id":15539,"geometry":{"type":"Point","coordinates":[-147.00000000019978,12.900000000399814]},"properties":{"objectid":15539,"stormname":"LOWELL","stormtype":"TS","stormnum":12,"intensity":55,"basin":"ep","mslp":995,"dtg":2026090100,"year":2026,"month":"09","day":1,"hhmm":"0000","lat":13,"lon":-147,"ss":0,"idp_source":"EP122026_pts","idp_filedate":1788732207000,"idp_ingestdate":1788732368000,"binnumber":"CP4"}},{"type":"Feature","id":15540,"geometry":{"type":"Point","coordinates":[-148.09999999980008,13.000000000199975]},"properties":{"objectid":15540,"stormname":"LOWELL","stormtype":"TS","stormnum":12,"intensity":60,"basin":"ep","mslp":993,"dtg":2026090106,"year":2026,"month":"09","day":1,"hhmm":"0600","lat":13,"lon":-148,"ss":0,"idp_source":"EP122026_pts","idp_filedate":1788732207000,"idp_ingestdate":1788732368000,"binnumber":"CP4"}},{"type":"Feature","id":15541,"geometry":{"type":"Point","coordinates":[-148.89999999999992,13.299999999600459]},"properties":{"objectid":15541,"stormname":"LOWELL","stormtype":"HU","stormnum":12,"intensity":65,"basin":"ep","mslp":985,"dtg":2026090112,"year":2026,"month":"09","day":1,"hhmm":"1200","lat":13,"lon":-149,"ss":1,"idp_source":"EP122026_pts","idp_filedate":1788732207000,"idp_ingestdate":1788732368000,"binnumber":"CP4"}},{"type":"Feature","id":15542,"geometry":{"type":"Point","coordinates":[-149.89999999980006,13.500000000100044]},"properties":{"objectid":15542,"stormname":"LOWELL","stormtype":"HU","stormnum":12,"intensity":80,"basin":"ep","mslp":977,"dtg":2026090118,"year":2026,"month":"09","day":1,"hhmm":"1800","lat":14,"lon":-150,"ss":1,"idp_source":"EP122026_pts","idp_filedate":1788732207000,"idp_ingestdate":1788732368000,"binnumber":"CP4"}},{"type":"Feature","id":15543,"geometry":{"type":"Point","coordinates":[-150.79999999980006,13.500000000100044]},"properties":{"objectid":15543,"stormname":"LOWELL","stormtype":"HU","stormnum":12,"intensity":110,"basin":"ep","mslp":957,"dtg":2026090200,"year":2026,"month":"09","day":2,"hhmm":"0000","lat":14,"lon":-151,"ss":3,"idp_source":"EP122026_pts","idp_filedate":1788732207000,"idp_ingestdate":1788732368000,"binnumber":"CP4"}},{"type":"Feature","id":15544,"geometry":{"type":"Point","coordinates":[-151.69999999980007,13.500000000100044]},"properties":{"objectid":15544,"stormname":"LOWELL","stormtype":"HU","stormnum":12,"intensity":120,"basin":"ep","mslp":945,"dtg":2026090206,"year":2026,"month":"09","day":2,"hhmm":"0600","lat":14,"lon":-152,"ss":4,"idp_source":"EP122026_pts","idp_filedate":1788732207000,"idp_ingestdate":1788732368000,"binnumber":"CP4"}},{"type":"Feature","id":15545,"geometry":{"type":"Point","coordinates":[-152.69999999960021,13.40000000029994]},"properties":{"objectid":15545,"stormname":"LOWELL","stormtype":"HU","stormnum":12,"intensity":130,"basin":"ep","mslp":937,"dtg":2026090212,"year":2026,"month":"09","day":2,"hhmm":"1200","lat":13,"lon":-153,"ss":4,"idp_source":"EP122026_pts","idp_filedate":1788732207000,"idp_ingestdate":1788732368000,"binnumber":"CP4"}},{"type":"Feature","id":15546,"geometry":{"type":"Point","coordinates":[-153.7000000002997,13.299999999600459]},"properties":{"objectid":15546,"stormname":"LOWELL","stormtype":"HU","stormnum":12,"intensity":140,"basin":"ep","mslp":927,"dtg":2026090218,"year":2026,"month":"09","day":2,"hhmm":"1800","lat":13,"lon":-154,"ss":5,"idp_source":"EP122026_pts","idp_filedate":1788732207000,"idp_ingestdate":1788732368000,"binnumber":"CP4"}},{"type":"Feature","id":15547,"geometry":{"type":"Point","coordinates":[-154.70000000009983,13.299999999600459]},"properties":{"objectid":15547,"stormname":"LOWELL","stormtype":"HU","stormnum":12,"intensity":135,"basin":"ep","mslp":932,"dtg":2026090300,"year":2026,"month":"09","day":3,"hhmm":"0000","lat":13,"lon":-155,"ss":4,"idp_source":"EP122026_pts","idp_filedate":1788732207000,"idp_ingestdate":1788732368000,"binnumber":"CP4"}},{"type":"Feature","id":15548,"geometry":{"type":"Point","coordinates":[-155.79999999970013,13.299999999600459]},"properties":{"objectid":15548,"stormname":"LOWELL","stormtype":"HU","stormnum":12,"intensity":130,"basin":"ep","mslp":935,"dtg":2026090306,"year":2026,"month":"09","day":3,"hhmm":"0600","lat":13,"lon":-156,"ss":4,"idp_source":"EP122026_pts","idp_filedate":1788732207000,"idp_ingestdate":1788732368000,"binnumber":"CP4"}},{"type":"Feature","id":15549,"geometry":{"type":"Point","coordinates":[-156.69999999970014,13.40000000029994]},"properties":{"objectid":15549,"stormname":"LOWELL","stormtype":"HU","stormnum":12,"intensity":120,"basin":"ep","mslp":945,"dtg":2026090312,"year":2026,"month":"09","day":3,"hhmm":"1200","lat":13,"lon":-157,"ss":4,"idp_source":"EP122026_pts","idp_filedate":1788732207000,"idp_ingestdate":1788732368000,"binnumber":"CP4"}},{"type":"Feature","id":15550,"geometry":{"type":"Point","coordinates":[-157.59999999970015,13.500000000100044]},"properties":{"objectid":15550,"stormname":"LOWELL","stormtype":"HU","stormnum":12,"intensity":120,"basin":"ep","mslp":945,"dtg":2026090318,"year":2026,"month":"09","day":3,"hhmm":"1800","lat":14,"lon":-158,"ss":4,"idp_source":"EP122026_pts","idp_filedate":1788732207000,"idp_ingestdate":1788732368000,"binnumber":"CP4"}},{"type":"Feature","id":15551,"geometry":{"type":"Point","coordinates":[-158.39999999989999,13.500000000100044]},"properties":{"objectid":15551,"stormname":"LOWELL","stormtype":"HU","stormnum":12,"intensity":115,"basin":"ep","mslp":943,"dtg":2026090400,"year":2026,"month":"09","day":4,"hhmm":"0000","lat":14,"lon":-158,"ss":4,"idp_source":"EP122026_pts","idp_filedate":1788732207000,"idp_ingestdate":1788732368000,"binnumber":"CP4"}},{"type":"Feature","id":15552,"geometry":{"type":"Point","coordinates":[-159.20000000009983,13.500000000100044]},"properties":{"objectid":15552,"stormname":"LOWELL","stormtype":"HU","stormnum":12,"intensity":110,"basin":"ep","mslp":947,"dtg":2026090406,"year":2026,"month":"09","day":4,"hhmm":"0600","lat":14,"lon":-159,"ss":3,"idp_source":"EP122026_pts","idp_filedate":1788732207000,"idp_ingestdate":1788732368000,"binnumber":"CP4"}},{"type":"Feature","id":15553,"geometry":{"type":"Point","coordinates":[-159.79999999980006,13.299999999600459]},"properties":{"objectid":15553,"stormname":"LOWELL","stormtype":"HU","stormnum":12,"intensity":110,"basin":"ep","mslp":947,"dtg":2026090412,"year":2026,"month":"09","day":4,"hhmm":"1200","lat":13,"lon":-160,"ss":3,"idp_source":"EP122026_pts","idp_filedate":1788732207000,"idp_ingestdate":1788732368000,"binnumber":"CP4"}},{"type":"Feature","id":15554,"geometry":{"type":"Point","coordinates":[-160.40000000039961,13.199999999800298]},"properties":{"objectid":15554,"stormname":"LOWELL","stormtype":"HU","stormnum":12,"intensity":130,"basin":"ep","mslp":930,"dtg":2026090418,"year":2026,"month":"09","day":4,"hhmm":"1800","lat":13,"lon":-160,"ss":4,"idp_source":"EP122026_pts","idp_filedate":1788732207000,"idp_ingestdate":1788732368000,"binnumber":"CP4"}},{"type":"Feature","id":15555,"geometry":{"type":"Point","coordinates":[-161.09999999990001,13.199999999800298]},"properties":{"objectid":15555,"stormname":"LOWELL","stormtype":"HU","stormnum":12,"intensity":130,"basin":"ep","mslp":924,"dtg":2026090500,"year":2026,"month":"09","day":5,"hhmm":"0000","lat":13,"lon":-161,"ss":4,"idp_source":"EP122026_pts","idp_filedate":1788732207000,"idp_ingestdate":1788732368000,"binnumber":"CP4"}},{"type":"Feature","id":15556,"geometry":{"type":"Point","coordinates":[-161.69999999960021,13.199999999800298]},"properties":{"objectid":15556,"stormname":"LOWELL","stormtype":"HU","stormnum":12,"intensity":140,"basin":"ep","mslp":922,"dtg":2026090506,"year":2026,"month":"09","day":5,"hhmm":"0600","lat":13,"lon":-162,"ss":5,"idp_source":"EP122026_pts","idp_filedate":1788732207000,"idp_ingestdate":1788732368000,"binnumber":"CP4"}},{"type":"Feature","id":15557,"geometry":{"type":"Point","coordinates":[-162.30000000019976,13.299999999600459]},"properties":{"objectid":15557,"stormname":"LOWELL","stormtype":"HU","stormnum":12,"intensity":130,"basin":"ep","mslp":931,"dtg":2026090512,"year":2026,"month":"09","day":5,"hhmm":"1200","lat":13,"lon":-162,"ss":4,"idp_source":"EP122026_pts","idp_filedate":1788732207000,"idp_ingestdate":1788732368000,"binnumber":"CP4"}},{"type":"Feature","id":15558,"geometry":{"type":"Point","coordinates":[-162.89999999989999,13.40000000029994]},"properties":{"objectid":15558,"stormname":"LOWELL","stormtype":"HU","stormnum":12,"intensity":125,"basin":"ep","mslp":936,"dtg":2026090518,"year":2026,"month":"09","day":5,"hhmm":"1800","lat":13,"lon":-163,"ss":4,"idp_source":"EP122026_pts","idp_filedate":1788732207000,"idp_ingestdate":1788732368000,"binnumber":"CP4"}},{"type":"Feature","id":15559,"geometry":{"type":"Point","coordinates":[-163.20000000019976,13.599999999900206]},"properties":{"objectid":15559,"stormname":"LOWELL","stormtype":"HU","stormnum":12,"intensity":115,"basin":"ep","mslp":942,"dtg":2026090600,"year":2026,"month":"09","day":6,"hhmm":"0000","lat":14,"lon":-163,"ss":4,"idp_source":"EP122026_pts","idp_filedate":1788732207000,"idp_ingestdate":1788732368000,"binnumber":"CP4"}},{"type":"Feature","id":15560,"geometry":{"type":"Point","coordinates":[-163.49999999960022,14.000000000000114]},"properties":{"objectid":15560,"stormname":"LOWELL","stormtype":"HU","stormnum":12,"intensity":115,"basin":"ep","mslp":942,"dtg":2026090606,"year":2026,"month":"09","day":6,"hhmm":"0600","lat":14,"lon":-164,"ss":4,"idp_source":"EP122026_pts","idp_filedate":1788732207000,"idp_ingestdate":1788732368000,"binnumber":"CP4"}},{"type":"Feature","id":15561,"geometry":{"type":"Point","coordinates":[-163.7999999999,14.400000000100079]},"properties":{"objectid":15561,"stormname":"LOWELL","stormtype":"HU","stormnum":12,"intensity":110,"basin":"ep","mslp":943,"dtg":2026090612,"year":2026,"month":"09","day":6,"hhmm":"1200","lat":14,"lon":-164,"ss":3,"idp_source":"EP122026_pts","idp_filedate":1788732207000,"idp_ingestdate":1788732368000,"binnumber":"CP4"}},{"type":"Feature","id":15562,"geometry":{"type":"Point","coordinates":[-163.7999999999,14.800000000199987]},"properties":{"objectid":15562,"stormname":"LOWELL","stormtype":"HU","stormnum":12,"intensity":110,"basin":"ep","mslp":943,"dtg":2026090618,"year":2026,"month":"09","day":6,"hhmm":"1800","lat":15,"lon":-164,"ss":3,"idp_source":"EP122026_pts","idp_filedate":1788732207000,"idp_ingestdate":1788732368000,"binnumber":"CP4"}}]}