{"type":"FeatureCollection","features":[{"type":"Feature","id":496,"geometry":{"type":"LineString","coordinates":[[-161.80000000029969,18.699999999600436],[-161.09999999990001,20.899999999700356],[-160.79999999960023,23.800000000199987],[-161.09999999990001,25.899999999600425],[-162.39999999999992,27.500000000000171],[-164.79999999970013,27.900000000100079],[-167.39999999989999,27.599999999800275],[-170.99999999990001,27.599999999800275],[-171.99999999970015,30.000000000399837]]},"properties":{"objectid":496,"stormname":"Lowell","stormtype":"HU","basin":"EP","advdate":"1100 AM HST Mon Sep 07 2026","advisnum":"47","fcstprd":120,"stormnum":12,"idp_source":"ep122026-047_5day_lin","idp_filedate":1788814985000,"idp_ingestdate":1788815104000,"st_length(shape)":20.657383858690483,"binnumber":"CP4"}}]}