{"type":"FeatureCollection","features":[{"type":"Feature","id":3745,"geometry":{"type":"LineString","coordinates":[[-136.70000000009986,10.099999999700344],[-136.39999999980006,10.200000000399825],[-135.99999999970015,10.300000000199987],[-135.49999999980008,10.400000000000148],[-135.09999999970012,10.599999999600414]]},"properties":{"objectid":3745,"stormtype":"DB","stormnum":12,"ss":0,"idp_source":"EP122026_lin","idp_filedate":1788966475000,"idp_ingestdate":1788966646000,"st_length(shape)":1.6856538757653743,"binnumber":"CP4"}},{"type":"Feature","id":3746,"geometry":{"type":"LineString","coordinates":[[-135.09999999970012,10.599999999600414],[-134.99999999990001,10.800000000100056]]},"properties":{"objectid":3746,"stormtype":"LO","stormnum":12,"ss":0,"idp_source":"EP122026_lin","idp_filedate":1788966475000,"idp_ingestdate":1788966646000,"st_length(shape)":0.22360679810747661,"binnumber":"CP4"}},{"type":"Feature","id":3747,"geometry":{"type":"LineString","coordinates":[[-134.99999999990001,10.800000000100056],[-134.80000000029969,10.899999999900217],[-134.40000000019978,10.999999999700378],[-134.00000000009982,11.200000000199964]]},"properties":{"objectid":3747,"stormtype":"DB","stormnum":12,"ss":0,"idp_source":"EP122026_lin","idp_filedate":1788966475000,"idp_ingestdate":1788966646000,"st_length(shape)":1.0831309557261397,"binnumber":"CP4"}},{"type":"Feature","id":3748,"geometry":{"type":"LineString","coordinates":[[-134.00000000009982,11.200000000199964],[-133.59999999999991,11.300000000000125],[-133.00000000029968,11.600000000299929],[-132.69999999999993,12.299999999800264],[-133.10000000009984,12.399999999600425],[-133.79999999960023,12.399999999600425],[-134.49999999999989,12.600000000100067],[-135.30000000019976,12.900000000399814],[-136.39999999980006,13.100000000000136],[-137.60000000009984,13.199999999800298],[-138.59999999989998,13.199999999800298],[-139.80000000019976,13.299999999600459],[-141.29999999989997,13.299999999600459],[-142.79999999960023,13.199999999800298],[-143.69999999960021,13.000000000199975],[-145.20000000019976,12.79999999970039],[-146.00000000039961,12.79999999970039],[-147.00000000019978,12.900000000399814],[-148.09999999980008,13.000000000199975],[-148.89999999999992,13.299999999600459]]},"properties":{"objectid":3748,"stormtype":"TS","stormnum":12,"ss":0,"idp_source":"EP122026_lin","idp_filedate":1788966475000,"idp_ingestdate":1788966646000,"st_length(shape)":18.26826581332752,"binnumber":"CP4"}},{"type":"Feature","id":3749,"geometry":{"type":"LineString","coordinates":[[-148.89999999999992,13.299999999600459],[-149.89999999980006,13.500000000100044],[-150.79999999980006,13.500000000100044]]},"properties":{"objectid":3749,"stormtype":"HU","stormnum":12,"ss":1,"idp_source":"EP122026_lin","idp_filedate":1788966475000,"idp_ingestdate":1788966646000,"st_length(shape)":1.9198039026205591,"binnumber":"CP4"}},{"type":"Feature","id":3750,"geometry":{"type":"LineString","coordinates":[[-150.79999999980006,13.500000000100044],[-151.69999999980007,13.500000000100044]]},"properties":{"objectid":3750,"stormtype":"HU","stormnum":12,"ss":3,"idp_source":"EP122026_lin","idp_filedate":1788966475000,"idp_ingestdate":1788966646000,"st_length(shape)":0.90000000000000568,"binnumber":"CP4"}},{"type":"Feature","id":3751,"geometry":{"type":"LineString","coordinates":[[-151.69999999980007,13.500000000100044],[-152.69999999960021,13.40000000029994],[-153.7000000002997,13.299999999600459]]},"properties":{"objectid":3751,"stormtype":"HU","stormnum":12,"ss":4,"idp_source":"EP122026_lin","idp_filedate":1788966475000,"idp_ingestdate":1788966646000,"st_length(shape)":2.0099751247710342,"binnumber":"CP4"}},{"type":"Feature","id":3752,"geometry":{"type":"LineString","coordinates":[[-153.7000000002997,13.299999999600459],[-154.70000000009983,13.299999999600459]]},"properties":{"objectid":3752,"stormtype":"HU","stormnum":12,"ss":5,"idp_source":"EP122026_lin","idp_filedate":1788966475000,"idp_ingestdate":1788966646000,"st_length(shape)":0.99999999980013854,"binnumber":"CP4"}},{"type":"Feature","id":3753,"geometry":{"type":"LineString","coordinates":[[-154.70000000009983,13.299999999600459],[-155.79999999970013,13.299999999600459],[-156.69999999970014,13.40000000029994],[-157.59999999970015,13.500000000100044],[-158.39999999989999,13.500000000100044],[-159.20000000009983,13.500000000100044]]},"properties":{"objectid":3753,"stormtype":"HU","stormnum":12,"ss":4,"idp_source":"EP122026_lin","idp_filedate":1788966475000,"idp_ingestdate":1788966646000,"st_length(shape)":4.5110770276826528,"binnumber":"CP4"}},{"type":"Feature","id":3754,"geometry":{"type":"LineString","coordinates":[[-159.20000000009983,13.500000000100044],[-159.79999999980006,13.299999999600459],[-160.40000000039961,13.199999999800298]]},"properties":{"objectid":3754,"stormtype":"HU","stormnum":12,"ss":3,"idp_source":"EP122026_lin","idp_filedate":1788966475000,"idp_ingestdate":1788966646000,"st_length(shape)":1.2407317854956337,"binnumber":"CP4"}},{"type":"Feature","id":3755,"geometry":{"type":"LineString","coordinates":[[-160.40000000039961,13.199999999800298],[-161.09999999990001,13.199999999800298],[-161.69999999960021,13.199999999800298]]},"properties":{"objectid":3755,"stormtype":"HU","stormnum":12,"ss":4,"idp_source":"EP122026_lin","idp_filedate":1788966475000,"idp_ingestdate":1788966646000,"st_length(shape)":1.2999999992005939,"binnumber":"CP4"}},{"type":"Feature","id":3756,"geometry":{"type":"LineString","coordinates":[[-161.69999999960021,13.199999999800298],[-162.30000000019976,13.299999999600459]]},"properties":{"objectid":3756,"stormtype":"HU","stormnum":12,"ss":5,"idp_source":"EP122026_lin","idp_filedate":1788966475000,"idp_ingestdate":1788966646000,"st_length(shape)":0.60827625358836146,"binnumber":"CP4"}},{"type":"Feature","id":3757,"geometry":{"type":"LineString","coordinates":[[-162.30000000019976,13.299999999600459],[-162.89999999989999,13.40000000029994],[-163.20000000019976,13.599999999900206],[-163.49999999960022,14.000000000000114],[-163.7999999999,14.400000000100079]]},"properties":{"objectid":3757,"stormtype":"HU","stormnum":12,"ss":4,"idp_source":"EP122026_lin","idp_filedate":1788966475000,"idp_ingestdate":1788966646000,"st_length(shape)":1.9688313804032558,"binnumber":"CP4"}},{"type":"Feature","id":3758,"geometry":{"type":"LineString","coordinates":[[-163.7999999999,14.400000000100079],[-163.7999999999,14.800000000199987],[-163.70000000009983,15.399999999900217],[-163.39999999980006,16.100000000299929],[-162.89999999989999,17.000000000299906],[-162.20000000039963,18.000000000100044]]},"properties":{"objectid":3758,"stormtype":"HU","stormnum":12,"ss":3,"idp_source":"EP122026_lin","idp_filedate":1788966475000,"idp_ingestdate":1788966646000,"st_length(shape)":4.020072139046321,"binnumber":"CP4"}},{"type":"Feature","id":3759,"geometry":{"type":"LineString","coordinates":[[-162.20000000039963,18.000000000100044],[-161.49999999999991,19.499999999800309],[-160.90000000029968,21.200000000000159],[-160.69999999980007,23.000000000000114],[-160.69999999980007,24.499999999700378]]},"properties":{"objectid":3759,"stormtype":"HU","stormnum":12,"ss":2,"idp_source":"EP122026_lin","idp_filedate":1788966475000,"idp_ingestdate":1788966646000,"st_length(shape)":6.7691472008256603,"binnumber":"CP4"}},{"type":"Feature","id":3760,"geometry":{"type":"LineString","coordinates":[[-160.69999999980007,24.499999999700378],[-160.90000000029968,25.700000000000159]]},"properties":{"objectid":3760,"stormtype":"HU","stormnum":12,"ss":1,"idp_source":"EP122026_lin","idp_filedate":1788966475000,"idp_ingestdate":1788966646000,"st_length(shape)":1.216552506437482,"binnumber":"CP4"}},{"type":"Feature","id":3761,"geometry":{"type":"LineString","coordinates":[[-160.90000000029968,25.700000000000159],[-161.09999999990001,26.90000000029994],[-161.69999999960021,27.699999999600436]]},"properties":{"objectid":3761,"stormtype":"HU","stormnum":12,"ss":1,"idp_source":"EP122026_lin","idp_filedate":1788966475000,"idp_ingestdate":1788966646000,"st_length(shape)":2.2165525055501578,"binnumber":"CP4"}}]}