{"type": "FeatureCollection", "features": [{"type": "Feature", "id": 4061, "geometry": {"type": "Point", "coordinates": [-160.79999999960023, 21.900000000399814]}, "properties": {"objectid": 4061, "stormname": "Hurricane Lowell", "stormtype": "HU", "dvlbl": "H", "basin": "EP", "advdate": "1100 PM HST Mon Sep 07 2026", "advisnum": "49", "fcstprd": 120, "gust": 115, "maxwind": 95, "mslp": 963, "ssnum": 2, "datelbl": "11:00 PM Mon", "tcdvlp": "Hurricane", "tcdir": 20, "tcspd": 16, "fldatelbl": "2026-09-07 8:00 PM Mon HST", "lat": 22, "lon": -161, "stormnum": 12, "stormsrc": "Tropical Cyclone", "tau": 0, "timezone": "HST", "validtime": "08/0600", "idp_source": "ep122026-049_5day_pts", "idp_filedate": 1788859371000, "idp_ingestdate": 1788859423000, "binnumber": "CP4", "MAXWIND": 95, "VALIDTIME": "08/0600"}}, {"type": "Feature", "id": 4062, "geometry": {"type": "Point", "coordinates": [-160.50000000019978, 24.09999999960047]}, "properties": {"objectid": 4062, "stormname": "Hurricane Lowell", "stormtype": "HU", "dvlbl": "H", "basin": "EP", "advdate": "1100 PM HST Mon Sep 07 2026", "advisnum": "49", "fcstprd": 120, "gust": 100, "maxwind": 80, "mslp": 9999, "ssnum": 1, "datelbl": "8:00 AM Tue", "tcdvlp": "Hurricane", "tcdir": 9999, "tcspd": 9999, "fldatelbl": "2026-09-08 8:00 AM Tue HST", "lat": 24, "lon": -160, "stormnum": 12, "stormsrc": "Tropical Cyclone", "tau": 12, "timezone": "HST", "validtime": "08/1800", "idp_source": "ep122026-049_5day_pts", "idp_filedate": 1788859371000, "idp_ingestdate": 1788859423000, "binnumber": "CP4", "MAXWIND": 80, "VALIDTIME": "08/1800"}}, {"type": "Feature", "id": 4063, "geometry": {"type": "Point", "coordinates": [-160.90000000029968, 26.29999999970039]}, "properties": {"objectid": 4063, "stormname": "Hurricane Lowell", "stormtype": "HU", "dvlbl": "H", "basin": "EP", "advdate": "1100 PM HST Mon Sep 07 2026", "advisnum": "49", "fcstprd": 120, "gust": 80, "maxwind": 65, "mslp": 9999, "ssnum": 1, "datelbl": "8:00 PM Tue", "tcdvlp": "Hurricane", "tcdir": 9999, "tcspd": 9999, "fldatelbl": "2026-09-08 8:00 PM Tue HST", "lat": 26, "lon": -161, "stormnum": 12, "stormsrc": "Tropical Cyclone", "tau": 24, "timezone": "HST", "validtime": "09/0600", "idp_source": "ep122026-049_5day_pts", "idp_filedate": 1788859371000, "idp_ingestdate": 1788859423000, "binnumber": "CP4", "MAXWIND": 65, "VALIDTIME": "09/0600"}}, {"type": "Feature", "id": 4064, "geometry": {"type": "Point", "coordinates": [-162.49999999980008, 27.699999999600436]}, "properties": {"objectid": 4064, "stormname": "Hurricane Lowell", "stormtype": "TS", "dvlbl": "S", "basin": "EP", "advdate": "1100 PM HST Mon Sep 07 2026", "advisnum": "49", "fcstprd": 120, "gust": 65, "maxwind": 55, "mslp": 9999, "ssnum": 0, "datelbl": "8:00 AM Wed", "tcdvlp": "Tropical Storm", "tcdir": 9999, "tcspd": 9999, "fldatelbl": "2026-09-09 8:00 AM Wed HST", "lat": 28, "lon": -162, "stormnum": 12, "stormsrc": "Tropical Cyclone", "tau": 36, "timezone": "HST", "validtime": "09/1800", "idp_source": "ep122026-049_5day_pts", "idp_filedate": 1788859371000, "idp_ingestdate": 1788859423000, "binnumber": "CP4", "MAXWIND": 55, "VALIDTIME": "09/1800"}}, {"type": "Feature", "id": 4065, "geometry": {"type": "Point", "coordinates": [-164.79999999970013, 28.200000000399825]}, "properties": {"objectid": 4065, "stormname": "Hurricane Lowell", "stormtype": "TS", "dvlbl": "S", "basin": "EP", "advdate": "1100 PM HST Mon Sep 07 2026", "advisnum": "49", "fcstprd": 120, "gust": 60, "maxwind": 50, "mslp": 9999, "ssnum": 0, "datelbl": "8:00 PM Wed", "tcdvlp": "Tropical Storm", "tcdir": 9999, "tcspd": 9999, "fldatelbl": "2026-09-09 8:00 PM Wed HST", "lat": 28, "lon": -165, "stormnum": 12, "stormsrc": "Tropical Cyclone", "tau": 48, "timezone": "HST", "validtime": "10/0600", "idp_source": "ep122026-049_5day_pts", "idp_filedate": 1788859371000, "idp_ingestdate": 1788859423000, "binnumber": "CP4", "MAXWIND": 50, "VALIDTIME": "10/0600"}}, {"type": "Feature", "id": 4066, "geometry": {"type": "Point", "coordinates": [-167.3999999999, 27.99999999990024]}, "properties": {"objectid": 4066, "stormname": "Hurricane Lowell", "stormtype": "TS", "dvlbl": "S", "basin": "EP", "advdate": "1100 PM HST Mon Sep 07 2026", "advisnum": "49", "fcstprd": 120, "gust": 55, "maxwind": 45, "mslp": 9999, "ssnum": 0, "datelbl": "8:00 AM Thu", "tcdvlp": "Tropical Storm", "tcdir": 9999, "tcspd": 9999, "fldatelbl": "2026-09-10 8:00 AM Thu HST", "lat": 28, "lon": -167, "stormnum": 12, "stormsrc": "Tropical Cyclone", "tau": 60, "timezone": "HST", "validtime": "10/1800", "idp_source": "ep122026-049_5day_pts", "idp_filedate": 1788859371000, "idp_ingestdate": 1788859423000, "binnumber": "CP4", "MAXWIND": 45, "VALIDTIME": "10/1800"}}, {"type": "Feature", "id": 4067, "geometry": {"type": "Point", "coordinates": [-169.50000000019978, 27.90000000010008]}, "properties": {"objectid": 4067, "stormname": "Hurricane Lowell", "stormtype": "TS", "dvlbl": "S", "basin": "EP", "advdate": "1100 PM HST Mon Sep 07 2026", "advisnum": "49", "fcstprd": 120, "gust": 50, "maxwind": 40, "mslp": 9999, "ssnum": 0, "datelbl": "8:00 PM Thu", "tcdvlp": "Tropical Storm", "tcdir": 9999, "tcspd": 9999, "fldatelbl": "2026-09-10 8:00 PM Thu HST", "lat": 28, "lon": -170, "stormnum": 12, "stormsrc": "Tropical Cyclone", "tau": 72, "timezone": "HST", "validtime": "11/0600", "idp_source": "ep122026-049_5day_pts", "idp_filedate": 1788859371000, "idp_ingestdate": 1788859423000, "binnumber": "CP4", "MAXWIND": 40, "VALIDTIME": "11/0600"}}, {"type": "Feature", "id": 4068, "geometry": {"type": "Point", "coordinates": [-171.7000000002997, 28.99999999970038]}, "properties": {"objectid": 4068, "stormname": "Hurricane Lowell", "stormtype": "TS", "dvlbl": "S", "basin": "EP", "advdate": "1100 PM HST Mon Sep 07 2026", "advisnum": "49", "fcstprd": 120, "gust": 45, "maxwind": 35, "mslp": 9999, "ssnum": 0, "datelbl": "8:00 PM Fri", "tcdvlp": "Tropical Storm", "tcdir": 9999, "tcspd": 9999, "fldatelbl": "2026-09-11 8:00 PM Fri HST", "lat": 29, "lon": -172, "stormnum": 12, "stormsrc": "Tropical Cyclone", "tau": 96, "timezone": "HST", "validtime": "12/0600", "idp_source": "ep122026-049_5day_pts", "idp_filedate": 1788859371000, "idp_ingestdate": 1788859423000, "binnumber": "CP4", "MAXWIND": 35, "VALIDTIME": "12/0600"}}, {"type": "Feature", "id": 4069, "geometry": {"type": "Point", "coordinates": [-173.0000000003996, 30.500000000299906]}, "properties": {"objectid": 4069, "stormname": "Hurricane Lowell", "stormtype": "TS", "dvlbl": "S", "basin": "EP", "advdate": "1100 PM HST Mon Sep 07 2026", "advisnum": "49", "fcstprd": 120, "gust": 45, "maxwind": 35, "mslp": 9999, "ssnum": 0, "datelbl": "8:00 PM Sat", "tcdvlp": "Tropical Storm", "tcdir": 9999, "tcspd": 9999, "fldatelbl": "2026-09-12 8:00 PM Sat HST", "lat": 30, "lon": -173, "stormnum": 12, "stormsrc": "Tropical Cyclone", "tau": 120, "timezone": "HST", "validtime": "13/0600", "idp_source": "ep122026-049_5day_pts", "idp_filedate": 1788859371000, "idp_ingestdate": 1788859423000, "binnumber": "CP4", "MAXWIND": 35, "VALIDTIME": "13/0600"}}]}