{"type":"FeatureCollection","features":[{"type":"Feature","id":516,"geometry":{"type":"Polygon","coordinates":[[[-162.35979999967017,27.838619999713387],[-162.33861000005137,27.83608000039186],[-162.31615999988401,27.835280000371881],[-162.30476000027372,27.835740000001124],[-162.26862000011283,27.838619999713387],[-162.24489000027322,27.842770000435337],[-162.22174000020078,27.84819000036839],[-162.19951000028621,27.854769999835753],[-162.17856000004389,27.86260999985177],[-162.15875000021225,27.871610000301416],[-162.14009000035315,27.881759999824283],[-162.12271000016631,27.893180000356892],[-162.09865999995895,27.912319999868259],[-162.09116000033367,27.919239999726358],[-162.0696100003012,27.940929999919717],[-162.04970999991647,27.96422999971486],[-162.04336999982556,27.972300000444818],[-162.02633999959122,27.998490000413312],[-162.01654000002091,28.017279999972175],[-162.00870000000492,28.037350000102549],[-162.00317000039513,28.058579999767346],[-162.00005999996895,28.080610000351385],[-161.99973000003939,28.103099999665403],[-162.00202999998444,28.125710000016625],[-162.0064099996217,28.148080000092079],[-162.00964000018578,28.158579999567451],[-162.02023000021427,28.190759999674412],[-162.02920999974162,28.210599999990166],[-162.03934000014081,28.229290000333378],[-162.05083999986601,28.246590000428341],[-162.06374999986252,28.262509999836766],[-162.07778999980857,28.277269999710882],[-162.10093999988101,28.297339999841256],[-162.11774999986253,28.309329999679903],[-162.14434999985252,28.325940000330888],[-162.15343999995596,28.331249999687884],[-162.18178999970863,28.346129999699883],[-162.19122000020278,28.351090000003637],[-162.21010999987652,28.361009999711882],[-162.22898999998844,28.37093000031939],[-162.24740999957174,28.381309999656878],[-162.26537999998692,28.392150000422305],[-162.28311000012633,28.40322000010309],[-162.30084000026571,28.414300000244964],[-162.31857000040512,28.425369999925692],[-162.34563000002441,28.441520000048115],[-162.35472000012783,28.446819999843285],[-162.37313999971113,28.457200000080093],[-162.40032999992948,28.473239999626401],[-162.40931999991798,28.478659999559454],[-162.42705000005736,28.489730000139559],[-162.44478000019677,28.500799999820288],[-162.46249000031318,28.511879999962161],[-162.48047000029021,28.522719999828269],[-162.49866000005886,28.533329999879754],[-162.51709000010334,28.543710000116562],[-162.53527999987202,28.554320000167991],[-162.55323999982605,28.565160000034098],[-162.57096999996546,28.576240000176028],[-162.58870000010484,28.587309999856757],[-162.60641000022125,28.598380000436805],[-162.62439000019828,28.609220000302912],[-162.64257999996696,28.619830000354398],[-162.6610100000114,28.630209999691886],[-162.67919999978008,28.640830000204517],[-162.69717000019529,28.651670000070567],[-162.71490000033467,28.662739999751352],[-162.72365000004737,28.668390000398347],[-162.74965999980907,28.685579999917195],[-162.766939999881,28.697119999688368],[-162.78423000041411,28.708649999897716],[-162.8015000000249,28.720189999668889],[-162.81024000017578,28.725840000315884],[-162.83672999958972,28.742559999744344],[-162.86389000022325,28.758589999728827],[-162.8731100000264,28.763790000308404],[-162.89197999967718,28.773699999555504],[-162.92031999986801,28.788579999567446],[-162.92975000036213,28.793539999871257],[-162.94864000003588,28.803459999579445],[-162.96707000008035,28.81383999981631],[-162.98501999957324,28.82467999968236],[-163.00276000017379,28.83575999982429],[-163.02049000031317,28.846830000404339],[-163.03821999955326,28.857900000085067],[-163.05618000040661,28.868750000412319],[-163.07462000001291,28.879129999749807],[-163.09350999968666,28.889050000357372],[-163.12194999999244,28.903810000231488],[-163.13149999972512,28.908659999959184],[-163.15082999990449,28.918109999576984],[-163.17950000002492,28.932639999636422],[-163.19873000008934,28.942219999853251],[-163.21798999973862,28.951789999608934],[-163.22754000037065,28.95664000023595],[-163.24663999983605,28.966330000129574],[-163.26621999985304,28.975549999932696],[-163.28577999984702,28.98478000019702],[-163.31582999975461,28.997929999569976],[-163.32608000029171,29.002080000291926],[-163.34683000030418,29.010150000122565],[-163.37768999979357,29.022500000374862],[-163.39827999962222,29.030690000343384],[-163.40853999972114,29.034840000166014],[-163.42833999999092,29.043830000154514],[-163.44792000000791,29.053060000418839],[-163.46772999983955,29.062059999969165],[-163.48728999983354,29.071290000233489],[-163.50711000012632,29.08028000022199],[-163.53808999975359,29.092510000336404],[-163.55904999955774,29.100350000352364],[-163.56952999990949,29.104270000360373],[-163.60175000006237,29.115230000364363],[-163.62340999977158,29.122389999598965],[-163.63422999961472,29.125959999654413],[-163.66646999979059,29.136919999658403],[-163.6772899996337,29.140500000174995],[-163.7097799996472,29.151219999903219],[-163.73140999977159,29.158369999575939],[-163.75330000019477,29.165290000333414],[-163.7643400002907,29.168640000136065],[-163.79796999981556,29.178209999891749],[-163.82064999979758,29.184320000168043],[-163.84344000035566,29.190319999868223],[-163.8661299998995,29.196439999706342],[-163.88858000006687,29.202779999797315],[-163.91080000041961,29.209349999702852],[-163.93279999962022,29.216159999884212],[-163.95477000013531,29.222970000065573],[-163.97702000007286,29.229539999971166],[-163.99945000021725,29.235880000062082],[-164.02215999978409,29.241990000338376],[-164.04506999958073,29.247880000361874],[-164.06808000039163,29.253639999786287],[-164.09113000034915,29.259409999671902],[-164.11416999984553,29.265179999557461],[-164.13717999975711,29.270950000342395],[-164.1487000004046,29.273830000054602],[-164.18323999962621,29.282479999652423],[-164.20626999956076,29.288250000437301],[-164.22930999995646,29.294009999861771],[-164.25231999986801,29.299779999747329],[-164.27536000026373,29.305549999632944],[-164.28686999955076,29.308430000244471],[-164.31011999973811,29.313970000315408],[-164.34549000036316,29.321810000331368],[-164.36932000031769,29.326769999735859],[-164.39336999962569,29.331500000224992],[-164.41745000031719,29.336229999814805],[-164.44140999997146,29.341069999980675],[-164.46536000006387,29.345919999708372],[-164.48931999971813,29.350759999874242],[-164.51324000022575,29.355609999601938],[-164.5373200000179,29.360340000091071],[-164.56139999981008,29.365069999680884],[-164.58534000034066,29.369909999846755],[-164.60940999967167,29.374640000335887],[-164.63370000015482,29.379140000111079],[-164.65821999955327,29.383410000071592],[-164.67054999978259,29.385480000201994],[-164.70818999986852,29.391020000272931],[-164.73306000011883,29.39494000028094],[-164.7576000004396,29.399210000241453],[-164.78201000016131,29.403589999878761],[-164.80643000034416,29.407970000415332],[-164.83094999974261,29.412240000375846],[-164.85579999996995,29.416160000383854],[-164.88092000005787,29.419849999677865],[-164.9057900003082,29.423780000147019],[-164.93030999970665,29.428039999646387],[-164.95470999986651,29.432420000183015],[-164.97925000018728,29.436690000143528],[-165.00412000043758,29.440619999713363],[-165.02955999999392,29.443959999954188],[-165.04244999996746,29.445459999879233],[-165.08138999974861,29.449729999839747],[-165.10683000020427,29.453070000080572],[-165.13169999955525,29.456999999650407],[-165.15621999985302,29.461260000049094],[-165.18076000017379,29.465530000009664],[-165.20563000042409,29.469450000017616],[-165.23108000044158,29.472799999820268],[-165.25695999960422,29.475680000431794],[-165.28287999971215,29.478569999705883],[-165.30832000016778,29.481909999946708],[-165.33321000044108,29.48582999995466],[-165.34551999974812,29.487909999646888],[-165.38225999969916,29.494369999875744],[-165.4072599996492,29.498169999745812],[-165.43303000003439,29.501169999595959],[-165.44616999984555,29.502439999706382],[-165.48623999957624,29.50555000013253],[-165.51270999986653,29.507859999639436],[-165.53850999983655,29.510860000388845],[-165.56348999976359,29.514669999820796],[-165.58801000006139,29.518930000219484],[-165.61255000038213,29.523200000179997],[-165.6375300003092,29.527009999611948],[-165.66341999993298,29.529890000223475],[-165.69028000022175,29.531849999777819],[-165.71756000009384,29.533349999702864],[-165.74483999996596,29.534849999627909],[-165.77170000025473,29.536810000081573],[-165.78492999971962,29.537960000054113],[-165.82258999982855,29.54350000012505],[-165.84711000012632,29.547770000085563],[-165.87163000042409,29.552029999584931],[-165.89661999991299,29.555839999916202],[-165.92251999999792,29.558719999628408],[-165.94946000037865,29.560570000405335],[-165.97711000022625,29.561720000377875],[-166.00496999986552,29.562639999636417],[-166.03259000012832,29.563800000070103],[-166.05954000007088,29.565649999947709],[-166.08544999971764,29.568529999659916],[-166.11044000010585,29.572330000429304],[-166.13498000042659,29.576600000389874],[-166.15949999982504,29.580870000350387],[-166.18447999975211,29.584679999782281],[-166.21039000029819,29.587560000393864],[-166.23734000024075,29.589410000271414],[-166.26507999974211,29.590440000106071],[-166.29329000023324,29.591019999873254],[-166.32149999982505,29.591599999640437],[-166.34924000022576,29.592639999936182],[-166.37619000016829,29.594480000251963],[-166.40209999981505,29.597370000425315],[-166.42709000020326,29.60117000029544],[-166.45162999962471,29.605440000255953],[-166.47614999992248,29.609710000216467],[-166.50112999984952,29.613510000086592],[-166.52704000039563,29.616400000259944],[-166.55399000033816,29.618239999676405],[-166.58172999983955,29.61927999997215],[-166.61005999956924,29.61973999960145],[-166.63872000012782,29.619859999739333],[-166.66751000038613,29.619859999739333],[-166.69631999976809,29.619859999739333],[-166.72508000044158,29.619859999739333],[-166.75388000026172,29.619859999739333],[-166.78266999962071,29.619859999739333],[-166.81145000031719,29.619859999739333],[-166.84023999967616,29.619859999739333],[-166.86900000034967,29.619859999739333],[-166.89780000016978,29.619859999739333],[-166.92659000042809,29.619859999739333],[-166.95537000022526,29.619859999739333],[-166.98415999958422,29.619859999739333],[-167.01296999986553,29.619859999739333],[-167.0417299996397,29.619859999739333],[-167.07053000035916,29.619859999739333],[-167.09931999971815,29.619859999739333],[-167.12810000041461,29.619859999739333],[-167.1568899997736,29.619859999739333],[-167.18565000044708,29.619859999739333],[-167.21445000026722,29.619859999739333],[-167.24323999962621,29.619859999739333],[-167.27202000032267,29.619859999739333],[-167.30080999968166,29.619859999739333],[-167.32961999996294,29.619859999739333],[-167.35837999973711,29.619859999739333],[-167.38717999955725,29.619859999739333],[-167.41596999981556,29.619859999739333],[-167.44474999961272,29.619859999739333],[-167.47353999987101,29.619859999739333],[-167.5022999996452,29.619859999739333],[-167.53110000036466,29.619859999739333],[-167.55988999972362,29.619859999739333],[-167.58867000042011,29.619859999739333],[-167.6174599997791,29.619859999739333],[-167.64627000006038,29.619859999739333],[-167.67502999983455,29.619859999739333],[-167.70382999965469,29.619859999739333],[-167.732619999913,29.619859999739333],[-167.76139999971014,29.619859999739333],[-167.79006999983056,29.61973999960145],[-167.81838999999843,29.61927999997215],[-167.84615000042211,29.618239999676405],[-167.87308000034167,29.616400000259944],[-167.89898999998843,29.613510000086592],[-167.92398000037664,29.609710000216467],[-167.94851999979807,29.605440000255953],[-167.97302000007286,29.60117000029544],[-167.9980200000229,29.597370000425315],[-168.02392999966966,29.594480000251963],[-168.05087000005039,29.592639999936182],[-168.0786400000359,29.591599999640437],[-168.10696000020377,29.591140000011137],[-168.13561999986302,29.591019999873254],[-168.16441000012134,29.591019999873254],[-168.19320999994147,29.591019999873254],[-168.22196999971564,29.591019999873254],[-168.25075999997395,29.591019999873254],[-168.27957000025523,29.591019999873254],[-168.3083300000294,29.591019999873254],[-168.33712999984954,29.591019999873254],[-168.36592000010785,29.591019999873254],[-168.39469999990499,29.591019999873254],[-168.4234900001633,29.591019999873254],[-168.45226999996046,29.591019999873254],[-168.48106000021875,29.591019999873254],[-168.50986000003888,29.591019999873254],[-168.53861999981305,29.591019999873254],[-168.56741000007136,29.591019999873254],[-168.59622000035264,29.591019999873254],[-168.62498000012684,29.591019999873254],[-168.65377999994698,29.591019999873254],[-168.68257000020526,29.591019999873254],[-168.71135000000243,29.591019999873254],[-168.74014000026074,29.591019999873254],[-168.76881000038114,29.591140000011137],[-168.79712999964968,29.591599999640437],[-168.82489000007337,29.592639999936182],[-168.8518400000159,29.594480000251963],[-168.87774999966268,29.597370000425315],[-168.90272999958972,29.60117000029544],[-168.92724999988752,29.605440000255953],[-168.95177999974712,29.609710000216467],[-168.97675999967416,29.613510000086592],[-169.00265999975912,29.616400000259944],[-169.02962000016279,29.618239999676405],[-169.05737000012533,29.61927999997215],[-169.0857100003162,29.61973999960145],[-169.1143600004136,29.619859999739333],[-169.14316000023373,29.619859999739333],[-169.17194999959273,29.619859999739333],[-169.20073000028921,29.619859999739333],[-169.22940000040961,29.619970000315391],[-169.25771999967816,29.62042999994469],[-169.28548000010184,29.621470000240436],[-169.3124100000214,29.623320000118042],[-169.33831999966819,29.626199999830249],[-169.36331000005637,29.630010000161519],[-169.38785000037714,29.634269999660887],[-169.41234999975262,29.638539999621401],[-169.43734999970266,29.642349999952671],[-169.46326000024874,29.645229999664878],[-169.49007999959224,29.647190000118542],[-169.51740000040962,29.648690000043587],[-169.54468000028172,29.650189999968688],[-169.57149999962522,29.652150000422353],[-169.59741000017129,29.655039999696385],[-169.62239000009833,29.658839999566453],[-169.64679000025822,29.663229999664907],[-169.67087000005037,29.667949999692894],[-169.69480999968167,29.67280000031991],[-169.71889000037314,29.677529999909723],[-169.73096999986552,29.679840000315892],[-169.75469999970514,29.684910000296441],[-169.77794999989251,29.690450000367377],[-169.80050999973662,29.696679999882235],[-169.83231000030619,29.708100000414845],[-169.85199000043809,29.717209999641909],[-169.86154000017081,29.72204999980778],[-169.88699000018829,29.739810000431305],[-169.89493000031919,29.746269999760841],[-169.9019500002922,29.753650000147559],[-169.91519000021825,29.769230000064567],[-169.9269399997811,29.786300000344909],[-169.93742000013282,29.80463999983624],[-169.94674999961271,29.824130000199489],[-169.9551700002952,29.844550000282425],[-169.96297999982704,29.865539999671398],[-169.97011999993796,29.887220000302932],[-169.97635000035217,29.909829999754834],[-169.98163000012434,29.933360000263917],[-169.98590000008485,29.95793000016954],[-169.98889000037315,29.983759999724327],[-169.99074000025072,30.010760000174002],[-169.99177999964718,30.038550000182511],[-169.99224999973762,30.066930000419347],[-169.99247999955227,30.09553000000966],[-169.99294000008086,30.12391000024644],[-169.99396000035367,30.151700000254948],[-169.9957999997701,30.178690000243478],[-169.99868999994348,30.204650000397351],[-170.00246999979058,30.22967000037039],[-170.00673000018929,30.254240000275956],[-170.01102000017281,30.278810000181522],[-170.0148000000199,30.303839999716331],[-170.01767000017028,30.329790000308435],[-170.01952000004789,30.356780000296908],[-170.02056999990549,30.384579999867242],[-170.02103000043411,30.412949999642933],[-170.02114999967267,30.441679999832274],[-170.02126000024873,30.470389999998645],[-170.02173000033918,30.498770000235481],[-170.02276999973563,30.526569999805815],[-170.02459999959024,30.553559999794288],[-170.02746999974062,30.579510000386335],[-170.02953999987102,30.591850000177487],[-170.03553999957126,30.629109999826767],[-170.03990000008486,30.653559999594449],[-170.0441700000454,30.678130000399335],[-170.04807999959223,30.703039999796317],[-170.04993000036916,30.715619999863236],[-170.05568999979357,30.753099999765311],[-170.05995000019229,30.777669999670877],[-170.06444000040563,30.802009999761822],[-170.06914999997244,30.826109999576943],[-170.07399000013831,30.850110000176528],[-170.07873999975112,30.874209999991649],[-170.08343999975611,30.898320000267915],[-170.08838999959872,30.922190000268415],[-170.0935700001553,30.945840000016119],[-170.09897000006538,30.969250000387376],[-170.10463000027423,30.992439999606461],[-170.11050000027473,31.015390000348361],[-170.1165899996287,31.038110000376378],[-170.12292000015779,31.060599999690396],[-170.12949000006338,31.082869999650882],[-170.13638000033666,31.104780000097094],[-170.14353999957126,31.126459999829251],[-170.15067999968215,31.148150000022611],[-170.15793000036913,31.169720000078087],[-170.16553000010933,31.190940000181001],[-170.17337000012532,31.211929999569975],[-170.18129999979507,31.23281000018153],[-170.18960999990151,31.253339999941204],[-170.19812000023774,31.273639999886257],[-170.20641999988302,31.294169999645931],[-170.21448000015181,31.314939999681371],[-170.22265999965919,31.335580000017103],[-170.23082000004288,31.356229999914717],[-170.23898000042661,31.376870000250449],[-170.24761999956326,31.397059999619444],[-170.25670999966667,31.416779999797313],[-170.27031000000642,31.446419999683371],[-170.27490000033467,31.456229999714878],[-170.28851000023624,31.485869999600936],[-170.29266000005887,31.496140000161006],[-170.30083999956625,31.51679000005862],[-170.31314000021075,31.547700000055102],[-170.3171699998955,31.558080000291909],[-170.32535000030219,31.578719999728321],[-170.33397999987702,31.598909999996636],[-170.3430800004416,31.618630000174505],[-170.3476899998935,31.628440000206012],[-170.36176000032367,31.657619999563451],[-170.37625000033717,31.686340000191024],[-170.38097000036515,31.69603000008459],[-170.38580000006988,31.705599999840274],[-170.40503000013433,31.744010000361357],[-170.40975999972414,31.75370000025498],[-170.41459999989002,31.763270000010664],[-170.42898999978857,31.792109999876743],[-170.44327000001041,31.82106000031888],[-170.44809000015331,31.830630000074564],[-170.45778000004688,31.849780000047133],[-170.46248999961372,31.8594699999407],[-170.48171999967818,31.897879999562463],[-170.48655999984405,31.907450000217466],[-170.49612000003791,31.926720000327919],[-170.51052999995946,31.955549999732852],[-170.51535000010236,31.965120000387856],[-170.52963000032418,31.994069999930673],[-170.5393099997566,32.013219999903242],[-170.54425000003741,32.022679999982131],[-170.55414999972263,32.041600000140022],[-170.56428999968367,32.060280000022146],[-170.57485999968915,32.078500000274914],[-170.58581999969314,32.09638000013706],[-170.59685999978907,32.114139999861266],[-170.60791000034615,32.131910000046616],[-170.62427000026022,32.158779999897206],[-170.62957999961722,32.167899999585472],[-170.63476999973562,32.177120000287914],[-170.65582000009286,32.213689999593953],[-170.66124000002591,32.222690000043599],[-170.67218000000693,32.240560000343862],[-170.68874999971263,32.26720000037983],[-170.69426999976059,32.276079999792273],[-170.70522000020276,32.293959999654419],[-170.71593000036916,32.312070000230449],[-170.73159999993996,32.339639999986161],[-170.73687999971213,32.348750000112545],[-170.74758999987853,32.366859999789312],[-170.76406999993048,32.393619999963164],[-170.77535999986404,32.411149999872748],[-170.78687000005038,32.428449999967654],[-170.79836999977559,32.445759999624443],[-170.80991000044608,32.463059999719349],[-170.82141000017128,32.480359999814311],[-170.8271600000339,32.489010000311396],[-170.8386799997821,32.506310000406359],[-170.85018999996845,32.523609999601945],[-170.86170999971662,32.540909999696851],[-170.87319999988,32.558220000252959],[-170.89047000039014,32.584169999945686],[-170.89624000027572,32.592820000442828],[-170.91350999988651,32.618770000135555],[-170.9192799997721,32.62741999973332],[-170.93078999995845,32.644719999828283],[-170.94228999968365,32.662019999923189],[-170.95383000035415,32.679320000018151],[-170.96533000007938,32.696620000113057],[-170.97684000026572,32.713929999769846],[-170.99410999987651,32.739880000361893],[-170.9998799997621,32.748529999959658],[-171.01715000027221,32.774479999652385],[-171.0229200001578,32.783130000149526],[-171.04018000020676,32.809090000303399],[-171.04593000006938,32.817739999901221],[-171.06319999968017,32.843689999593948],[-171.07472000032769,32.860989999688854],[-171.08646000032869,32.878059999969196],[-171.0984500001673,32.894900000434802],[-171.10454999998242,32.903200000080062],[-171.11688000021175,32.919700000155046],[-171.12942999979458,32.935959999954207],[-171.14818999976859,32.960409999721833],[-171.16039999986003,32.977020000372875],[-171.16638000043659,32.985440000156018],[-171.17825000013733,33.002399999860245],[-171.19561999986303,33.028239999876234],[-171.20138999974861,33.036890000373376],[-171.21289000037314,33.054189999568962],[-171.23015999998393,33.080140000161009],[-171.23592999986951,33.088789999758831],[-171.24744000005589,33.106089999853737],[-171.25893999978109,33.123389999948699],[-171.27047999955226,33.140690000043605],[-171.28797999987702,33.166420000382857],[-171.29395999955426,33.174840000166],[-171.3000800002917,33.18313999981126],[-171.31837000017529,33.208050000107562],[-171.33093000021927,33.224320000367868],[-171.34969000019328,33.248770000135551],[-171.34957999961722,33.248890000273434],[-171.3678900004231,33.273799999670416],[-171.37974999966266,33.290760000273963],[-171.39712999984954,33.316600000289952],[-171.40866000005889,33.333889999923713],[-171.41440000035965,33.342540000420854],[-171.42592000010785,33.359850000077586],[-171.43743999985602,33.377150000172492],[-171.45471000036613,33.403099999865219],[-171.46046000022875,33.41175000036236],[-171.47197999997695,33.429049999558003],[-171.48926000004889,33.455000000150051],[-171.4950099999115,33.463649999747815],[-171.50650000007488,33.480960000303924],[-171.52378999970864,33.506909999996651],[-171.53531000035616,33.524210000091557],[-171.54106000021875,33.532859999689379],[-171.54681000008136,33.54151000018652],[-171.5640900001533,33.567470000340393],[-171.58112999994947,33.593649999847742],[-171.58664999999743,33.602530000159504],[-171.5976000004396,33.62041000002165],[-171.61361999996296,33.647629999824801],[-171.61879999962022,33.656849999627923],[-171.63455000018229,33.684300000145015],[-171.63467000032017,33.684189999568957],[-171.65093999968116,33.711179999557487],[-171.66772000007788,33.737589999778834],[-171.67348999996346,33.746249999837744],[-171.68500999971164,33.763549999932707],[-171.7022699997606,33.789499999625434],[-171.70803999964619,33.798150000122575],[-171.71942000013283,33.815570000355365],[-171.73610999997643,33.842090000253449],[-171.74694999984254,33.860090000253479],[-171.75226000009886,33.869200000379863],[-171.76272999998943,33.887539999871251],[-171.77849999967518,33.914990000388343],[-171.77863000027421,33.914879999812285],[-171.79485999958922,33.941860000238989],[-171.81166000000891,33.968280000022105],[-171.82317999975712,33.985580000117068],[-171.8289299996197,33.994229999714833],[-171.84043999980608,34.011540000270941],[-171.85195999955425,34.028840000365847],[-171.86923000006436,34.054790000058574],[-171.87497000036515,34.063439999656396],[-171.88074000025074,34.072090000153537],[-171.89800999986153,34.098039999846264],[-171.90952000004788,34.11533999994117],[-171.92103999979608,34.132640000036133],[-171.9325600004436,34.149940000131039],[-171.94408000019178,34.167240000226002],[-171.95557999991698,34.184549999882734],[-171.97286999955077,34.210499999575461],[-171.97860999985153,34.219150000072602],[-171.99014000006088,34.236450000167508],[-172.00165999980908,34.253750000262471],[-172.01316999999543,34.271059999919203],[-172.02468999974363,34.288360000014109],[-172.03619000036815,34.305660000109071],[-172.04769999965518,34.322960000203977],[-172.06497000016529,34.348909999896705],[-172.07074000005088,34.357560000393846],[-172.08223999977611,34.374859999589432],[-172.09951999984804,34.400810000181536],[-172.10528999973363,34.409470000240447],[-172.12256000024374,34.435419999933174],[-172.13405999996894,34.452720000028137],[-172.14557000015532,34.470020000123043],[-172.15121000034117,34.478789999858748],[-172.16790999974663,34.505320000217978],[-172.17334000014083,34.514310000206478],[-172.178619999913,34.523429999894745],[-172.1945000001748,34.550760000273954],[-172.20499000008834,34.569099999765342],[-172.21039999956025,34.578089999753843],[-172.22664000023573,34.605090000203518],[-172.2378100000314,34.622729999789783],[-172.25496999996545,34.648799999620451],[-172.26073000028921,34.657450000117535],[-172.27223000001442,34.674759999774324],[-172.28374999976259,34.692050000307404],[-172.28951000008635,34.700710000366371],[-172.3125600000439,34.73530999965692],[-172.31830999990649,34.743960000154004],[-172.33556999995545,34.769909999846789],[-172.34133999984104,34.778560000343873],[-172.35861000035115,34.804519999598426],[-172.37011999963821,34.821819999693389],[-172.3931600000339,34.856419999883258],[-172.4046599997591,34.873719999978164],[-172.41042000008287,34.882369999575985],[-172.4277000001548,34.908320000168032],[-172.43921000034118,34.925620000262938],[-172.44496000020376,34.934280000321905],[-172.45647999995197,34.951580000416811],[-172.46799000013831,34.968879999612454],[-172.47950999988652,34.98617999970736],[-172.4852599997491,34.994830000204502],[-172.50253000025924,35.020779999897229],[-172.51981000033118,35.046740000051102],[-172.53131000005638,35.064040000146008],[-172.54282000024273,35.081340000240971],[-172.54857999966717,35.089989999838792],[-172.56585999973913,35.11594000043084],[-172.57736000036365,35.133239999626426],[-172.58890000013483,35.150539999721332],[-172.600419999883,35.167839999816294],[-172.60051999999791,35.167730000139557],[-172.61812999999941,35.193340000340868],[-172.63023000041412,35.210059999769328],[-172.6425500001823,35.22655000028243],[-172.65509000020327,35.242819999643416],[-172.67387000020028,35.267270000310418],[-172.67995999955426,35.275569999955678],[-172.69827000036014,35.300489999813806],[-172.70437999973711,35.308790000358385],[-172.72292999991947,35.333469999940689],[-172.73581000033118,35.349390000248434],[-172.74942000023276,35.364620000212994],[-172.76323000036416,35.379609999901731],[-172.77036999957573,35.386879999712335],[-172.78464000023575,35.401409999771829],[-172.80629000038314,35.422979999827248],[-172.81342999959472,35.430249999637908],[-172.83507000018028,35.451819999693384],[-172.8422100002912,35.459079999942162],[-172.85660000018979,35.473500000324918],[-172.87099999965019,35.487919999808298],[-172.88537999998692,35.502340000190998],[-172.90691999955826,35.524019999923212],[-172.91417999980706,35.531169999595932],[-172.93593999963122,35.55262999997467],[-172.95091000019627,35.566469999690867],[-172.95850999993647,35.573270000310401],[-172.98198999993846,35.593000000050097],[-172.99834999985254,35.605450000417306],[-173.00665000039712,35.611559999794281],[-173.02322000010284,35.623789999908695],[-173.048099999915,35.642130000299403],[-173.06445000026721,35.654590000228495],[-173.08056999990549,35.667270000410326],[-173.09692000025774,35.679730000339362],[-173.11348999996346,35.691959999554456],[-173.1217800000469,35.69806999983075],[-173.13836999977559,35.710299999945164],[-173.16324000002589,35.728640000335872],[-173.179579999917,35.741100000264964],[-173.19571000001642,35.753780000446795],[-173.20389000042312,35.760009999961653],[-173.22863999963619,35.778469999590982],[-173.23704999985753,35.784470000190481],[-173.26249999987502,35.802229999914687],[-173.27977000038513,35.813760000124034],[-173.28852999965969,35.819409999871766],[-173.31501999997295,35.836139999761315],[-173.32400999996145,35.841559999694368],[-173.35138000038663,35.857359999864229],[-173.37027000006037,35.867279999572474],[-173.37971000011635,35.872250000337374],[-173.40826000009886,35.886890000073606],[-173.4276100003012,35.896350000152552],[-173.44674999981257,35.906040000046119],[-173.46585000017728,35.915729999939686],[-173.48518000035665,35.925190000018631],[-173.50429999984505,35.934879999912198],[-173.52340999977159,35.944560000243939],[-173.53307999964218,35.949289999833752],[-173.55230999970664,35.958859999589436],[-173.58097999982706,35.973400000110075],[-173.60031000000643,35.982860000189021],[-173.61945000041712,35.992550000082588],[-173.63854999988251,36.002230000414329],[-173.65790000008485,36.011689999593955],[-173.67703000003439,36.021380000386841],[-173.69613999996096,36.031070000280408],[-173.71573000043909,36.040290000083587],[-173.73529000043311,36.049520000347911],[-173.75510000026472,36.058519999898238],[-173.77556999995545,36.066830000004643],[-173.79654000022074,36.074670000020603],[-173.81748999956375,36.082510000036621],[-173.83890999989652,36.089899999985164],[-173.86056999960573,36.097049999657884],[-173.88221999975312,36.10420000022998],[-173.90362999962471,36.111579999717378],[-173.9252599997491,36.118730000289418],[-173.94692999991949,36.12589000042334],[-173.96856999960573,36.133029999634914],[-174.00082000024275,36.143989999638904],[-174.01162999962472,36.147559999694352],[-174.03329000023325,36.154719999828274],[-174.05492999991949,36.16187000040037],[-174.08762999972464,36.172360000313915],[-174.09868999984354,36.175710000116567],[-174.12103000033417,36.182170000345366],[-174.1436199997631,36.188399999860223],[-174.17791999960821,36.197280000172043],[-174.20104999965767,36.202929999919718],[-174.21267999998193,36.205699999955186],[-174.24804999970763,36.213539999971147],[-174.25988999982357,36.216080000191994],[-174.28383000035416,36.220920000357864],[-174.32000999966169,36.227960000353903],[-174.33196999991549,36.23038000043681],[-174.36800999996146,36.237530000109587],[-174.38009999991499,36.239839999616436],[-174.41683999986603,36.246299999845235],[-174.42913999961121,36.248369999975637],[-174.46679999972014,36.253910000046631],[-174.49166999997044,36.257839999616408],[-174.50400000019977,36.25990999974681],[-174.52840999992148,36.264290000283438],[-174.55283000010434,36.268680000381835],[-174.59012000023773,36.274559999944188],[-174.60280000041962,36.276280000122028],[-174.64299000028819,36.279290000433321],[-174.67074999981256,36.28032000026792],[-174.69906999998045,36.28077999989722],[-174.72774000010085,36.280900000035103],[-174.75651999989799,36.280900000035103],[-174.78519000001842,36.281020000172987],[-174.81351000018628,36.281479999802286],[-174.82755000013233,36.281820000193022],[-174.86819000006838,36.284360000413812],[-174.89409999971514,36.287249999687901],[-174.91898000042661,36.290939999881232],[-174.93097000026523,36.292669999620955],[-174.96654999978259,36.297970000315388],[-174.98969000029319,36.299929999869732],[-175.0127099997666,36.299929999869732],[-175.03585999983903,36.297970000315388],[-175.07144000025573,36.292669999620955],[-175.08341999963321,36.290939999881232],[-175.10828999988351,36.287249999687901],[-175.13418999996844,36.284360000413812],[-175.16113000034917,36.282520000098089],[-175.18890000033468,36.281479999802286],[-175.2172100000414,36.281020000172987],[-175.2458800001618,36.280900000035103],[-175.27469000044309,36.280900000035103],[-175.3033399996412,36.28077999989722],[-175.33167000027021,36.280329999829746],[-175.3594099997716,36.279290000433321],[-175.3863700001753,36.277439999656394],[-175.41227999982206,36.274559999944188],[-175.4372599997491,36.270749999612917],[-175.4617800000469,36.266479999652404],[-175.48618999976861,36.262100000015153],[-175.51071000006638,36.257830000054582],[-175.54814000036066,36.25206999973085],[-175.56070000040461,36.250219999853243],[-175.59787000040012,36.244220000153007],[-175.61007999959224,36.242029999884721],[-175.63437999963719,36.237530000109587],[-175.65844999986751,36.232799999620454],[-175.68239999995996,36.227960000353903],[-175.70647000019028,36.22322999986477],[-175.73052999995946,36.218500000274958],[-175.7662200000529,36.211010000211502],[-175.78970000005489,36.205699999955186],[-175.80135000040212,36.202929999919718],[-175.82449000001341,36.197280000172043],[-175.84739999981008,36.19139999971037],[-175.87009000025324,36.18527999987225],[-175.9037199997781,36.175710000116567],[-175.91477999989701,36.172360000313915],[-175.93665000029719,36.165439999556497],[-175.95828000042161,36.158289999883721],[-175.99075000041211,36.147570000155554],[-176.00159000027821,36.143989999638904],[-176.02312999984954,36.136719999828301],[-176.05547999970216,36.125879999962194],[-176.07712000028772,36.118730000289418],[-176.08794999969265,36.115160000233971],[-176.10947999970216,36.107890000423311],[-176.13100999971164,36.100619999713388],[-176.1526500002972,36.093470000040611],[-176.17418999986853,36.086200000229951],[-176.20583999981608,36.074670000020603],[-176.2163200001678,36.070750000012652],[-176.24729999979508,36.058519999898238],[-176.26710999962671,36.049520000347911],[-176.28668000008187,36.040290000083587],[-176.29645999962921,36.035679999732338],[-176.31582999985454,36.026219999653392],[-176.33493000021926,36.016529999759825],[-176.35416000028371,36.006960000004142],[-176.37337999988702,35.997390000248458],[-176.39252000029771,35.987700000354891],[-176.42142000023276,35.973400000110075],[-176.43096999996544,35.968550000382379],[-176.45007000033019,35.958859999589436],[-176.46930000039464,35.949300000294897],[-176.48852999955974,35.939720000078069],[-176.50762999992449,35.930030000184502],[-176.53654000032068,35.915729999939686],[-176.55565999980908,35.906040000046119],[-176.57455000038215,35.896120000337874],[-176.58399999999992,35.89116000003412],[-176.60265999985904,35.881000000050108],[-176.62981999959322,35.864979999627451],[-176.64754999973263,35.85390000038484],[-176.6564300000444,35.848369999875729],[-176.67414999972263,35.837289999733855],[-176.70098999998842,35.820920000257956],[-176.71008000009186,35.815610000001641],[-176.73758000021675,35.799920000407838],[-176.75554999973264,35.789079999642411],[-176.77305999961922,35.777780000147061],[-176.78158999997845,35.771899999685388],[-176.8066700000204,35.753780000446795],[-176.82280000011983,35.741100000264964],[-176.83095999960423,35.73486999985073],[-176.85574000020077,35.716419999783284],[-176.87230999990649,35.70418999966887],[-176.88889999963521,35.691959999554456],[-176.89708000004188,35.685730000039598],[-176.92113999981106,35.666589999628911],[-176.93657000000542,35.653210000441334],[-176.95200000019977,35.639819999893234],[-176.95972000007788,35.633140000310902],[-176.97536999962571,35.619990000038626],[-176.99966000010883,35.601069999880735],[-177.01626999986053,35.588839999766321],[-177.03283999956625,35.576620000113053],[-177.0491899999185,35.564160000184017],[-177.0571300000494,35.557699999955162],[-177.08777000018529,35.530709999966689],[-177.0952499997876,35.52379000010859],[-177.10975999982406,35.509489999863774],[-177.12424999983756,35.495189999618958],[-177.13853000005938,35.480649999997638],[-177.1530499996577,35.466349999752822],[-177.16732999987951,35.451819999693384],[-177.18181999989301,35.437520000347888],[-177.19610999967668,35.422979999827248],[-177.2103899998985,35.408449999767811],[-177.22420999959172,35.393460000079074],[-177.2377899999085,35.37823000011457],[-177.25069000034316,35.362309999806769],[-177.26311999978807,35.345929999869725],[-177.27532999987952,35.329320000118059],[-177.29375999992399,35.304520000397872],[-177.29995999985402,35.296330000429293],[-177.31286999985053,35.280419999683374],[-177.32622999991449,35.264959999904193],[-177.33958000041662,35.249500000125067],[-177.35293999958125,35.234049999907711],[-177.36584000001591,35.218129999599967],[-177.37827999992197,35.201749999662923],[-177.39026000019877,35.184910000096579],[-177.40198000017679,35.167839999816294],[-177.41351000038614,35.150539999721332],[-177.42501999967317,35.133239999626426],[-177.43652000029769,35.11594000043084],[-177.45380999993148,35.089989999838792],[-177.4595599997941,35.081340000240971],[-177.47106999998044,35.064029999684863],[-177.48787999996196,35.037620000362892],[-177.49340999957175,35.02874000005113],[-177.50423999987601,35.010749999612926],[-177.51956000039362,34.982829999904709],[-177.52451000023623,34.973380000286909],[-177.53440999992148,34.954460000129075],[-177.54407000023025,34.935310000156505],[-177.55836000001392,34.906359999714368],[-177.56320000017979,34.896789999958685],[-177.57285999958924,34.877639999986172],[-177.58206000026871,34.85803000038436],[-177.59128000007186,34.838419999883229],[-177.60027000006039,34.818590000028621],[-177.61258000026672,34.787669999570994],[-177.61660999995146,34.77729000023345],[-177.62894000018079,34.746380000236968],[-177.64127000041012,34.715470000240487],[-177.64101999967318,34.715240000425808],[-177.64957000005538,34.694939999581436],[-177.66211000007638,34.664260000298896],[-177.6661399997611,34.653880000062088],[-177.67397000021526,34.632880000211969],[-177.68503000033417,34.600700000105064],[-177.69170000035467,34.578559999844288],[-177.69802999998444,34.556069999630949],[-177.70412999979959,34.533340000041107],[-177.71001999982306,34.51039000019847],[-177.71566999957074,34.487209999641891],[-177.72095000024225,34.463680000032127],[-177.72579999996995,34.439689999893744],[-177.73015999958423,34.415229999664916],[-177.73407000003041,34.390309999806789],[-177.73591999990799,34.377740000201015],[-177.74168000023175,34.34026000029894],[-177.74593999973112,34.315690000393374],[-177.74813999956126,34.303469999840786],[-177.75457999976709,34.266669999820806],[-177.75839000009836,34.24164000028594],[-177.76126000024874,34.215680000132068],[-177.76241000022125,34.202420000182997],[-177.76413000039912,34.16090000013503],[-177.76459000002839,34.13251999989825],[-177.7647100001663,34.103800000169997],[-177.7647100001663,34.074969999865743],[-177.7647100001663,34.046129999999664],[-177.7647100001663,34.017299999695354],[-177.7647100001663,33.988459999829274],[-177.7647100001663,33.95963000042434],[-177.76459000002839,33.930909999796825],[-177.76413000039912,33.902529999559988],[-177.76309000010335,33.87473999955148],[-177.76126000024874,33.84774999956295],[-177.75837999963719,33.821790000308397],[-177.75457999976709,33.796759999874212],[-177.75030999980657,33.772200000429848],[-177.74593999973112,33.74774000020102],[-177.74170000025472,33.72317999985728],[-177.73776000022374,33.698269999560978],[-177.73409999961521,33.673119999888229],[-177.73201000036116,33.660769999635932],[-177.72577000038513,33.623750000262419],[-177.72095000024225,33.599760000124036],[-177.71565000044708,33.576229999614952],[-177.71001000026124,33.553049999957693],[-177.70412999979959,33.53008999965391],[-177.69802999998444,33.507369999625951],[-177.6917099999165,33.484880000311932],[-177.68511999998793,33.462619999913215],[-177.67822000015281,33.440699999905235],[-177.67108000004188,33.41902000017302],[-177.66393999993099,33.397329999979661],[-177.6567100001663,33.375759999924185],[-177.64907999994196,33.354550000282416],[-177.64127000041012,33.333550000432297],[-177.63711999968817,33.323279999872227],[-177.62009000035317,33.282679999982179],[-177.6108699996507,33.263079999942192],[-177.60164999984755,33.24347000034038],[-177.59197999997696,33.224320000367868],[-177.58713999981106,33.214740000151039],[-177.57759000007837,33.195479999602469],[-177.56802000032269,33.176219999953162],[-177.55353000030919,33.147500000224966],[-177.54407999979207,33.128120000437832],[-177.53925000008735,33.118549999782829],[-177.52472999958974,33.089830000054576],[-177.5200200000229,33.080140000161009],[-177.51043999980607,33.060879999612439],[-177.50066999982056,33.04184999977781],[-177.49075000011234,33.022929999619919],[-177.47546000007887,32.995020000372847],[-177.46462999977459,32.977020000372875],[-177.45910999972662,32.968140000061112],[-177.44229000018328,32.941729999839765],[-177.43654000032069,32.933069999780798],[-177.41924999978758,32.907120000088071],[-177.41349999992499,32.898480000052132],[-177.40775000006238,32.889819999993165],[-177.39046999999044,32.863870000300437],[-177.37320000037963,32.83791999970839],[-177.36733999994098,32.829390000248452],[-177.34948999966369,32.804009999861762],[-177.3432800001718,32.79581999989324],[-177.33059999998994,32.779669999770817],[-177.31079000015831,32.756260000298937],[-177.29745000011735,32.740799999620435],[-177.2907699996357,32.733079999742358],[-177.27118000005689,32.709429999994654],[-177.26498000012683,32.701240000026132],[-177.24655000008235,32.676440000305888],[-177.23433999999094,32.659829999654903],[-177.2281200000379,32.651639999686381],[-177.21545000031719,32.635489999563958],[-177.19540000020976,32.612309999906699],[-177.18850999993649,32.604810000281418],[-177.16732999987951,32.582790000158525],[-177.1530499996577,32.568249999637942],[-177.14577999984704,32.561099999965165],[-177.12424999983756,32.539409999771806],[-177.1170000000499,32.532260000099086],[-177.09547000004039,32.510580000366872],[-177.08096000000393,32.496280000122056],[-177.07371999977809,32.489130000449279],[-177.05148000030169,32.468129999699897],[-177.03629000038313,32.454519999798322],[-177.02833999979109,32.448059999569466],[-177.00405999976911,32.42914999987272],[-176.98747000004039,32.416919999758306],[-176.97090000033467,32.404689999643892],[-176.95454000042062,32.392229999714857],[-176.93862999967467,32.379319999718348],[-176.92322000040261,32.365939999631451],[-176.90777999974711,32.352560000443816],[-176.90007000033017,32.345870000400339],[-176.8764500001673,32.326259999899207],[-176.8682899997836,32.320030000384349],[-176.84353999967118,32.301580000316903],[-176.82696999996546,32.289350000202489],[-176.81865999985902,32.283239999926195],[-176.79400999986154,32.264669999720866],[-176.77789000022327,32.251979999977152],[-176.76157000035516,32.239520000048117],[-176.74495999970415,32.227300000394848],[-176.72814999972263,32.215300000095056],[-176.71110999992649,32.203540000071087],[-176.69382999985453,32.192000000299913],[-176.67633000042909,32.180699999905244],[-176.65860000028971,32.169619999763313],[-176.64064000033568,32.158779999897206],[-176.62221999985303,32.148399999660398],[-176.60333000017928,32.138479999952153],[-176.58443999960622,32.128560000243965],[-176.56556999995547,32.1186399996364],[-176.54666000025873,32.108719999928212],[-176.52823000021425,32.098339999691405],[-176.51027999982205,32.087499999825297],[-176.49256999970564,32.076419999683367],[-176.48369999985505,32.070890000073575],[-176.4570900003032,32.05428000032191],[-176.43913000034917,32.043439999556483],[-176.42072000032769,32.033060000218995],[-176.40161000040112,32.023370000325372],[-176.38226000019878,32.013910000246483],[-176.36245999992897,32.00490999979678],[-176.34195999975412,31.99661000015152],[-176.3212299997646,31.988540000320882],[-176.30074999961272,31.980230000214476],[-176.28001000006137,31.972160000383838],[-176.25952000034766,31.963850000277432],[-176.23972000007785,31.954860000288932],[-176.22014000006087,31.945630000024607],[-176.20031999976811,31.936629999574961],[-176.1807599997741,31.927400000210014],[-176.15070999986654,31.914260000398826],[-176.14046000022876,31.910100000115051],[-176.11971999977808,31.902030000284412],[-176.09923999962621,31.893720000178007],[-176.06826999956075,31.881499999625419],[-176.05801000036115,31.877349999802789],[-176.03821000009137,31.868350000252462],[-176.01863000007438,31.859119999988138],[-175.99882999980457,31.850129999999638],[-175.97926000024873,31.84089999973537],[-175.95943999995595,31.831900000184987],[-175.93893000021927,31.823599999640408],[-175.91820999979157,31.815520000247943],[-175.89772000007787,31.807219999703364],[-175.8769799996272,31.799140000310899],[-175.86664000033568,31.795100000165007],[-175.83600999976161,31.782529999659914],[-175.81572999983953,31.773989999738831],[-175.79501000031118,31.765919999908192],[-175.77428999988351,31.75785000007761],[-175.7538000001698,31.749539999971148],[-175.73305999971913,31.741470000140566],[-175.71234000019078,31.733400000309928],[-175.68194999989251,31.720599999990156],[-175.67180999993147,31.716330000029643],[-175.65109000040312,31.708249999737859],[-175.63034000039062,31.70017999990722],[-175.60986000023874,31.691880000261961],[-175.58913000024924,31.683799999970176],[-175.56838999979857,31.675730000139538],[-175.54814000036066,31.667190000218454],[-175.51750000022474,31.654619999713361],[-175.50714000001091,31.650579999567469],[-175.48641999958323,31.642509999736831],[-175.46594000033068,31.634199999630425],[-175.45556999965569,31.630169999945679],[-175.41434000039064,31.613790000008635],[-175.40420999999142,31.609520000048121],[-175.3839399996312,31.600989999688863],[-175.36322000010284,31.592910000296399],[-175.34249999967517,31.584839999566498],[-175.32198999993847,31.576530000359355],[-175.30127000041011,31.568459999629397],[-175.28054999998244,31.560380000236989],[-175.26027000006039,31.551849999877732],[-175.24001000016131,31.543309999956705],[-175.21928000017181,31.535240000126066],[-175.19855999974411,31.527159999834282],[-175.1780700000304,31.518860000189022],[-175.15732999957973,31.510779999897238],[-175.136859999889,31.502480000251978],[-175.11705000005739,31.493479999802275],[-175.08757000035516,31.479760000223962],[-175.07766999977059,31.475260000448827],[-175.06789000022326,31.470650000097578],[-175.03827000036014,31.457040000196002],[-175.01779000020827,31.448730000089597],[-174.99704000019577,31.440660000258958],[-174.97656000004389,31.432350000152553],[-174.95583000005439,31.424280000321914],[-174.93532999987951,31.415979999777335],[-174.91554000007088,31.406980000226952],[-174.89596999961572,31.397749999962684],[-174.87638999959873,31.38851999969836],[-174.85727000011033,31.378829999804793],[-174.83816999974562,31.369139999911226],[-174.8188200004426,31.359690000293426],[-174.79970000005488,31.350000000399859],[-174.78059000012834,31.340309999606916],[-174.76125000038712,31.330850000427347],[-174.74212999999943,31.321159999634403],[-174.72302000007286,31.311469999740837],[-174.70366999987053,31.302020000123036],[-174.68453999992099,31.29233000022947],[-174.67499000018827,31.287479999602454],[-174.64609000025322,31.273180000256957],[-174.62696999986554,31.26349000036339],[-174.61742000013282,31.25865000019752],[-174.5885299997596,31.244340000390821],[-174.56939999981006,31.23466000005908],[-174.55028999988352,31.224959999704367],[-174.54062000001292,31.22023999967638],[-174.51180999973164,31.205820000193],[-174.49271000026621,31.196130000299434],[-174.47336000006388,31.186670000220488],[-174.45425000013731,31.176980000326921],[-174.43537999958724,31.167059999719356],[-174.4164699998905,31.157149999572994],[-174.39807000033016,31.146770000235449],[-174.38009999991499,31.135919999908197],[-174.36236999977558,31.124850000227468],[-174.3446399996362,31.11377999964742],[-174.32691999995797,31.102709999966692],[-174.30893999998094,31.091870000100585],[-174.29073999975111,31.081249999587953],[-174.27230999970664,31.070870000250466],[-174.25411999993798,31.06026000019898],[-174.23618000000693,31.049420000332873],[-174.21844000030569,31.038340000190999],[-174.20071000016631,31.027269999610951],[-174.1829800000269,31.016199999930222],[-174.16500999961173,31.00534999960297],[-174.14681999984305,30.994739999551484],[-174.12838999979857,30.984360000213996],[-174.11020000002989,30.973750000162511],[-174.09224999963769,30.962910000296404],[-174.07450999993648,30.951839999716356],[-174.05677999979707,30.940759999574482],[-174.03904999965769,30.929689999893696],[-174.02108999970366,30.918850000027646],[-174.0119900000384,30.913539999771331],[-173.98446999989051,30.897859999739353],[-173.97537000022527,30.892550000382357],[-173.94830000014483,30.876400000259935],[-173.93057000000542,30.865329999679886],[-173.91283999986604,30.854259999999158],[-173.89510999972663,30.843179999857227],[-173.87714000021077,30.832339999991177],[-173.86803999964619,30.827040000196007],[-173.84054999998244,30.811349999702884],[-173.82232999972962,30.800739999651398],[-173.80438000023673,30.789899999785291],[-173.79549999992497,30.784359999714354],[-173.76912999974962,30.767520000148011],[-173.75186000013883,30.755980000376837],[-173.73460000008987,30.74445000016749],[-173.71732000001791,30.732910000396373],[-173.70867999998194,30.727150000072584],[-173.68253999962121,30.710079999792299],[-173.66483000040412,30.699010000111571],[-173.64685000042709,30.688159999784318],[-173.62865999975909,30.677549999732832],[-173.61022999971465,30.667170000395345],[-173.59203999994597,30.656560000343859],[-173.57407999999194,30.645719999578489],[-173.55634999985253,30.634640000335878],[-173.53885000042709,30.623339999941209],[-173.52157999991698,30.611800000170035],[-173.50429999984505,30.600269999960688],[-173.49567000027022,30.594500000075072],[-173.46975999972412,30.577199999980166],[-173.45247999965218,30.565669999770819],[-173.43521000004139,30.554129999999645],[-173.4265900000284,30.548369999675913],[-173.4006699999205,30.531060000019124],[-173.38338999984853,30.519529999809777],[-173.36612000023774,30.507990000038603],[-173.34884999972763,30.496459999829256],[-173.33156999965567,30.484929999619908],[-173.31430000004488,30.473389999848735],[-173.29703000043409,30.461859999639444],[-173.28839000039812,30.456089999753829],[-173.26247999985205,30.438789999658923],[-173.24521999980308,30.427260000348895],[-173.22795000019227,30.415719999678402],[-173.21065999965919,30.404190000368374],[-173.20203000008436,30.398419999583439],[-173.17612000043761,30.381120000387853],[-173.15886000038864,30.369590000178505],[-173.14160000033968,30.358050000407331],[-173.12432999982954,30.346520000197984],[-173.10706000021875,30.33498000042681],[-173.08978000014682,30.323450000217463],[-173.07272000032768,30.311679999732348],[-173.05591999990799,30.299689999893701],[-173.03933999974112,30.287459999779287],[-173.02297999982704,30.275010000311397],[-173.01491999955826,30.268659999759336],[-172.99050999983655,30.249859999739328],[-172.97394000013082,30.237629999624914],[-172.95735000040213,30.225409999971646],[-172.94077000023523,30.213179999857232],[-172.92441000032119,30.200719999928197],[-172.90853999962121,30.187809999931687],[-172.90093999988102,30.180999999750327],[-172.87836000001391,30.16034999985277],[-172.87111000022625,30.153200000179993],[-172.8495899997786,30.131520000447779],[-172.84268000038165,30.124019999923178],[-172.82216999974563,30.101299999895218],[-172.81586000013883,30.093219999603434],[-172.80365000004738,30.076620000312914],[-172.79236000011383,30.059079999942185],[-172.77703999959624,30.031169999795793],[-172.77762000026271,30.03059000002861],[-172.76849000011333,30.01086999985074],[-172.75584000041562,29.980300000244938],[-172.74768000003189,29.959659999909206],[-172.73961999976311,29.938889999873766],[-172.73534999980257,29.928749999912725],[-172.72705000015731,29.908209999691849],[-172.71451000013633,29.877530000409308],[-172.70644999986752,29.856769999935693],[-172.69829000038314,29.836120000038136],[-172.69008999995347,29.815479999702347],[-172.6820400001458,29.794720000128052],[-172.67779999977009,29.784569999705866],[-172.66523999972614,29.753890000423326],[-172.65694999964271,29.733359999764332],[-172.64889999983504,29.712589999728834],[-172.64072000032769,29.691950000292422],[-172.63253999992099,29.671300000394865],[-172.62436000041362,29.650649999597931],[-172.61987000020028,29.640740000350888],[-172.60663000027421,29.610740000051123],[-172.59752999970965,29.591019999873254],[-172.58841999958324,29.571299999695384],[-172.57935000040212,29.551569999955689],[-172.57069000034318,29.531390000148519],[-172.56252999995945,29.510740000250962],[-172.55434999955276,29.49009999991523],[-172.54617000004538,29.469450000017616],[-172.54202000022275,29.459189999918692],[-172.53350999988652,29.438880000411814],[-172.52014000026074,29.409009999811758],[-172.51058999962871,29.389750000162508],[-172.50058000026672,29.370950000142557],[-172.48999000023824,29.352720000327906],[-172.47903000023425,29.334850000027643],[-172.46799000013831,29.317090000303438],[-172.4624599996292,29.308200000429792],[-172.44599999960022,29.281440000255941],[-172.43529999989499,29.263329999679911],[-172.42480000041959,29.244990000188523],[-172.41432000006787,29.226649999797814],[-172.40362999992448,29.208549999682873],[-172.39266999992049,29.190669999820784],[-172.38150000012482,29.173019999773317],[-172.37011999963821,29.155610000001616],[-172.35849000021327,29.138419999583448],[-172.34663000007436,29.121459999879221],[-172.33452999965968,29.104739999551498],[-172.32220000032967,29.088249999937716],[-172.3096600003087,29.07197999967741],[-172.29712000028772,29.055719999878249],[-172.28477000003539,29.039219999803265],[-172.27257999996695,29.0226100000516],[-172.26038000033668,29.006000000299935],[-172.24805999966918,28.989509999786776],[-172.23540999997144,28.97335999966441],[-172.2221500000224,28.95779000020849],[-172.20846999959073,28.94268000038187],[-172.19440000005989,28.927919999608434],[-172.18013000029919,28.913390000448317],[-172.16572999993946,28.898970000065617],[-172.1513400000409,28.884549999682861],[-172.12991000014631,28.862749999812763],[-172.12301999987301,28.855250000187482],[-172.10930999985652,28.840140000360861],[-172.09606999993048,28.824570000005622],[-172.08340000020976,28.808419999883256],[-172.07108000044158,28.791930000269417],[-172.05887000035017,28.775310000056606],[-172.04656999970564,28.758820000442824],[-172.03387000040013,28.742679999882228],[-172.01384999987752,28.719489999763823],[-172.00684000036566,28.712110000276425],[-171.98505999961921,28.690660000358889],[-171.96986000013882,28.677039999996168],[-171.95395999985402,28.664129999999659],[-171.93761999996295,28.651670000070567],[-171.92934000034066,28.645559999794273],[-171.91276999973562,28.633329999679859],[-171.89630000014481,28.620989999888707],[-171.87222000035266,28.601839999916194],[-171.85703000043409,28.588230000014619],[-171.84205999986904,28.574390000298422],[-171.82754999983254,28.560090000053606],[-171.82028000002191,28.552940000380829],[-171.80579000000841,28.538640000136013],[-171.77596999991547,28.510839999666416],[-171.76835999971414,28.504030000384375],[-171.75246000032868,28.491109999926721],[-171.74429000038313,28.484889999973689],[-171.71954000027071,28.46643000034436],[-171.71123999972613,28.46030999960692],[-171.69467000002041,28.448089999953652],[-171.67820999999142,28.4357500001625],[-171.65390000038462,28.416830000004666],[-171.64563000032419,28.410719999728371],[-171.61154000027071,28.387190000118551],[-171.60278000009686,28.381540000370876],[-171.58482000014283,28.370699999605449],[-171.56639000009835,28.360320000267961],[-171.54820000032967,28.34969999975533],[-171.53024000037564,28.338859999889223],[-171.50364999994747,28.322250000137558],[-171.49478000009685,28.316719999628447],[-171.47704999995744,28.305640000385836],[-171.45909000000341,28.294799999620409],[-171.43121000034117,28.279459999979167],[-171.42177999984705,28.274499999675413],[-171.4028900001733,28.264579999967168],[-171.37411000037613,28.250159999584469],[-171.36443999960622,28.245429999994656],[-171.34530999965668,28.235740000101089],[-171.31652999985954,28.221319999718332],[-171.30685000042709,28.216599999690402],[-171.27818000030669,28.202060000069082],[-171.26862999967466,28.197219999903211],[-171.24930000039461,28.187759999824266],[-171.23015999998393,28.178069999930699],[-171.20128000007188,28.163769999685883],[-171.18170000005489,28.154540000320878],[-171.16201999992299,28.145430000194494],[-171.14184999967767,28.136779999697353],[-171.13160999960172,28.132629999874723],[-171.100159999884,28.120860000288928],[-171.07897999982706,28.113250000087589],[-171.05742999979458,28.105980000276929],[-171.04662000041262,28.102410000221482],[-171.01424999963768,28.09155999989423],[-170.99273999965118,28.084299999645395],[-170.97109999996496,28.077149999972676],[-170.94944999981757,28.070000000299899],[-170.93862999997444,28.066419999783307],[-170.91695999980408,28.059270000110587],[-170.89487000005039,28.05258000006711],[-170.87252999955976,28.046119999838254],[-170.83855999964419,28.036889999573987],[-170.8156400002857,28.031010000011634],[-170.79251000023623,28.025360000263959],[-170.76913000034915,28.019940000330905],[-170.75739000034815,28.01729000043332],[-170.72168999979357,28.009789999908719],[-170.69761999956324,28.005060000318906],[-170.67355000023224,28.000329999829773],[-170.64960000013983,27.995489999663903],[-170.62565999960921,27.990639999936207],[-170.60169999995495,27.985799999770336],[-170.57776000032368,27.980950000042583],[-170.55369999965518,27.976219999553507],[-170.52963000032418,27.97150000042484],[-170.50568000023173,27.966649999797824],[-170.48160000043958,27.961920000208011],[-170.45718000025673,27.957539999671383],[-170.43222000035266,27.953730000239489],[-170.40630000024473,27.950849999627906],[-170.3793500003022,27.948999999750356],[-170.35171999957825,27.947849999777816],[-170.32385000037715,27.946929999619954],[-170.29623000011435,27.945770000085588],[-170.26926999971064,27.943929999769807],[-170.24336000006389,27.941039999596455],[-170.21838000013682,27.93723999972633],[-170.19385999983905,27.932969999765817],[-170.1693400004406,27.928699999805303],[-170.14435000005238,27.924899999935178],[-170.11844000040563,27.922009999761826],[-170.09148999956375,27.920170000345365],[-170.06373999960121,27.91913000004962],[-170.03542000033266,27.91867000042032],[-170.00673999975112,27.918550000282437],[-169.97795000039213,27.918550000282437],[-169.94916999969564,27.918550000282437],[-169.92038000033668,27.918550000282437],[-169.89161999966316,27.918550000282437],[-169.86281999984305,27.918550000282437],[-169.83402999958474,27.918550000282437],[-169.80524999978758,27.918550000282437],[-169.77646000042861,27.918550000282437],[-169.7476500001473,27.918550000282437],[-169.71898999958873,27.91867000042032],[-169.69067000032018,27.91913000004962],[-169.66292000035764,27.920170000345365],[-169.63597000041511,27.922009999761826],[-169.61005999986901,27.924899999935178],[-169.58507999994197,27.928699999805303],[-169.5605599996442,27.932969999765817],[-169.53604000024575,27.93723999972633],[-169.51104999985753,27.941039999596455],[-169.48514000021078,27.943929999769807],[-169.45819000026822,27.945770000085588],[-169.43044000030568,27.946810000381333],[-169.40210999967667,27.947270000010633],[-169.37343999955627,27.947390000148516],[-169.34465000019728,27.947390000148516],[-169.31598000007688,27.947499999825254],[-169.28765999990898,27.947960000353874],[-169.25992000040762,27.948999999750356],[-169.23296999956574,27.950849999627906],[-169.20705999991898,27.953730000239489],[-169.18207999999194,27.957539999671383],[-169.15755000013232,27.961809999631896],[-169.13302999983455,27.966079999592466],[-169.10804999990748,27.969880000361854],[-169.08212000023775,27.972760000074061],[-169.05517999985702,27.974609999951667],[-169.02753000000942,27.975759999924207],[-168.999659999909,27.976680000082069],[-168.97205000010734,27.977839999616435],[-168.94510000016479,27.979679999932216],[-168.91918999961871,27.982570000105568],[-168.89420999969167,27.986369999975636],[-168.86969000029319,27.990639999936207],[-168.84514999997245,27.99490999989672],[-168.82015999958423,27.998709999766845],[-168.79426999996045,28.001599999940197],[-168.76742999969466,28.003560000393861],[-168.74016000028371,28.005060000318906],[-168.71286000038862,28.006560000243951],[-168.68600000009985,28.008519999798295],[-168.66010999957675,28.011400000409822],[-168.63512000008785,28.015209999841773],[-168.61059999979008,28.019479999802286],[-168.5982800000219,28.021549999932688],[-168.56119000011833,28.027669999770808],[-168.53576999968567,28.031010000011634],[-168.50986000003888,28.03388999972384],[-168.48395000039213,28.036779999897249],[-168.47141000037115,28.038620000212973],[-168.43361999966316,28.044040000146026],[-168.40908999980357,28.04831000010654],[-168.38466999962071,28.052689999743848],[-168.36017000024523,28.056959999704361],[-168.33529999999493,28.060890000173515],[-168.31019999992998,28.064580000366846],[-168.28530999965668,28.068500000374854],[-168.26079000025823,28.072770000335368],[-168.23647999975211,28.077259999649414],[-168.2124300004441,28.081990000138546],[-168.18848999991349,28.086839999866243],[-168.16441000012134,28.091570000355375],[-168.14035000035216,28.096290000383362],[-168.11652000039763,28.101260000248942],[-168.09290999979657,28.106450000367374],[-168.08126999991049,28.109209999941697],[-168.0463900002982,28.117520000048103],[-168.02334999990251,28.123280000371835],[-168.00021000029119,28.128939999681393],[-167.97683999996596,28.134359999614446],[-167.95323000026423,28.139549999732822],[-167.9293800002867,28.144510000036632],[-167.90533000007937,28.149239999626445],[-167.8812700003102,28.153959999654376],[-167.85732999977958,28.158810000281449],[-167.83337000012534,28.163650000447319],[-167.8094200000329,28.168500000175015],[-167.78546000037863,28.173340000340886],[-167.76141000017128,28.178069999930699],[-167.73733999994096,28.182800000419832],[-167.7135000004246,28.187759999824266],[-167.68988000026172,28.192949999942698],[-167.66650000037464,28.198369999875752],[-167.64337000032518,28.204030000084572],[-167.62032999992948,28.209790000408361],[-167.59719999988002,28.215449999717862],[-167.57381999999293,28.220869999650915],[-167.55023000031417,28.226059999769291],[-167.52638000033667,28.231009999611956],[-167.50231999966817,28.235740000101089],[-167.47827000036014,28.240469999690902],[-167.45430000024473,28.245320000317918],[-167.43035999971414,28.250159999584469],[-167.40640000005988,28.254999999750339],[-167.38246000042861,28.259850000377355],[-167.35837999973711,28.264579999967168],[-167.33431999996796,28.269309999556981],[-167.31036000031369,28.274149999722852],[-167.28631999966817,28.278880000211984],[-167.26201000006137,28.283379999987176],[-167.24969000029321,28.285459999679404],[-167.21262000041261,28.291569999955698],[-167.18752000034766,28.295260000149028],[-167.16263999963618,28.299180000157037],[-167.13812000023773,28.30345000011755],[-167.11382999975461,28.307949999892742],[-167.08974999996246,28.312680000381874],[-167.06581000033117,28.317519999648425],[-167.0417299996397,28.322250000137558],[-167.01766999987052,28.326979999727371],[-166.99371000021625,28.331830000354387],[-166.96966999957075,28.3365599999442],[-166.94525000028722,28.340939999581451],[-166.920259999899,28.344749999912722],[-166.89447000039013,28.347740000200986],[-166.86798000007687,28.350049999707835],[-166.84127999997193,28.352130000299439],[-166.81478999965867,28.354430000244463],[-166.7890000001498,28.357430000094553],[-166.76400999976161,28.361240000425823],[-166.73947000034016,28.365510000386337],[-166.71497000006536,28.369769999885705],[-166.68997000011532,28.373580000216975],[-166.66405999956925,28.376459999929182],[-166.63712000008786,28.378309999806788],[-166.60947000024024,28.379459999779328],[-166.58160000013982,28.38037999993719],[-166.55399000033816,28.381540000370876],[-166.52704000039563,28.38337999978728],[-166.50112999984952,28.386269999960689],[-166.47614999992248,28.390069999830757],[-166.45160999960171,28.394339999791328],[-166.42709000020326,28.398609999751841],[-166.40211000027622,28.402409999621909],[-166.37619000016829,28.405299999795318],[-166.34924000022576,28.407140000111042],[-166.32149999982505,28.408180000406844],[-166.29317000009536,28.408640000036144],[-166.26449999997493,28.408760000174027],[-166.23572999973962,28.408760000174027],[-166.20694000038063,28.408760000174027],[-166.17815000012234,28.408760000174027],[-166.14937000032518,28.408760000174027],[-166.12070000020478,28.408869999850765],[-166.09234999955277,28.40933999994121],[-166.06461000005137,28.41036999977581],[-166.03766000010884,28.412219999653416],[-166.01174999956274,28.415100000264943],[-165.9867699996357,28.418909999696893],[-165.96225000023725,28.423179999657407],[-165.93770999991648,28.427440000056095],[-165.91272999998944,28.431250000387365],[-165.88684000036565,28.434130000099572],[-165.85989000042309,28.435979999977178],[-165.83212000043758,28.437020000272923],[-165.80380000026972,28.437479999902223],[-165.77511999968814,28.437589999578961],[-165.74635000035215,28.437589999578961],[-165.71756000009384,28.437589999578961],[-165.68876999983556,28.437589999578961],[-165.65999000003839,28.437589999578961],[-165.63119999978008,28.437589999578961],[-165.60243000044409,28.437589999578961],[-165.57364000018578,28.437589999578961],[-165.54484999992746,28.437589999578961],[-165.51607000013033,28.437589999578961],[-165.48727000031019,28.437589999578961],[-165.45846999959073,28.437589999578961],[-165.42970000025474,28.437589999578961],[-165.40090999999643,28.437589999578961],[-165.37211999973812,28.437589999578961],[-165.34333999994098,28.437589999578961],[-165.31454000012084,28.437589999578961],[-165.28578000034665,28.437589999578961],[-165.25699000008836,28.437589999578961],[-165.22819999983005,28.437589999578961],[-165.19942000003289,28.437589999578961],[-165.17062000021275,28.437589999578961],[-165.14182000039261,28.437589999578961],[-165.1130500001573,28.437589999578961],[-165.08425999989899,28.437589999578961],[-165.05546999964071,28.437589999578961],[-165.02668999984354,28.437589999578961],[-164.9978900000234,28.437589999578961],[-164.96913000024924,28.437589999578961],[-164.94033999999093,28.437589999578961],[-164.91154000017079,28.437589999578961],[-164.88276999993548,28.437589999578961],[-164.85397000011534,28.437589999578961],[-164.82515999983406,28.437589999578961],[-164.79640000005989,28.437589999578961],[-164.76760999980158,28.437589999578961],[-164.73882000044259,28.437589999578961],[-164.7100399997461,28.437589999578961],[-164.68123999992596,28.437589999578961],[-164.65258999982856,28.437479999902223],[-164.62426999966067,28.437020000272923],[-164.59651000013631,28.435979999977178],[-164.58278999965867,28.435289999633937],[-164.54366000010884,28.431250000387365],[-164.5186600001588,28.427440000056095],[-164.50634999995245,28.425369999925692],[-164.46961999956326,28.418909999696893],[-164.44463000007437,28.415100000264943],[-164.41872999998944,28.412219999653416],[-164.39176999958573,28.41036999977581],[-164.36401000006137,28.40933999994121],[-164.3356899998935,28.408869999850765],[-164.3070199997731,28.408760000174027],[-164.27834999965268,28.408640000036144],[-164.25003000038413,28.408180000406844],[-164.22228999998345,28.407140000111042],[-164.19534000004089,28.405299999795318],[-164.16943000039413,28.402420000083055],[-164.14444000000591,28.398609999751841],[-164.11989999968515,28.394339999791328],[-164.09536999982555,28.390069999830757],[-164.07053000005936,28.386149999822749],[-164.04506999958073,28.38280999958198],[-164.01917000039512,28.379920000307891],[-163.99325999984904,28.377039999696365],[-163.9678000002697,28.373700000354859],[-163.95526000024873,28.371849999577989],[-163.93059999979008,28.367699999755303],[-163.89447000009037,28.360659999759321],[-163.88248000025172,28.358239999676414],[-163.84644000020577,28.351090000003637],[-163.82238999999842,28.346360000413824],[-163.79851999999792,28.34140000011007],[-163.77493000031919,28.336209999991638],[-163.75155999999393,28.330790000058585],[-163.72842000038264,28.32514000031091],[-163.70550999968665,28.319250000287411],[-163.69411000007636,28.316250000437321],[-163.66036999997544,28.306799999920202],[-163.64920000017977,28.303570000255434],[-163.62709000040311,28.296880000211956],[-163.59462000041262,28.286150000022644],[-163.57297000026523,28.279000000349868],[-163.55132999967967,28.271849999777828],[-163.52979000010833,28.264579999967168],[-163.51909000040311,28.260889999773838],[-163.49744999981755,28.253740000101061],[-163.46497000026523,28.243009999911692],[-163.45413000039912,28.239439999856245],[-163.4327199996282,28.232049999907701],[-163.41107000038014,28.224900000234982],[-163.38942000023275,28.217749999662885],[-163.36777000008536,28.210599999990166],[-163.34636000021376,28.203219999603448],[-163.31389999978509,28.192490000313398],[-163.29236000021376,28.185219999603419],[-163.27114999967267,28.177610000301399],[-163.2502099998915,28.169770000285439],[-163.22937000022526,28.161810000131538],[-163.20887999961221,28.153509999586959],[-163.19875000011234,28.149239999626445],[-163.1681200004376,28.136670000020615],[-163.15776000022376,28.132629999874723],[-163.12679000015831,28.120399999760309],[-163.11655000008236,28.116249999937679],[-163.08545000031719,28.104139999961149],[-163.07509000010333,28.100099999815257],[-163.04467999978209,28.087300000394862],[-163.0345500002822,28.083030000434292],[-163.00333000037912,28.071039999696382],[-162.99285999958923,28.067119999688373],[-162.97189000022325,28.059270000110587],[-162.93967000007038,28.04831000010654],[-162.9181200000379,28.041049999857762],[-162.89693999998093,28.033430000094597],[-162.88647000009036,28.029510000086589],[-162.85515000007237,28.017629999924679],[-162.84478999985853,28.01360000023999],[-162.81438999999841,28.000790000358393],[-162.80425999959922,27.996520000397823],[-162.77315999983404,27.984410000421349],[-162.75254999998242,27.976219999553507],[-162.7423099999065,27.97206999973082],[-162.72157000035514,27.963999999900238],[-162.6907000004046,27.951660000109086],[-162.6704599996292,27.943120000188003],[-162.64996000035364,27.934810000081598],[-162.62911999978809,27.926849999927697],[-162.60817000044509,27.919009999911736],[-162.58697999992697,27.911399999710341],[-162.56544000035566,27.904129999899737],[-162.54379000020828,27.896980000226961],[-162.53297000036514,27.893410000171514],[-162.5115500000324,27.88602000022297],[-162.47930999985653,27.875299999595427],[-162.45833999959123,27.868140000360881],[-162.43807999969215,27.861000000249931],[-162.4183800004366,27.85419000006857],[-162.39915000037215,27.848079999792276],[-162.37982000019278,27.842770000435337],[-162.35979999967017,27.838619999713387]]]},"properties":{"objectid":516,"stormname":"Lowell","stormtype":"TS","basin":"EP","advdate":"500 AM HST Wed Sep 09 2026","advisnum":"54","fcstprd":120,"stormnum":12,"idp_source":"ep122026-054_5day_pgn","idp_filedate":1788966474000,"idp_ingestdate":1788966600000,"st_area(shape)":44.325501832774926,"st_perimeter(shape)":39.953569138870662,"binnumber":"CP4"}}]}