{"type":"FeatureCollection","features":[{"type":"Feature","id":15696,"geometry":{"type":"Point","coordinates":[-105.29999999989997,10.400000000000148]},"properties":{"objectid":15696,"stormname":"GENESIS020","stormtype":"DB","stormnum":13,"intensity":20,"basin":"ep","mslp":0,"dtg":2026082918,"year":2026,"month":"08","day":29,"hhmm":"1800","lat":10,"lon":-105,"ss":0,"idp_source":"EP132026_pts","idp_filedate":1788750782000,"idp_ingestdate":1788750819000,"binnumber":"EP3"}},{"type":"Feature","id":15697,"geometry":{"type":"Point","coordinates":[-105.8999999996002,10.499999999800309]},"properties":{"objectid":15697,"stormname":"GENESIS020","stormtype":"DB","stormnum":13,"intensity":20,"basin":"ep","mslp":1008,"dtg":2026083000,"year":2026,"month":"08","day":30,"hhmm":"0000","lat":10,"lon":-106,"ss":0,"idp_source":"EP132026_pts","idp_filedate":1788750782000,"idp_ingestdate":1788750819000,"binnumber":"EP3"}},{"type":"Feature","id":15698,"geometry":{"type":"Point","coordinates":[-106.29999999970011,11.100000000399859]},"properties":{"objectid":15698,"stormname":"GENESIS020","stormtype":"DB","stormnum":13,"intensity":25,"basin":"ep","mslp":1010,"dtg":2026083006,"year":2026,"month":"08","day":30,"hhmm":"0600","lat":11,"lon":-106,"ss":0,"idp_source":"EP132026_pts","idp_filedate":1788750782000,"idp_ingestdate":1788750819000,"binnumber":"EP3"}},{"type":"Feature","id":15699,"geometry":{"type":"Point","coordinates":[-106.29999999970011,11.70000000010009]},"properties":{"objectid":15699,"stormname":"GENESIS020","stormtype":"DB","stormnum":13,"intensity":25,"basin":"ep","mslp":1010,"dtg":2026083012,"year":2026,"month":"08","day":30,"hhmm":"1200","lat":12,"lon":-106,"ss":0,"idp_source":"EP132026_pts","idp_filedate":1788750782000,"idp_ingestdate":1788750819000,"binnumber":"EP3"}},{"type":"Feature","id":15700,"geometry":{"type":"Point","coordinates":[-106.50000000019975,11.899999999700356]},"properties":{"objectid":15700,"stormname":"INVEST","stormtype":"DB","stormnum":13,"intensity":30,"basin":"ep","mslp":1010,"dtg":2026083018,"year":2026,"month":"08","day":30,"hhmm":"1800","lat":12,"lon":-106,"ss":0,"idp_source":"EP132026_pts","idp_filedate":1788750782000,"idp_ingestdate":1788750819000,"binnumber":"EP3"}},{"type":"Feature","id":15701,"geometry":{"type":"Point","coordinates":[-106.90000000029966,11.899999999700356]},"properties":{"objectid":15701,"stormname":"INVEST","stormtype":"DB","stormnum":13,"intensity":30,"basin":"ep","mslp":1007,"dtg":2026083100,"year":2026,"month":"08","day":31,"hhmm":"0000","lat":12,"lon":-107,"ss":0,"idp_source":"EP132026_pts","idp_filedate":1788750782000,"idp_ingestdate":1788750819000,"binnumber":"EP3"}},{"type":"Feature","id":15702,"geometry":{"type":"Point","coordinates":[-107.40000000019973,11.899999999700356]},"properties":{"objectid":15702,"stormname":"INVEST","stormtype":"DB","stormnum":13,"intensity":30,"basin":"ep","mslp":1007,"dtg":2026083106,"year":2026,"month":"08","day":31,"hhmm":"0600","lat":12,"lon":-107,"ss":0,"idp_source":"EP132026_pts","idp_filedate":1788750782000,"idp_ingestdate":1788750819000,"binnumber":"EP3"}},{"type":"Feature","id":15703,"geometry":{"type":"Point","coordinates":[-107.59999999980005,12.100000000199998]},"properties":{"objectid":15703,"stormname":"INVEST","stormtype":"DB","stormnum":13,"intensity":30,"basin":"ep","mslp":1007,"dtg":2026083112,"year":2026,"month":"08","day":31,"hhmm":"1200","lat":12,"lon":-108,"ss":0,"idp_source":"EP132026_pts","idp_filedate":1788750782000,"idp_ingestdate":1788750819000,"binnumber":"EP3"}},{"type":"Feature","id":15704,"geometry":{"type":"Point","coordinates":[-107.49999999999989,12.699999999900228]},"properties":{"objectid":15704,"stormname":"INVEST","stormtype":"DB","stormnum":13,"intensity":30,"basin":"ep","mslp":1006,"dtg":2026083118,"year":2026,"month":"08","day":31,"hhmm":"1800","lat":13,"lon":-108,"ss":0,"idp_source":"EP132026_pts","idp_filedate":1788750782000,"idp_ingestdate":1788750819000,"binnumber":"EP3"}},{"type":"Feature","id":15705,"geometry":{"type":"Point","coordinates":[-107.80000000029969,13.40000000029994]},"properties":{"objectid":15705,"stormname":"INVEST","stormtype":"DB","stormnum":13,"intensity":30,"basin":"ep","mslp":1006,"dtg":2026090100,"year":2026,"month":"09","day":1,"hhmm":"0000","lat":13,"lon":-108,"ss":0,"idp_source":"EP132026_pts","idp_filedate":1788750782000,"idp_ingestdate":1788750819000,"binnumber":"EP3"}},{"type":"Feature","id":15706,"geometry":{"type":"Point","coordinates":[-108.09999999970012,14.099999999800275]},"properties":{"objectid":15706,"stormname":"MARIE","stormtype":"TS","stormnum":13,"intensity":40,"basin":"ep","mslp":1002,"dtg":2026090106,"year":2026,"month":"09","day":1,"hhmm":"0600","lat":14,"lon":-108,"ss":0,"idp_source":"EP132026_pts","idp_filedate":1788750782000,"idp_ingestdate":1788750819000,"binnumber":"EP3"}},{"type":"Feature","id":15707,"geometry":{"type":"Point","coordinates":[-108.49999999980008,14.800000000199987]},"properties":{"objectid":15707,"stormname":"MARIE","stormtype":"TS","stormnum":13,"intensity":40,"basin":"ep","mslp":1002,"dtg":2026090112,"year":2026,"month":"09","day":1,"hhmm":"1200","lat":15,"lon":-108,"ss":0,"idp_source":"EP132026_pts","idp_filedate":1788750782000,"idp_ingestdate":1788750819000,"binnumber":"EP3"}},{"type":"Feature","id":15708,"geometry":{"type":"Point","coordinates":[-109.20000000019974,15.399999999900217]},"properties":{"objectid":15708,"stormname":"MARIE","stormtype":"TS","stormnum":13,"intensity":50,"basin":"ep","mslp":997,"dtg":2026090118,"year":2026,"month":"09","day":1,"hhmm":"1800","lat":15,"lon":-109,"ss":0,"idp_source":"EP132026_pts","idp_filedate":1788750782000,"idp_ingestdate":1788750819000,"binnumber":"EP3"}},{"type":"Feature","id":15709,"geometry":{"type":"Point","coordinates":[-109.89999999970013,15.899999999800286]},"properties":{"objectid":15709,"stormname":"MARIE","stormtype":"TS","stormnum":13,"intensity":55,"basin":"ep","mslp":994,"dtg":2026090200,"year":2026,"month":"09","day":2,"hhmm":"0000","lat":16,"lon":-110,"ss":0,"idp_source":"EP132026_pts","idp_filedate":1788750782000,"idp_ingestdate":1788750819000,"binnumber":"EP3"}},{"type":"Feature","id":15710,"geometry":{"type":"Point","coordinates":[-110.60000000009984,16.399999999700356]},"properties":{"objectid":15710,"stormname":"MARIE","stormtype":"TS","stormnum":13,"intensity":55,"basin":"ep","mslp":994,"dtg":2026090206,"year":2026,"month":"09","day":2,"hhmm":"0600","lat":16,"lon":-111,"ss":0,"idp_source":"EP132026_pts","idp_filedate":1788750782000,"idp_ingestdate":1788750819000,"binnumber":"EP3"}},{"type":"Feature","id":15711,"geometry":{"type":"Point","coordinates":[-111.29999999960023,16.899999999600425]},"properties":{"objectid":15711,"stormname":"MARIE","stormtype":"TS","stormnum":13,"intensity":60,"basin":"ep","mslp":992,"dtg":2026090212,"year":2026,"month":"09","day":2,"hhmm":"1200","lat":17,"lon":-111,"ss":0,"idp_source":"EP132026_pts","idp_filedate":1788750782000,"idp_ingestdate":1788750819000,"binnumber":"EP3"}},{"type":"Feature","id":15712,"geometry":{"type":"Point","coordinates":[-111.99999999999989,17.699999999800298]},"properties":{"objectid":15712,"stormname":"MARIE","stormtype":"HU","stormnum":13,"intensity":65,"basin":"ep","mslp":989,"dtg":2026090218,"year":2026,"month":"09","day":2,"hhmm":"1800","lat":18,"lon":-112,"ss":1,"idp_source":"EP132026_pts","idp_filedate":1788750782000,"idp_ingestdate":1788750819000,"binnumber":"EP3"}},{"type":"Feature","id":15713,"geometry":{"type":"Point","coordinates":[-112.7000000003996,18.199999999700367]},"properties":{"objectid":15713,"stormname":"MARIE","stormtype":"HU","stormnum":13,"intensity":70,"basin":"ep","mslp":985,"dtg":2026090300,"year":2026,"month":"09","day":3,"hhmm":"0000","lat":18,"lon":-113,"ss":1,"idp_source":"EP132026_pts","idp_filedate":1788750782000,"idp_ingestdate":1788750819000,"binnumber":"EP3"}},{"type":"Feature","id":15714,"geometry":{"type":"Point","coordinates":[-113.39999999989999,18.699999999600436]},"properties":{"objectid":15714,"stormname":"MARIE","stormtype":"HU","stormnum":13,"intensity":75,"basin":"ep","mslp":981,"dtg":2026090306,"year":2026,"month":"09","day":3,"hhmm":"0600","lat":19,"lon":-113,"ss":1,"idp_source":"EP132026_pts","idp_filedate":1788750782000,"idp_ingestdate":1788750819000,"binnumber":"EP3"}},{"type":"Feature","id":15715,"geometry":{"type":"Point","coordinates":[-114.39999999970013,18.99999999990024]},"properties":{"objectid":15715,"stormname":"MARIE","stormtype":"HU","stormnum":13,"intensity":80,"basin":"ep","mslp":976,"dtg":2026090312,"year":2026,"month":"09","day":3,"hhmm":"1200","lat":19,"lon":-114,"ss":1,"idp_source":"EP132026_pts","idp_filedate":1788750782000,"idp_ingestdate":1788750819000,"binnumber":"EP3"}},{"type":"Feature","id":15716,"geometry":{"type":"Point","coordinates":[-115.10000000009984,19.099999999700344]},"properties":{"objectid":15716,"stormname":"MARIE","stormtype":"HU","stormnum":13,"intensity":80,"basin":"ep","mslp":975,"dtg":2026090318,"year":2026,"month":"09","day":3,"hhmm":"1800","lat":19,"lon":-115,"ss":1,"idp_source":"EP132026_pts","idp_filedate":1788750782000,"idp_ingestdate":1788750819000,"binnumber":"EP3"}},{"type":"Feature","id":15717,"geometry":{"type":"Point","coordinates":[-115.90000000029966,19.499999999800309]},"properties":{"objectid":15717,"stormname":"MARIE","stormtype":"HU","stormnum":13,"intensity":80,"basin":"ep","mslp":975,"dtg":2026090400,"year":2026,"month":"09","day":4,"hhmm":"0000","lat":20,"lon":-116,"ss":1,"idp_source":"EP132026_pts","idp_filedate":1788750782000,"idp_ingestdate":1788750819000,"binnumber":"EP3"}},{"type":"Feature","id":15718,"geometry":{"type":"Point","coordinates":[-116.69999999960021,19.700000000299895]},"properties":{"objectid":15718,"stormname":"MARIE","stormtype":"HU","stormnum":13,"intensity":85,"basin":"ep","mslp":972,"dtg":2026090406,"year":2026,"month":"09","day":4,"hhmm":"0600","lat":20,"lon":-117,"ss":2,"idp_source":"EP132026_pts","idp_filedate":1788750782000,"idp_ingestdate":1788750819000,"binnumber":"EP3"}},{"type":"Feature","id":15719,"geometry":{"type":"Point","coordinates":[-117.59999999960019,19.899999999900217]},"properties":{"objectid":15719,"stormname":"MARIE","stormtype":"HU","stormnum":13,"intensity":85,"basin":"ep","mslp":972,"dtg":2026090412,"year":2026,"month":"09","day":4,"hhmm":"1200","lat":20,"lon":-118,"ss":2,"idp_source":"EP132026_pts","idp_filedate":1788750782000,"idp_ingestdate":1788750819000,"binnumber":"EP3"}},{"type":"Feature","id":15720,"geometry":{"type":"Point","coordinates":[-118.20000000019974,20.100000000399859]},"properties":{"objectid":15720,"stormname":"MARIE","stormtype":"HU","stormnum":13,"intensity":85,"basin":"ep","mslp":972,"dtg":2026090418,"year":2026,"month":"09","day":4,"hhmm":"1800","lat":20,"lon":-118,"ss":2,"idp_source":"EP132026_pts","idp_filedate":1788750782000,"idp_ingestdate":1788750819000,"binnumber":"EP3"}},{"type":"Feature","id":15721,"geometry":{"type":"Point","coordinates":[-118.70000000009981,20.600000000299929]},"properties":{"objectid":15721,"stormname":"MARIE","stormtype":"HU","stormnum":13,"intensity":85,"basin":"ep","mslp":967,"dtg":2026090500,"year":2026,"month":"09","day":5,"hhmm":"0000","lat":21,"lon":-119,"ss":2,"idp_source":"EP132026_pts","idp_filedate":1788750782000,"idp_ingestdate":1788750819000,"binnumber":"EP3"}},{"type":"Feature","id":15722,"geometry":{"type":"Point","coordinates":[-119.29999999980004,21.100000000199998]},"properties":{"objectid":15722,"stormname":"MARIE","stormtype":"HU","stormnum":13,"intensity":85,"basin":"ep","mslp":967,"dtg":2026090506,"year":2026,"month":"09","day":5,"hhmm":"0600","lat":21,"lon":-119,"ss":2,"idp_source":"EP132026_pts","idp_filedate":1788750782000,"idp_ingestdate":1788750819000,"binnumber":"EP3"}},{"type":"Feature","id":15723,"geometry":{"type":"Point","coordinates":[-120.09999999999991,21.600000000100067]},"properties":{"objectid":15723,"stormname":"MARIE","stormtype":"HU","stormnum":13,"intensity":80,"basin":"ep","mslp":970,"dtg":2026090512,"year":2026,"month":"09","day":5,"hhmm":"1200","lat":22,"lon":-120,"ss":1,"idp_source":"EP132026_pts","idp_filedate":1788750782000,"idp_ingestdate":1788750819000,"binnumber":"EP3"}},{"type":"Feature","id":15724,"geometry":{"type":"Point","coordinates":[-120.59999999989998,21.900000000399814]},"properties":{"objectid":15724,"stormname":"MARIE","stormtype":"HU","stormnum":13,"intensity":80,"basin":"ep","mslp":970,"dtg":2026090518,"year":2026,"month":"09","day":5,"hhmm":"1800","lat":22,"lon":-121,"ss":1,"idp_source":"EP132026_pts","idp_filedate":1788750782000,"idp_ingestdate":1788750819000,"binnumber":"EP3"}},{"type":"Feature","id":15725,"geometry":{"type":"Point","coordinates":[-120.99999999999989,22.299999999600459]},"properties":{"objectid":15725,"stormname":"MARIE","stormtype":"HU","stormnum":13,"intensity":80,"basin":"ep","mslp":970,"dtg":2026090600,"year":2026,"month":"09","day":6,"hhmm":"0000","lat":22,"lon":-121,"ss":1,"idp_source":"EP132026_pts","idp_filedate":1788750782000,"idp_ingestdate":1788750819000,"binnumber":"EP3"}},{"type":"Feature","id":15726,"geometry":{"type":"Point","coordinates":[-121.7000000003996,22.900000000200009]},"properties":{"objectid":15726,"stormname":"MARIE","stormtype":"HU","stormnum":13,"intensity":80,"basin":"ep","mslp":971,"dtg":2026090606,"year":2026,"month":"09","day":6,"hhmm":"0600","lat":23,"lon":-122,"ss":1,"idp_source":"EP132026_pts","idp_filedate":1788750782000,"idp_ingestdate":1788750819000,"binnumber":"EP3"}},{"type":"Feature","id":15727,"geometry":{"type":"Point","coordinates":[-122.30000000009983,23.300000000299917]},"properties":{"objectid":15727,"stormname":"MARIE","stormtype":"HU","stormnum":13,"intensity":70,"basin":"ep","mslp":977,"dtg":2026090612,"year":2026,"month":"09","day":6,"hhmm":"1200","lat":23,"lon":-122,"ss":1,"idp_source":"EP132026_pts","idp_filedate":1788750782000,"idp_ingestdate":1788750819000,"binnumber":"EP3"}},{"type":"Feature","id":15728,"geometry":{"type":"Point","coordinates":[-122.70000000019974,23.800000000199987]},"properties":{"objectid":15728,"stormname":"MARIE","stormtype":"HU","stormnum":13,"intensity":65,"basin":"ep","mslp":980,"dtg":2026090618,"year":2026,"month":"09","day":6,"hhmm":"1800","lat":24,"lon":-123,"ss":1,"idp_source":"EP132026_pts","idp_filedate":1788750782000,"idp_ingestdate":1788750819000,"binnumber":"EP3"}},{"type":"Feature","id":15729,"geometry":{"type":"Point","coordinates":[-122.99999999960022,23.999999999800309]},"properties":{"objectid":15729,"stormname":"MARIE","stormtype":"TS","stormnum":13,"intensity":60,"basin":"ep","mslp":983,"dtg":2026090700,"year":2026,"month":"09","day":7,"hhmm":"0000","lat":24,"lon":-123,"ss":0,"idp_source":"EP132026_pts","idp_filedate":1788750782000,"idp_ingestdate":1788750819000,"binnumber":"EP3"}}]}