{"type":"FeatureCollection","features":[{"type":"Feature","id":2045,"geometry":{"type":"LineString","coordinates":[[-105.29999999989997,10.400000000000148],[-105.8999999996002,10.499999999800309],[-106.29999999970011,11.100000000399859],[-106.29999999970011,11.70000000010009],[-106.50000000019975,11.899999999700356],[-106.90000000029966,11.899999999700356],[-107.40000000019973,11.899999999700356],[-107.59999999980005,12.100000000199998],[-107.49999999999989,12.699999999900228],[-107.80000000029969,13.40000000029994],[-108.09999999970012,14.099999999800275]]},"properties":{"objectid":2045,"stormtype":"DB","stormnum":13,"ss":0,"idp_source":"EP132026_lin","idp_filedate":1788274981000,"idp_ingestdate":1788275145000,"st_length(shape)":5.5265028068032311,"binnumber":"EP3"}},{"type":"Feature","id":2046,"geometry":{"type":"LineString","coordinates":[[-108.09999999970012,14.099999999800275],[-108.39999999999992,14.700000000399825]]},"properties":{"objectid":2046,"stormtype":"DB","stormnum":13,"ss":0,"idp_source":"EP132026_lin","idp_filedate":1788274981000,"idp_ingestdate":1788275145000,"st_length(shape)":0.67082039392026716,"binnumber":"EP3"}}]}