{"type":"FeatureCollection","features":[{"type":"Feature","id":487,"geometry":{"type":"Polygon","coordinates":[[[-123.71502999973461,24.134610000251428],[-123.69246000032865,24.134750000412339],[-123.66933999984104,24.137659999709342],[-123.64524999958769,24.142929999919716],[-123.62075000021224,24.150270000260434],[-123.59653000025924,24.159559999694352],[-123.56137000032516,24.176070000230482],[-123.53978000024671,24.189100000364874],[-123.51985000027719,24.20380000017002],[-123.5015800004166,24.220149999622947],[-123.48441999958322,24.237629999924707],[-123.4689199997581,24.256759999874248],[-123.45479999972014,24.277280000072096],[-123.44219999963019,24.299050000357397],[-123.43155000043208,24.322200000429802],[-123.42060999955174,24.360469999890711],[-123.41702000037264,24.386809999581942],[-123.41702000037264,24.413429999594939],[-123.42062000001289,24.439779999747316],[-123.42726000044854,24.465289999833772],[-123.43665999955925,24.489409999671864],[-123.45479999972014,24.522969999565987],[-123.46185000017726,24.533229999664911],[-123.4844100000214,24.562619999713377],[-123.50130000009483,24.580369999875757],[-123.51903000023424,24.597279999972159],[-123.53785000027722,24.613089999703845],[-123.55749999992497,24.628069999830757],[-123.57771000021626,24.642479999752311],[-123.59819999992999,24.656619999813302],[-123.61894999994246,24.670490000013615],[-123.6397199999779,24.684360000213985],[-123.66047999955225,24.698219999953153],[-123.68124000002587,24.712090000153523],[-123.70201000006136,24.725949999892748],[-123.72276999963566,24.739809999631916],[-123.74353000010933,24.753679999832286],[-123.76430000014477,24.767539999571454],[-123.7850500001573,24.781409999771824],[-123.80582000019274,24.795270000410312],[-123.82657999976709,24.809139999711363],[-123.84734000024071,24.823009999911733],[-123.86809999981506,24.836869999650901],[-123.88886000028867,24.850730000289445],[-123.90961999986303,24.864599999590439],[-123.93038000033664,24.878469999790809],[-123.95115000037214,24.892330000429297],[-123.97190999994643,24.906199999730347],[-123.99267000042011,24.920060000368892],[-124.01343999955623,24.93392000010806],[-124.03418999956875,24.94779000030843],[-124.05523999992596,24.961380000186978],[-124.07654999968264,24.974689999743816],[-124.09813999976109,24.987719999878209],[-124.1200100001613,25.000480000152038],[-124.1421599999839,25.012949999642899],[-124.16401999992297,25.025709999916728],[-124.18561999956324,25.038740000051121],[-124.20693000021924,25.052060000069105],[-124.22797000011531,25.065640000385827],[-124.24872999968966,25.079509999686877],[-124.2694999997251,25.093370000325422],[-124.2902699997606,25.10723000006459],[-124.31103000023421,25.12110000026496],[-124.33178999980856,25.134969999565953],[-124.35255000028218,25.148830000204498],[-124.37330999985653,25.162700000404811],[-124.39407000033015,25.176560000144036],[-124.4148299999045,25.190430000344406],[-124.43559000037811,25.204290000083574],[-124.45634999995247,25.218160000283945],[-124.47711999998791,25.232020000023113],[-124.49787999956226,25.245890000223483],[-124.51864000003587,25.259749999962651],[-124.53939999961023,25.273620000163021],[-124.56016999964567,25.287479999902189],[-124.58091999965819,25.301350000102559],[-124.60168000013181,25.315209999841784],[-124.62245000016731,25.329080000042097],[-124.64349000006337,25.342660000358876],[-124.66479999982005,25.35598000037686],[-124.68640000035964,25.369009999611933],[-124.70826999986053,25.381760000323879],[-124.73041999968314,25.394240000275943],[-124.7522799996222,25.406999999650395],[-124.7738800001618,25.420029999784788],[-124.79518999991848,25.433340000240946],[-124.81622999981454,25.446930000119551],[-124.83699000028821,25.460789999858775],[-124.85776000032365,25.474660000059089],[-124.878519999898,25.488519999798314],[-124.89928000037162,25.502389999998627],[-124.92003999994597,25.516249999737852],[-124.94080999998141,25.530119999938165],[-124.96129000013332,25.544259999999156],[-124.9815000004246,25.558680000381855],[-125.00141999993298,25.573380000187001],[-125.02108000004188,25.588349999852767],[-125.04045000026719,25.603599999840242],[-125.06011999993797,25.618579999967153],[-125.08004999990749,25.633270000210473],[-125.09997999987701,25.647970000015619],[-125.11992000030767,25.662669999820764],[-125.1395600003936,25.67764000038585],[-125.15865999985903,25.693169999795771],[-125.17692999971962,25.709529999709844],[-125.19492999971965,25.726169999945682],[-125.21236000041358,25.74336000036385],[-125.22979999977008,25.760560000343901],[-125.24695999970413,25.778019999723369],[-125.26441000042109,25.795219999703363],[-125.28157000035515,25.812690000443297],[-125.29902000017279,25.829879999962145],[-125.31618000010684,25.847349999802816],[-125.33362999992448,25.864540000220984],[-125.35078000029671,25.882010000061598],[-125.36823000011429,25.899199999580446],[-125.38539000004835,25.916679999882206],[-125.40281999984302,25.933870000300431],[-125.41999000023822,25.951340000141045],[-125.42871000036615,25.959929999669896],[-125.45459999998991,25.986000000399827],[-125.47204000024573,26.003189999918732],[-125.48920000017978,26.020659999759346],[-125.5066400004356,26.037850000177514],[-125.51522999996445,26.046590000328422],[-125.54123999972609,26.072519999998121],[-125.55841000012134,26.08998000027691],[-125.57557999961722,26.107459999679406],[-125.59217999980706,26.12547999970235],[-125.60851000013628,26.143780000047116],[-125.62400999996146,26.162919999558483],[-125.63148000000189,26.172760000074106],[-125.65362999982455,26.202569999705872],[-125.66095999970412,26.21255000038235],[-125.68297000026519,26.242500000175028],[-125.69044000030567,26.252350000252477],[-125.71314999987248,26.281600000140031],[-125.72063000037411,26.291439999756335],[-125.74276999973563,26.321250000287421],[-125.75745000041707,26.34122000030294],[-125.77211000017627,26.361190000318402],[-125.78676999993547,26.381149999872719],[-125.80173000003936,26.400839999566472],[-125.80934000024075,26.410550000382329],[-125.8244300000444,26.430099999915228],[-125.83922999996446,26.44992000020801],[-125.86098000022673,26.480150000322396],[-125.87508000024172,26.500669999620925],[-125.88893000041907,26.521470000140539],[-125.89583999981602,26.531859999939172],[-125.90969999955524,26.552659999559467],[-125.92354000017076,26.573460000079081],[-125.94429000018329,26.604650000397328],[-125.95121999960321,26.615049999757844],[-125.97198000007683,26.646249999637917],[-125.97889999993498,26.656649999897695],[-125.99273999965118,26.677439999956164],[-126.01350000012479,26.708639999836294],[-126.02735000030219,26.729440000355851],[-126.03412999999944,26.739979999877221],[-126.05418999966867,26.771870000100591],[-126.06070000040461,26.782680000381845],[-126.07967000017027,26.815679999632437],[-126.08562000026274,26.827049999657902],[-126.09752000044756,26.849789999708889],[-126.11536999982553,26.883899999785285],[-126.12133000037915,26.895260000248982],[-126.13974000040059,26.928820000143048],[-126.14625000023722,26.939630000424302],[-126.16604999960771,26.971800000070061],[-126.17932999957975,26.993149999872742],[-126.1859700000154,27.003829999554966],[-126.20561999966316,27.036129999799812],[-126.21185000007733,27.047229999964657],[-126.22404000014581,27.069689999693878],[-126.23594000033069,27.092429999744809],[-126.24770999991648,27.115300000394825],[-126.25918999961868,27.138460000029113],[-126.27067999978209,27.161610000101575],[-126.2822999996452,27.184629999574952],[-126.2938000002697,27.207779999647414],[-126.31110000036466,27.242450000367342],[-126.31691000029616,27.253950000092573],[-126.32839999956025,27.277109999726861],[-126.3398899997236,27.300259999799266],[-126.35150000002488,27.323280000172019],[-126.36299000018829,27.346430000244482],[-126.37448999991346,27.369589999878713],[-126.38610999977658,27.39259999979032],[-126.39759999993993,27.415760000323871],[-126.40909000010333,27.438910000396334],[-126.42072000042759,27.461929999869767],[-126.43207000043009,27.485220000103084],[-126.44868000018175,27.520580000266932],[-126.45406999963069,27.532499999575464],[-126.4644499998675,27.556759999574467],[-126.47429000038312,27.581580000217002],[-126.4841200004376,27.606399999960161],[-126.49394000003088,27.631219999703376],[-126.50377000008535,27.656040000345854],[-126.51413999986102,27.680300000344857],[-126.52509000030318,27.704010000161531],[-126.53615000042208,27.727579999817294],[-126.54750000042458,27.750870000050611],[-126.55912999984952,27.773890000423307],[-126.57047999985201,27.797179999757304],[-126.58155999999389,27.820750000312387],[-126.59247999995193,27.844460000129061],[-126.60286999975062,27.868720000128064],[-126.61269999980505,27.893539999871223],[-126.62252999985952,27.918359999614438],[-126.63235000035212,27.943180000256973],[-126.6421800004066,27.968000000000131],[-126.65255999974408,27.992259999999135],[-126.6634999997251,28.015969999815809],[-126.67457000030515,28.039549999932717],[-126.6859099998465,28.062840000166034],[-126.69754000017076,28.085850000077585],[-126.70903000033417,28.109000000150047],[-126.7205199995982,28.132159999784278],[-126.73214999992246,28.155180000157031],[-126.74930999985651,28.189979999677405],[-126.75513000024921,28.201480000301899],[-126.76675000011232,28.224499999775333],[-126.77810999967664,28.247799999570475],[-126.78916999979555,28.271370000125557],[-126.80010000021474,28.295070000380349],[-126.81049000001337,28.319339999941178],[-126.82030999960671,28.344159999684393],[-126.83013999966118,28.368980000326872],[-126.83996999971561,28.393789999608941],[-126.84981000023123,28.418610000251476],[-126.86018000000689,28.44287000025048],[-126.87111000042609,28.466589999628923],[-126.88218999966864,28.49014999972286],[-126.89353999967113,28.513450000417322],[-126.90516999999539,28.536460000328873],[-126.9166600001588,28.559619999963161],[-126.92815000032215,28.582770000035623],[-126.93975999972412,28.605790000408319],[-126.95124999988747,28.628939999581462],[-126.9627499996127,28.65210000011507],[-126.97437000037513,28.675110000026621],[-126.98585999963916,28.698269999660909],[-126.99734000024074,28.721419999733371],[-127.00896999966568,28.744440000106067],[-127.02045999982903,28.767590000178529],[-127.03194999999243,28.790749999812761],[-127.04358000031669,28.813759999724368],[-127.05506999958072,28.836920000257976],[-127.06655999974413,28.860070000330381],[-127.08399000043806,28.894599999990135],[-127.08952000004786,28.906380000037132],[-127.10060000018979,28.929949999692894],[-127.11154000017081,28.953660000408831],[-127.12192000040761,28.977920000407835],[-127.13174000000089,29.00274000015105],[-127.14157000005537,29.027570000355354],[-127.15140000010985,29.052379999637424],[-127.16121999970312,29.077200000279959],[-127.17161000040113,29.101469999840788],[-127.18253999992095,29.125170000095579],[-127.19362000006288,29.148739999751342],[-127.20497000006537,29.172040000445804],[-127.21660000038963,29.195050000357355],[-127.22806999963069,29.218209999991643],[-127.23955999979404,29.241360000064105],[-127.25119999968013,29.264369999975656],[-127.26254000012079,29.287669999770799],[-127.27362000026272,29.311240000325881],[-127.2845499997826,29.334950000142555],[-127.29493999958123,29.359210000141559],[-127.30476000007383,29.384029999884717],[-127.31459000012831,29.408849999627932],[-127.32442000018278,29.433670000270467],[-127.33423999977606,29.45847999955248],[-127.34462000001292,29.482750000012629],[-127.35555999999389,29.506459999829246],[-127.36664000013582,29.530030000384329],[-127.37799000013831,29.553319999718383],[-127.38961999956325,29.576340000091079],[-127.40110000016477,29.599490000163541],[-127.41257999986703,29.622649999797773],[-127.42421000019124,29.64565999970938],[-127.43570999991647,29.668820000242988],[-127.44718999961867,29.691970000315393],[-127.45881999994293,29.714989999788827],[-127.47597999987698,29.749790000208463],[-127.48180000026969,29.76130000039484],[-127.4934200001328,29.784310000306391],[-127.50491000029621,29.807469999940679],[-127.51639999956024,29.830620000013141],[-127.52802000032267,29.853640000385838],[-127.53937000032516,29.876929999719835],[-127.55044999956772,29.900500000274917],[-127.56139000044806,29.924210000091591],[-127.57176000022372,29.948470000090595],[-127.5815900002782,29.973289999833753],[-127.59142000033268,29.998109999576968],[-127.60123999992595,30.022930000219503],[-127.61106999998043,30.047749999962662],[-127.61646999989051,30.059670000170513],[-127.63791999980805,30.107510000286425],[-127.64345999987898,30.119290000333365],[-127.66063000027418,30.154089999853738],[-127.66644000020574,30.165600000040115],[-127.67793000036914,30.188759999674403],[-127.68941000007135,30.211909999746808],[-127.70117999965714,30.23478999995865],[-127.71309000030317,30.257520000447812],[-127.72526999991049,30.279989999738859],[-127.73177000018529,30.290800000020113],[-127.7511400004106,30.323379999687404],[-127.76442999994447,30.344730000389347],[-127.77770999991645,30.366089999753854],[-127.79086000018879,30.387579999717332],[-127.80360000043959,30.409479999702342],[-127.81578000004686,30.431949999892709],[-127.82768000023174,30.454689999943696],[-127.83944999981753,30.477559999694392],[-127.85093999998094,30.500720000228],[-127.86243000014429,30.523870000300406],[-127.8740500000074,30.546889999773839],[-127.88554000017081,30.570039999846244],[-127.89703000033415,30.593200000379852],[-127.9086599997591,30.616210000291403],[-127.92014999992244,30.639369999925691],[-127.93164000008585,30.662519999998153],[-127.94327000041011,30.68554000037085],[-127.95475999967414,30.708690000443312],[-127.96624999983754,30.7318500000776],[-127.97800000029969,30.754719999828296],[-127.98989999958525,30.777459999879227],[-128.00208000009184,30.799919999608449],[-128.01482999990446,30.821830000054604],[-128.02796999971565,30.843320000018139],[-128.04126000014878,30.864669999820762],[-128.05454999968265,30.886030000084588],[-128.0676900003931,30.907520000048123],[-128.08044000020573,30.929420000033133],[-128.09261999981305,30.9518900002235],[-128.10451999999793,30.974619999813285],[-128.11628999958373,30.997500000025127],[-128.12777999974708,31.020650000097589],[-128.13924999988751,31.04380999973182],[-128.15102999993445,31.066680000381837],[-128.16888000021174,31.10078999955897],[-128.1751099997266,31.111889999723871],[-128.18784000041558,31.133789999708881],[-128.20098999978859,31.155279999672416],[-128.21428999978355,31.176630000374359],[-128.22754999973262,31.197989999738866],[-128.24072000002786,31.219479999702344],[-128.25344999981752,31.241390000148556],[-128.26561999986302,31.263849999877721],[-128.27752999960973,31.286580000366882],[-128.28928000007187,31.309459999679405],[-128.30646000002889,31.344260000099041],[-128.31226000039862,31.355770000285418],[-128.32390000028471,31.378789999758851],[-128.33539000044806,31.401939999831257],[-128.34687999971214,31.425100000364864],[-128.35849000001338,31.448110000276415],[-128.37000000019975,31.471269999910703],[-128.38147000034013,31.494419999983165],[-128.39325000038713,31.517300000195007],[-128.40516999969566,31.540040000245938],[-128.41733000017928,31.562499999975159],[-128.43005000040711,31.584399999960169],[-128.44321000024121,31.60590000038485],[-128.45651000023622,31.62725000018753],[-128.46979000020826,31.648599999990154],[-128.48293999958122,31.670089999953689],[-128.49579000040808,31.691860000238989],[-128.50838999959871,31.713900000384854],[-128.5210000001498,31.7359500000926],[-128.54037000037511,31.768529999759835],[-128.5470099999115,31.779210000341379],[-128.56030000034463,31.80056000014406],[-128.57358999987849,31.821909999946683],[-128.58674999971265,31.843399999910218],[-128.59961000010134,31.865170000195519],[-128.61221000019128,31.887210000341383],[-128.62479999982003,31.90926000004913],[-128.63768000023174,31.931030000334374],[-128.64431999976807,31.941710000016656],[-128.66424999973759,31.973729999939678],[-128.67795000019225,31.994669999720827],[-128.69180000036965,32.015470000240441],[-128.70564000008585,32.036269999860735],[-128.71947999980205,32.057059999919204],[-128.73332000041762,32.077860000438818],[-128.74716000013382,32.098660000059112],[-128.76101999987299,32.119459999679407],[-128.77483999956621,32.140249999737819],[-128.78870000020476,32.161050000257433],[-128.80251999989798,32.181849999877727],[-128.81637999963721,32.202639999936196],[-128.83022000025272,32.22343999955649],[-128.84405999996892,32.244240000076104],[-128.85787999966215,32.265039999696398],[-128.87172999983954,32.285840000215956],[-128.88558999957871,32.306630000274424],[-128.89957000035514,32.327289999733864],[-128.91382000009281,32.347669999770801],[-128.92833999969116,32.367779999947174],[-128.94315999963419,32.387600000239956],[-128.95825000033716,32.407149999772798],[-128.97334000014081,32.426700000205017],[-128.98816000008384,32.446530000059624],[-129.00269000014328,32.466640000235941],[-129.016939999881,32.487009999811789],[-129.03093000021926,32.507679999732318],[-129.04474999991248,32.528469999790786],[-129.05858999962868,32.549270000310401],[-129.07965000044709,32.580189999868765],[-129.08684000016581,32.590309999806777],[-129.10151999994793,32.610279999822296],[-129.11672999988951,32.629690000093547],[-129.14053000025922,32.657830000054616],[-129.14856000004386,32.667120000387854],[-129.16461000005137,32.685700000155009],[-129.18039000019826,32.704560000243987],[-129.19562000016276,32.723969999615917],[-129.2104299996447,32.743789999908699],[-129.22509999986499,32.763759999924218],[-129.2399100002462,32.783589999778826],[-129.25514000021076,32.803000000050133],[-129.27090000033468,32.821849999677909],[-129.29500999971162,32.849719999778301],[-129.30304000039558,32.859010000111539],[-129.31881999964315,32.877870000200517],[-129.33402999958474,32.897279999572447],[-129.34885000042709,32.917099999865229],[-129.36353000020927,32.937069999880748],[-129.37833000012932,32.956899999735356],[-129.39354999963268,32.976310000006663],[-129.40946999994043,32.995029999934673],[-129.4342499996377,33.022200000130056],[-129.44269000034313,33.031080000441818],[-129.46773999990097,33.057979999877261],[-129.47590999984652,33.067130000049588],[-129.49181999969312,33.085849999977654],[-129.50704999965768,33.105260000248961],[-129.52173000033918,33.125219999803278],[-129.53598000007685,33.145599999840272],[-129.5499700004151,33.166260000198974],[-129.5638100001313,33.187059999819269],[-129.57766999987052,33.207860000338883],[-129.5916299997246,33.228519999798323],[-129.61309999966517,33.259019999773329],[-129.62056000014383,33.268860000288953],[-129.63579000010833,33.288269999660884],[-129.65157000025522,33.307129999749861],[-129.66762999982456,33.325710000416336],[-129.69170999961671,33.353579999617409],[-129.6994599999789,33.363139999811267],[-129.71468000038163,33.382550000082574],[-129.72948000030169,33.402379999937182],[-129.75150000042458,33.432329999729859],[-129.75881999984301,33.442310000406337],[-129.77365000024724,33.462140000260945],[-129.79633999979109,33.491390000148556],[-129.80380000026969,33.501240000225948],[-129.8186299997746,33.521059999619411],[-129.83330999955672,33.541029999634929],[-129.8479599997541,33.560999999650392],[-129.86275999967415,33.580830000404319],[-129.87798999963866,33.600230000214481],[-129.89376999978555,33.619090000303402],[-129.91784999957775,33.646960000403851],[-129.92586999980057,33.656249999837769],[-129.94166999997043,33.675100000364864],[-129.95687999991196,33.694520000197997],[-129.97171000031619,33.714339999591459],[-129.98637000007534,33.734309999606921],[-130.00119000001837,33.754140000360849],[-130.01641999998293,33.773549999732836],[-130.04049999977508,33.80141000027146],[-130.05709999996492,33.819439999856229],[-130.07399000003841,33.837179999557463],[-130.09061000025122,33.855210000041609],[-130.09876999973562,33.864360000213992],[-130.12244000040562,33.892649999897742],[-130.12991000044605,33.902490000413309],[-130.15206999983053,33.932300000045132],[-130.15939000014828,33.94227999982229],[-130.17421000009136,33.962109999676898],[-130.18944000005587,33.98153000040935],[-130.21349999982505,34.009390000048597],[-130.23010000001489,34.027419999633423],[-130.24701000011135,34.045160000233977],[-130.25530999975661,34.054179999807275],[-130.27995000019229,34.081490000163512],[-130.28769000009333,34.091059999919196],[-130.30292000005784,34.110470000190503],[-130.3177300004391,34.130289999583965],[-130.33241000022122,34.150259999599427],[-130.3472300001643,34.170090000353355],[-130.36246000012881,34.189499999725342],[-130.38653999992096,34.217369999825792],[-130.39483999956622,34.226379999837263],[-130.41159000037811,34.244259999699352],[-130.42834000029069,34.262150000022643],[-130.44482000034265,34.280310000206498],[-130.4607199997281,34.299030000134564],[-130.47594999969266,34.318440000405815],[-130.49074999961272,34.338270000260422],[-130.50543000029421,34.358229999814796],[-130.52023000021427,34.378059999669404],[-130.53546000017877,34.397469999940711],[-130.5513799995872,34.41618999986872],[-130.57616000018379,34.443369999625929],[-130.58474999971264,34.452100000214955],[-130.60190000008487,34.469570000055626],[-130.62763999998594,34.495780000047091],[-130.64426000019876,34.513800000070091],[-130.66058000006689,34.532100000414857],[-130.66833000042908,34.541670000170541],[-130.68356000039364,34.561080000441791],[-130.69838000033667,34.580910000296399],[-130.71306000011884,34.600869999850772],[-130.72786999960073,34.62069999970538],[-130.74309999956523,34.640109999976687],[-130.7671800002567,34.66798000007708],[-130.7837800004466,34.68600000010008],[-130.79236000041362,34.694740000250931],[-130.80952000034767,34.7121999996304],[-130.83526999981058,34.738409999621922],[-130.84357000035516,34.747419999633394],[-130.86820999989152,34.774739999551457],[-130.87594999979257,34.784310000206517],[-130.89117000019525,34.803719999578448],[-130.90599000013833,34.823550000332375],[-130.92801000026122,34.853489999663907],[-130.94295999990396,34.87318000025698],[-130.95071000026621,34.882750000012663],[-130.96660999965167,34.901469999940673],[-130.9913900002482,34.928640000136056],[-131.00857999976711,34.94610999997667],[-131.01715000017231,34.954850000127522],[-131.04317999995692,34.980770000235452],[-131.06033000032915,34.998249999637892],[-131.07747999980205,35.01570999991668],[-131.09408999955377,35.033740000400826],[-131.10226000039859,35.042880000112063],[-131.11817999980707,35.061609999601956],[-131.1333899997486,35.081019999873263],[-131.14822000015278,35.10084999972787],[-131.16289000037312,35.120799999720361],[-131.17769999985501,35.140640000036115],[-131.19292999981957,35.160050000307422],[-131.20885000012731,35.178759999774343],[-131.23360999980156,35.205940000430815],[-131.2422200002527,35.214679999682403],[-131.26794000013081,35.240880000112043],[-131.27666999982057,35.249480000102096],[-131.29398000037662,35.266809999781799],[-131.3197200002777,35.293010000211495],[-131.3280300003841,35.302020000222967],[-131.34447999995194,35.320180000406822],[-131.36816000018376,35.348470000090572],[-131.37563999978607,35.358309999706876],[-131.39043999970613,35.378139999561483],[-131.40512000038763,35.398109999576945],[-131.41992000030768,35.417940000330873],[-131.43515000027219,35.437340000141035],[-131.45923000006434,35.465210000241484],[-131.47583000025423,35.483239999826253],[-131.49301000021126,35.500709999666924],[-131.50159000017828,35.509449999817775],[-131.52761999996295,35.535369999925706],[-131.54477000033518,35.55283999976632],[-131.5619500002922,35.570309999606934],[-131.57024999993746,35.579319999618406],[-131.58672000042759,35.597490000263463],[-131.60263000027419,35.616199999730327],[-131.61784000021572,35.635610000001634],[-131.63266000015881,35.655439999856242],[-131.64733999994098,35.675409999871761],[-131.66213999986104,35.695239999726368],[-131.67736999982554,35.714649999997675],[-131.69327999967214,35.733360000363859],[-131.70975000016227,35.75153000010954],[-131.72664999979759,35.769269999810774],[-131.75238000013678,35.795479999802296],[-131.76110999982654,35.804079999792293],[-131.78698999988848,35.830140000061078],[-131.80414999982253,35.847609999901692],[-131.8207700000354,35.865640000385838],[-131.83710000036461,35.883939999831284],[-131.84484999982755,35.893509999586968],[-131.86007999979205,35.912910000296449],[-131.87489000017325,35.932740000151057],[-131.88956999995543,35.952710000166519],[-131.90438999989851,35.972529999559981],[-131.91961999986302,35.991950000292434],[-131.94369999965517,36.019809999931681],[-131.96029999984501,36.037840000415827],[-131.97745000021723,36.055310000256441],[-131.99463000017425,36.072780000097055],[-132.0120500004071,36.08996999961596],[-132.02921000034115,36.107440000355894],[-132.04639000029817,36.124910000196508],[-132.06298999958869,36.142939999781333],[-132.07116999999539,36.15208999995366],[-132.08707000028022,36.170809999881726],[-132.10228999978358,36.190220000153033],[-132.11712999974958,36.210040000445815],[-132.13177000038513,36.230009999561958],[-132.14661000035113,36.249840000315885],[-132.16182999985455,36.269249999687872],[-132.17773000013932,36.287960000054113],[-132.19421000019128,36.306129999799793],[-132.21108999980356,36.323870000400348],[-132.22826000019876,36.341340000240962],[-132.24556000029366,36.358669999920721],[-132.26284999992748,36.376010000061626],[-132.28858999982856,36.402209999591946],[-132.30521000004137,36.420229999614946],[-132.3215299999095,36.438540000420801],[-132.32928000027169,36.448099999715339],[-132.34451000023626,36.467509999986646],[-132.35933000017928,36.487339999841254],[-132.37400999996146,36.507309999856773],[-132.39629999994497,36.536980000226947],[-132.40405000030717,36.546549999982631],[-132.41222000025272,36.555689999693868],[-132.44473000028921,36.59244000010608],[-132.45331999981806,36.601169999795786],[-132.47049000021326,36.6186399996364],[-132.49623000011434,36.644849999627922],[-132.51285000032715,36.662869999650923],[-132.52917000019528,36.681179999557457],[-132.5369300001193,36.690739999751315],[-132.55214999962271,36.710150000022622],[-132.56696000000392,36.72997999987723],[-132.58163000022427,36.749940000330923],[-132.59643999970615,36.769779999747357],[-132.61166000010883,36.789179999557462],[-132.6275600003936,36.807900000384848],[-132.64404000044556,36.826059999669383],[-132.66079999991996,36.843949999992674],[-132.67754999983254,36.861829999854763],[-132.69402999988449,36.879999999600443],[-132.70993000016927,36.898720000427829],[-132.72516000013383,36.918129999799817],[-132.73996999961571,36.937959999654424],[-132.75463999983606,36.957920000108061],[-132.76943999975612,36.977749999962668],[-132.78468000018177,36.997160000233976],[-132.80057999956722,37.015880000162042],[-132.8170799996422,37.034040000345897],[-132.83394999969266,37.051780000047131],[-132.85110000006489,37.069260000348891],[-132.8771400003107,37.095179999557502],[-132.88570999981653,37.103919999708353],[-132.90302000037263,37.121250000287432],[-132.92031999956822,37.138579999967192],[-132.93761999966318,37.155909999646894],[-132.96378999960871,37.181700000055116],[-132.97277999959721,37.190019999723347],[-133.00006000036865,37.214700000204971],[-133.00961000010136,37.222469999690873],[-133.02898999988849,37.237710000116579],[-133.05901999977306,37.259619999663414],[-133.06925999984901,37.266690000143512],[-133.10024999993743,37.287629999924718],[-133.12103000043408,37.301489999663886],[-133.1417800004466,37.315359999864256],[-133.15215999978409,37.3222900001835],[-133.18329999959519,37.343089999803794],[-133.19367999983206,37.350020000123038],[-133.22481999964316,37.370819999743333],[-133.23519999988002,37.377750000062576],[-133.25598000037661,37.391620000262947],[-133.28710999972662,37.412410000321415],[-133.30787999976206,37.426279999622409],[-133.32891999965818,37.439870000400333],[-133.33956999975561,37.446520000397868],[-133.37182999995446,37.466210000091564],[-133.39397999977706,37.478690000043628],[-133.41669000024325,37.490619999813305],[-133.43935999976406,37.502540000021156],[-133.46234000009082,37.514179999907242],[-133.49762999972461,37.530820000143024],[-133.50940000020978,37.536360000213961],[-133.53321999970314,37.547180000057097],[-133.55786000013882,37.557159999834255],[-133.58306999988048,37.566590000328404],[-133.6082500000374,37.576019999923176],[-133.6470000000499,37.58919000021848],[-133.66001999972315,37.593489999763847],[-133.6989099998965,37.606519999898239],[-133.72478999995843,37.615260000049091],[-133.7507900001583,37.623860000039144],[-133.76378999980858,37.628150000022629],[-133.78983000005439,37.636750000012626],[-133.82915000027219,37.649370000125543],[-133.8558700004001,37.657270000210474],[-133.86928000007185,37.66115000017254],[-133.91012999979955,37.672250000337385],[-133.93764999994744,37.679310000356395],[-133.96547000044006,37.68611000007661],[-133.99355999989399,37.692630000374379],[-134.0219600001538,37.698859999889237],[-134.03620999989147,37.701919999808297],[-134.07953000020927,37.710510000236468],[-134.10845999972912,37.716189999568996],[-134.1372700000104,37.722020000422845],[-134.16620000042957,37.727710000216462],[-134.19553000040912,37.73296999996569],[-134.22556000029368,37.737549999832765],[-134.25670999966667,37.7410199997733],[-134.2890900000034,37.743230000064614],[-134.32229999994496,37.744620000312921],[-134.35579999977006,37.745730000239462],[-134.38904000019579,37.747119999588449],[-134.4214199996332,37.749340000340908],[-134.45254999988248,37.752799999820297],[-134.48259000022824,37.757370000125547],[-134.51192999976956,37.762369999575981],[-134.54086000018879,37.766939999881231],[-134.5696399999859,37.770260000099086],[-134.58349999972512,37.770960000004152],[-134.62749999992496,37.770260000099086],[-134.65631000020625,37.766939999881231],[-134.68523000016427,37.762369999575981],[-134.71456999970565,37.757370000125547],[-134.74461000005135,37.752799999820297],[-134.77576000032366,37.749340000340908],[-134.80817000024524,37.747119999588449],[-134.8413699997256,37.745730000239462],[-134.87485999998893,37.744620000312921],[-134.90808000039164,37.743230000064614],[-134.94045999982905,37.741010000211475],[-134.97159000007838,37.737549999832765],[-135.00163000042409,37.73296999996569],[-135.03101000001141,37.727699999755316],[-135.05990999994646,37.722020000422845],[-135.08870999976659,37.716189999568996],[-135.11762999972461,37.710510000236468],[-135.14656000014378,37.70483000000462],[-135.17519999978009,37.698859999889237],[-135.20358000001687,37.692630000374379],[-135.23169000039314,37.68611000007661],[-135.25948999996342,37.679310000356395],[-135.28705000015731,37.67223999987624],[-135.31431999956823,37.664889999973639],[-135.34130999955676,37.657270000210474],[-135.36804000014581,37.649370000125543],[-135.39431999976807,37.641049999557993],[-135.42034999955274,37.632449999567996],[-135.45937999988701,37.619559999594458],[-135.4723800004366,37.615260000049091],[-135.49829000008333,37.606530000359385],[-135.52417000014532,37.597790000208477],[-135.55017000034513,37.58919000021848],[-135.57605000040712,37.580459999629397],[-135.6015300000094,37.571310000356391],[-135.6267199997281,37.561879999862242],[-135.65163999958622,37.552169999945704],[-135.67587000000043,37.541769999685869],[-135.69951999974808,37.530820000143024],[-135.72307000028019,37.519730000439324],[-135.74631000000642,37.508360000413859],[-135.76913000014929,37.496569999905716],[-135.8031899997186,37.478690000043628],[-135.81426999986053,37.472450000067568],[-135.84692000005788,37.453179999957172],[-135.86826000029868,37.439870000400333],[-135.88955999959421,37.426559999944175],[-135.91089000027318,37.413250000387336],[-135.93246000032866,37.400220000252943],[-135.94342000033265,37.393840000116086],[-135.96542000043257,37.381220000003168],[-135.99808000019175,37.361949999892715],[-136.00861000015129,37.3551500001725],[-136.03960999980154,37.334210000391352],[-136.05953999977106,37.319520000148032],[-136.07891999955825,37.3042700001605],[-136.09857000010533,37.289290000033645],[-136.11850000007485,37.2745900002285],[-136.13843000004437,37.25989999998518],[-136.15836000001389,37.245200000180034],[-136.1875800003167,37.222469999690873],[-136.20626999976059,37.206519999798275],[-136.22440000035965,37.190019999723347],[-136.23339999990998,37.181700000055116],[-136.25082000014282,37.164509999636891],[-136.27686000038864,37.138579999967192],[-136.28542999989452,37.129839999816284],[-136.30285999968913,37.112650000297435],[-136.32873999975112,37.08659000002865],[-136.34603999984603,37.069260000348891],[-136.35461000025123,37.060520000197982],[-136.3717799997471,37.043050000357368],[-136.39656000034364,37.015880000162042],[-136.41247999975212,36.997160000233976],[-136.42023000011432,36.987589999578972],[-136.44237999993697,36.957779999947206],[-136.44958000011684,36.947660000009137],[-136.46370999971663,36.927139999811288],[-136.48447000019024,36.895939999931215],[-136.49832000036764,36.875140000310921],[-136.51214999962269,36.854350000252452],[-136.52599999980004,36.833549999732838],[-136.53293000011934,36.82315000037238],[-136.54674999981256,36.802349999852765],[-136.56696000010385,36.770599999790306],[-136.58011000037612,36.749109999826771],[-136.59282999970463,36.727200000279936],[-136.59906000011881,36.716109999676917],[-136.61693000041907,36.682010000061609],[-136.6286900004431,36.659129999849768],[-136.64005000000742,36.635830000054625],[-136.65111000012632,36.612269999960688],[-136.66205000010734,36.588549999682868],[-136.66745000001742,36.576630000374337],[-136.67740000020973,36.551949999892713],[-136.69138000008684,36.513959999854251],[-136.69595000039214,36.501210000041624],[-136.70812999999941,36.461410000171497],[-136.71574000020075,36.434380000137025],[-136.72307999964221,36.407069999780788],[-136.73015000012231,36.379470000440335],[-136.7369400002807,36.351600000339886],[-136.74328999993344,36.323320000217961],[-136.74897999972711,36.294340000191028],[-136.75381000033116,36.264529999659885],[-136.75782999955476,36.233890000423344],[-136.76128999993347,36.202689999643894],[-136.764759999874,36.171500000224967],[-136.7687700004351,36.140849999627903],[-136.7733300002792,36.111049999557963],[-136.77538999994846,36.096630000074583],[-136.78177000008537,36.053779999847279],[-136.78413000009931,36.02590999974683],[-136.78413000009931,35.998179999807292],[-136.78177000008537,35.970309999706842],[-136.77791000014628,35.942029999584975],[-136.77331999981806,35.913060000019129],[-136.7687700004351,35.883239999926218],[-136.764759999874,35.8525999997903],[-136.76128999993347,35.821399999910227],[-136.75782999955476,35.79020999959198],[-136.75381000033116,35.759570000355382],[-136.74895999970414,35.729759999824296],[-136.74330000039464,35.700779999797305],[-136.73690999979658,35.672499999675381],[-136.73000999996145,35.644769999735843],[-136.722519999898,35.617589999978634],[-136.71451000013633,35.590969999965694],[-136.7059300001693,35.564900000135026],[-136.69665999985904,35.539530000209481],[-136.68680999978159,35.514720000028149],[-136.67699999975008,35.489889999823788],[-136.66730999985651,35.464940000380864],[-136.65749000026324,35.440119999738329],[-136.64766000020876,35.41529999999517],[-136.63783000015428,35.390489999813781],[-136.62744000035565,35.366220000252952],[-136.61636000021377,35.342649999697869],[-136.60487000005037,35.319499999625407],[-136.59282999970463,35.296899999735331],[-136.58011000037612,35.274990000188495],[-136.56696000010385,35.253489999763815],[-136.55353000040913,35.232280000122046],[-136.53982999995446,35.211349999902723],[-136.52599000023821,35.190550000282428],[-136.51214999962269,35.169749999762814],[-136.49832000036764,35.14895000014252],[-136.48447000019024,35.128160000084108],[-136.47060999955175,35.107359999564494],[-136.45662999967465,35.086700000105054],[-136.44237999993697,35.066309999606915],[-136.4277000001548,35.046359999614424],[-136.40471999982805,35.017379999587433],[-136.39658000036661,35.008219999853281],[-136.37179999977008,34.981049999657898],[-136.36321999980305,34.972310000406367],[-136.337459999879,34.94610999997667],[-136.32003999964616,34.928919999558502],[-136.30285999968913,34.911449999717831],[-136.28542999989452,34.894249999737838],[-136.27686000038864,34.885520000048132],[-136.25082000014282,34.859590000378375],[-136.24224999973762,34.850859999789293],[-136.21621999995295,34.824930000119537],[-136.20749999982502,34.81633000012954],[-136.18079000015831,34.79110000036485],[-136.16252000029766,34.774739999551457],[-136.14343000039412,34.759210000141536],[-136.12377999984705,34.74423999957645],[-136.10382000029267,34.729539999771305],[-136.08389000032315,34.714839999966159],[-136.06396000035363,34.700140000161014],[-136.04430999980656,34.685169999595928],[-136.0249500000424,34.669910000046627],[-136.00528999993344,34.654949999942687],[-135.98535000040209,34.640239999676396],[-135.96542000043257,34.625550000332396],[-135.95545999977907,34.618200000429795],[-135.93552000024772,34.603499999725329],[-135.90590000038463,34.581180000157019],[-135.88651999969812,34.565930000169544],[-135.86687000005037,34.550959999604459],[-135.84692000005788,34.536259999799313],[-135.82699999965018,34.521559999994167],[-135.80706999968066,34.506869999750847],[-135.78711000012629,34.492169999945702],[-135.77728000007187,34.484679999882246],[-135.7481100002762,34.461939999831259],[-135.73828000022172,34.454460000228949],[-135.71847999995197,34.439620000262948],[-135.68859999979009,34.417580000117084],[-135.66866999982057,34.402880000311882],[-135.64902000017275,34.387909999746853],[-135.62987999976207,34.372380000336875],[-135.61136000006388,34.356290000283423],[-135.5928000003197,34.340209999791796],[-135.57425999969917,34.324119999738343],[-135.55518000025671,34.308599999890248],[-135.53552000014781,34.293619999763337],[-135.51555999969412,34.278930000419336],[-135.49564000018574,34.264229999714871],[-135.47571000021622,34.249529999909726],[-135.45605000010733,34.23456000024396],[-135.43669000034316,34.219310000256428],[-135.41703999979609,34.204330000129573],[-135.39708999980354,34.189630000324428],[-135.37717000029517,34.174940000081108],[-135.36720000007983,34.167590000178507],[-135.34725999964917,34.152890000373361],[-135.32744999981753,34.138059999969187],[-135.29825999999889,34.115319999918199],[-135.28844000040561,34.107829999854744],[-135.25866999992047,34.085650000447288],[-135.23873999995095,34.070949999742822],[-135.22878000019676,34.063610000301423],[-135.20883000020427,34.048900000035133],[-135.17921000034113,34.026590000028648],[-135.16953000000939,34.018959999804281],[-135.14018000000692,33.996359999914205],[-135.1202500000374,33.981660000109059],[-135.10034000009085,33.966960000303914],[-135.08041000012133,33.952259999599448],[-135.06048999971364,33.937570000255448],[-135.04082000004286,33.922599999690362],[-135.03113000014929,33.914970000365372],[-135.00176999968562,33.892369999575976],[-134.99182000039264,33.885019999673375],[-134.96190999974658,33.86298000042683],[-134.94199000023821,33.848279999722365],[-134.92235000015228,33.833310000056599],[-134.91280000041962,33.825539999671378],[-134.88469999960523,33.801689999693849],[-134.86615000032219,33.785610000101542],[-134.84760000013978,33.76952000004809],[-134.82849000021326,33.754000000199994],[-134.80883999966619,33.739020000073083],[-134.78890999969661,33.724329999829763],[-134.76897999972709,33.709630000024617],[-134.75899999994994,33.702280000122073],[-134.72938999964867,33.679959999654386],[-134.71000999986154,33.664709999666911],[-134.69034999975258,33.64973000043932],[-134.67041000022124,33.635040000196],[-134.66044999956773,33.627690000293398],[-134.6305500002822,33.605639999686389],[-134.6106299998745,33.590950000342389],[-134.5909699997656,33.575970000215477],[-134.58127000031016,33.568349999552993],[-134.55194000033066,33.545749999662917],[-134.53199999989999,33.531049999857771],[-134.51208000039162,33.516350000052626],[-134.49215999998393,33.501659999809306],[-134.48218000020677,33.494300000344879],[-134.45256000034368,33.471979999877249],[-134.43317999965717,33.456729999889717],[-134.41350999998645,33.441760000223951],[-134.39358999957875,33.427060000418805],[-134.37365999960923,33.41235999971434],[-134.35372999963971,33.39767000037034],[-134.33408999955373,33.382690000243485],[-134.32453999982107,33.374930000319409],[-134.29645000036714,33.351080000341881],[-134.28716999959573,33.343040000096096],[-134.26862000031269,33.326950000042586],[-134.24978999980857,33.311149999872725],[-134.22057999996696,33.288409999821795],[-134.20064999999744,33.273719999578475],[-134.18072999958974,33.259019999773329],[-134.16077000003537,33.244319999968184],[-134.14112999994944,33.229350000302418],[-134.12175000016231,33.214100000314886],[-134.10209999961518,33.199120000187975],[-134.08214999962269,33.184429999944712],[-134.06223000011431,33.169730000139566],[-134.04230000014479,33.15503000033442],[-134.02237000017527,33.140329999629898],[-134.0027199996282,33.125359999964189],[-133.98333999984101,33.110109999976657],[-133.96367999973211,33.095129999849746],[-133.94376000022373,33.080439999606426],[-133.92383000025421,33.065739999801281],[-133.90390000028469,33.051039999996135],[-133.88397000031517,33.036349999752815],[-133.86429999974513,33.021369999625904],[-133.84491999995794,33.006119999638429],[-133.82525999984904,32.991149999972663],[-133.81530999965668,32.983800000070119],[-133.78539999991,32.961750000362372],[-133.76546999994048,32.947060000119052],[-133.75565000034715,32.939570000055596],[-133.73628000012184,32.924320000068121],[-133.71746999964068,32.908510000336378],[-133.6989099998965,32.892429999844751],[-133.68035999971414,32.876339999791298],[-133.65198000037662,32.852779999697361],[-133.63232000026773,32.83779999957045],[-133.61239999986003,32.823099999765304],[-133.59246999989051,32.808399999960159],[-133.57251000033614,32.793709999716839],[-133.55287000025021,32.77874000005113],[-133.53348999956376,32.763479999602453],[-133.513839999916,32.748509999936687],[-133.4939000003846,32.733810000131541],[-133.47397000041508,32.719119999888221],[-133.45404000044556,32.704420000083076],[-133.43410999957672,32.68972000027793],[-133.41445999992897,32.674749999712844],[-133.39508000014183,32.659490000163544],[-133.3754299995947,32.644519999598458],[-133.36546000027869,32.637169999695857],[-133.33556999965566,32.615130000449312],[-133.31563999968614,32.600429999744847],[-133.29599000003839,32.585460000079081],[-133.2864200002827,32.57768999969386],[-133.26758999977858,32.561890000423318],[-133.2397799997471,32.537760000124024],[-133.22124000002589,32.521679999632397],[-133.20215000012234,32.506150000222476],[-133.18249999957521,32.491170000095565],[-133.1625400000209,32.476470000290419],[-133.14261000005138,32.461780000047099],[-133.12268000008186,32.447080000241954],[-133.1030300004341,32.432109999676868],[-133.09335000010236,32.424480000351878],[-133.06400999966166,32.401890000023627],[-133.04407000013032,32.387190000218482],[-133.0241400001608,32.372490000413336],[-133.00421000019128,32.357800000170016],[-132.98424999973759,32.343089999903725],[-132.96460999965166,32.328120000237959],[-132.94524000032567,32.312870000250427],[-132.92558000021677,32.297899999685399],[-132.90563999978605,32.283199999880253],[-132.88570999981653,32.268500000075107],[-132.86577999984701,32.253809999831788],[-132.84613000019925,32.238829999704876],[-132.82702999983451,32.223300000294898],[-132.81774999996242,32.215260000049113],[-132.79919000021823,32.199179999557487],[-132.78066999962067,32.183090000403354],[-132.76184000001592,32.167290000233493],[-132.73263999973614,32.144550000182505],[-132.71270999976656,32.12985000037736],[-132.69277999979704,32.115149999672894],[-132.67284999982752,32.100460000328894],[-132.65320000017977,32.085489999763809],[-132.64349000026323,32.077860000438818],[-132.61414999982253,32.055259999649422],[-132.59423999987598,32.040559999844277],[-132.58426000009882,32.033209999941676],[-132.55437000037512,32.011169999795811],[-132.53471000026622,31.9961899996689],[-132.51560999990147,31.980669999820805],[-132.49707000018026,31.964579999767295],[-132.4785199999979,31.948500000174988],[-132.45996000025372,31.932419999683361],[-132.45040999962168,31.924650000197516],[-132.42119999978007,31.901910000146529],[-132.4012800002717,31.887210000341383],[-132.38135000030218,31.872520000098064],[-132.36138999984854,31.857820000292918],[-132.34174999976261,31.842849999727832],[-132.33205999986899,31.835220000402842],[-132.30272000032767,31.812619999613446],[-132.282779999897,31.7979199998083],[-132.26284999992748,31.783229999564981],[-132.24291999995796,31.768529999759835],[-132.22327000031015,31.753560000094069],[-132.21371000011635,31.745789999708848],[-132.18563999978608,31.721939999731319],[-132.16708000004189,31.705860000139012],[-132.14854000032068,31.689779999647385],[-132.12943000039411,31.674250000237464],[-132.10977000028521,31.659279999672378],[-132.08984000031569,31.644579999867233],[-132.069919999908,31.629880000062087],[-132.04998999993848,31.615180000256942],[-132.03032999982952,31.600209999691856],[-132.01093999958124,31.584959999704381],[-131.99130000039463,31.56997999957747],[-131.97137000042511,31.55529000023347],[-131.95145000001742,31.540590000428324],[-131.9315200000479,31.525889999723859],[-131.91185000037711,31.510920000058093],[-131.90229999974508,31.503149999672871],[-131.88361000030119,31.487210000241475],[-131.86547999970213,31.470710000166491],[-131.83905000035713,31.445200000080092],[-131.82159000007834,31.428009999661924],[-131.80443999970612,31.410539999821253],[-131.79571999957824,31.401939999831257],[-131.77840999992145,31.384610000151554],[-131.75238000013678,31.358679999582478],[-131.74380000016976,31.349949999892715],[-131.72650000007485,31.33260999975181],[-131.70062000001292,31.306550000382344],[-131.68317000019528,31.289359999964176],[-131.66601999982305,31.271890000123562],[-131.65729000013329,31.263290000133566],[-131.63114999977256,31.237499999725344],[-131.61316000023373,31.220860000388825],[-131.60401999962318,31.212679999982186],[-131.58533000017928,31.196739999651413],[-131.55612000033767,31.173999999600426],[-131.54617000014531,31.166649999697881],[-131.51626999996046,31.14460999955196],[-131.4966099998515,31.129630000324426],[-131.48706000011884,31.121870000400349],[-131.45923000006434,31.097740000101055],[-131.44123999962619,31.081110000326419],[-131.42380000026969,31.063919999908194],[-131.4063699995757,31.0467199999282],[-131.38922000010285,31.029250000087586],[-131.37177000028521,31.012059999669418],[-131.35461000035116,30.994589999828747],[-131.3371599996342,30.977389999848754],[-131.32857999966717,30.968660000159048],[-131.3025499998825,30.942729999589972],[-131.2854000004096,30.925259999749358],[-131.26794000013081,30.908070000230452],[-131.25078999975858,30.890600000389838],[-131.23333999994094,30.87340999997167],[-131.21618999956871,30.855940000131056],[-131.19873000018924,30.838749999712888],[-131.18157999981707,30.821270000310392],[-131.16412000043761,30.804079999892224],[-131.14697000006538,30.78661000005161],[-131.12952000024774,30.769419999633442],[-131.11236999987551,30.751949999792828],[-131.10364999974757,30.743349999802774],[-131.07776000012382,30.717290000433309],[-131.06033000032915,30.700100000015141],[-131.05175999992395,30.691359999864233],[-131.02573000013933,30.665439999756302],[-131.01715000017231,30.656699999605451],[-130.99112000038764,30.630769999935694],[-130.98254000042061,30.622040000245931],[-130.95650999973662,30.596109999676912],[-130.93936000026372,30.578639999836241],[-130.93062999967464,30.570039999846244],[-130.9047499996127,30.543979999577459],[-130.89614999962271,30.535240000325871],[-130.87097000036516,30.508480000152019],[-130.85464000003589,30.49017999980731],[-130.84688999967364,30.480610000051627],[-130.83167000017028,30.46119999978032],[-130.80950999988647,30.431390000148554],[-130.80218999956872,30.421410000371338],[-130.78738000008684,30.401579999617411],[-130.77215999968416,30.38217000024548],[-130.75624000027568,30.363450000317414],[-130.7397800002467,30.345290000133559],[-130.71429000018327,30.318810000281417],[-130.70571999977807,30.310070000130565],[-130.6796899999934,30.284150000022635],[-130.67111000002637,30.275409999871727],[-130.64508000024171,30.249489999763796],[-130.63650999983651,30.240749999612945],[-130.6107600003736,30.214550000082568],[-130.60245999982902,30.205529999609951],[-130.57782000029266,30.178220000153033],[-130.56231999956822,30.159079999742346],[-130.55483999996596,30.149240000126042],[-130.54002000002288,30.129410000271434],[-130.52536000026373,30.109449999817798],[-130.51054000032065,30.08961999996319],[-130.49533000037911,30.070209999691883],[-130.47941999963319,30.051489999763817],[-130.46295000004238,30.033329999579962],[-130.43774000030066,30.00657000030543],[-130.42943999975608,29.997549999832756],[-130.40480000021972,29.970240000375838],[-130.39706000031867,29.960669999720835],[-130.37436000031369,29.931419999833281],[-130.35967999963219,29.911449999817762],[-130.34499999985002,29.891490000263445],[-130.33752000024771,29.881649999747822],[-130.31457999996695,29.852669999720831],[-130.29822000005288,29.834370000275442],[-130.28161999986304,29.816339999791296],[-130.2731600000339,29.807469999940679],[-130.25641000012132,29.789579999617445],[-130.23993999963119,29.77142000033291],[-130.21628999988349,29.74312999974984],[-130.208819999843,29.733290000133536],[-130.18665999955925,29.70347999960245],[-130.17199999980005,29.683509999586931],[-130.16452000019774,29.673669999970684],[-130.14929000023324,29.654259999699377],[-130.13351000008635,29.635399999610456],[-130.10943999985602,29.607530000409326],[-130.09338000028669,29.588949999742852],[-130.07787999956224,29.56981999979331],[-130.07039999995993,29.559980000177006],[-130.05558999957873,29.540150000322399],[-130.04090999979655,29.520180000306937],[-130.01890999969663,29.49022999961494],[-130.00394999959269,29.470550000382332],[-129.98871999962819,29.451140000111081],[-129.9812499995877,29.441290000033632],[-129.96642999964467,29.42146999974085],[-129.95189999958524,29.401359999564477],[-129.93764999984751,29.380980000426803],[-129.9236800004316,29.3603200000681],[-129.90291999995793,29.329120000188027],[-129.88906999978059,29.308330000129558],[-129.88202000022272,29.298070000030634],[-129.86057000030519,29.267559999594425],[-129.84588999962369,29.247600000040109],[-129.8309500004421,29.227910000346355],[-129.81571999957822,29.208500000075105],[-129.80078000039663,29.188810000381352],[-129.78609999971513,29.168849999927716],[-129.77170000025473,29.148599999590431],[-129.75756999975562,29.128080000291902],[-129.74373999960119,29.107279999772288],[-129.73681999974309,29.096889999973655],[-129.72298000002689,29.076090000353361],[-129.7022099999914,29.044900000035113],[-129.69527999967215,29.034490000213509],[-129.68145999997893,29.01370000015504],[-129.66070999996646,28.982500000274911],[-129.65377999964716,28.972100000015132],[-129.63991999990799,28.951309999956663],[-129.61916999989546,28.92011000007659],[-129.61223999957622,28.909709999816755],[-129.59148999956375,28.878509999936682],[-129.58456000014382,28.868109999676903],[-129.5638100001313,28.836920000257976],[-129.55687999981205,28.826519999998141],[-129.54304999965768,28.805729999939672],[-129.52920999994143,28.784930000319378],[-129.50843999990599,28.753730000439305],[-129.50152999960972,28.743330000179526],[-129.48073999955125,28.712139999861222],[-129.47383000015429,28.701739999601443],[-129.4530600001188,28.67053999972137],[-129.4392200004026,28.649740000101076],[-129.43231000010633,28.639339999841241],[-129.41152999960968,28.608150000422313],[-129.39770999991646,28.587349999902699],[-129.38385000017729,28.566550000282405],[-129.37691999985799,28.556150000022626],[-129.35618999986849,28.524959999704379],[-129.34927000001039,28.514560000343863],[-129.33541999983305,28.493759999824249],[-129.31466999982052,28.462559999944176],[-129.3077400004006,28.452159999684397],[-129.28667999958225,28.421249999687859],[-129.27230999970664,28.401000000249951],[-129.25762999992446,28.381030000234489],[-129.24268999984355,28.361350000102561],[-129.22745999987899,28.341939999831254],[-129.22000000029971,28.332089999753805],[-129.19784999957773,28.302280000122039],[-129.19063999983604,28.292160000184026],[-129.17639000009831,28.271780000147032],[-129.15549000036316,28.240720000427814],[-129.14856000004386,28.230320000168035],[-129.13472000032766,28.209530000109567],[-129.11395000029216,28.178330000229494],[-129.10703000043407,28.167929999969658],[-129.08626999996045,28.136739999651411],[-129.07937999968715,28.126340000290895],[-129.06551999994792,28.105539999771338],[-129.05168000023173,28.084740000151044],[-129.03783999961621,28.063950000092575],[-129.01708999960368,28.032750000212502],[-129.00322999986452,28.011949999692888],[-128.98939999971014,27.991150000072594],[-128.97555999999389,27.970360000014125],[-128.96170000025472,27.949560000393831],[-128.95478999995845,27.939160000134052],[-128.93401999992295,27.907969999815805],[-128.92018000020676,27.887170000195511],[-128.91326999991048,27.876769999935675],[-128.89249000031316,27.845570000055602],[-128.87866000015879,27.824779999997133],[-128.87172999983954,27.814379999737355],[-128.85787999966215,27.793580000117061],[-128.83685000022723,27.762659999659377],[-128.82965000004737,27.752539999721364],[-128.80779000010835,27.722449999767832],[-128.80032000006787,27.712610000151528],[-128.77760000003985,27.683349999802772],[-128.76265000039712,27.663660000109076],[-128.74798999973859,27.643699999655382],[-128.73359999984001,27.6234599997793],[-128.72653000025923,27.61319000011855],[-128.70566000010882,27.582139999961157],[-128.69872999978958,27.571739999701379],[-128.67797999977705,27.540539999821306],[-128.66412000003788,27.519740000201011],[-128.65720000017978,27.509350000402321],[-128.63643999970611,27.478149999622929],[-128.62951999984801,27.46775000026247],[-128.60876000027372,27.43655000038234],[-128.60184000041562,27.426159999684387],[-128.58105000035715,27.394959999804314],[-128.57414000006088,27.384560000443798],[-128.56041999958325,27.36361999976333],[-128.5470099999115,27.342410000121561],[-128.52736000026368,27.31010000031489],[-128.51462999957471,27.28820000032988],[-128.50840999962168,27.277109999726861],[-128.4957999999699,27.255060000019114],[-128.47644000020574,27.222480000351879],[-128.46312999974958,27.201129999649879],[-128.44957999991698,27.180049999707876],[-128.44266000005888,27.16965000034736],[-128.42191000004635,27.138460000029113],[-128.40805000030718,27.117660000408819],[-128.40114999957274,27.10726000014904],[-128.38036999997541,27.076069999830793],[-128.37343999965617,27.065669999570957],[-128.3526899996437,27.034469999690884],[-128.34576000022372,27.024070000330369],[-128.32501000021125,26.992869999550976],[-128.31116000003391,26.972080000391827],[-128.30422999971461,26.961680000132048],[-128.29038999999841,26.940879999612434],[-128.27655000028221,26.92007999999214],[-128.25580000026969,26.888889999673893],[-128.24886999995044,26.878490000313434],[-128.23503000023425,26.85768999979382],[-128.21426000019875,26.826500000374836],[-128.20734999990248,26.816100000115057],[-128.18657999986704,26.784900000234984],[-128.17966000000888,26.774499999975149],[-128.16582999985451,26.753700000354854],[-128.15197999967717,26.732910000296442],[-128.13122999966464,26.701710000416313],[-128.12430999980654,26.691310000156534],[-128.11047000009034,26.67050999963692],[-128.08972000007788,26.639320000217992],[-128.08264000003589,26.629060000119068],[-128.0611900001183,26.598560000144062],[-128.05384999977758,26.588569999905701],[-128.03157000025521,26.558900000434789],[-128.01634000029071,26.539490000163539],[-128.00140000020974,26.519799999570466],[-127.98672000042757,26.49984000001615],[-127.97232999962966,26.479589999678865],[-127.96526999961071,26.469329999579941],[-127.94438000033665,26.438269999860722],[-127.93745000001741,26.427880000062089],[-127.91669000044305,26.396680000182016],[-127.90963999998593,26.386420000083092],[-127.89537999978705,26.366040000046098],[-127.88070999956676,26.346070000030636],[-127.85773000013933,26.317090000003645],[-127.84166999967067,26.298519999798316],[-127.82561000010134,26.279940000031104],[-127.80956000009382,26.261360000263949],[-127.80180999973163,26.251789999608945],[-127.78657999976707,26.232380000236958],[-127.77177000028519,26.21255000038235],[-127.75710000006484,26.192589999928714],[-127.74228999968363,26.172760000074106],[-127.7193100002562,26.143780000047116],[-127.70297000036516,26.12547999970235],[-127.68635999971411,26.107459999679406],[-127.66919999978006,26.089989999838735],[-127.65203999984601,26.072519999998121],[-127.63487000035013,26.055050000157507],[-127.61827000016029,26.037019999673362],[-127.6100899997536,26.027870000400355],[-127.58643000044407,25.999590000278431],[-127.57149000036316,25.979899999685358],[-127.55682000014281,25.959929999669896],[-127.54947999980203,25.949949999892738],[-127.52720000027972,25.920280000421826],[-127.51944999991747,25.910709999766823],[-127.49537000012532,25.882839999666373],[-127.47846999959074,25.865099999965196],[-127.46074999991248,25.848180000306911],[-127.44248999961371,25.831820000392838],[-127.42339000014829,25.816290000083598],[-127.40373000003939,25.801320000417832],[-127.38380000006987,25.786619999713366],[-127.36387999966217,25.771919999908221],[-127.34420999999139,25.756950000242455],[-127.3251099996267,25.741419999933214],[-127.30683999976611,25.725060000019141],[-127.28885000022723,25.708419999783303],[-127.27140999997141,25.691230000264454],[-127.25396999971565,25.674039999846286],[-127.23680000021972,25.656570000005615],[-127.2193700004251,25.639370000025622],[-127.2022000000299,25.621900000185008],[-127.18475999977409,25.60470999976684],[-127.16759000027821,25.587239999926226],[-127.15015000002239,25.570050000407321],[-127.13270999976658,25.552859999989153],[-127.11472000022775,25.536219999753314],[-127.09643999990595,25.519859999839241],[-127.07735000000241,25.50433000042932],[-127.05768999989351,25.489359999864234],[-127.03775999992399,25.474660000059089],[-127.01782999995442,25.459960000253943],[-126.99818000030666,25.444989999688858],[-126.97907999994197,25.429460000278937],[-126.96052999975961,25.41337999978731],[-126.9419799995772,25.397289999733857],[-126.92343999985604,25.38121000014155],[-126.90434000039062,25.365679999832253],[-126.88468000028172,25.350710000166544],[-126.8647500003122,25.336010000361398],[-126.84482000034262,25.321309999656876],[-126.8248900003731,25.306620000312932],[-126.8052300002642,25.291640000186021],[-126.78584999957775,25.276390000198489],[-126.76619999992994,25.261410000071578],[-126.74626999996042,25.246719999828258],[-126.72605999966913,25.232300000344878],[-126.70556999995546,25.218160000283945],[-126.68481000038111,25.204290000083574],[-126.66404999990749,25.190430000344406],[-126.64329000033314,25.176560000144036],[-126.6225200002977,25.162700000404811],[-126.60175999982403,25.148830000204498],[-126.58100000024973,25.134969999565953],[-126.56023000021423,25.12110000026496],[-126.53946999974062,25.107239999626415],[-126.51871000016627,25.093370000325422],[-126.49794000013082,25.079509999686877],[-126.4771900001183,25.065640000385827],[-126.45615000022224,25.052060000069105],[-126.43483999956624,25.038740000051121],[-126.41325000038711,25.025709999916728],[-126.39137000042507,25.012949999642899],[-126.36921999970315,25.000480000152038],[-126.34737000022523,24.987719999878209],[-126.32576999968563,24.974689999743816],[-126.30445999992895,24.961380000186978],[-126.2831300001493,24.948069999730819],[-126.26182999995444,24.934760000174037],[-126.24023000031417,24.921719999578443],[-126.21809000005339,24.909239999626436],[-126.1953799995872,24.897320000317904],[-126.17267999958221,24.885400000110053],[-126.14970000015478,24.873749999762822],[-126.12644999996741,24.862379999737357],[-126.10346999964065,24.850730000289445],[-126.0804999997751,24.83909000040336],[-126.0572400000259,24.827720000377838],[-126.03427000016029,24.816070000030606],[-126.01128000027171,24.804419999683375],[-125.98803000008434,24.79304999965791],[-125.96506000021873,24.781409999771824],[-125.94207999989197,24.769760000323913],[-125.91855000028221,24.758669999720837],[-125.89501000021124,24.747580000017138],[-125.87120999984154,24.736760000174002],[-125.83397999977706,24.722069999930682],[-125.80879000005837,24.712640000335909],[-125.79620000042956,24.707920000307922],[-125.77045000006734,24.699049999557985],[-125.73143000019428,24.686159999584447],[-125.71840999962171,24.681860000039137],[-125.67965999960921,24.668689999743833],[-125.66663999993597,24.664390000198466],[-125.6276099996017,24.651489999763839],[-125.61458999992846,24.647190000218473],[-125.5758500003771,24.634030000384371],[-125.56284000026568,24.629729999939684],[-125.53680999958175,24.621129999949687],[-125.49790999984651,24.608099999815295],[-125.48505000035715,24.603660000109073],[-125.44600999956174,24.590770000135535],[-125.43300000034964,24.586469999690848],[-125.40696999966565,24.577869999700852],[-125.36765999990899,24.565249999587934],[-125.35437999993695,24.56123000036439],[-125.32751999964819,24.553470000440313],[-125.28670000040461,24.542379999837237],[-125.27299000038812,24.538769999735848],[-125.24531999961818,24.531840000315924],[-125.20379999957021,24.521440000056089],[-125.17610000011484,24.514509999736845],[-125.14841999978307,24.507580000316921],[-125.13458000006688,24.504110000376386],[-125.09306000001891,24.49371000011655],[-125.07920999984151,24.490249999737841],[-125.03768999979354,24.479850000377382],[-125.02385000007735,24.476380000436791],[-124.99616999974558,24.469450000117547],[-124.95464999969761,24.459049999857768],[-124.92695999980407,24.452120000437787],[-124.89928000037162,24.445179999657398],[-124.8854399997561,24.441720000178009],[-124.84405000030716,24.431179999757319],[-124.81678999955875,24.423829999854775],[-124.7897900000084,24.416210000091553],[-124.76308000034163,24.408300000444797],[-124.73663000007434,24.4001200000381],[-124.72349000026321,24.395959999754325],[-124.68349000016326,24.384040000445793],[-124.67005999956922,24.380159999584464],[-124.62922999986449,24.369060000318882],[-124.60182000029266,24.361849999677872],[-124.57454999998242,24.354510000236473],[-124.54756999955572,24.346880000012106],[-124.53415000032214,24.343000000050097],[-124.49442000008287,24.330800000419799],[-124.48126999981054,24.326640000136024],[-124.44126999971064,24.314710000366347],[-124.41427999972211,24.307089999703862],[-124.40070999986654,24.303340000340881],[-124.37330999985653,24.296129999699872],[-124.33178999980856,24.285739999901239],[-124.31795000009237,24.282269999960647],[-124.27641000002137,24.271869999700868],[-124.262579999867,24.268410000221479],[-124.22105000025721,24.258009999961644],[-124.19336000036361,24.251070000080574],[-124.1656800000319,24.24413999976133],[-124.15184000031564,24.240680000281941],[-124.11032000026773,24.230280000022105],[-124.08263999993596,24.223340000141036],[-124.06880000021977,24.219879999762327],[-124.0272800001718,24.209480000401811],[-124.01343999955623,24.206009999561957],[-123.97190999994643,24.195610000201498],[-123.94422999961472,24.188679999882254],[-123.91653999972112,24.181749999562953],[-123.88884999982753,24.174820000143029],[-123.87515000027219,24.171350000202494],[-123.83460999955173,24.160949999942659],[-123.80859000022821,24.154019999623415],[-123.79626999956076,24.150689999843735],[-123.760139999861,24.141539999671409],[-123.73743999985601,24.137099999965187],[-123.71502999973461,24.134610000251428]]]},"properties":{"objectid":487,"stormname":"Marie","stormtype":"TS","basin":"EP","advdate":"200 AM PDT Mon Sep 07 2026","advisnum":"25","fcstprd":120,"stormnum":13,"idp_source":"ep132026-025_5day_pgn","idp_filedate":1788771771000,"idp_ingestdate":1788771780000,"st_area(shape)":45.013219624487085,"st_perimeter(shape)":39.727436885572082,"binnumber":"EP3"}}]}