{"type":"FeatureCollection","features":[{"type":"Feature","id":502,"geometry":{"type":"LineString","coordinates":[[-126.59999999960019,25.500000000399837],[-127.49999999960022,26.29999999970039],[-128.60000000009984,27.900000000100079],[-129.90000000019978,29.799999999900194],[-131.39999999989999,32.099999999800275]]},"properties":{"objectid":502,"stormname":"Marie","stormtype":"TS","basin":"EP","advdate":"200 AM PDT Tue Sep 08 2026","advisnum":"29","fcstprd":120,"stormnum":13,"idp_source":"ep132026-029_5day_lin","idp_filedate":1788858184000,"idp_ingestdate":1788858240000,"st_length(shape)":8.1938871717592097,"binnumber":"EP3"}}]}