{"type": "FeatureCollection", "features": [{"type": "Feature", "id": 3833, "geometry": {"type": "Point", "coordinates": [-122.89999999980006, 23.99999999980031]}, "properties": {"objectid": 3833, "stormname": "Hurricane Marie", "stormtype": "HU", "dvlbl": "H", "basin": "EP", "advdate": "200 PM PDT Sun Sep 06 2026", "advisnum": "23", "fcstprd": 120, "gust": 80, "maxwind": 65, "mslp": 980, "ssnum": 1, "datelbl": "2:00 PM Sun", "tcdvlp": "Hurricane", "tcdir": 315, "tcspd": 6, "fldatelbl": "2026-09-06 11:00 AM Sun PDT", "lat": 24, "lon": -123, "stormnum": 13, "stormsrc": "Tropical Cyclone", "tau": 0, "timezone": "PDT", "validtime": "06/1800", "idp_source": "ep132026-023_5day_pts", "idp_filedate": 1788732205000, "idp_ingestdate": 1788732263000, "binnumber": "EP3", "MAXWIND": 65, "VALIDTIME": "06/1800"}}, {"type": "Feature", "id": 3834, "geometry": {"type": "Point", "coordinates": [-123.69999999999993, 24.399999999900217]}, "properties": {"objectid": 3834, "stormname": "Hurricane Marie", "stormtype": "TS", "dvlbl": "S", "basin": "EP", "advdate": "200 PM PDT Sun Sep 06 2026", "advisnum": "23", "fcstprd": 120, "gust": 65, "maxwind": 55, "mslp": 9999, "ssnum": 0, "datelbl": "11:00 PM Sun", "tcdvlp": "Tropical Storm", "tcdir": 9999, "tcspd": 9999, "fldatelbl": "2026-09-06 11:00 PM Sun PDT", "lat": 24, "lon": -124, "stormnum": 13, "stormsrc": "Tropical Cyclone", "tau": 12, "timezone": "PDT", "validtime": "07/0600", "idp_source": "ep132026-023_5day_pts", "idp_filedate": 1788732205000, "idp_ingestdate": 1788732263000, "binnumber": "EP3", "MAXWIND": 55, "VALIDTIME": "07/0600"}}, {"type": "Feature", "id": 3835, "geometry": {"type": "Point", "coordinates": [-124.90000000029966, 24.999999999600448]}, "properties": {"objectid": 3835, "stormname": "Hurricane Marie", "stormtype": "TS", "dvlbl": "S", "basin": "EP", "advdate": "200 PM PDT Sun Sep 06 2026", "advisnum": "23", "fcstprd": 120, "gust": 55, "maxwind": 45, "mslp": 9999, "ssnum": 0, "datelbl": "11:00 AM Mon", "tcdvlp": "Tropical Storm", "tcdir": 9999, "tcspd": 9999, "fldatelbl": "2026-09-07 11:00 AM Mon PDT", "lat": 25, "lon": -125, "stormnum": 13, "stormsrc": "Tropical Cyclone", "tau": 24, "timezone": "PDT", "validtime": "07/1800", "idp_source": "ep132026-023_5day_pts", "idp_filedate": 1788732205000, "idp_ingestdate": 1788732263000, "binnumber": "EP3", "MAXWIND": 45, "VALIDTIME": "07/1800"}}, {"type": "Feature", "id": 3836, "geometry": {"type": "Point", "coordinates": [-126.30000000019976, 25.600000000199998]}, "properties": {"objectid": 3836, "stormname": "Hurricane Marie", "stormtype": "TS", "dvlbl": "S", "basin": "EP", "advdate": "200 PM PDT Sun Sep 06 2026", "advisnum": "23", "fcstprd": 120, "gust": 50, "maxwind": 40, "mslp": 9999, "ssnum": 0, "datelbl": "11:00 PM Mon", "tcdvlp": "Tropical Storm", "tcdir": 9999, "tcspd": 9999, "fldatelbl": "2026-09-07 11:00 PM Mon PDT", "lat": 26, "lon": -126, "stormnum": 13, "stormsrc": "Tropical Cyclone", "tau": 36, "timezone": "PDT", "validtime": "08/0600", "idp_source": "ep132026-023_5day_pts", "idp_filedate": 1788732205000, "idp_ingestdate": 1788732263000, "binnumber": "EP3", "MAXWIND": 40, "VALIDTIME": "08/0600"}}, {"type": "Feature", "id": 3837, "geometry": {"type": "Point", "coordinates": [-127.39999999980006, 26.699999999800298]}, "properties": {"objectid": 3837, "stormname": "Hurricane Marie", "stormtype": "TS", "dvlbl": "S", "basin": "EP", "advdate": "200 PM PDT Sun Sep 06 2026", "advisnum": "23", "fcstprd": 120, "gust": 45, "maxwind": 35, "mslp": 9999, "ssnum": 0, "datelbl": "11:00 AM Tue", "tcdvlp": "Tropical Storm", "tcdir": 9999, "tcspd": 9999, "fldatelbl": "2026-09-08 11:00 AM Tue PDT", "lat": 27, "lon": -127, "stormnum": 13, "stormsrc": "Tropical Cyclone", "tau": 48, "timezone": "PDT", "validtime": "08/1800", "idp_source": "ep132026-023_5day_pts", "idp_filedate": 1788732205000, "idp_ingestdate": 1788732263000, "binnumber": "EP3", "MAXWIND": 35, "VALIDTIME": "08/1800"}}, {"type": "Feature", "id": 3838, "geometry": {"type": "Point", "coordinates": [-128.3999999996002, 28.59999999960047]}, "properties": {"objectid": 3838, "stormname": "Hurricane Marie", "stormtype": "TS", "dvlbl": "S", "basin": "EP", "advdate": "200 PM PDT Sun Sep 06 2026", "advisnum": "23", "fcstprd": 120, "gust": 45, "maxwind": 35, "mslp": 9999, "ssnum": 0, "datelbl": "11:00 PM Tue", "tcdvlp": "Tropical Storm", "tcdir": 9999, "tcspd": 9999, "fldatelbl": "2026-09-08 11:00 PM Tue PDT", "lat": 29, "lon": -128, "stormnum": 13, "stormsrc": "Tropical Cyclone", "tau": 60, "timezone": "PDT", "validtime": "09/0600", "idp_source": "ep132026-023_5day_pts", "idp_filedate": 1788732205000, "idp_ingestdate": 1788732263000, "binnumber": "EP3", "MAXWIND": 35, "VALIDTIME": "09/0600"}}, {"type": "Feature", "id": 3839, "geometry": {"type": "Point", "coordinates": [-129.40000000029966, 30.69999999990023]}, "properties": {"objectid": 3839, "stormname": "Hurricane Marie", "stormtype": "STD", "dvlbl": "D", "basin": "EP", "advdate": "200 PM PDT Sun Sep 06 2026", "advisnum": "23", "fcstprd": 120, "gust": 40, "maxwind": 30, "mslp": 9999, "ssnum": 0, "datelbl": "11:00 AM Wed", "tcdvlp": "Subtropical Depression", "tcdir": 9999, "tcspd": 9999, "fldatelbl": "2026-09-09 11:00 AM Wed PDT", "lat": 31, "lon": -129, "stormnum": 13, "stormsrc": "Post-Tropical Cyclone", "tau": 72, "timezone": "PDT", "validtime": "09/1800", "idp_source": "ep132026-023_5day_pts", "idp_filedate": 1788732205000, "idp_ingestdate": 1788732263000, "binnumber": "EP3", "MAXWIND": 30, "VALIDTIME": "09/1800"}}, {"type": "Feature", "id": 3840, "geometry": {"type": "Point", "coordinates": [-132.5000000003996, 34.6000000002]}, "properties": {"objectid": 3840, "stormname": "Hurricane Marie", "stormtype": "STD", "dvlbl": "D", "basin": "EP", "advdate": "200 PM PDT Sun Sep 06 2026", "advisnum": "23", "fcstprd": 120, "gust": 30, "maxwind": 20, "mslp": 9999, "ssnum": 0, "datelbl": "11:00 AM Thu", "tcdvlp": "Subtropical Depression", "tcdir": 9999, "tcspd": 9999, "fldatelbl": "2026-09-10 11:00 AM Thu PDT", "lat": 35, "lon": -132, "stormnum": 13, "stormsrc": "Post-Tropical Cyclone", "tau": 96, "timezone": "PDT", "validtime": "10/1800", "idp_source": "ep132026-023_5day_pts", "idp_filedate": 1788732205000, "idp_ingestdate": 1788732263000, "binnumber": "EP3", "MAXWIND": 20, "VALIDTIME": "10/1800"}}]}