{"type":"FeatureCollection","features":[{"type":"Feature","id":18762,"geometry":{"type":"Point","coordinates":[-108.70000000029967,12.600000000100067]},"properties":{"objectid":18762,"stormname":"GENESIS022","stormtype":"DB","stormnum":14,"intensity":15,"basin":"ep","mslp":0,"dtg":2026090718,"year":2026,"month":"09","hhmm":"1800","day":7,"lat":13,"lon":-109,"ss":0,"idp_source":"EP142026_pts","idp_filedate":1789312075000,"idp_ingestdate":1789312114000,"binnumber":"EP4"}},{"type":"Feature","id":18763,"geometry":{"type":"Point","coordinates":[-109.2999999999999,13.000000000199975]},"properties":{"objectid":18763,"stormname":"GENESIS022","stormtype":"DB","stormnum":14,"intensity":15,"basin":"ep","mslp":0,"dtg":2026090800,"year":2026,"month":"09","hhmm":"0000","day":8,"lat":13,"lon":-109,"ss":0,"idp_source":"EP142026_pts","idp_filedate":1789312075000,"idp_ingestdate":1789312114000,"binnumber":"EP4"}},{"type":"Feature","id":18764,"geometry":{"type":"Point","coordinates":[-109.89999999970013,13.299999999600459]},"properties":{"objectid":18764,"stormname":"GENESIS022","stormtype":"DB","stormnum":14,"intensity":15,"basin":"ep","mslp":0,"dtg":2026090806,"year":2026,"month":"09","hhmm":"0600","day":8,"lat":13,"lon":-110,"ss":0,"idp_source":"EP142026_pts","idp_filedate":1789312075000,"idp_ingestdate":1789312114000,"binnumber":"EP4"}},{"type":"Feature","id":18765,"geometry":{"type":"Point","coordinates":[-110.50000000029968,14.000000000000114]},"properties":{"objectid":18765,"stormname":"GENESIS022","stormtype":"DB","stormnum":14,"intensity":20,"basin":"ep","mslp":1008,"dtg":2026090812,"year":2026,"month":"09","hhmm":"1200","day":8,"lat":14,"lon":-110,"ss":0,"idp_source":"EP142026_pts","idp_filedate":1789312075000,"idp_ingestdate":1789312114000,"binnumber":"EP4"}},{"type":"Feature","id":18766,"geometry":{"type":"Point","coordinates":[-111.40000000029966,14.49999999990024]},"properties":{"objectid":18766,"stormname":"INVEST","stormtype":"DB","stormnum":14,"intensity":25,"basin":"ep","mslp":1007,"dtg":2026090818,"year":2026,"month":"09","hhmm":"1800","day":8,"lat":14,"lon":-111,"ss":0,"idp_source":"EP142026_pts","idp_filedate":1789312075000,"idp_ingestdate":1789312114000,"binnumber":"EP4"}},{"type":"Feature","id":18767,"geometry":{"type":"Point","coordinates":[-112.19999999960021,14.900000000000148]},"properties":{"objectid":18767,"stormname":"INVEST","stormtype":"DB","stormnum":14,"intensity":25,"basin":"ep","mslp":1007,"dtg":2026090900,"year":2026,"month":"09","hhmm":"0000","day":9,"lat":15,"lon":-112,"ss":0,"idp_source":"EP142026_pts","idp_filedate":1789312075000,"idp_ingestdate":1789312114000,"binnumber":"EP4"}},{"type":"Feature","id":18768,"geometry":{"type":"Point","coordinates":[-112.99999999980008,15.200000000299895]},"properties":{"objectid":18768,"stormname":"INVEST","stormtype":"DB","stormnum":14,"intensity":25,"basin":"ep","mslp":1007,"dtg":2026090906,"year":2026,"month":"09","hhmm":"0600","day":9,"lat":15,"lon":-113,"ss":0,"idp_source":"EP142026_pts","idp_filedate":1789312075000,"idp_ingestdate":1789312114000,"binnumber":"EP4"}},{"type":"Feature","id":18769,"geometry":{"type":"Point","coordinates":[-113.89999999980006,15.399999999900217]},"properties":{"objectid":18769,"stormname":"INVEST","stormtype":"DB","stormnum":14,"intensity":25,"basin":"ep","mslp":1007,"dtg":2026090912,"year":2026,"month":"09","hhmm":"1200","day":9,"lat":15,"lon":-114,"ss":0,"idp_source":"EP142026_pts","idp_filedate":1789312075000,"idp_ingestdate":1789312114000,"binnumber":"EP4"}},{"type":"Feature","id":18770,"geometry":{"type":"Point","coordinates":[-115.00000000029968,15.800000000000125]},"properties":{"objectid":18770,"stormname":"FOURTEEN","stormtype":"TD","stormnum":14,"intensity":30,"basin":"ep","mslp":1006,"dtg":2026090918,"year":2026,"month":"09","hhmm":"1800","day":9,"lat":16,"lon":-115,"ss":0,"idp_source":"EP142026_pts","idp_filedate":1789312075000,"idp_ingestdate":1789312114000,"binnumber":"EP4"}},{"type":"Feature","id":18771,"geometry":{"type":"Point","coordinates":[-116.09999999989998,16.299999999900194]},"properties":{"objectid":18771,"stormname":"FOURTEEN","stormtype":"TD","stormnum":14,"intensity":30,"basin":"ep","mslp":1006,"dtg":2026091000,"year":2026,"month":"09","hhmm":"0000","day":10,"lat":16,"lon":-116,"ss":0,"idp_source":"EP142026_pts","idp_filedate":1789312075000,"idp_ingestdate":1789312114000,"binnumber":"EP4"}},{"type":"Feature","id":18772,"geometry":{"type":"Point","coordinates":[-117.30000000019976,16.399999999700356]},"properties":{"objectid":18772,"stormname":"NORBERT","stormtype":"TS","stormnum":14,"intensity":35,"basin":"ep","mslp":1004,"dtg":2026091006,"year":2026,"month":"09","hhmm":"0600","day":10,"lat":16,"lon":-117,"ss":0,"idp_source":"EP142026_pts","idp_filedate":1789312075000,"idp_ingestdate":1789312114000,"binnumber":"EP4"}},{"type":"Feature","id":18773,"geometry":{"type":"Point","coordinates":[-118.6000000002997,16.500000000399837]},"properties":{"objectid":18773,"stormname":"NORBERT","stormtype":"TS","stormnum":14,"intensity":35,"basin":"ep","mslp":1003,"dtg":2026091012,"year":2026,"month":"09","hhmm":"1200","day":10,"lat":16,"lon":-119,"ss":0,"idp_source":"EP142026_pts","idp_filedate":1789312075000,"idp_ingestdate":1789312114000,"binnumber":"EP4"}},{"type":"Feature","id":18774,"geometry":{"type":"Point","coordinates":[-119.90000000039959,16.500000000399837]},"properties":{"objectid":18774,"stormname":"NORBERT","stormtype":"TS","stormnum":14,"intensity":40,"basin":"ep","mslp":1002,"dtg":2026091018,"year":2026,"month":"09","hhmm":"1800","day":10,"lat":16,"lon":-120,"ss":0,"idp_source":"EP142026_pts","idp_filedate":1789312075000,"idp_ingestdate":1789312114000,"binnumber":"EP4"}},{"type":"Feature","id":18775,"geometry":{"type":"Point","coordinates":[-121.30000000029969,16.399999999700356]},"properties":{"objectid":18775,"stormname":"NORBERT","stormtype":"TS","stormnum":14,"intensity":40,"basin":"ep","mslp":1002,"dtg":2026091100,"year":2026,"month":"09","hhmm":"0000","day":11,"lat":16,"lon":-121,"ss":0,"idp_source":"EP142026_pts","idp_filedate":1789312075000,"idp_ingestdate":1789312114000,"binnumber":"EP4"}},{"type":"Feature","id":18776,"geometry":{"type":"Point","coordinates":[-122.70000000019974,16.600000000199998]},"properties":{"objectid":18776,"stormname":"NORBERT","stormtype":"TS","stormnum":14,"intensity":50,"basin":"ep","mslp":996,"dtg":2026091106,"year":2026,"month":"09","hhmm":"0600","day":11,"lat":17,"lon":-123,"ss":0,"idp_source":"EP142026_pts","idp_filedate":1789312075000,"idp_ingestdate":1789312114000,"binnumber":"EP4"}},{"type":"Feature","id":18777,"geometry":{"type":"Point","coordinates":[-124.10000000009984,16.600000000199998]},"properties":{"objectid":18777,"stormname":"NORBERT","stormtype":"TS","stormnum":14,"intensity":55,"basin":"ep","mslp":996,"dtg":2026091112,"year":2026,"month":"09","hhmm":"1200","day":11,"lat":17,"lon":-124,"ss":0,"idp_source":"EP142026_pts","idp_filedate":1789312075000,"idp_ingestdate":1789312114000,"binnumber":"EP4"}},{"type":"Feature","id":18778,"geometry":{"type":"Point","coordinates":[-125.19999999970014,16.700000000000159]},"properties":{"objectid":18778,"stormname":"NORBERT","stormtype":"TS","stormnum":14,"intensity":55,"basin":"ep","mslp":996,"dtg":2026091118,"year":2026,"month":"09","hhmm":"1800","day":11,"lat":17,"lon":-125,"ss":0,"idp_source":"EP142026_pts","idp_filedate":1789312075000,"idp_ingestdate":1789312114000,"binnumber":"EP4"}},{"type":"Feature","id":18779,"geometry":{"type":"Point","coordinates":[-125.99999999989996,16.799999999800264]},"properties":{"objectid":18779,"stormname":"NORBERT","stormtype":"TS","stormnum":14,"intensity":55,"basin":"ep","mslp":996,"dtg":2026091200,"year":2026,"month":"09","hhmm":"0000","day":12,"lat":17,"lon":-126,"ss":0,"idp_source":"EP142026_pts","idp_filedate":1789312075000,"idp_ingestdate":1789312114000,"binnumber":"EP4"}},{"type":"Feature","id":18780,"geometry":{"type":"Point","coordinates":[-126.89999999989999,17.000000000299906]},"properties":{"objectid":18780,"stormname":"NORBERT","stormtype":"TS","stormnum":14,"intensity":50,"basin":"ep","mslp":999,"dtg":2026091206,"year":2026,"month":"09","hhmm":"0600","day":12,"lat":17,"lon":-127,"ss":0,"idp_source":"EP142026_pts","idp_filedate":1789312075000,"idp_ingestdate":1789312114000,"binnumber":"EP4"}},{"type":"Feature","id":18781,"geometry":{"type":"Point","coordinates":[-127.89999999970013,17.199999999900228]},"properties":{"objectid":18781,"stormname":"NORBERT","stormtype":"TS","stormnum":14,"intensity":50,"basin":"ep","mslp":999,"dtg":2026091212,"year":2026,"month":"09","hhmm":"1200","day":12,"lat":17,"lon":-128,"ss":0,"idp_source":"EP142026_pts","idp_filedate":1789312075000,"idp_ingestdate":1789312114000,"binnumber":"EP4"}},{"type":"Feature","id":18782,"geometry":{"type":"Point","coordinates":[-129.09999999999991,17.500000000199975]},"properties":{"objectid":18782,"stormname":"NORBERT","stormtype":"TS","stormnum":14,"intensity":45,"basin":"ep","mslp":1000,"dtg":2026091218,"year":2026,"month":"09","hhmm":"1800","day":12,"lat":18,"lon":-129,"ss":0,"idp_source":"EP142026_pts","idp_filedate":1789312075000,"idp_ingestdate":1789312114000,"binnumber":"EP4"}},{"type":"Feature","id":18783,"geometry":{"type":"Point","coordinates":[-129.99999999999989,17.600000000000136]},"properties":{"objectid":18783,"stormname":"NORBERT","stormtype":"TS","stormnum":14,"intensity":45,"basin":"ep","mslp":1000,"dtg":2026091300,"year":2026,"month":"09","hhmm":"0000","day":13,"lat":18,"lon":-130,"ss":0,"idp_source":"EP142026_pts","idp_filedate":1789312075000,"idp_ingestdate":1789312114000,"binnumber":"EP4"}},{"type":"Feature","id":18784,"geometry":{"type":"Point","coordinates":[-131.20000000029967,17.90000000029994]},"properties":{"objectid":18784,"stormname":"NORBERT","stormtype":"TS","stormnum":14,"intensity":45,"basin":"ep","mslp":1000,"dtg":2026091306,"year":2026,"month":"09","hhmm":"0600","day":13,"lat":18,"lon":-131,"ss":0,"idp_source":"EP142026_pts","idp_filedate":1789312075000,"idp_ingestdate":1789312114000,"binnumber":"EP4"}},{"type":"Feature","id":18785,"geometry":{"type":"Point","coordinates":[-132.1000000002997,18.099999999900206]},"properties":{"objectid":18785,"stormname":"NORBERT","stormtype":"TS","stormnum":14,"intensity":45,"basin":"ep","mslp":1000,"dtg":2026091312,"year":2026,"month":"09","hhmm":"1200","day":13,"lat":18,"lon":-132,"ss":0,"idp_source":"EP142026_pts","idp_filedate":1789312075000,"idp_ingestdate":1789312114000,"binnumber":"EP4"}}]}