{"type":"FeatureCollection","features":[{"type":"Feature","id":589,"geometry":{"type":"LineString","coordinates":[[-139.19999999960021,19.700000000299895],[-141.29999999989997,19.999999999700378],[-143.90000000009985,20.200000000199964],[-146.60000000009984,20.399999999800286]]},"properties":{"objectid":589,"stormname":"Norbert","stormtype":"TS","basin":"EP","advdate":"1100 AM HST Mon Sep 14 2026","advisnum":"21","fcstprd":120,"stormnum":14,"idp_source":"ep142026-021_5day_lin","idp_filedate":1789421285000,"idp_ingestdate":1789421364000,"st_length(shape)":7.436398580196915,"binnumber":"EP4"}}]}