{"type": "FeatureCollection", "features": [{"type": "Feature", "id": 4726, "geometry": {"type": "Point", "coordinates": [-143.90000000009985, 20.200000000199964]}, "properties": {"objectid": 4726, "stormname": "Tropical Storm Norbert", "stormtype": "STD", "dvlbl": "D", "basin": "EP", "advdate": "1100 AM HST Mon Sep 14 2026", "advisnum": "21", "fcstprd": 120, "gust": 40, "maxwind": 30, "mslp": 9999, "ssnum": 0, "datelbl": "8:00 AM Tue", "tcdir": 9999, "tcdvlp": "Subtropical Depression", "tcspd": 9999, "fldatelbl": "2026-09-15 8:00 AM Tue HST", "lat": 20, "lon": -144, "stormnum": 14, "stormsrc": "Post-Tropical Cyclone", "tau": 24, "timezone": "HST", "validtime": "15/1800", "idp_source": "ep142026-021_5day_pts", "idp_filedate": 1789421285000, "idp_ingestdate": 1789421359000, "binnumber": "EP4", "MAXWIND": 30, "VALIDTIME": "15/1800"}}, {"type": "Feature", "id": 4727, "geometry": {"type": "Point", "coordinates": [-146.60000000009984, 20.399999999800286]}, "properties": {"objectid": 4727, "stormname": "Tropical Storm Norbert", "stormtype": "STD", "dvlbl": "D", "basin": "EP", "advdate": "1100 AM HST Mon Sep 14 2026", "advisnum": "21", "fcstprd": 120, "gust": 35, "maxwind": 25, "mslp": 9999, "ssnum": 0, "datelbl": "8:00 PM Tue", "tcdir": 9999, "tcdvlp": "Subtropical Depression", "tcspd": 9999, "fldatelbl": "2026-09-15 8:00 PM Tue HST", "lat": 20, "lon": -147, "stormnum": 14, "stormsrc": "Post-Tropical Cyclone", "tau": 36, "timezone": "HST", "validtime": "16/0600", "idp_source": "ep142026-021_5day_pts", "idp_filedate": 1789421285000, "idp_ingestdate": 1789421359000, "binnumber": "EP4", "MAXWIND": 25, "VALIDTIME": "16/0600"}}, {"type": "Feature", "id": 4724, "geometry": {"type": "Point", "coordinates": [-139.1999999996002, 19.700000000299895]}, "properties": {"objectid": 4724, "stormname": "Tropical Storm Norbert", "stormtype": "TS", "dvlbl": "S", "basin": "EP", "advdate": "1100 AM HST Mon Sep 14 2026", "advisnum": "21", "fcstprd": 120, "gust": 45, "maxwind": 35, "mslp": 1005, "ssnum": 0, "datelbl": "11:00 AM Mon", "tcdir": 280, "tcdvlp": "Tropical Storm", "tcspd": 13, "fldatelbl": "2026-09-14 8:00 AM Mon HST", "lat": 20, "lon": -139, "stormnum": 14, "stormsrc": "Tropical Cyclone", "tau": 0, "timezone": "HST", "validtime": "14/1800", "idp_source": "ep142026-021_5day_pts", "idp_filedate": 1789421285000, "idp_ingestdate": 1789421359000, "binnumber": "EP4", "MAXWIND": 35, "VALIDTIME": "14/1800"}}, {"type": "Feature", "id": 4725, "geometry": {"type": "Point", "coordinates": [-141.29999999989997, 19.99999999970038]}, "properties": {"objectid": 4725, "stormname": "Tropical Storm Norbert", "stormtype": "TD", "dvlbl": "D", "basin": "EP", "advdate": "1100 AM HST Mon Sep 14 2026", "advisnum": "21", "fcstprd": 120, "gust": 40, "maxwind": 30, "mslp": 9999, "ssnum": 0, "datelbl": "8:00 PM Mon", "tcdir": 9999, "tcdvlp": "Tropical Depression", "tcspd": 9999, "fldatelbl": "2026-09-14 8:00 PM Mon HST", "lat": 20, "lon": -141, "stormnum": 14, "stormsrc": "Tropical Cyclone", "tau": 12, "timezone": "HST", "validtime": "15/0600", "idp_source": "ep142026-021_5day_pts", "idp_filedate": 1789421285000, "idp_ingestdate": 1789421359000, "binnumber": "EP4", "MAXWIND": 30, "VALIDTIME": "15/0600"}}]}