{"type":"FeatureCollection","features":[{"type":"Feature","id":4141,"geometry":{"type":"LineString","coordinates":[[-108.70000000029967,12.600000000100067],[-109.2999999999999,13.000000000199975],[-109.89999999970013,13.299999999600459],[-110.50000000029968,14.000000000000114],[-111.40000000029966,14.49999999990024],[-112.19999999960021,14.900000000000148],[-112.99999999980008,15.200000000299895],[-113.89999999980006,15.399999999900217],[-115.00000000029968,15.800000000000125]]},"properties":{"objectid":4141,"stormtype":"DB","stormnum":14,"ss":0,"idp_source":"EP142026_lin","idp_filedate":1789463345000,"idp_ingestdate":1789463529000,"st_length(shape)":7.1847001105469337,"binnumber":"CP1"}},{"type":"Feature","id":4142,"geometry":{"type":"LineString","coordinates":[[-115.00000000029968,15.800000000000125],[-116.09999999989998,16.299999999900194],[-117.30000000019976,16.399999999700356]]},"properties":{"objectid":4142,"stormtype":"TD","stormnum":14,"ss":0,"idp_source":"EP142026_lin","idp_filedate":1789463345000,"idp_ingestdate":1789463529000,"st_length(shape)":2.4124640551156107,"binnumber":"CP1"}},{"type":"Feature","id":4143,"geometry":{"type":"LineString","coordinates":[[-117.30000000019976,16.399999999700356],[-118.6000000002997,16.500000000399837],[-119.90000000039959,16.500000000399837],[-121.30000000029969,16.399999999700356],[-122.70000000019974,16.600000000199998],[-124.10000000009984,16.600000000199998],[-125.19999999970014,16.700000000000159],[-125.99999999989996,16.799999999800264],[-126.89999999989999,17.000000000299906],[-127.89999999970013,17.199999999900228],[-129.09999999999991,17.500000000199975],[-129.99999999999989,17.600000000000136],[-131.20000000029967,17.90000000029994],[-132.1000000002997,18.099999999900206],[-133.40000000039959,18.599999999800275],[-134.59999999980005,18.900000000100079],[-135.80000000009983,19.200000000399825],[-137.10000000019977,19.300000000199987],[-138.50000000009982,19.599999999600414],[-139.89999999999992,20.100000000399859]]},"properties":{"objectid":4143,"stormtype":"TS","stormnum":14,"ss":0,"idp_source":"EP142026_lin","idp_filedate":1789463345000,"idp_ingestdate":1789463529000,"st_length(shape)":23.064429153507117,"binnumber":"CP1"}},{"type":"Feature","id":4144,"geometry":{"type":"LineString","coordinates":[[-139.89999999999992,20.100000000399859],[-141.1000000002997,20.200000000199964]]},"properties":{"objectid":4144,"stormtype":"TS","stormnum":14,"ss":0,"idp_source":"EP142026_lin","idp_filedate":1789463345000,"idp_ingestdate":1789463529000,"st_length(shape)":1.2041594581613744,"binnumber":"CP1"}}]}