{"type":"FeatureCollection","features":[{"type":"Feature","id":590,"geometry":{"type":"Polygon","coordinates":[[[-140.59469999970514,19.93607999999216],[-140.57856999960569,19.933940000230962],[-140.56115999983405,19.932579999567452],[-140.54239999986004,19.931890000123531],[-140.52277000023525,19.931890000123531],[-140.51296999976557,19.932320000168033],[-140.48299999994993,19.933940000230962],[-140.46393000006935,19.936160000084101],[-140.4457400003007,19.939329999679899],[-140.43729000003339,19.941550000432301],[-140.41196000015378,19.948209999991661],[-140.40436000041359,19.951289999933692],[-140.3890100003112,19.957269999610958],[-140.36707999984202,19.967350000402348],[-140.34659999969017,19.978890000173521],[-140.34012000033766,19.983080000042094],[-140.32738999964869,19.991709999616944],[-140.30942000013283,20.005730000439314],[-140.30386000003887,20.010850000027631],[-140.29320999994144,20.021529999709855],[-140.28331000025622,20.032990000288407],[-140.2696499998475,20.051360000263969],[-140.25737000012532,20.07109999956549],[-140.25345000011731,20.077849999677881],[-140.24280000001988,20.099220000402852],[-140.23945999977906,20.106559999844251],[-140.23331000035614,20.121780000246929],[-140.22802999968468,20.137839999816265],[-140.22188999982353,20.163559999694371],[-140.22034999985254,20.172199999730367],[-140.21761999986302,20.199799999970139],[-140.2177100004161,20.208689999843784],[-140.21940999967165,20.236459999829265],[-140.22266000025871,20.253889999623937],[-140.22716999959573,20.270560000343892],[-140.23280000021975,20.286280000421812],[-140.23929000003341,20.301149999972665],[-140.24288999967365,20.308239999576472],[-140.25380000006987,20.329350000002648],[-140.26190000038463,20.342600000389837],[-140.27050999993645,20.355330000179492],[-140.2797200001778,20.36746999974082],[-140.29491999965819,20.384299999745338],[-140.30583000005436,20.39472999958997],[-140.31759999964021,20.404300000244973],[-140.33023000021427,20.413009999911708],[-140.34353999977111,20.42105000015755],[-140.36496000010385,20.431640000186007],[-140.37237999963719,20.434889999873747],[-140.39558000021674,20.443690000093568],[-140.40344000025573,20.446509999736861],[-140.42791999960821,20.454030000284433],[-140.43618999966867,20.456419999883224],[-140.45290999999639,20.461039999796299],[-140.47831999996794,20.467620000163038],[-140.49539000024822,20.471890000123551],[-140.50393999973113,20.474029999884749],[-140.52098000042662,20.478299999845262],[-140.54658999972861,20.484709999566974],[-140.55510000006484,20.486850000227491],[-140.57217000034518,20.491120000188005],[-140.5977599996242,20.497529999909716],[-140.61484000036563,20.501799999870229],[-140.6318800001618,20.506069999830743],[-140.65749999992499,20.512479999552454],[-140.66601999982305,20.514620000212972],[-140.68307000008036,20.518890000173485],[-140.70014999992247,20.523169999695881],[-140.70868000028167,20.525299999895196],[-140.72574000010081,20.529580000316912],[-140.75133000027921,20.535979999577478],[-140.76839999966018,20.540259999999137],[-140.77691999955823,20.542390000198509],[-140.80252000019777,20.54879999992022],[-140.81949000036315,20.55316000043382],[-140.83628999988349,20.557689999793809],[-140.85291999965818,20.562389999798768],[-140.86120999974162,20.56478999985876],[-140.87756000009387,20.569739999701369],[-140.89379999987,20.574869999750831],[-140.91019000026819,20.57981999959344],[-140.92673000038911,20.584610000151542],[-140.94344999981757,20.589230000064617],[-140.96033000032918,20.593669999770839],[-140.98593000006935,20.60008000039187],[-140.9944600004286,20.602209999691866],[-141.02004999970762,20.608620000312897],[-141.02858999962871,20.610760000074094],[-141.04565000034717,20.615030000034608],[-141.06271000016631,20.619299999995121],[-141.0882899998835,20.625709999716832],[-141.10538000018676,20.629990000138548],[-141.12241999998292,20.634260000099061],[-141.13939999971012,20.638619999713342],[-141.15618999966864,20.64314999997265],[-141.16457999986699,20.64544999991773],[-141.18111999998791,20.650239999576456],[-141.20560000023971,20.657760000124028],[-141.21371000011635,20.660320000367847],[-141.2383600001138,20.667679999832274],[-141.25502000037261,20.672370000275407],[-141.2633699996257,20.674679999782313],[-141.28023999967616,20.679120000387854],[-141.29730000039461,20.683399999910193],[-141.32290999969666,20.689809999631905],[-141.33142000003289,20.691939999831277],[-141.35703000023426,20.698349999552988],[-141.36557000015529,20.700490000213506],[-141.39114000031066,20.706899999935217],[-141.40822000015282,20.711169999895731],[-141.42527999997196,20.715439999856244],[-141.43381000033116,20.717579999617442],[-141.4508700001503,20.721849999577955],[-141.47646999989047,20.728260000198986],[-141.49352000014778,20.7325300001595],[-141.50204000004589,20.734669999920698],[-141.52765999980903,20.741079999642409],[-141.53619000016829,20.743220000302927],[-141.56178000034663,20.749630000024638],[-141.57030999980657,20.751760000223953],[-141.58736999962571,20.756030000184523],[-141.60443000034417,20.760309999706863],[-141.63001999962319,20.766720000327894],[-141.63854999998244,20.768860000089091],[-141.66449000011335,20.774919999858241],[-141.68197999997693,20.778770000235454],[-141.69965000004737,20.782440000405813],[-141.70849999987502,20.784239999776332],[-141.72643999980608,20.787649999647897],[-141.75295999970416,20.793129999649921],[-141.77044999956775,20.796969999565988],[-141.78778000014682,20.800989999688852],[-141.79638999969865,20.803039999796283],[-141.82199000033813,20.809450000417314],[-141.83051000023625,20.811579999717367],[-141.84773000023921,20.815690000393317],[-141.87392999976959,20.821500000324875],[-141.88272000042758,20.823379999787278],[-141.90941000007138,20.828670000020622],[-141.9183800000369,20.830379999737318],[-141.93613000019928,20.833969999815793],[-141.95386000033864,20.837559999894211],[-141.97162000006284,20.841149999972686],[-141.98937999978705,20.844740000051104],[-142.00710999992646,20.848330000129522],[-142.03391000014631,20.853540000270925],[-142.0427700004351,20.855339999641387],[-142.06937000042507,20.860720000427818],[-142.08713000014933,20.864309999606917],[-142.10486000028868,20.867899999685392],[-142.12270999966665,20.871400000110043],[-142.14049999987503,20.874910000096577],[-142.15825999959924,20.87848999971385],[-142.167139999911,20.880289999983631],[-142.18489000007338,20.883880000062106],[-142.21149000006335,20.889259999949161],[-142.22934000034064,20.892769999935695],[-142.24716000013382,20.896270000360346],[-142.25602999998443,20.898060000169039],[-142.28275000011234,20.903359999964152],[-142.29170000005485,20.905069999680904],[-142.31891000029617,20.90986000023895],[-142.33734000034065,20.912759999974185],[-142.34664999979759,20.914130000199464],[-142.3743599997141,20.918400000160034],[-142.38348000030169,20.919940000131021],[-142.41053999992096,20.924900000434832],[-142.41948999986352,20.926610000151527],[-142.44610999987651,20.931990000038638],[-142.45499000018827,20.933779999847275],[-142.48177999994698,20.938999999550504],[-142.49064999979754,20.94079000025846],[-142.51724000022574,20.94617999970734],[-142.53499999994995,20.949769999785815],[-142.54388000026171,20.951559999594451],[-142.57058999992847,20.956860000288941],[-142.57953000030921,20.958570000005636],[-142.59726000044856,20.962160000084054],[-142.62397999967715,20.967459999879225],[-142.63292999961971,20.96916999959592],[-142.65100000014979,20.972409999721833],[-142.66927999957221,20.975489999663921],[-142.68786999980057,20.97821999965339],[-142.71561000020125,20.982500000075106],[-142.73377999994693,20.985660000109078],[-142.7518600000389,20.988900000234992],[-142.76089000007335,20.990529999859746],[-142.77899000018829,20.993780000446804],[-142.80655000038212,20.998220000153026],[-142.81585999983906,20.999590000378362],[-142.83443999960622,21.002320000367888],[-142.85269000034316,21.005400000309919],[-142.87078999955872,21.008640000435832],[-142.88869999990499,21.012059999869223],[-142.91531000035616,21.01745000021748],[-142.9331500001723,21.020949999742811],[-142.94210999967663,21.022660000358883],[-142.95983999981604,21.026250000437301],[-142.97758000041659,21.029839999616456],[-142.99550999988651,21.033259999949166],[-143.01360000043957,21.03650000007508],[-143.04113999971111,21.040950000242447],[-143.05045000006737,21.042310000006637],[-143.07817000044508,21.046590000428296],[-143.08731000015632,21.04813000039934],[-143.10537999978709,21.051369999625933],[-143.123459999879,21.054620000212992],[-143.14172000017777,21.057700000155023],[-143.16988999972364,21.061540000071091],[-143.18905999971912,21.063679999832289],[-143.20828000022175,21.065810000031604],[-143.21782999995446,21.066930000419347],[-143.245559999894,21.071200000379861],[-143.25467000002038,21.072740000350848],[-143.27277000013532,21.075979999577442],[-143.29998999993848,21.080770000135544],[-143.31841999998295,21.083680000331867],[-143.33701000021125,21.086410000321393],[-143.34631000010631,21.08777999964741],[-143.37360000043958,21.092479999652426],[-143.39169000009332,21.095730000239485],[-143.40987999986203,21.098890000273457],[-143.41901000001138,21.100430000244444],[-143.4471600004336,21.104270000160511],[-143.45671000016631,21.105380000087052],[-143.48555000003239,21.108540000121025],[-143.49511999978807,21.109650000047623],[-143.52280999968167,21.113929999569962],[-143.5409899998885,21.117089999603934],[-143.55001999992299,21.118709999666919],[-143.57758000011682,21.123159999834286],[-143.59644999976757,21.125639999986163],[-143.60598999993846,21.126749999912704],[-143.63484000026574,21.129909999946676],[-143.64441000002142,21.131019999873217],[-143.66296000020378,21.133749999862744],[-143.69028000012185,21.13844999986776],[-143.70836999977558,21.141699999555499],[-143.71741000027123,21.143330000079573],[-143.74496000000391,21.147769999785794],[-143.76357999981707,21.150510000236466],[-143.78200999986154,21.153409999971643],[-143.8001700000454,21.156570000005615],[-143.80920000007984,21.158199999630426],[-143.82730000019478,21.16143999975634],[-143.85486000038861,21.165889999923706],[-143.8641400002607,21.167260000149042],[-143.8929000000349,21.170500000274956],[-143.91209000005335,21.172640000036097],[-143.92165999980904,21.173749999962695],[-143.9493699997256,21.178019999923208],[-143.95849999987502,21.179559999894195],[-143.98571999967817,21.184349999552978],[-144.00414999972261,21.187250000187476],[-144.02298000022674,21.189730000339409],[-144.04219000026822,21.191859999639405],[-144.06138999984853,21.194000000299923],[-144.08026000039862,21.19647999955248],[-144.08954000027072,21.197849999777816],[-144.11684999972761,21.202549999782832],[-144.13500999991149,21.205709999816804],[-144.1535299996097,21.20853000035936],[-144.17260999995145,21.210750000212499],[-144.18233999989098,21.211690000393332],[-144.20214999972262,21.213230000364376],[-144.23169000039312,21.215709999616934],[-144.25076000027371,21.217930000369336],[-144.26016000028369,21.219210000041585],[-144.28748000020175,21.223910000046601],[-144.30562999992446,21.227070000080573],[-144.31476000007385,21.228610000051617],[-144.33333999984103,21.231349999602912],[-144.36211000007637,21.234589999728826],[-144.38132000011782,21.236730000389343],[-144.40014999972263,21.239209999641901],[-144.40944999961769,21.240570000305411],[-144.42770000035463,21.243650000247442],[-144.44579999957023,21.246899999935181],[-144.4640500003072,21.249979999877212],[-144.48263999963618,21.252709999866738],[-144.50174999956275,21.254929999719877],[-144.53061000035115,21.258089999753849],[-144.54016000008386,21.259199999680391],[-144.55875000031219,21.261940000131062],[-144.57700000014981,21.265009999611948],[-144.59508999980358,21.268260000199007],[-144.62271000006638,21.272619999813287],[-144.63211000007635,21.273900000384856],[-144.66146999964067,21.276550000282441],[-144.67135999976409,21.277319999818303],[-144.70086999995044,21.27979999997018],[-144.71059999989001,21.280740000151013],[-144.7384900000134,21.284840000365875],[-144.74762999972461,21.286380000336862],[-144.77483000040411,21.29116000043382],[-144.79327000001041,21.294069999730823],[-144.81211999963818,21.296549999882757],[-144.83132999967967,21.298689999643898],[-144.84094000038064,21.299709999916729],[-144.86005999986901,21.301929999769811],[-144.87865999965916,21.304670000220483],[-144.8969300004191,21.307739999701369],[-144.92411999973811,21.312530000259471],[-144.93326000034864,21.314070000230458],[-144.9520299998845,21.316629999574957],[-144.981379999887,21.319280000371862],[-145.00116000013381,21.320820000342906],[-145.02078000019677,21.322530000059601],[-145.03051999969813,21.323470000240434],[-145.04929000013331,21.326029999584932],[-145.06753999997093,21.32911000042634],[-145.09475999977408,21.333889999623921],[-145.10388000036164,21.335429999594965],[-145.13247999995195,21.338849999927675],[-145.15232999982953,21.340300000244952],[-145.16240000015981,21.340900000035106],[-145.18270999966666,21.341929999869762],[-145.21268000038162,21.343979999977137],[-145.23183999991599,21.346119999738335],[-145.24123999992597,21.347400000309904],[-145.25948999976359,21.350469999790789],[-145.28670999956674,21.355260000348892],[-145.3052100001413,21.358079999992128],[-145.3146100001513,21.359359999664377],[-145.3439600001538,21.362009999561963],[-145.35385000027722,21.362779999997144],[-145.38335999956425,21.365260000149021],[-145.40245000036714,21.367480000002161],[-145.41183000035414,21.36875999967441],[-145.43010000021476,21.371839999616441],[-145.45732000001792,21.376619999713341],[-145.46645999972912,21.378159999684385],[-145.49504000019576,21.381580000017152],[-145.51501000021125,21.382950000242431],[-145.53545999987901,21.383799999870234],[-145.55612000023774,21.38447999975233],[-145.57660000038962,21.385339999841278],[-145.58676000037363,21.385849999977665],[-145.61574000040062,21.38884000026593],[-145.63424999963769,21.391659999909223],[-145.65244000030569,21.394819999943195],[-145.66147000034016,21.396449999567949],[-145.68912000018778,21.400810000081606],[-145.69848999971364,21.402089999753798],[-145.72820999969164,21.404400000160024],[-145.73825000043709,21.404990000388352],[-145.75853999992097,21.406020000222952],[-145.78850000017479,21.408070000330383],[-145.80771000021625,21.410210000091581],[-145.82620000032966,21.413029999734817],[-145.84439000009834,21.41618999976879],[-145.85342000013281,21.417809999831775],[-145.88106999998044,21.422170000345375],[-145.89044000040562,21.423450000017624],[-145.92023000001441,21.425669999870763],[-145.93038999999843,21.426189999568976],[-145.96136000006388,21.42720999984175],[-145.98180999973161,21.428069999930699],[-145.99196999971562,21.428580000067086],[-146.01160000023972,21.430289999783781],[-146.03951000038612,21.434389999998643],[-146.04861000005138,21.435929999969687],[-146.06669999970515,21.439170000095544],[-146.08496000000392,21.442250000037632],[-146.11355999959423,21.445670000370342],[-146.13348000000192,21.447039999696358],[-146.1539899997386,21.447890000223481],[-146.17461999961321,21.448579999667402],[-146.19509999976509,21.449430000194468],[-146.21506000021876,21.450800000419804],[-146.23423999977609,21.452929999719856],[-146.2436199997631,21.454219999853251],[-146.26188999962369,21.457290000233456],[-146.27998000017678,21.460539999921195],[-146.29821999955325,21.463619999863226],[-146.32682999960471,21.467040000195993],[-146.33663999963619,21.467889999823797],[-146.35693000001939,21.468919999658397],[-146.38788000006187,21.469939999931171],[-146.40838999979857,21.470789999558974],[-146.41852000019776,21.471310000156507],[-146.43814000026072,21.473019999873259],[-146.46603000038414,21.477120000088064],[-146.48422000015279,21.480280000122036],[-146.49325999974911,21.481909999746847],[-146.52090000003489,21.486259999799302],[-146.53026999956074,21.487549999932696],[-146.54990000008485,21.489250000087566],[-146.58050999973662,21.490620000312902],[-146.59084999992746,21.490959999804261],[-146.61149999982504,21.491650000147501],[-146.64162999982454,21.493529999609962],[-146.6514300002942,21.494380000137028],[-146.67932000041759,21.49848000035189],[-146.69751000018627,21.501640000385862],[-146.70654000022074,21.503270000010616],[-146.73415999958422,21.507629999624896],[-146.7533699996257,21.509759999824269],[-146.77335000010234,21.511130000049604],[-146.79379000020825,21.511990000138553],[-146.81444999966766,21.512670000020648],[-146.82476999983555,21.513010000411327],[-146.84506000021875,21.514040000245927],[-146.87404999980757,21.517029999634929],[-146.88344999981754,21.518310000206498],[-146.90173000013931,21.521390000148529],[-146.92892000035764,21.526170000245429],[-146.9380499996077,21.527710000216473],[-146.95682999960471,21.530269999560971],[-146.98660000008985,21.532499999875256],[-147.00708000024173,21.533350000402322],[-147.02771000011631,21.534030000284417],[-147.03805999986901,21.534369999775834],[-147.05835000025223,21.535399999610433],[-147.07797000031519,21.537110000226448],[-147.10587000000041,21.541210000441311],[-147.11498999968865,21.542750000412354],[-147.13308999980356,21.546000000100094],[-147.16073999965118,21.550350000152548],[-147.17990000008484,21.552489999913689],[-147.19989000012333,21.553860000139025],[-147.21003999964617,21.554370000275412],[-147.23067999998193,21.555059999719333],[-147.26146999984053,21.556249999737815],[-147.27164000028571,21.556759999874259],[-147.29126000034864,21.558469999590955],[-147.31002999988451,21.561040000295918],[-147.3373099997566,21.565740000300934],[-147.34635999981407,21.567360000363863],[-147.37400999966167,21.571719999978143],[-147.38338999964867,21.572999999650392],[-147.41314999967267,21.575220000402851],[-147.43364999984752,21.576079999592423],[-147.45427999972213,21.576760000373838],[-147.47475999987401,21.577619999563467],[-147.4849100002962,21.578129999699854],[-147.51389999988501,21.581119999988175],[-147.52327999987202,21.582399999660424],[-147.55057000020525,21.587099999665384],[-147.56877000043508,21.590259999699356],[-147.57787999966217,21.5917999996704],[-147.59665000009736,21.594359999914218],[-147.6264300001443,21.596590000228446],[-147.64699999994994,21.597350000202482],[-147.66797000021526,21.597700000155044],[-147.68923999992597,21.597780000246928],[-147.71054000012083,21.597780000246928],[-147.73180999983154,21.597700000155044],[-147.75278999965866,21.597350000202482],[-147.77334999990248,21.596590000228446],[-147.793299999895,21.595220000003167],[-147.81248000035166,21.593080000241969],[-147.8309300004191,21.590179999607415],[-147.83972000017778,21.588300000145011],[-147.8573599997641,21.584629999974652],[-147.87469000034315,21.580609999851731],[-147.90037999973711,21.574280000221961],[-147.9174500000174,21.570010000261448],[-147.92596000035365,21.56786999960093],[-147.94302000017279,21.563599999640417],[-147.95999000033817,21.559240000026136],[-147.9852600001488,21.552489999913689],[-147.99335000000241,21.549929999669871],[-148.01758999997844,21.542149999722824],[-148.03294000008086,21.536170000045615],[-148.0402800004216,21.532840000265935],[-148.06237999973712,21.52291999965837],[-148.07670999956673,21.515919999708387],[-148.09086999965069,21.508739999551494],[-148.10510000026471,21.501649999947688],[-148.11218000030669,21.498059999869213],[-148.13343999955626,21.487289999633902],[-148.14742999989448,21.479939999731357],[-148.16124000002588,21.472420000083105],[-148.17470999976661,21.464560000044116],[-148.18796000015379,21.45643999970639],[-148.20099000028819,21.448149999622899],[-148.22028999998344,21.435419999833243],[-148.23291000009635,21.426699999705363],[-148.24535999956424,21.417809999831775],[-148.25140000020977,21.413200000379845],[-148.26337000002539,21.40380000036987],[-148.28052000039762,21.388929999919696],[-148.28605999956923,21.383799999870234],[-148.30236999987551,21.368079999792315],[-148.30774000020077,21.362779999997144],[-148.32367999963219,21.346709999966663],[-148.32906000041859,21.341419999733318],[-148.34499999985002,21.325349999702837],[-148.3555899998785,21.314580000366846],[-148.36069999990499,21.309029999834763],[-148.37085999988901,21.297829999554949],[-148.38068000038163,21.286289999783776],[-148.39464999979756,21.268260000199007],[-148.40353000010933,21.255789999808769],[-148.41223000021427,21.243140000111055],[-148.42077999969715,21.230319999768312],[-148.42493999998092,21.22382999995466],[-148.43731999981804,21.20416999984576],[-148.4491900004181,21.183999999600417],[-148.45669999960521,21.17015999988422],[-148.46036000021377,21.163150000372354],[-148.4676799996322,21.14914000001113],[-148.47485000022724,21.134950000342371],[-148.48168999999342,21.120420000282934],[-148.48848999971364,21.105899999785322],[-148.49515000017229,21.091199999980176],[-148.50129999959523,21.075979999577442],[-148.5099199996082,21.052570000105561],[-148.51272999968964,21.044710000066573],[-148.51785000017728,21.02847000029044],[-148.52493000021926,21.003519999948196],[-148.52725000018728,20.995140000210995],[-148.53166000030868,20.97821999965339],[-148.53593000026922,20.961130000249454],[-148.54004000004588,20.943870000200491],[-148.54669000004338,20.907810000131519],[-148.54831000010634,20.89874999961296],[-148.55044999986751,20.879520000447826],[-148.55180000006987,20.859519999948191],[-148.55258000006685,20.838930000119547],[-148.55282999990447,20.828500000274914],[-148.55291999955824,20.796710000166513],[-148.55258000006685,20.775690000293423],[-148.55180000006987,20.755099999565459],[-148.55044999986751,20.735099999965144],[-148.54831000010634,20.71586999990069],[-148.5455000000249,20.697330000179477],[-148.54227000036013,20.679210000041621],[-148.54047000009035,20.670320000168033],[-148.5333700000254,20.634690000143507],[-148.53339000004837,20.634690000143507],[-148.5277400003007,20.608279999922217],[-148.52337999978707,20.591269999710846],[-148.52080999998142,20.583159999834265],[-148.510159999884,20.551110000326389],[-148.50402999958473,20.535900000384856],[-148.50104000019576,20.528210000091576],[-148.4950599996192,20.512830000404335],[-148.48901000031117,20.497529999909716],[-148.4828800000119,20.482319999968183],[-148.47963000032416,20.474880000411815],[-148.4697299997396,20.452749999712864],[-148.46588000026171,20.445909999946707],[-148.45447000019027,20.425320000118063],[-148.44626000019878,20.412160000283905],[-148.4378400004156,20.399250000287395],[-148.42920000037964,20.38651999959842],[-148.41599000003839,20.367719999578469],[-148.40695000044209,20.355419999833259],[-148.4023299996297,20.349349999602964],[-148.38834999975259,20.331320000018138],[-148.38372999983955,20.325249999787786],[-148.37009000035314,20.306879999812281],[-148.36104999985753,20.294569999605926],[-148.35642999994445,20.288500000274951],[-148.34228999988349,20.270640000435833],[-148.33202999978457,20.259529999809786],[-148.32094999964269,20.249280000172007],[-148.30916999959572,20.239699999955178],[-148.29705999961919,20.230480000151999],[-148.28479000035816,20.22141999963344],[-148.27266999992048,20.212190000268436],[-148.25518999961869,20.197660000208998],[-148.24947000024022,20.19271000036639],[-148.23804000014582,20.182789999758825],[-148.23229999984503,20.17783000035439],[-148.21464999979756,20.16347999960243],[-148.1957099996167,20.150399999860269],[-148.1824800001518,20.142289999983632],[-148.17575000006238,20.138360000413854],[-148.16173999970115,20.131009999611933],[-148.14777000028519,20.123659999709332],[-148.12643000004439,20.112980000027108],[-148.11926000034865,20.109470000040631],[-148.10510000026471,20.102289999883737],[-148.09094000018078,20.095109999726844],[-148.07663000037414,20.088109999776805],[-148.06245000026721,20.080929999619912],[-148.04829000018327,20.073750000362395],[-148.03378000014681,20.066909999696861],[-148.01161000030118,20.057090000103585],[-148.00410000021475,20.053919999608411],[-147.9884000001598,20.048280000321881],[-147.97220000042958,20.043159999834245],[-147.95564000028571,20.038370000175519],[-147.93011000017628,20.031880000361866],[-147.92151000018629,20.02981999979329],[-147.90396000025373,20.026059999969164],[-147.87691000019626,20.021110000126555],[-147.85846000012882,20.018199999930175],[-147.84918000025672,20.016829999704839],[-147.83059999959022,20.01409999971537],[-147.80327999967216,20.009399999710354],[-147.78519000001839,20.006150000022615],[-147.76704000029568,20.002989999988642],[-147.75789999968515,20.001450000017599],[-147.73913999971114,19.998889999773837],[-147.70935000010235,19.996669999920698],[-147.6888099998815,19.995900000384836],[-147.66789000012332,19.995640000086098],[-147.64699000038812,19.995900000384836],[-147.6264300001443,19.996669999920698],[-147.61664000013582,19.997520000447821],[-147.57787999966217,20.001450000017599],[-147.56875999997393,20.002989999988642],[-147.55059999979008,20.006150000022615],[-147.53241999958323,20.009319999618413],[-147.51389999988501,20.01212999969988],[-147.49470999986653,20.014270000360341],[-147.48456000034366,20.014790000058611],[-147.45419000006837,20.016410000121539],[-147.43319999978007,20.016749999612955],[-147.42252000009785,20.016749999612955],[-147.39062000031268,20.016829999704839],[-147.36930999965668,20.016829999704839],[-147.347979999877,20.016829999704839],[-147.32665999965917,20.016829999704839],[-147.30532999987952,20.016829999704839],[-147.28400999966166,20.016829999704839],[-147.26265999985901,20.016829999704839],[-147.24135999966416,20.016829999704839],[-147.22002000032268,20.016829999704839],[-147.19868000008185,20.016829999704839],[-147.17733999984102,20.016829999704839],[-147.15603999964617,20.016829999704839],[-147.13468999984354,20.016829999704839],[-147.11336000006386,20.016829999704839],[-147.09203999984604,20.016829999704839],[-147.07071000006636,20.016829999704839],[-147.04946999994047,20.016920000257926],[-147.02847000009035,20.017259999749342],[-147.0079299998695,20.018030000184524],[-146.98795999985401,20.019400000409803],[-146.96876999983553,20.021529999709855],[-146.95023999967617,20.024350000252468],[-146.93210000041461,20.027519999848266],[-146.91390999974661,20.030679999882238],[-146.89539999961022,20.033500000424795],[-146.87618999956874,20.035640000185992],[-146.86606000006887,20.03615000032238],[-146.83568000023175,20.037770000385365],[-146.8147000004046,20.038109999876724],[-146.79346000027871,20.038200000429811],[-146.77212999959971,20.038200000429811],[-146.75081000028121,20.038200000429811],[-146.72945999957923,20.038200000429811],[-146.7081600002837,20.038200000429811],[-146.68680999958173,20.038200000429811],[-146.66547999980207,20.038200000429811],[-146.64412999999942,20.038200000429811],[-146.62282999980457,20.038200000429811],[-146.60148999956374,20.038200000429811],[-146.58015000022226,20.038200000429811],[-146.55883999956623,20.038200000429811],[-146.53752000024772,20.038200000429811],[-146.51618999956875,20.038200000429811],[-146.49487000025022,20.038200000429811],[-146.47363000012433,20.038279999622432],[-146.45265000029718,20.038629999574937],[-146.42193999963121,20.039910000146506],[-146.41214000006087,20.040759999774309],[-146.40274000005087,20.042049999907704],[-146.38379000030818,20.044440000405814],[-146.35623000011432,20.048880000112035],[-146.33808999995344,20.052040000146008],[-146.31955000023223,20.054859999789301],[-146.3003699997756,20.056999999550499],[-146.28039999976011,20.058369999775834],[-146.25986000043858,20.059140000210959],[-146.23885999968914,20.059479999702376],[-146.22818000000692,20.059479999702376],[-146.19628999978357,20.059559999794317],[-146.17496000000392,20.059559999794317],[-146.15363999978607,20.059559999794317],[-146.13228999998344,20.059559999794317],[-146.11098999978859,20.059559999794317],[-146.08965000044708,20.059559999794317],[-146.06831000020625,20.059559999794317],[-146.04696999996546,20.059559999794317],[-146.0256699997706,20.059559999794317],[-146.00431999996795,20.059559999794317],[-145.98299000018827,20.059559999794317],[-145.96166999997044,20.059559999794317],[-145.94034999975261,20.059559999794317],[-145.91901999997293,20.059559999794317],[-145.89771000021625,20.059559999794317],[-145.87636999997542,20.059559999794317],[-145.85506000021874,20.059559999794317],[-145.83371000041609,20.059559999794317],[-145.812499999875,20.059650000347403],[-145.79147000044009,20.059989999838763],[-145.77093999978109,20.060760000273945],[-145.7509499997426,20.062129999599961],[-145.74158000021674,20.06341000017153],[-145.71326000004888,20.067089999903715],[-145.6950700002802,20.070249999937687],[-145.67691000009634,20.073409999971659],[-145.65841999998293,20.076229999614952],[-145.63920999994147,20.078359999814268],[-145.61923000036413,20.079730000039604],[-145.60883000010435,20.079990000338398],[-145.57769999985501,20.080839999966145],[-145.55643999970613,20.080929999619912],[-145.53510999992648,20.080929999619912],[-145.51378999970862,20.080929999619912],[-145.49245999992897,20.080929999619912],[-145.47115000017229,20.080929999619912],[-145.44980000036963,20.080929999619912],[-145.42850000017478,20.080929999619912],[-145.40715000037213,20.080929999619912],[-145.38581999969315,20.080929999619912],[-145.36450000037462,20.080929999619912],[-145.34316999969565,20.080929999619912],[-145.32185000037714,20.080929999619912],[-145.30051000013631,20.080929999619912],[-145.27920999994146,20.080929999619912],[-145.25786000013881,20.080929999619912],[-145.23653000035915,20.080929999619912],[-145.21517999965718,20.080929999619912],[-145.19388000036164,20.080929999619912],[-145.17252999965967,20.080929999619912],[-145.15119999987999,20.080929999619912],[-145.12987999966217,20.080929999619912],[-145.10856999990548,20.080929999619912],[-145.08722999966466,20.080929999619912],[-145.06591999990798,20.080929999619912],[-145.04459000012832,20.080929999619912],[-145.02326999991047,20.080929999619912],[-145.00192000010784,20.080929999619912],[-144.98061999991299,20.080929999619912],[-144.95927000011034,20.080929999619912],[-144.93794000033066,20.080929999619912],[-144.91660000008986,20.080929999619912],[-144.89529000033318,20.080929999619912],[-144.87395000009235,20.080929999619912],[-144.85262000031267,20.080929999619912],[-144.83130000009484,20.080929999619912],[-144.80997999987702,20.080929999619912],[-144.78865000009733,20.080929999619912],[-144.76732999987951,20.080929999619912],[-144.74600000009983,20.080929999619912],[-144.72469000034314,20.080929999619912],[-144.70343000019426,20.081009999711853],[-144.6823700002752,20.081270000010647],[-144.66154000017079,20.081780000147035],[-144.64124000022574,20.082640000235983],[-144.62168999979357,20.084000000000117],[-144.61306999978058,20.085290000133512],[-144.59473999985101,20.087079999942205],[-144.57706999978058,20.089049999957695],[-144.55984000021576,20.091349999902718],[-144.54250999963668,20.093660000308887],[-144.52487000005038,20.095880000162026],[-144.50662000021276,20.097930000269457],[-144.48749999982505,20.099729999639919],[-144.4675600002937,20.100930000119547],[-144.4571400000109,20.101179999957196],[-144.42602999978459,20.102120000138029],[-144.4047499996127,20.102289999883737],[-144.38345000031717,20.102289999883737],[-144.36209000005337,20.102289999883737],[-144.34076999983554,20.102289999883737],[-144.31942999959472,20.102289999883737],[-144.29813000029918,20.102289999883737],[-144.27677999959721,20.102289999883737],[-144.25544999981756,20.102289999883737],[-144.23412999959973,20.102289999883737],[-144.21279999982005,20.102289999883737],[-144.19147999960222,20.102289999883737],[-144.17014000026072,20.102289999883737],[-144.14882999960471,20.102289999883737],[-144.12749000026321,20.102289999883737],[-144.10615999958424,20.102289999883737],[-144.0848400002657,20.102289999883737],[-144.06350999958673,20.102289999883737],[-144.04219000026822,20.102289999883737],[-144.02083999956625,20.102289999883737],[-143.99954000027071,20.102289999883737],[-143.97820000002991,20.102289999883737],[-143.95685999978906,20.102289999883737],[-143.93555000003238,20.102289999883737],[-143.91422000025273,20.102289999883737],[-143.8929000000349,20.102289999883737],[-143.87155000023222,20.102289999883737],[-143.85025000003736,20.102289999883737],[-143.82890000023474,20.102289999883737],[-143.80756999955577,20.102289999883737],[-143.78621999975309,20.102289999883737],[-143.76491999955823,20.102289999883737],[-143.74358000021675,20.102289999883737],[-143.72223999997595,20.102289999883737],[-143.70093000021927,20.102289999883737],[-143.67961000000139,20.102289999883737],[-143.65828000022174,20.102289999883737],[-143.63696000000391,20.102289999883737],[-143.61563000022426,20.102289999883737],[-143.59431000000643,20.102289999883737],[-143.57296999976558,20.102289999883737],[-143.55166999957072,20.102289999883737],[-143.5303199997681,20.102289999883737],[-143.50898999998844,20.102289999883737],[-143.48764000018576,20.102289999883737],[-143.46633999999091,20.102289999883737],[-143.44499000018828,20.102289999883737],[-143.42366000040863,20.102289999883737],[-143.40234000019075,20.102289999883737],[-143.38103000043407,20.102289999883737],[-143.35969999975509,20.102289999883737],[-143.33838000043659,20.102289999883737],[-143.31704999975761,20.102289999883737],[-143.29573000043911,20.102289999883737],[-143.27437999973711,20.102289999883737],[-143.25308000044157,20.102289999883737],[-143.23174000020077,20.102289999883737],[-143.21039999995992,20.102289999883737],[-143.18905999971912,20.102289999883737],[-143.16776000042358,20.102289999883737],[-143.14640999972164,20.102289999883737],[-143.12507999994193,20.102289999883737],[-143.1037599997241,20.102289999883737],[-143.08242999994445,20.102289999883737],[-143.06110999972663,20.102289999883737],[-143.03975999992394,20.102289999883737],[-143.01845999972915,20.102289999883737],[-142.99712000038761,20.102289999883737],[-142.97578000014681,20.102289999883737],[-142.95447000039013,20.102289999883737],[-142.93323000026419,20.102209999791796],[-142.9122500004371,20.101859999839235],[-142.89165999970913,20.101099999865255],[-142.87182999985453,20.09980999973186],[-142.86226000009884,20.099220000402852],[-142.83486999965066,20.095630000324377],[-142.82665999965917,20.094859999889252],[-142.81012000043756,20.092640000036113],[-142.79391000024623,20.090580000366856],[-142.77761999996295,20.0887899996589],[-142.76082000044261,20.087340000240943],[-142.74332000011782,20.086059999669374],[-142.72497999972711,20.084770000435299],[-142.71645999982906,20.083659999609438],[-142.69675000011233,20.082549999682897],[-142.67635000005237,20.081780000147035],[-142.65555000043207,20.081270000010647],[-142.63446000002887,20.081009999711853],[-142.61323999992595,20.080929999619912],[-142.59189000012333,20.080929999619912],[-142.57058999992847,20.080929999619912],[-142.54924000012579,20.080929999619912],[-142.52791000034614,20.080929999619912],[-142.50659000012831,20.080929999619912],[-142.48526000034866,20.080929999619912],[-142.46394000013083,20.080929999619912],[-142.44259999988998,20.080929999619912],[-142.42129999969512,20.080929999619912],[-142.3999499998925,20.080929999619912],[-142.37862000011285,20.080929999619912],[-142.35727000031017,20.080929999619912],[-142.33597000011531,20.080929999619912],[-142.31462000031269,20.080929999619912],[-142.29328999963371,20.080929999619912],[-142.27197000031515,20.080929999619912],[-142.25073000018926,20.080839999966145],[-142.24016000018378,20.08075999987426],[-142.20919999968015,20.079730000039604],[-142.18924000012584,20.078370000275413],[-142.17003999964618,20.076229999614952],[-142.15151999994794,20.073409999971659],[-142.13335999976408,20.070249999937687],[-142.1151900000184,20.067080000341889],[-142.10605000030716,20.065540000370845],[-142.07746999984056,20.062129999599961],[-142.06765999980905,20.061270000410332],[-142.03695999960422,20.059989999838763],[-142.0159599997541,20.059650000347403],[-141.99471000006639,20.059559999794317],[-141.97338999984851,20.059559999794317],[-141.95206999963068,20.059559999794317],[-141.93081999994297,20.059479999702376],[-141.90984999967765,20.059140000210959],[-141.89943999985604,20.058879999912222],[-141.86934000034069,20.056999999550499],[-141.8501300002992,20.054859999789301],[-141.84073999985105,20.053580000117051],[-141.81345000041711,20.048880000112035],[-141.79525999974908,20.045720000078063],[-141.78612999959972,20.044180000107076],[-141.75753999957124,20.040759999774309],[-141.74774000000093,20.039910000146506],[-141.71703000023422,20.038629999574937],[-141.69603999994598,20.038279999622432],[-141.68546000037861,20.038200000429811],[-141.65390000008483,20.037770000385365],[-141.64349000026323,20.037519999648396],[-141.61336999982552,20.035629999724847],[-141.59421000029118,20.033500000424795],[-141.5756800001318,20.030679999882238],[-141.55749999992497,20.027519999848266],[-141.54846000032865,20.025890000223455],[-141.52084000006585,20.021540000171001],[-141.50161999956322,20.019400000409803],[-141.49181999999291,20.018549999882737],[-141.47150999958671,20.01752000004808],[-141.44011999993796,20.016920000257926],[-141.41895000034214,20.016749999612955],[-141.3979600000539,20.016410000121539],[-141.38757000025521,20.016149999822801],[-141.35744999981756,20.014270000360341],[-141.34765999980908,20.013419999833275],[-141.31974999966269,20.009319999618413],[-141.30157000035513,20.006150000022615],[-141.28339999971013,20.002989999988642],[-141.27428999958374,20.001450000017599],[-141.25548999956374,19.998889999773837],[-141.22571000041609,19.996669999920698],[-141.20525999984903,19.995809999831749],[-141.19491999965817,19.99547000034039],[-141.17426999976061,19.994789999558975],[-141.14417000024525,19.992910000096572],[-141.12498000022674,19.990770000335374],[-141.10647999965215,19.987949999792818],[-141.0882899998835,19.984789999758846],[-141.07014000016079,19.981629999724873],[-141.0516100000014,19.97881000008158],[-141.04223999957622,19.977519999948186],[-141.01244999996743,19.975300000095046],[-141.00231999956821,19.974789999958659],[-140.97098999998843,19.974110000076564],[-140.95009000025323,19.973680000032118],[-140.92950000042458,19.972909999596936],[-140.90958000001689,19.97154000027092],[-140.89974999996247,19.970689999743854],[-140.87185999983905,19.966590000428312],[-140.85367000007034,19.963419999933194],[-140.83552999990945,19.960259999899222],[-140.81699999975012,19.957440000255929],[-140.79780999973161,19.955310000056613],[-140.77785999973912,19.953939999831277],[-140.76769999975511,19.95342999969489],[-140.73639999976007,19.952740000250969],[-140.71548000000189,19.952319999768292],[-140.69513000044907,19.951550000232487],[-140.67566000010885,19.950180000007151],[-140.65749000036311,19.948040000245953],[-140.64896000000391,19.946759999674384],[-140.62506000041861,19.942059999669368],[-140.60220000022974,19.937619999963147],[-140.59469999970514,19.93607999999216]]]},"properties":{"objectid":590,"stormname":"Norbert","stormtype":"TD","basin":"EP","advdate":"500 PM HST Mon Sep 14 2026","advisnum":"22","fcstprd":120,"stormnum":14,"idp_source":"ep142026-022_5day_pgn","idp_filedate":1789441354000,"idp_ingestdate":1789441370000,"st_area(shape)":9.0464634504992549,"st_perimeter(shape)":17.976104084528608,"binnumber":"EP4"}}]}