{"type":"FeatureCollection","features":[{"type":"Feature","id":893,"geometry":{"type":"LineString","coordinates":[[-166.26999999999992,23.859999999900197],[-170.49999999999991,25.330000000200016],[-173.96000000009985,26.060000000000116]]},"properties":{"objectid":893,"stormname":"Nolo","stormtype":"HU","basin":"EP","advdate":"200 PM HST Fri Oct 02 2026","advisnum":"49A","fcstprd":120,"stormnum":15,"tcww":"TWR","idp_source":"ep152026-049A_ww_wwlin","idp_filedate":1790985776000,"idp_ingestdate":1790985858000,"st_length(shape)":8.014317183113107,"binnumber":"CP2"}}]}