{"type":"FeatureCollection","features":[{"type":"Feature","id":328,"geometry":{"type":"LineString","coordinates":[[-163.70000000009983,18.800000000299917],[-164.10000000019977,20.200000000199964],[-164.29999999980006,21.900000000399814],[-164.39999999960023,22.599999999900206],[-164.6999999999,22.699999999700367],[-165.29999999960023,22.599999999900206],[-165.99999999999991,22.800000000399848],[-167.49999999970015,23.400000000100079],[-172.89999999970016,23.800000000199987]]},"properties":{"objectid":328,"stormname":"Nolo","stormtype":"HU","basin":"EP","advdate":"500 PM HST Mon Sep 28 2026","advisnum":"34","fcstprd":120,"stormnum":15,"idp_source":"ep152026-034_5day_lin","idp_filedate":1790651300000,"idp_ingestdate":1790651465000,"st_length(shape)":12.557712033884666,"binnumber":"CP2"}}]}