{"type": "FeatureCollection", "features": [{"type": "Feature", "id": 1855, "geometry": {"type": "Point", "coordinates": [-156.19999999980007, 16.70000000000016]}, "properties": {"objectid": 1855, "stormname": "Hurricane Nolo", "stormtype": "HU", "dvlbl": "H", "basin": "EP", "advdate": "200 PM HST Sat Sep 26 2026", "advisnum": "25A", "fcstprd": 120, "gust": 100, "maxwind": 80, "mslp": 972, "ssnum": 1, "datelbl": "2:00 PM Sat", "tcdvlp": "Hurricane", "tcdir": 260, "tcspd": 4, "fldatelbl": "2026-09-26 11:00 AM Sat HST", "lat": 17, "lon": -156, "stormnum": 15, "stormsrc": "Tropical Cyclone", "tau": 0, "timezone": "HST", "validtime": "26/2100", "idp_source": "ep152026-025A_5day_pts", "idp_filedate": 1790467347000, "idp_ingestdate": 1790467381000, "binnumber": "CP2", "MAXWIND": 80, "VALIDTIME": "26/2100"}}, {"type": "Feature", "id": 1856, "geometry": {"type": "Point", "coordinates": [-156.99999999999991, 16.70000000000016]}, "properties": {"objectid": 1856, "stormname": "Hurricane Nolo", "stormtype": "HU", "dvlbl": "H", "basin": "EP", "advdate": "200 PM HST Sat Sep 26 2026", "advisnum": "25A", "fcstprd": 120, "gust": 110, "maxwind": 90, "mslp": 9999, "ssnum": 2, "datelbl": "8:00 PM Sat", "tcdvlp": "Hurricane", "tcdir": 9999, "tcspd": 9999, "fldatelbl": "2026-09-26 8:00 PM Sat HST", "lat": 17, "lon": -157, "stormnum": 15, "stormsrc": "Tropical Cyclone", "tau": 12, "timezone": "HST", "validtime": "27/0600", "idp_source": "ep152026-025A_5day_pts", "idp_filedate": 1790467347000, "idp_ingestdate": 1790467381000, "binnumber": "CP2", "MAXWIND": 90, "VALIDTIME": "27/0600"}}, {"type": "Feature", "id": 1857, "geometry": {"type": "Point", "coordinates": [-158.79999999999993, 16.799999999800264]}, "properties": {"objectid": 1857, "stormname": "Hurricane Nolo", "stormtype": "MH", "dvlbl": "M", "basin": "EP", "advdate": "200 PM HST Sat Sep 26 2026", "advisnum": "25A", "fcstprd": 120, "gust": 130, "maxwind": 105, "mslp": 9999, "ssnum": 3, "datelbl": "8:00 AM Sun", "tcdvlp": "Major Hurricane", "tcdir": 9999, "tcspd": 9999, "fldatelbl": "2026-09-27 8:00 AM Sun HST", "lat": 17, "lon": -159, "stormnum": 15, "stormsrc": "Tropical Cyclone", "tau": 24, "timezone": "HST", "validtime": "27/1800", "idp_source": "ep152026-025A_5day_pts", "idp_filedate": 1790467347000, "idp_ingestdate": 1790467381000, "binnumber": "CP2", "MAXWIND": 105, "VALIDTIME": "27/1800"}}, {"type": "Feature", "id": 1858, "geometry": {"type": "Point", "coordinates": [-160.90000000029968, 17.19999999990023]}, "properties": {"objectid": 1858, "stormname": "Hurricane Nolo", "stormtype": "MH", "dvlbl": "M", "basin": "EP", "advdate": "200 PM HST Sat Sep 26 2026", "advisnum": "25A", "fcstprd": 120, "gust": 140, "maxwind": 115, "mslp": 9999, "ssnum": 4, "datelbl": "8:00 PM Sun", "tcdvlp": "Major Hurricane", "tcdir": 9999, "tcspd": 9999, "fldatelbl": "2026-09-27 8:00 PM Sun HST", "lat": 17, "lon": -161, "stormnum": 15, "stormsrc": "Tropical Cyclone", "tau": 36, "timezone": "HST", "validtime": "28/0600", "idp_source": "ep152026-025A_5day_pts", "idp_filedate": 1790467347000, "idp_ingestdate": 1790467381000, "binnumber": "CP2", "MAXWIND": 115, "VALIDTIME": "28/0600"}}, {"type": "Feature", "id": 1859, "geometry": {"type": "Point", "coordinates": [-162.49999999980008, 18.40000000020001]}, "properties": {"objectid": 1859, "stormname": "Hurricane Nolo", "stormtype": "MH", "dvlbl": "M", "basin": "EP", "advdate": "200 PM HST Sat Sep 26 2026", "advisnum": "25A", "fcstprd": 120, "gust": 135, "maxwind": 110, "mslp": 9999, "ssnum": 3, "datelbl": "8:00 AM Mon", "tcdvlp": "Major Hurricane", "tcdir": 9999, "tcspd": 9999, "fldatelbl": "2026-09-28 8:00 AM Mon HST", "lat": 18, "lon": -162, "stormnum": 15, "stormsrc": "Tropical Cyclone", "tau": 48, "timezone": "HST", "validtime": "28/1800", "idp_source": "ep152026-025A_5day_pts", "idp_filedate": 1790467347000, "idp_ingestdate": 1790467381000, "binnumber": "CP2", "MAXWIND": 110, "VALIDTIME": "28/1800"}}, {"type": "Feature", "id": 1860, "geometry": {"type": "Point", "coordinates": [-163.7999999999, 20.200000000199964]}, "properties": {"objectid": 1860, "stormname": "Hurricane Nolo", "stormtype": "HU", "dvlbl": "H", "basin": "EP", "advdate": "200 PM HST Sat Sep 26 2026", "advisnum": "25A", "fcstprd": 120, "gust": 115, "maxwind": 95, "mslp": 9999, "ssnum": 2, "datelbl": "8:00 PM Mon", "tcdvlp": "Hurricane", "tcdir": 9999, "tcspd": 9999, "fldatelbl": "2026-09-28 8:00 PM Mon HST", "lat": 20, "lon": -164, "stormnum": 15, "stormsrc": "Tropical Cyclone", "tau": 60, "timezone": "HST", "validtime": "29/0600", "idp_source": "ep152026-025A_5day_pts", "idp_filedate": 1790467347000, "idp_ingestdate": 1790467381000, "binnumber": "CP2", "MAXWIND": 95, "VALIDTIME": "29/0600"}}, {"type": "Feature", "id": 1861, "geometry": {"type": "Point", "coordinates": [-164.5000000002997, 21.900000000399814]}, "properties": {"objectid": 1861, "stormname": "Hurricane Nolo", "stormtype": "HU", "dvlbl": "H", "basin": "EP", "advdate": "200 PM HST Sat Sep 26 2026", "advisnum": "25A", "fcstprd": 120, "gust": 100, "maxwind": 80, "mslp": 9999, "ssnum": 1, "datelbl": "8:00 AM Tue", "tcdvlp": "Hurricane", "tcdir": 9999, "tcspd": 9999, "fldatelbl": "2026-09-29 8:00 AM Tue HST", "lat": 22, "lon": -164, "stormnum": 15, "stormsrc": "Tropical Cyclone", "tau": 72, "timezone": "HST", "validtime": "29/1800", "idp_source": "ep152026-025A_5day_pts", "idp_filedate": 1790467347000, "idp_ingestdate": 1790467381000, "binnumber": "CP2", "MAXWIND": 80, "VALIDTIME": "29/1800"}}, {"type": "Feature", "id": 1862, "geometry": {"type": "Point", "coordinates": [-166.09999999980008, 23.199999999600436]}, "properties": {"objectid": 1862, "stormname": "Hurricane Nolo", "stormtype": "HU", "dvlbl": "H", "basin": "EP", "advdate": "200 PM HST Sat Sep 26 2026", "advisnum": "25A", "fcstprd": 120, "gust": 80, "maxwind": 65, "mslp": 9999, "ssnum": 1, "datelbl": "8:00 AM Wed", "tcdvlp": "Hurricane", "tcdir": 9999, "tcspd": 9999, "fldatelbl": "2026-09-30 8:00 AM Wed HST", "lat": 23, "lon": -166, "stormnum": 15, "stormsrc": "Tropical Cyclone", "tau": 96, "timezone": "HST", "validtime": "30/1800", "idp_source": "ep152026-025A_5day_pts", "idp_filedate": 1790467347000, "idp_ingestdate": 1790467381000, "binnumber": "CP2", "MAXWIND": 65, "VALIDTIME": "30/1800"}}, {"type": "Feature", "id": 1863, "geometry": {"type": "Point", "coordinates": [-168.79999999980006, 23.000000000000114]}, "properties": {"objectid": 1863, "stormname": "Hurricane Nolo", "stormtype": "HU", "dvlbl": "H", "basin": "EP", "advdate": "200 PM HST Sat Sep 26 2026", "advisnum": "25A", "fcstprd": 120, "gust": 80, "maxwind": 65, "mslp": 9999, "ssnum": 1, "datelbl": "8:00 AM Thu", "tcdvlp": "Hurricane", "tcdir": 9999, "tcspd": 9999, "fldatelbl": "2026-10-01 8:00 AM Thu HST", "lat": 23, "lon": -169, "stormnum": 15, "stormsrc": "Tropical Cyclone", "tau": 120, "timezone": "HST", "validtime": "01/1800", "idp_source": "ep152026-025A_5day_pts", "idp_filedate": 1790467347000, "idp_ingestdate": 1790467381000, "binnumber": "CP2", "MAXWIND": 65, "VALIDTIME": "01/1800"}}]}