{"type":"FeatureCollection","features":[{"type":"Feature","id":365,"geometry":{"type":"Polygon","coordinates":[[[-164.25619999983005,20.241340000041134],[-164.24696000000392,20.23980000007009],[-164.21652000009786,20.237540000171009],[-164.19482000034267,20.237540000171009],[-164.1725900004281,20.238879999912228],[-164.15067000042009,20.241750000062609],[-164.12958000001692,20.246060000069065],[-164.10948000030169,20.251600000140058],[-164.09064000023574,20.258379999837246],[-164.07280000041962,20.266170000245438],[-164.0556000004396,20.274590000028638],[-164.03900000024973,20.283620000063081],[-164.02322000010284,20.29347000014053],[-164.00826999956075,20.304140000260929],[-163.9942299996147,20.315729999639927],[-163.96996000005387,20.3427199996284],[-163.96452000009785,20.350109999576944],[-163.95489999983505,20.366120000437832],[-163.94672000032767,20.383570000255474],[-163.9374999996252,20.412809999681883],[-163.93268000038162,20.433639999786294],[-163.92876999993547,20.455399999610449],[-163.92540000010985,20.477660000009109],[-163.92376999958574,20.488849999827778],[-163.91813999986101,20.521689999793807],[-163.91425000033718,20.54344000005608],[-163.91046000002891,20.565299999995148],[-163.90707000018028,20.587560000393864],[-163.90450000037464,20.610650000397357],[-163.90286000028871,20.634659999659391],[-163.90194999969265,20.659389999748839],[-163.90163999978608,20.671909999746845],[-163.90142999999443,20.710189999668899],[-163.90142999999443,20.735839999916209],[-163.90142999999443,20.761499999725345],[-163.90142999999443,20.787149999972655],[-163.90134000034067,20.812700000105053],[-163.90091000029619,20.837940000330889],[-163.89999000013833,20.862670000420337],[-163.8983799996372,20.886679999682372],[-163.89580999983156,20.909769999685864],[-163.89243000044408,20.932039999646406],[-163.88862999967466,20.953899999585474],[-163.88484000026571,20.975749999962659],[-163.88145000041712,20.998019999923201],[-163.87891000019627,21.021109999926693],[-163.8772599996492,21.045120000088048],[-163.87634000039063,21.069850000177496],[-163.87591999990798,21.095099999965157],[-163.87581999979307,21.120650000097555],[-163.87581999979307,21.146300000344866],[-163.87581999979307,21.171960000154002],[-163.87581999979307,21.197610000401312],[-163.87581999979307,21.223259999749303],[-163.87573000013933,21.248809999881757],[-163.87532000011782,21.274059999669362],[-163.87439000039811,21.29878999975881],[-163.87273999985104,21.322799999920221],[-163.87021000009136,21.345889999923713],[-163.86682000024274,21.368159999884256],[-163.86302000037264,21.390010000261441],[-163.85921999960323,21.411870000200508],[-163.85586999980057,21.434140000160994],[-163.85327000041011,21.457230000164543],[-163.85165000034715,21.481240000325897],[-163.85073999975111,21.505970000415346],[-163.85030999970664,21.531209999741861],[-163.85022000005287,21.556759999874259],[-163.85022000005287,21.582419999683395],[-163.85022000005287,21.608069999930706],[-163.85022000005287,21.633720000178016],[-163.85022000005287,21.659379999987152],[-163.85022000005287,21.685030000234462],[-163.85009999991499,21.710580000366861],[-163.84970000035466,21.735819999693376],[-163.84878999975859,21.76056000024397],[-163.84714000011084,21.784559999944179],[-163.8445700003052,21.807660000408816],[-163.84119999958023,21.829919999908213],[-163.83739999971013,21.851779999847281],[-163.83361999986303,21.873630000224466],[-163.83023000001441,21.895900000185009],[-163.82768000023174,21.918990000188501],[-163.82602000012284,21.943000000349855],[-163.82509999996495,21.967740000001129],[-163.82470999996644,21.992980000226964],[-163.82460000028971,22.018530000359362],[-163.82460000028971,22.044179999707353],[-163.82460000028971,22.069829999954663],[-163.82460000028971,22.095489999763799],[-163.82460000028971,22.12114000001111],[-163.82460000028971,22.146799999820303],[-163.82460000028971,22.172450000067613],[-163.82460000028971,22.198100000314923],[-163.82460000028971,22.223760000124059],[-163.82470999996644,22.249310000256457],[-163.82501000031118,22.261830000254463],[-163.82604999970764,22.299279999672365],[-163.82768000023174,22.323300000294921],[-163.83023000001441,22.346379999837268],[-163.83371999997794,22.368549999682898],[-163.83792000030769,22.389999999600434],[-163.84264000033568,22.410929999819757],[-163.84775999992397,22.431450000017605],[-163.85329999999493,22.451560000193979],[-163.85635000035217,22.461310000156516],[-163.8656900002932,22.490459999929215],[-163.86947999970215,22.499489999963657],[-163.87686000008887,22.517750000262424],[-163.8847400001508,22.535500000424804],[-163.8971300004491,22.561570000255472],[-163.90155000013232,22.56997999957747],[-163.91464000033568,22.595330000379363],[-163.91934000034067,22.603429999794798],[-163.93851000033618,22.63554999983279],[-163.94385000017729,22.643039999896246],[-163.95479999972014,22.657719999678363],[-163.97252000029769,22.678440000106036],[-163.97866999972064,22.685119999688368],[-163.99118000015682,22.698249999937673],[-164.00388000036165,22.711179999957153],[-164.0166599997591,22.724009999861721],[-164.02948000010184,22.736830000204463],[-164.04230000044458,22.749660000109031],[-164.05507999984204,22.762490000013656],[-164.06790000018478,22.775310000356399],[-164.08081000018129,22.788040000146054],[-164.09392000040762,22.80056000014406],[-164.11410999977659,22.818820000442827],[-164.13592999966966,22.835450000217463],[-164.15897000006538,22.850840000365849],[-164.18355999999392,22.864689999643929],[-164.19195999975412,22.869099999765297],[-164.21724999958772,22.882239999576484],[-164.23435999991398,22.890760000373859],[-164.24297999992697,22.894959999804314],[-164.2684900000134,22.907889999823794],[-164.27698000032669,22.91219999983025],[-164.3030999997651,22.924519999598431],[-164.31179999987003,22.928619999813293],[-164.33854999958274,22.940319999768292],[-164.34765999970915,22.944009999961679],[-164.3757300000394,22.954379999737341],[-164.38515000007237,22.957760000024109],[-164.41495000014231,22.966380000037134],[-164.43543999985604,22.971510000086596],[-164.4563300000294,22.976230000114583],[-164.46688999957374,22.978490000013608],[-164.49908000014182,22.984750000012639],[-164.5203899998985,22.989060000019151],[-164.53103999999593,22.991210000241438],[-164.56348999996345,22.997169999895732],[-164.58571999987802,23.0005500001825],[-164.60878000029669,23.003119999988144],[-164.6327500004121,23.0047600000741],[-164.65743999955626,23.005680000231962],[-164.68265000019727,23.006090000253437],[-164.7081600002837,23.006199999930175],[-164.73374999956275,23.006199999930175],[-164.75937000022526,23.006199999930175],[-164.78496000040363,23.006199999930175],[-164.81058000016679,23.006199999930175],[-164.83621000039113,23.006199999930175],[-164.86179999967018,23.006199999930175],[-164.88742000033267,23.006199999930175],[-164.91300999961172,23.006199999930175],[-164.9386300002742,23.006199999930175],[-164.96416000038363,23.006090000253437],[-164.98935000010235,23.005680000231962],[-165.0140400001458,23.0047600000741],[-165.03799000023824,23.003119999988144],[-165.06104000019576,23.0005500001825],[-165.08327999967216,22.997169999895732],[-165.10509999956525,22.993370000025607],[-165.12692000035764,22.989570000155538],[-165.14913999981107,22.986189999868714],[-165.17208999965368,22.983519999948157],[-165.19564999974762,22.981469999840783],[-165.2194199996332,22.979619999963177],[-165.24297999972714,22.977569999855746],[-165.26592999956975,22.974899999935189],[-165.28814999992247,22.971510000086596],[-165.30996999981556,22.967710000216471],[-165.33180000016981,22.963919999908228],[-165.35390999994647,22.960639999736316],[-165.37656000034366,22.958479999952203],[-165.39951000018627,22.957860000139021],[-165.41129000023324,22.958270000160496],[-165.44388000036164,22.962070000030621],[-165.46424999993746,22.967099999965171],[-165.47408999955377,22.97007999979229],[-165.49212999959971,22.977669999970658],[-165.51691000019628,22.991319999918176],[-165.52489999993497,22.996140000061075],[-165.53259000022825,23.001270000110537],[-165.54774000010084,23.011740000001168],[-165.5625899996287,23.02251000023648],[-165.58452000009785,23.039030000334378],[-165.6061399997611,23.055860000338896],[-165.63564000038562,23.077620000162995],[-165.64311000042611,23.082950000442281],[-165.66596999971563,23.098550000382374],[-165.68133999984104,23.108809999581979],[-165.6967200004276,23.119069999680903],[-165.71195999995396,23.129440000355885],[-165.7417600000239,23.150890000273421],[-165.74904000029571,23.156430000344358],[-165.75610000031469,23.162169999745856],[-165.76992999956974,23.173969999815768],[-165.78336000016381,23.18617999990721],[-165.8029200001578,23.205069999580985],[-165.80938999994845,23.211429999694872],[-165.82217000024525,23.224250000037614],[-165.83498999968864,23.237079999942182],[-165.84789999968515,23.249809999731838],[-165.86100999991149,23.262329999729843],[-165.88828000022176,23.286339999891197],[-165.88824000017578,23.286330000329372],[-165.90261999961322,23.297629999824778],[-165.91724000022575,23.30860999985174],[-165.93937999958723,23.324920000158045],[-165.94663999983604,23.330460000228982],[-165.9610000001498,23.341750000162506],[-165.97491000039614,23.353450000117562],[-165.98864999999742,23.365350000302385],[-166.01633000032916,23.388950000442321],[-166.01629999984505,23.388950000442321],[-166.04529000033318,23.411220000402864],[-166.07479999962021,23.432969999765817],[-166.08944999981756,23.443949999792778],[-166.11832999972964,23.466319999868233],[-166.13297999992699,23.477299999895195],[-166.14783000035416,23.488079999692388],[-166.16288999967367,23.498649999697875],[-166.18584999997745,23.514139999961174],[-166.20928999993347,23.529120000088085],[-166.20930000039462,23.529120000088085],[-166.24138000038664,23.54831000010654],[-166.25797000011534,23.557340000141039],[-166.26636000031368,23.561750000262464],[-166.29155999959423,23.574990000188507],[-166.32494999974261,23.592850000027624],[-166.33315000017228,23.597469999940699],[-166.35702999973464,23.612040000046079],[-166.37280000031967,23.621890000123528],[-166.38070999996646,23.62681000038134],[-166.40445000026722,23.641490000163515],[-166.41244999956774,23.646310000306414],[-166.43731999981807,23.659849999677874],[-166.4458300001543,23.664170000145532],[-166.47185999993897,23.67657999956748],[-166.48969000019326,23.684380000436818],[-166.50771999977809,23.691969999715866],[-166.52553000000941,23.699769999685884],[-166.54305000035714,23.707879999562465],[-166.55174000000093,23.711979999777327],[-166.5685400004206,23.720809999581945],[-166.57663999983603,23.725529999609932],[-166.59262000021278,23.735180000356877],[-166.62378000004688,23.755289999633931],[-166.63913000014932,23.765549999732855],[-166.65450999983653,23.775809999831779],[-166.66987999996195,23.786069999930703],[-166.70058999972863,23.806590000128551],[-166.70062000021275,23.806590000128551],[-166.7159700003152,23.816850000227475],[-166.73132000041761,23.827119999888225],[-166.75435999991399,23.842510000036611],[-166.77744000035565,23.857900000184998],[-166.80817000014531,23.878420000382846],[-166.81586000043859,23.883550000432308],[-166.82354999983255,23.888690000043596],[-166.83889999993497,23.89895000014252],[-166.85425000003738,23.909210000241444],[-166.86962999972462,23.919470000340368],[-166.88509999996495,23.92963000032438],[-166.91666000025873,23.949329999579959],[-166.94102000037265,23.963390000448328],[-166.95781999989299,23.972220000252946],[-166.98302999963471,23.985449999717844],[-166.99981999959323,23.994269999960693],[-167.00822000025272,23.998689999643886],[-167.03262000041261,24.012749999612936],[-167.04849000021326,24.022499999575473],[-167.06425000033718,24.032340000091096],[-167.0959200003077,24.051949999692852],[-167.1039100000464,24.056769999835751],[-167.11208999955375,24.061389999748826],[-167.14549000016331,24.079240000026118],[-167.16240999982156,24.087960000153998],[-167.17090000013482,24.092270000160511],[-167.17950000012482,24.096480000052111],[-167.2136199997631,24.113619999963191],[-167.22213999966118,24.117929999969647],[-167.24782999995446,24.130650000197477],[-167.26482999970463,24.139270000210502],[-167.28194999959274,24.147790000108557],[-167.29907000038014,24.156310000006613],[-167.299059999919,24.156310000006613],[-167.32457000000542,24.16924000002615],[-167.350679999882,24.181550000232448],[-167.36818999976859,24.189660000109086],[-167.38614000016079,24.197350000402366],[-167.40447999965218,24.204640000235941],[-167.42278999955874,24.211919999608426],[-167.43191999970813,24.215620000262959],[-167.4503499997526,24.222800000419852],[-167.46859999959023,24.230190000368339],[-167.4949200001578,24.242300000344869],[-167.51245000006736,24.250399999760305],[-167.52997000041512,24.258509999636942],[-167.54748999986353,24.266620000412843],[-167.56540000020976,24.274309999806803],[-167.58373999970115,24.281599999640434],[-167.60208000009186,24.288879999912183],[-167.62041000002139,24.296169999745814],[-167.63884999962769,24.303349999902707],[-167.65706999988052,24.310739999851251],[-167.67510999992649,24.318330000029619],[-167.69333999974111,24.325730000439307],[-167.71188000036165,24.332809999581968],[-167.7305299997596,24.339779999947154],[-167.74938999984855,24.346559999644398],[-167.75890999999643,24.349839999816254],[-167.78780000036966,24.359379999987141],[-167.80695000034217,24.365849999777822],[-167.82610999987651,24.372310000006621],[-167.84537000042511,24.378670000120565],[-167.85500000024973,24.381859999739333],[-167.88337999958722,24.391910000046607],[-167.90200999986152,24.398889999973676],[-167.91134999980258,24.402379999937182],[-167.9388099998815,24.413359999964143],[-167.94781000033117,24.417150000272443],[-167.9750700001803,24.428340000091055],[-167.98428000042159,24.43193000016953],[-168.01224000017578,24.442400000060104],[-168.03108000024173,24.449170000195522],[-168.04062000041262,24.452450000367378],[-168.06948999986352,24.46200000010009],[-168.08877999999692,24.468360000213977],[-168.10823000031419,24.474520000098096],[-168.12798999963869,24.480370000075595],[-168.14795999965418,24.486010000261444],[-168.16814999992249,24.491450000217469],[-168.18842000028272,24.496779999597436],[-168.20862000011283,24.502219999553461],[-168.21865999995896,24.504989999588929],[-168.24835000035216,24.513709999716866],[-168.26781999979309,24.519869999600928],[-168.27746999964069,24.523049999657871],[-168.30634999955276,24.532600000289904],[-168.32559000007836,24.538960000403847],[-168.33523999992599,24.542139999561471],[-168.36391999960821,24.551879999962182],[-168.38318000015681,24.558249999637894],[-168.40243999980606,24.564609999751838],[-168.42168000033166,24.570969999865724],[-168.43131999971814,24.574149999922724],[-168.46091999955826,24.582979999727343],[-168.48090999959672,24.588619999913192],[-168.50107999984203,24.594059999869216],[-168.52135999976409,24.599399999710386],[-168.54155999959423,24.60483999966641],[-168.56152000004789,24.610479999852259],[-168.5813000002947,24.616329999829759],[-168.60086000028872,24.62238000003714],[-168.62044000030571,24.62843999980629],[-168.6401999996302,24.634289999783789],[-168.66016000008386,24.639929999969638],[-168.68035999991397,24.64536999992572],[-168.70073000038914,24.650600000090094],[-168.72122000010285,24.655730000139556],[-168.74172999983955,24.660860000189018],[-168.76220999999143,24.66599000023848],[-168.77245000006738,24.668560000044124],[-168.8030700001803,24.676360000014142],[-168.82326000044858,24.681799999970167],[-168.84322999956476,24.687440000156016],[-168.85315999973412,24.690319999868223],[-168.88256999980558,24.699340000340896],[-168.90212999979957,24.705400000110046],[-168.92191000004638,24.711250000087603],[-168.9418899996237,24.716890000273452],[-168.96207000033019,24.722330000229476],[-168.98245000036715,24.727560000393851],[-169.00292999961971,24.732690000443313],[-169.02342000023276,24.737819999593455],[-169.04390999994646,24.742949999642917],[-169.06441000012134,24.748090000153525],[-169.08477999969716,24.753320000317899],[-169.10496999996545,24.758760000273924],[-169.12493999998094,24.764399999560453],[-169.1447099997666,24.770250000437329],[-169.16428000022177,24.776299999745333],[-169.18384000021575,24.782360000413803],[-169.20360000043959,24.788210000391359],[-169.21352999970964,24.79107999964242],[-169.2437700002852,24.799289999633913],[-169.26415999988401,24.804519999798288],[-169.28464000003589,24.80964999984775],[-169.3051499997726,24.814790000358357],[-169.32562000036265,24.819920000407819],[-169.34609999961521,24.825049999557962],[-169.36661000025123,24.830179999607424],[-169.38707999994196,24.835309999656886],[-169.40756000009387,24.840439999706348],[-169.42806999983054,24.84556999975581],[-169.44852999995945,24.850699999805272],[-169.46901999967318,24.855829999854734],[-169.4895300003092,24.860959999904196],[-169.51000999956176,24.866089999953658],[-169.53048999971364,24.87122000000312],[-169.55098999988851,24.876350000052582],[-169.57147000004039,24.881480000102044],[-169.59195000019227,24.886619999713332],[-169.60219999983005,24.88917999995715],[-169.63292999961971,24.896879999812256],[-169.65342999979458,24.902009999861718],[-169.67392000040761,24.90713999991118],[-169.69441000012134,24.912269999960699],[-169.71489000027321,24.917400000010161],[-169.73537999998695,24.922530000059623],[-169.75586999970065,24.927660000109086],[-169.77634999985253,24.932790000158548],[-169.79693999968117,24.937820000093097],[-169.80727999987201,24.940280000221946],[-169.83872999958973,24.947260000149015],[-169.85994999969265,24.951679999832265],[-169.87061000025125,24.953830000054609],[-169.90277000033518,24.960090000053583],[-169.92397999997695,24.964500000175008],[-169.94497999982704,24.969120000088083],[-169.96576000032368,24.973940000230982],[-169.98635999971413,24.978970000165532],[-170.00685000032718,24.984100000214994],[-170.01709000040313,24.986659999559492],[-170.04782000019279,24.994360000313918],[-170.06830999990649,24.99949000036338],[-170.08879000005837,25.004620000412842],[-170.1092799997721,25.009749999562985],[-170.12979000040812,25.014879999612447],[-170.15024999963771,25.020020000123054],[-170.17074999981256,25.025150000172516],[-170.19124000042561,25.030280000221978],[-170.21171999967817,25.03541000027144],[-170.23229999994496,25.04044000020599],[-170.2531100000264,25.04526000034889],[-170.27410999987652,25.049880000261965],[-170.2953200004176,25.054290000383332],[-170.31671000026623,25.058500000274933],[-170.33812999969965,25.062699999705387],[-170.35934000024073,25.0671200002879],[-170.38034000009085,25.07172999973983],[-170.40111999968815,25.076560000343875],[-170.42171999997794,25.081579999817279],[-170.44222999971464,25.086720000327887],[-170.46270999986652,25.091850000377349],[-170.48317999955725,25.096980000426811],[-170.50369000019327,25.102109999576953],[-170.52417000034515,25.107239999626415],[-170.54464999959774,25.112369999675877],[-170.5652499998875,25.117399999610427],[-170.58605999996894,25.122219999753327],[-170.60703999979609,25.126839999666402],[-170.62825000033718,25.131249999787826],[-170.64966000020877,25.13545999967937],[-170.67107999964219,25.139660000009144],[-170.69227999972213,25.144079999692394],[-170.7132600004486,25.148699999605412],[-170.73406999963069,25.153519999748312],[-170.7444200002827,25.155979999877218],[-170.77515000007236,25.163679999732324],[-170.79575000036215,25.168700000105048],[-170.81652999995944,25.173529999809773],[-170.83752000024774,25.178140000161022],[-170.8587299998895,25.182559999844273],[-170.8801399997611,25.186769999735816],[-170.90154999963269,25.19097000006559],[-170.92276000017378,25.195380000187015],[-170.9437600000239,25.20000000010009],[-170.96457000010534,25.204829999804815],[-170.98513999991098,25.209850000177482],[-171.00564999964769,25.214980000226944],[-171.01586999970064,25.217550000032645],[-171.04699999994997,25.224839999866219],[-171.06801999982306,25.229450000217469],[-171.08921999990301,25.233869999900719],[-171.11064000023575,25.238070000230493],[-171.13203000008437,25.242280000122037],[-171.15323999972614,25.246690000243461],[-171.17425999959923,25.251310000156536],[-171.19504000009584,25.256130000299436],[-171.21562000036266,25.261160000233986],[-171.23611000007637,25.266290000283448],[-171.25671000036616,25.271320000217997],[-171.27750999998642,25.276140000360897],[-171.29848999981357,25.280760000273915],[-171.31970000035466,25.28517000039534],[-171.34113000024922,25.28938000028694],[-171.35187000000042,25.291430000394371],[-171.38374000020076,25.298000000299908],[-171.39429000018328,25.300260000198989],[-171.42553999967117,25.307440000355882],[-171.44613999996096,25.312470000290432],[-171.45636000001392,25.31502999963493],[-171.48720000037963,25.322630000274444],[-171.50799999999992,25.327450000417343],[-171.52899000028822,25.332070000330418],[-171.55019999992999,25.336479999552466],[-171.57158999977858,25.340690000343386],[-171.59301999967317,25.344889999773841],[-171.61431999986803,25.349210000241442],[-171.63564000008586,25.353520000247954],[-171.65694000028071,25.357830000254467],[-171.67825000003739,25.362140000260922],[-171.68890000013482,25.364289999583946],[-171.72106999978058,25.370549999582977],[-171.74228000032167,25.374959999704345],[-171.76328999973362,25.37957999961742],[-171.77373000003939,25.381939999631413],[-171.80466000005887,25.389429999694869],[-171.82516000023375,25.394559999744331],[-171.8457300000394,25.399589999678881],[-171.86652000009784,25.404420000282926],[-171.88753999997095,25.409029999734855],[-171.90874999961272,25.413439999856223],[-171.93016000038364,25.417649999747823],[-171.9409200001578,25.419699999855254],[-171.972779999897,25.426269999760848],[-171.99377000018529,25.430889999673866],[-172.01456999980556,25.435709999816766],[-172.02491999955825,25.438180000406817],[-172.05563000022426,25.445869999800777],[-172.07622999961472,25.450899999735327],[-172.09705000015731,25.455719999878227],[-172.11802999998443,25.460339999791302],[-172.1392399996262,25.464749999912726],[-172.16063999993597,25.46895999980427],[-172.18206999983056,25.473160000134044],[-172.19271999992799,25.475319999918213],[-172.22467000022027,25.481780000147012],[-172.2459700004151,25.486090000153524],[-172.26726999971063,25.490400000160037],[-172.28869999960523,25.49461000005158],[-172.31011999993797,25.49881999994318],[-172.33130999955677,25.503230000064605],[-172.3522900002832,25.50784999997768],[-172.37310999992647,25.512670000120579],[-172.39371000021626,25.517700000055129],[-172.41417999990699,25.522830000104591],[-172.43478000019678,25.527860000039141],[-172.45557000025522,25.532680000181983],[-172.47655999964419,25.537300000095058],[-172.49777000018528,25.541710000216483],[-172.51918000005688,25.545920000108083],[-172.54058999992847,25.550120000437801],[-172.56189000012333,25.554440000006139],[-172.58321000034115,25.558750000012651],[-172.60450999963669,25.563060000019107],[-172.62582000029269,25.567359999564474],[-172.64721999970314,25.571570000355393],[-172.66864000003591,25.575780000246937],[-172.67929000013334,25.57792999956996],[-172.71085000042711,25.584810000281436],[-172.73163000002441,25.589630000424336],[-172.74197000021528,25.592089999653922],[-172.77274000005087,25.599790000408348],[-172.79330000029469,25.604820000342897],[-172.81409000035316,25.609639999586477],[-172.83511000022625,25.614260000398815],[-172.85631000030619,25.61866999962092],[-172.87772000017779,25.62288000041184],[-172.89911999958824,25.62709000030344],[-172.92033000012933,25.631500000424808],[-172.94135000000242,25.636109999876737],[-172.96212999959974,25.640939999581462],[-172.98270999986653,25.645970000415332],[-173.00319999958023,25.651099999565474],[-173.02379999987002,25.656130000399344],[-173.04460000038964,25.660949999642924],[-173.06558000021676,25.665569999555998],[-173.08678999985852,25.669979999677366],[-173.10821999975312,25.674189999568966],[-173.12960999960171,25.678389999898741],[-173.15092000025774,25.682699999905196],[-173.17223999957625,25.687009999911709],[-173.19353000020928,25.691319999918221],[-173.21483999996596,25.695629999924677],[-173.23626999986053,25.699839999816277],[-173.25765999970915,25.704049999707877],[-173.27897999992697,25.708350000152507],[-173.30028999968366,25.712669999720845],[-173.32158000031669,25.716979999727357],[-173.34289999963519,25.72128999973387],[-173.36431999996796,25.725490000063587],[-173.38570999981656,25.729699999955187],[-173.40694000038064,25.734110000076612],[-173.42792000020776,25.73872999998963],[-173.44871999982806,25.743550000132529],[-173.46930999965667,25.748580000067079],[-173.48978999980858,25.753710000116541],[-173.51037999963719,25.758740000051091],[-173.53118999971863,25.763560000193991],[-173.55218999956875,25.768180000107066],[-173.5733899996487,25.77259000022849],[-173.59478999995846,25.776800000120033],[-173.6162100002912,25.781010000011634],[-173.62686000038863,25.783160000233977],[-173.65841999978309,25.790040000046133],[-173.67920000027971,25.794860000188976],[-173.68955999959422,25.797320000317882],[-173.7203100003062,25.805020000172988],[-173.74088000011184,25.810050000107537],[-173.76165999970914,25.814870000250437],[-173.78267999958223,25.819479999702367],[-173.80387999966217,25.823900000284937],[-173.82529000043309,25.828110000176537],[-173.84670999986653,25.832309999606935],[-173.86801000006139,25.836619999613447],[-173.88931000025624,25.840929999619902],[-173.91060999955175,25.84525000008756],[-173.93192000020778,25.849549999632927],[-173.9533399996412,25.853760000423847],[-173.97475999997394,25.85797000031539],[-173.99594000003091,25.862380000436815],[-174.00649999957525,25.864640000335896],[-174.03774999996244,25.87181999959347],[-174.05833000022926,25.876850000427339],[-174.07883000040411,25.881979999577482],[-174.09942999979458,25.887010000411351],[-174.12021000029119,25.891829999654874],[-174.14119999968017,25.896449999567949],[-174.16241000022126,25.900859999689374],[-174.18384000011585,25.905069999580974],[-174.20526000044859,25.909280000371837],[-174.22645999962921,25.913689999593942],[-174.23700000004987,25.915950000392343],[-174.26825000043709,25.923129999649916],[-174.28882999980456,25.928159999584466],[-174.30930999995647,25.933289999633928],[-174.32989999978508,25.938319999568478],[-174.35070999986652,25.943139999711377],[-174.3611500001723,25.945499999725371],[-174.39290999979659,25.95216999974582],[-174.41431000010635,25.95637999963742],[-174.43573000043909,25.960579999967194],[-174.45694000008086,25.964999999650388],[-174.47793999993098,25.969610000001637],[-174.4987200004276,25.974439999706362],[-174.51931999981807,25.979469999640912],[-174.53982999955477,25.984599999690374],[-174.56038999979859,25.989620000063098],[-174.58117999985703,25.994449999767824],[-174.60219999973012,25.999060000119073],[-174.62337999978709,26.003479999802266],[-174.64480999968166,26.007680000132041],[-174.66620999999142,26.011890000023641],[-174.68753000020928,26.016200000030096],[-174.70883000040413,26.020510000036609],[-174.73014999972264,26.024820000043121],[-174.7514299998945,26.029130000049577],[-174.77285999978909,26.033339999941177],[-174.79426999966068,26.037540000270951],[-174.81548000020177,26.041959999954202],[-174.83646999959075,26.04657999986722],[-174.85727000011033,26.051400000010119],[-174.87785000037715,26.056429999944669],[-174.89834999965268,26.061559999994131],[-174.91894999994247,26.066589999928681],[-174.93974000000094,26.07141000007158],[-174.96071999982806,26.076029999984655],[-174.98193000036915,26.08044000010608],[-175.00336000026374,26.084640000435797],[-175.02475000011233,26.088859999889223],[-175.04597000021525,26.093270000010648],[-175.06695999960422,26.097889999923723],[-175.08774999966269,26.102710000066565],[-175.10834999995245,26.10773000043929],[-175.12883000010436,26.112870000050577],[-175.14941000037115,26.117890000423301],[-175.17023000001441,26.122709999666881],[-175.19122000030271,26.127329999579956],[-175.21242999994448,26.131750000162526],[-175.23383000025424,26.135949999592924],[-175.25524999968766,26.140160000383844],[-175.26589999978509,26.142309999706868],[-175.29797000021526,26.148680000281956],[-175.3087200004276,26.150730000389331],[-175.34140000020977,26.156480000251975],[-175.3635300000094,26.15997000021548],[-175.38586000003889,26.163250000387336],[-175.40796999981558,26.166740000350899],[-175.42980999973162,26.170540000220967],[-175.45151000038612,26.174429999744859],[-175.47333000027922,26.178229999614928],[-175.49556000019379,26.181620000362841],[-175.51861999971314,26.184179999707339],[-175.5426000002897,26.185830000254441],[-175.56729000033317,26.186750000412303],[-175.59246999959075,26.187160000433835],[-175.61799999970015,26.187259999649427],[-175.64360000033966,26.187259999649427],[-175.66922000010285,26.187259999649427],[-175.69481000028122,26.187259999649427],[-175.72043000004439,26.187259999649427],[-175.74602000022276,26.187259999649427],[-175.77163999998592,26.187259999649427],[-175.79727000021026,26.187259999649427],[-175.82286000038863,26.187259999649427],[-175.84848000015182,26.187259999649427],[-175.87407000033016,26.187259999649427],[-175.89969000009336,26.187259999649427],[-175.9253200003177,26.187259999649427],[-175.95090999959672,26.187259999649427],[-175.97653000025923,26.187259999649427],[-176.00200999986154,26.187160000433835],[-176.02721999960323,26.186750000412303],[-176.05190999964668,26.185830000254441],[-176.07589999978509,26.184190000168542],[-176.09894999974262,26.181620000362841],[-176.12117000009536,26.178229999614928],[-176.14298999998843,26.174429999744859],[-176.16480999988153,26.170640000335879],[-176.18691999965819,26.167150000372374],[-176.20955999959423,26.164169999645935],[-176.23262000001293,26.161610000301437],[-176.2556800004316,26.159039999596473],[-176.2783099999065,26.156070000230443],[-176.30033999959124,26.152480000152025],[-176.32175000036216,26.148270000260425],[-176.34263999963619,26.143550000232494],[-176.36323999992598,26.138520000297945],[-176.38370999961671,26.13337999978728],[-176.40420999979159,26.12826000019902],[-176.42470999996644,26.123119999688356],[-176.44519000011834,26.118000000100039],[-176.46567000027022,26.112870000050577],[-176.48618000000693,26.10773000043929],[-176.50664999969766,26.102600000389828],[-176.52712999984954,26.097470000340365],[-176.54763999958624,26.092340000290903],[-176.56811999973812,26.087210000241441],[-176.58849999977508,26.081980000077067],[-176.6086900000434,26.076540000121042],[-176.62866000005889,26.070899999935193],[-176.6484400003057,26.065049999957694],[-176.66788999972363,26.058890000073575],[-176.68715000027223,26.052529999959688],[-176.70638999989851,26.046169999845745],[-176.72555999989402,26.03970000005512],[-176.74441999998294,26.032929999919702],[-176.76305000025724,26.025949999992633],[-176.78148999986354,26.01876999983574],[-176.79944000025574,26.011069999980634],[-176.82565000024724,25.998859999889248],[-176.83446999959074,25.994859999789298],[-176.85198999993847,25.986749999912718],[-176.86079000015832,25.982749999812768],[-176.88741999973314,25.970949999742857],[-176.90576000012382,25.963670000370371],[-176.91489000027323,25.959969999715838],[-176.94243000044409,25.949089999803789],[-176.96076999993548,25.941810000431303],[-176.97870000030468,25.934109999676878],[-176.99621999975312,25.925999999800297],[-177.01363000042411,25.917789999808804],[-177.03083999996596,25.909379999587429],[-177.04773000003939,25.900660000358869],[-177.06454000002091,25.891829999654874],[-177.08114999977261,25.882799999620431],[-177.097319999918,25.873359999564457],[-177.11318999971863,25.86360999960192],[-177.12896999986552,25.853760000423847],[-177.14473999955126,25.843910000346398],[-177.16061000025124,25.834160000383861],[-177.17670000030469,25.824620000212974],[-177.19298999968865,25.815280000271912],[-177.2092900004331,25.805940000330907],[-177.23337000022525,25.79158000001712],[-177.24123999982606,25.786650000197483],[-177.25693000031919,25.776700000005121],[-177.2723799996372,25.766540000021109],[-177.28774999976261,25.756279999922185],[-177.30313000034917,25.746019999823261],[-177.31847999955227,25.735759999724337],[-177.33386000013883,25.725490000063587],[-177.36446999979057,25.704869999750827],[-177.36448999981357,25.704869999750827],[-177.37953000000942,25.69429999974534],[-177.39428999988351,25.683419999833291],[-177.4086300001743,25.67212999989971],[-177.42942999979459,25.654479999852242],[-177.45003000008435,25.63662999957495],[-177.46396000035367,25.624929999619951],[-177.4782999997451,25.61363999968637],[-177.49294999994248,25.602659999659409],[-177.50768999979357,25.591790000208505],[-177.52233999999092,25.580810000181486],[-177.53668000028171,25.569520000247962],[-177.55051000043611,25.557720000177994],[-177.57059000012833,25.539350000202489],[-177.5899699999155,25.52026000029889],[-177.59641000012132,25.513900000185004],[-177.60275000021227,25.507439999956148],[-177.62204000034566,25.488249999937693],[-177.6411700002952,25.46895999980427],[-177.6539800001768,25.456129999899701],[-177.66677999959722,25.443299999995133],[-177.68594000003091,25.424009999861767],[-177.69240000025974,25.417649999747823],[-177.70519999968016,25.404819999843255],[-177.73080000031968,25.379169999595945],[-177.7436199997631,25.366339999691377],[-177.75644000010584,25.353520000247954],[-177.78162000026273,25.327450000417343],[-177.78774999966268,25.320780000396837],[-177.79379000030821,25.314010000261419],[-177.8168600002887,25.285790000208465],[-177.82782000029272,25.271110000426347],[-177.8386800001818,25.256340000091086],[-177.84952999960973,25.241560000193999],[-177.86050000007486,25.22688999997365],[-177.87166000030868,25.212419999983126],[-177.88281000008138,25.197949999992659],[-177.89379999967016,25.18327999977231],[-177.90454000032068,25.168399999760311],[-177.91509999986502,25.153309999956662],[-177.92544999961771,25.138019999923188],[-177.93570000015481,25.122629999774801],[-177.94594000023076,25.107239999626415],[-177.95618000030669,25.091850000377349],[-177.96642999994447,25.076449999767817],[-177.97667000002042,25.061059999619431],[-177.98680000041961,25.045570000255452],[-177.99674999971265,25.029870000200503],[-178.00647000009036,25.013960000353848],[-178.01589999968516,24.997750000162512],[-178.02492999971963,24.981120000387875],[-178.03372000037763,24.964299999945183],[-178.04241999958325,24.947360000263927],[-178.05092999991948,24.930229999914729],[-178.05944999981756,24.913090000003649],[-178.06804999980758,24.896059999769307],[-178.07654000012084,24.878919999858226],[-178.08504999955775,24.861779999947203],[-178.09366000000892,24.84474999971286],[-178.10213999986104,24.82760999980178],[-178.11065999975909,24.810469999890699],[-178.11925999974912,24.793439999656414],[-178.12766000040861,24.776199999630421],[-178.13585000037713,24.758760000273924],[-178.1439499997926,24.741210000341368],[-178.1516299996247,24.723250000387338],[-178.15880000021977,24.704780000296921],[-178.16574000010084,24.686109999976679],[-178.17251999979808,24.667220000302905],[-178.17898999958874,24.648039999846276],[-178.18532999967968,24.628749999712852],[-178.19180000036965,24.609559999694397],[-178.19823999967616,24.590369999675886],[-178.20459000022825,24.571080000441782],[-178.21095000034217,24.55177999984727],[-178.21729000043311,24.532489999713846],[-178.2234500003172,24.513000000249974],[-178.22928000027173,24.493190000418338],[-178.23491999955826,24.473180000356876],[-178.24034000039063,24.452970000065591],[-178.24556999965569,24.432549999982655],[-178.25295999960423,24.401450000217494],[-178.25539999971014,24.391090000003658],[-178.26001000006138,24.37005000010754],[-178.26442000018278,24.348809999981654],[-178.26861999961321,24.327369999625944],[-178.27281000038113,24.305919999708351],[-178.27710999992649,24.284569999905727],[-178.28131000025624,24.26313000044928],[-178.2851999997801,24.241369999725862],[-178.28860000008987,24.219110000226465],[-178.29126000044857,24.196120000337885],[-178.29330000009486,24.172520000198006],[-178.29514999997244,24.148710000266419],[-178.29718000005687,24.12511000012654],[-178.29984999997745,24.102129999799786],[-178.30323999982605,24.079859999839243],[-178.30703999969614,24.057999999900233],[-178.31082000044259,24.036139999961165],[-178.31421000029121,24.013879999562448],[-178.31676999963571,23.990789999558956],[-178.31838999969867,23.966780000296922],[-178.31930999985653,23.942050000207473],[-178.31963000022427,23.916899999635405],[-178.31934000034067,23.891769999985627],[-178.31838999969867,23.86703000033441],[-178.31676999963571,23.843020000172999],[-178.31522999966467,23.831730000239475],[-178.31082000044259,23.797660000208964],[-178.30703999969614,23.775809999831779],[-178.30325000028722,23.753949999892711],[-178.29984999997745,23.731679999932169],[-178.29720000007987,23.708699999605415],[-178.29514999997244,23.685100000364855],[-178.29330000009486,23.661290000433326],[-178.29126000044857,23.637690000293446],[-178.28860000008987,23.61470000040481],[-178.28521999980308,23.59244000000615],[-178.28131000025624,23.570680000181994],[-178.27712999994947,23.549239999826284],[-178.27281000038113,23.527890000023604],[-178.26861999961321,23.506440000106068],[-178.26442000018278,23.484999999750357],[-178.26001000006138,23.463759999624415],[-178.25539999971014,23.442719999728354],[-178.25057999956726,23.421889999623943],[-178.24554000007086,23.401270000210502],[-178.24034000039063,23.380850000127566],[-178.23488999997343,23.360630000274455],[-178.23203000028423,23.350680000082093],[-178.2234500003172,23.320819999943183],[-178.21729000043311,23.301320000018109],[-178.21093999988102,23.282029999884742],[-178.20775999982405,23.272380000037117],[-178.20141999973313,23.253089999903693],[-178.19178999990851,23.224250000037614],[-178.18532000011783,23.205069999580985],[-178.18216000008385,23.19541999973336],[-178.17569999985503,23.176229999714849],[-178.16904000029569,23.157250000387364],[-178.16227999972213,23.138370000275415],[-178.15511999958824,23.119900000184998],[-178.1439499997926,23.092600000289906],[-178.13986000003891,23.083880000162026],[-178.12766000040861,23.05761000010159],[-178.12335000040213,23.049090000203478],[-178.11494000018078,23.031850000177485],[-178.10213999986104,23.006199999930175],[-178.0978400003157,22.997680000032119],[-178.08501999997296,22.972029999784809],[-178.07654000012084,22.954889999873728],[-178.06802000022276,22.937749999962648],[-178.05511000022625,22.91219999983025],[-178.05092999991948,22.903579999817282],[-178.04661999991299,22.895059999919226],[-178.03372000037763,22.869509999786828],[-178.02929999979509,22.861099999565454],[-178.02028999978359,22.844469999790817],[-178.00647000009036,22.819850000277427],[-177.99672999968965,22.803940000430828],[-177.99171000021627,22.79613999956149],[-177.98169000039314,22.780550000082599],[-177.96642000038264,22.757350000402312],[-177.95105000025723,22.734269999960645],[-177.94592000020776,22.726570000105539],[-177.94079999972013,22.718879999812259],[-177.93057000010535,22.703480000102047],[-177.91006000036865,22.672699999805275],[-177.90493999988101,22.664999999950169],[-177.89471000026623,22.649609999801783],[-177.88445999972913,22.634219999653396],[-177.87932999967967,22.62651999979829],[-177.86899000038812,22.611229999764817],[-177.853299999895,22.588449999667887],[-177.84246999959075,22.573680000231946],[-177.83119000011834,22.55931000035639],[-177.81939999961023,22.545460000178991],[-177.79470999956675,22.518880000211993],[-177.78203000028421,22.505950000192513],[-177.7693199996182,22.493020000173033],[-177.75683999966617,22.479889999923671],[-177.7446400000359,22.466440000205978],[-177.73285999998893,22.452590000028636],[-177.72159000007838,22.438220000153024],[-177.71063000007436,22.423549999932675],[-177.69433999979108,22.401389999648927],[-177.68877999969715,22.394099999815296],[-177.67752000024774,22.379729999939684],[-177.66574000020077,22.365879999762342],[-177.65347000004039,22.35253999972133],[-177.63411000027622,22.333449999817788],[-177.62734999970266,22.327399999610407],[-177.6135300000094,22.315600000439815],[-177.58452999995944,22.293329999579953],[-177.56975999962421,22.282460000129049],[-177.55511000032618,22.271469999640885],[-177.54077000003539,22.260190000168507],[-177.52695000034217,22.248390000098539],[-177.50690000023474,22.230020000123034],[-177.50043000044408,22.223660000009147],[-177.48752000044757,22.210930000219491],[-177.47460999955177,22.198209999991661],[-177.46148999976361,22.185689999993656],[-177.44806000006886,22.173479999902213],[-177.42714999987251,22.155929999969658],[-177.41988999962371,22.150389999898721],[-177.39007999999194,22.128939999981128],[-177.38250999983654,22.123709999816754],[-177.37482000044258,22.118579999767292],[-177.35947000034017,22.108319999668367],[-177.34412000023775,22.098050000007618],[-177.31339000044809,22.077529999809769],[-177.31335000040212,22.077529999809769],[-177.29800000029971,22.067269999710845],[-177.28261999971315,22.057009999611921],[-177.25190999994646,22.036490000313393],[-177.25188999992349,22.036490000313393],[-177.23653999982105,22.026219999753323],[-177.22116000013384,22.015959999654399],[-177.20568999989351,22.005799999670387],[-177.17416000008387,21.986100000414808],[-177.15807999959225,21.976560000243978],[-177.12549000036316,21.957880000361854],[-177.10140999967166,21.943520000048125],[-177.09354000007087,21.938590000228487],[-177.06197999977709,21.918890000073588],[-177.02991000024625,21.899700000055077],[-177.01320999994147,21.890770000135547],[-177.00473000008935,21.886460000129034],[-176.98751999964819,21.878049999907716],[-176.96074999991248,21.866349999952661],[-176.9516399997861,21.86265999975933],[-176.92409000005338,21.851779999847281],[-176.90576000012382,21.84449000001365],[-176.88741999973314,21.837209999741845],[-176.8695100002862,21.829509999886739],[-176.85196000035367,21.821400000010158],[-176.83446999959074,21.813299999695346],[-176.81693999968115,21.805189999818765],[-176.79942000023274,21.797079999942184],[-176.78148999986354,21.789389999648904],[-176.76305999981906,21.782199999930185],[-176.753739999901,21.778720000427825],[-176.72557000035516,21.768460000328901],[-176.71603000018428,21.765169999695843],[-176.68713000024923,21.755630000424333],[-176.66798000027671,21.749159999734331],[-176.6488300003042,21.742700000404852],[-176.62958000021675,21.736340000290909],[-176.61031999966818,21.729980000177022],[-176.5910600000189,21.723609999601933],[-176.57158999967868,21.717460000179017],[-176.55183000035416,21.71161000020146],[-176.53186000033867,21.705970000015611],[-176.51165999960921,21.700530000059587],[-176.49129000003339,21.695290000333387],[-176.47078999985854,21.690160000283925],[-176.45032000016781,21.685030000234462],[-176.42981999999293,21.679900000185],[-176.40933000027923,21.674770000135538],[-176.38883999966617,21.669640000086076],[-176.3682600002987,21.664610000151526],[-176.34737999968715,21.659890000123539],[-176.3260499999075,21.655580000117027],[-176.30433999969117,21.651680000132046],[-176.28220000032968,21.64819000016854],[-176.2598700003002,21.644909999996628],[-176.23773000003939,21.641420000033122],[-176.21593000016929,21.637620000162997],[-176.19421000039114,21.633720000178016],[-176.17238999959872,21.629920000307891],[-176.15017999970715,21.626540000021123],[-176.12712000018777,21.623970000215479],[-176.10313000004939,21.622330000129523],[-176.07854999968268,21.621300000294923],[-176.0661600002837,21.620899999835274],[-176.02916999959572,21.619459999979142],[-176.00522000040263,21.617819999893243],[-175.98218000000691,21.615250000087599],[-175.95993000006936,21.611869999800774],[-175.93811000017629,21.608069999930706],[-175.9162900002832,21.604270000060581],[-175.89406999993048,21.600889999773813],[-175.87101999997296,21.598319999968169],[-175.84704999985755,21.596679999882213],[-175.82235999981407,21.595750000162525],[-175.79715000007238,21.59534000014105],[-175.77163999998592,21.595240000026138],[-175.74604999980758,21.595240000026138],[-175.72043000004439,21.595240000026138],[-175.69483999986602,21.595240000026138],[-175.66922000010285,21.595240000026138],[-175.64371000001643,21.595139999911225],[-175.61850000027471,21.594729999889751],[-175.59381000023126,21.593800000170006],[-175.58162000016281,21.593189999918707],[-175.54677999969715,21.589599999840289],[-175.52456999980558,21.586209999991638],[-175.50272999988951,21.58241000012157],[-175.48093000001941,21.57861999981327],[-175.4586899996437,21.575229999964677],[-175.43565000014732,21.572669999720858],[-175.41168000003191,21.571029999634902],[-175.38698999998843,21.570099999915215],[-175.36178999980856,21.56968999989374],[-175.33627000016031,21.569589999778827],[-175.31067999998194,21.569589999778827],[-175.28506000021875,21.569589999778827],[-175.25945000001741,21.569589999778827],[-175.23383999981607,21.569589999778827],[-175.20832999972964,21.569489999663915],[-175.18314000001092,21.569079999642383],[-175.15844999996744,21.568149999922696],[-175.13447999985203,21.56650999983674],[-175.11142000033269,21.563949999592921],[-175.08919999997994,21.560559999744328],[-175.07823000041412,21.558709999866721],[-175.04556000019377,21.55296999956596],[-175.0233500003022,21.549579999717366],[-175.00026999986054,21.547020000372868],[-174.97629999974512,21.545369999825766],[-174.95160999970165,21.544449999667904],[-174.92641999998293,21.544039999646429],[-174.9009099998965,21.543940000430837],[-174.87529000013333,21.543940000430837],[-174.84969000039314,21.543940000430837],[-174.82406999973063,21.543940000430837],[-174.79857999966717,21.543829999854722],[-174.77338000038662,21.543419999833247],[-174.74869000034317,21.542499999675385],[-174.72472000022776,21.540859999589429],[-174.70165999980907,21.538289999783785],[-174.67944000035567,21.534899999935192],[-174.65761999956325,21.531109999626949],[-174.63579999967018,21.527309999756824],[-174.61356999975561,21.523930000369376],[-174.59051999979809,21.521359999664412],[-174.56656000014382,21.519719999578456],[-174.5418399996162,21.518800000319914],[-174.51666000035866,21.518379999837236],[-174.4911700002952,21.518279999722324],[-174.46554999963271,21.518279999722324],[-174.43990999984655,21.518279999722324],[-174.41431999966818,21.518279999722324],[-174.38880999958175,21.518179999607412],[-174.36361999986303,21.517769999585937],[-174.33892999981956,21.516850000327395],[-174.31497000016529,21.515199999780293],[-174.2919000001848,21.512640000435795],[-174.26967999983205,21.509249999687881],[-174.24785000037713,21.505460000278958],[-174.23700000004987,21.50351000028644],[-174.20381000013131,21.49826999966092],[-174.18076999973562,21.495699999855276],[-174.1567999996202,21.49405999976932],[-174.13210999957676,21.493139999611458],[-174.10689999983504,21.492729999589926],[-174.08138999974861,21.492630000374334],[-174.05579999957024,21.492630000374334],[-174.03017999980707,21.492630000374334],[-174.00466999972065,21.492530000259421],[-173.97945999997893,21.492120000237946],[-173.95476999993548,21.491189999618939],[-173.93081999984304,21.489550000432303],[-173.90774999986252,21.486979999727339],[-173.88553000040912,21.483600000339891],[-173.86368999959373,21.479799999570446],[-173.84188999972363,21.475999999700377],[-173.81965999980906,21.472620000312929],[-173.79662000031269,21.470049999607909],[-173.77263999973613,21.468410000421329],[-173.7479600001538,21.467479999802265],[-173.72275000041211,21.467080000241936],[-173.69724000032568,21.466969999665878],[-173.67165000014731,21.466969999665878],[-173.64603000038414,21.466969999665878],[-173.62040999972163,21.466969999665878],[-173.59491000009635,21.466869999550966],[-173.56970000035466,21.46646000042881],[-173.54501000031118,21.465540000270948],[-173.52104000019577,21.463900000184992],[-173.49799000023825,21.461330000379348],[-173.4757699998855,21.457939999631435],[-173.45394999999243,21.454150000222455],[-173.44307999964221,21.452200000229993],[-173.40990000018479,21.446959999604417],[-173.3868399997661,21.444400000259918],[-173.36286999965068,21.442760000174019],[-173.33819999963021,21.441829999554955],[-173.31298999988852,21.441420000432799],[-173.28749000026323,21.441320000317887],[-173.26186999960072,21.441320000317887],[-173.23624999983755,21.441320000317887],[-173.21065000009736,21.441320000317887],[-173.18513000044908,21.441220000202975],[-173.15993999983104,21.4408100001815],[-173.13524999978759,21.439879999562493],[-173.11127999967218,21.438240000375856],[-173.08822999971463,21.435680000132038],[-173.06601000026123,21.432290000283444],[-173.04419000036813,21.428490000413319],[-173.02236999957574,21.424700000105076],[-173.00015000012232,21.421310000256426],[-172.9771000001648,21.418750000012608],[-172.95311000002641,21.417100000364883],[-172.92844000000591,21.416180000206964],[-172.90323000026422,21.415770000185489],[-172.87772000017779,21.415670000070577],[-172.85212999999942,21.415670000070577],[-172.82651000023625,21.415670000070577],[-172.80086999955077,21.415670000070577],[-172.77528000027172,21.415670000070577],[-172.74977000018529,21.415560000393839],[-172.72457999956725,21.415150000372364],[-172.6998900004231,21.414230000214502],[-172.67592999986951,21.412590000128546],[-172.65285999988902,21.410020000322902],[-172.63064999999742,21.406640000036134],[-172.60881000008138,21.402840000166009],[-172.58701000021125,21.39904000029594],[-172.56476999983556,21.395660000009116],[-172.54173000033916,21.393090000203472],[-172.51776000022375,21.391450000117572],[-172.4930700001803,21.390529999959654],[-172.46786000043861,21.390119999938179],[-172.44235000035215,21.390010000261441],[-172.41676000017378,21.390010000261441],[-172.39114000041062,21.390010000261441],[-172.3655199997481,21.390010000261441],[-172.34002999968467,21.389910000146529],[-172.31481999994296,21.389500000125054],[-172.29012999989951,21.388579999967192],[-172.26613999976109,21.386939999881236],[-172.24310000026472,21.384370000075592],[-172.22089000037315,21.380980000226941],[-172.19906999958073,21.377180000356873],[-172.17722999966469,21.37339000004863],[-172.15501000021126,21.37000000019998],[-172.13196000025374,21.367439999956162],[-172.10799000013833,21.365799999870262],[-172.08328000007188,21.364870000150518],[-172.05809000035316,21.364460000129043],[-172.03260999985153,21.36436000001413],[-172.00699000008836,21.36436000001413],[-171.98137000032517,21.36436000001413],[-171.95576000012383,21.36436000001413],[-171.9302500000374,21.364259999899218],[-171.90506000031868,21.363849999877743],[-171.88037000027521,21.362920000157999],[-171.85640000015979,21.361280000072099],[-171.83333999974113,21.358719999828281],[-171.81112999984953,21.355329999979631],[-171.78930999995646,21.351530000109562],[-171.76749000006339,21.347739999801263],[-171.74526999971064,21.344349999952669],[-171.72219999973012,21.341789999708851],[-171.69822999961471,21.340140000061069],[-171.67353999957126,21.339219999903207],[-171.64834999985254,21.338809999881732],[-171.62283000020426,21.33870999976682],[-171.59721000044109,21.33870999976682],[-171.57160999980158,21.33870999976682],[-171.54599000003839,21.33870999976682],[-171.52039999986002,21.33870999976682],[-171.49488999977359,21.338600000090082],[-171.46970000005487,21.338190000068607],[-171.44501000001142,21.337269999910689],[-171.42105000035716,21.335629999824789],[-171.40925999984904,21.334599999990132],[-171.37576000002392,21.329670000170495],[-171.36480999958175,21.327829999854771],[-171.33210999977661,21.322079999992127],[-171.30987999986203,21.318699999705359],[-171.28682999990448,21.316129999899715],[-171.26285000022725,21.314489999813759],[-171.23816999974562,21.313560000094071],[-171.2129800000269,21.313150000072596],[-171.18746999994048,21.313049999957684],[-171.16183000015431,21.313049999957684],[-171.13625000043709,21.313049999957684],[-171.1106299997746,21.313049999957684],[-171.08503999959623,21.313049999957684],[-171.05941999983304,21.313049999957684],[-171.03394000023076,21.312949999842772],[-171.00872999958975,21.312539999821297],[-170.98404000044559,21.311610000101552],[-170.96005000030721,21.309970000015653],[-170.93700999991148,21.307409999771835],[-170.91475999997394,21.304019999923185],[-170.89296000010384,21.300220000053116],[-170.87112000018777,21.296429999744817],[-170.8489100002962,21.293039999896223],[-170.82584999987751,21.290470000090579],[-170.80187999976209,21.288830000004623],[-170.77718999971864,21.287909999846761],[-170.75200999956175,21.287499999825286],[-170.7264899999135,21.287399999710374],[-170.70087999971213,21.287399999710374],[-170.67525999994896,21.287399999710374],[-170.64966999977059,21.287399999710374],[-170.62405000000743,21.287399999710374],[-170.59843000024424,21.287399999710374],[-170.57282999960472,21.287399999710374],[-170.54720999984156,21.287399999710374],[-170.52173000023924,21.287290000033636],[-170.49651999959823,21.286880000012104],[-170.47182999955476,21.285959999854242],[-170.44784999987752,21.284319999768343],[-170.42479999992,21.281749999962642],[-170.40257000000543,21.278369999675874],[-170.38075000011233,21.274569999805806],[-170.35891999975811,21.270769999935681],[-170.33670000030469,21.267389999648913],[-170.31363999988602,21.264819999843269],[-170.28966999977061,21.263179999757313],[-170.26497999972713,21.262259999599451],[-170.23981000003141,21.26184000001615],[-170.21427999992198,21.261739999901238],[-170.18866999972064,21.261739999901238],[-170.1630600004186,21.261739999901238],[-170.13747000024026,21.261739999901238],[-170.11184999957774,21.261739999901238],[-170.08622999981458,21.261739999901238],[-170.06061999961321,21.261739999901238],[-170.03499999985004,21.261739999901238],[-170.00940999967167,21.261739999901238],[-169.98380000036965,21.261739999901238],[-169.95827999982205,21.261639999786325],[-169.93307000008036,21.261229999764794],[-169.90842000008286,21.260309999606932],[-169.88442999994447,21.258670000420352],[-169.8613700004251,21.256099999715332],[-169.83915999963421,21.252709999866738],[-169.81731999971814,21.248919999558495],[-169.79551999984804,21.24511999968837],[-169.77328000037164,21.241729999839777],[-169.75023000041412,21.239169999595958],[-169.72626000029871,21.237530000409322],[-169.70157000025523,21.236599999790315],[-169.67637999963719,21.23618999976884],[-169.65085000042711,21.236089999653927],[-169.62526000024874,21.236089999653927],[-169.59963999958623,21.236089999653927],[-169.57405000030718,21.236089999653927],[-169.5484299996447,21.236089999653927],[-169.52280000031968,21.236089999653927],[-169.49721000014131,21.236089999653927],[-169.47159000037814,21.236089999653927],[-169.44600000019977,21.236089999653927],[-169.42038000043658,21.236089999653927],[-169.39479000025824,21.236089999653927],[-169.36916999959573,21.236089999653927],[-169.34354999983256,21.236089999653927],[-169.31795000009237,21.236089999653927],[-169.29233000032917,21.236089999653927],[-169.2667400001508,21.236089999653927],[-169.24112000038764,21.236089999653927],[-169.21561000030118,21.235990000438335],[-169.19039999966017,21.235580000416803],[-169.16570999961672,21.234649999797796],[-169.14174999996246,21.23300999971184],[-169.11867999998194,21.230450000367341],[-169.09647000009036,21.227059999619428],[-169.0746300001743,21.223259999749303],[-169.0528300003042,21.21947000034038],[-169.03058999992848,21.216079999592466],[-169.0075500004321,21.213509999786822],[-168.98358000031669,21.211869999700866],[-168.95889000027321,21.210950000442324],[-168.93369000009335,21.210540000420849],[-168.9081700004451,21.210440000305937],[-168.88258000026673,21.210440000305937],[-168.85695999960421,21.210440000305937],[-168.83133999984105,21.210440000305937],[-168.80574000010085,21.210440000305937],[-168.78012000033766,21.210440000305937],[-168.75453000015929,21.210440000305937],[-168.72891000039613,21.210440000305937],[-168.70328999973361,21.210440000305937],[-168.67768999999342,21.210440000305937],[-168.65207000023025,21.210440000305937],[-168.62648000005188,21.210440000305937],[-168.60086000028872,21.210440000305937],[-168.57523999962621,21.210440000305937],[-168.54963999988601,21.210440000305937],[-168.52402000012282,21.210440000305937],[-168.49842999994448,21.210440000305937],[-168.47281000018128,21.210440000305937],[-168.44719000041812,21.210440000305937],[-168.42158999977858,21.210440000305937],[-168.39597000001541,21.210440000305937],[-168.37037999983704,21.210440000305937],[-168.34476000007388,21.210440000305937],[-168.31916999989551,21.210440000305937],[-168.29355000013231,21.210440000305937],[-168.26802000002291,21.210540000420849],[-168.2428300003042,21.210950000442324],[-168.21814000026072,21.211869999700866],[-168.19417999970713,21.213509999786822],[-168.17114000021076,21.216079999592466],[-168.14889999983504,21.21947000034038],[-168.12707999994197,21.223259999749303],[-168.10526000004887,21.227059999619428],[-168.08303999969615,21.230450000367341],[-168.05998000017678,21.23300999971184],[-168.04779000010834,21.233630000424341],[-168.01132000001792,21.235580000416803],[-167.98611000027623,21.235990000438335],[-167.96060000018977,21.236089999653927],[-167.9350100000114,21.236089999653927],[-167.90939000024824,21.236089999653927],[-167.88380000006987,21.236089999653927],[-167.85828000042162,21.23618999976884],[-167.83310000026472,21.236599999790315],[-167.80837999973713,21.237530000409322],[-167.79659999969016,21.238549999782776],[-167.76137000012534,21.241729999839777],[-167.73914000021077,21.24511999968837],[-167.71732000031767,21.24890999999667],[-167.6955000004246,21.252709999866738],[-167.67326000004888,21.256099999715332],[-167.65021999965319,21.25865999995915],[-167.6262500004371,21.260309999606932],[-167.60167999963221,21.261329999879706],[-167.57687000035017,21.262149999922713],[-167.5522800004216,21.263179999757313],[-167.52831999986802,21.264819999843269],[-167.50526000034867,21.267389999648913],[-167.4830300004341,21.270769999935681],[-167.46120999964168,21.274569999805806],[-167.43938999974861,21.278369999675874],[-167.41715999983404,21.281749999962642],[-167.39412000033767,21.284319999768343],[-167.37015000022225,21.285959999854242],[-167.34546999974063,21.286880000012104],[-167.32025000043708,21.287290000033636],[-167.29474999991248,21.287399999710374],[-167.26923999982606,21.287290000033636],[-167.24405000010734,21.286880000012104],[-167.21936000006389,21.285959999854242],[-167.19538999994847,21.284319999768343],[-167.1723300004291,21.281749999962642],[-167.15011999963821,21.278369999675874],[-167.12827999972214,21.274569999805806],[-167.10647999985204,21.270769999935681],[-167.08426000039861,21.267389999648913],[-167.06130999965669,21.264719999728356],[-167.03771999997795,21.262669999620925],[-167.01395000009236,21.260819999743319],[-166.99041999958322,21.258769999635888],[-166.96744999971764,21.256099999715332],[-166.94523999982604,21.252709999866738],[-166.92339999991,21.248919999558495],[-166.90160000003991,21.24511999968837],[-166.8794599997791,21.241629999724864],[-166.8568300003042,21.238660000358891],[-166.8337699998855,21.236089999653927],[-166.81071000036616,21.233519999848227],[-166.78808999955376,21.230549999582934],[-166.7659599997541,21.227059999619428],[-166.74425000043709,21.22315999963439],[-166.72283999966618,21.218949999742847],[-166.70154000037064,21.214639999736335],[-166.68010999957673,21.210440000305937],[-166.65869000014331,21.206230000414337],[-166.63749999962519,21.201820000292912],[-166.6164999997751,21.197200000379837],[-166.59570000015481,21.192380000236938],[-166.58535999996394,21.189909999646886],[-166.55463000017428,21.182220000252926],[-166.53415000002241,21.177090000203464],[-166.5136400002857,21.171960000154002],[-166.49316000013383,21.166819999643394],[-166.47267000042009,21.161689999593932],[-166.45217999980707,21.15656000044379],[-166.43169000009334,21.151430000394328],[-166.41120999994146,21.146300000344866],[-166.39072000022776,21.141170000295403],[-166.37022000005288,21.136040000245941],[-166.34975000036215,21.130910000196479],[-166.32915999963419,21.12588000026193],[-166.30825999989901,21.121160000233942],[-166.28695999970415,21.116850000227487],[-166.26523000036414,21.112950000242449],[-166.24309999966516,21.109460000278943],[-166.22078000009685,21.106180000107088],[-166.19863999983605,21.102690000143525],[-166.17683000040412,21.098890000273457],[-166.15512000018779,21.094990000288419],[-166.13328999983355,21.091199999980176],[-166.11118000005689,21.087710000016614],[-166.08852999965967,21.084730000189495],[-166.06547999970215,21.082169999945677],[-166.04242000018277,21.079600000140033],[-166.01978999980858,21.07662999987474],[-165.99765000044709,21.073139999911234],[-165.97584999967768,21.069340000041109],[-165.95400999976161,21.065540000170984],[-165.93179000030818,21.062159999884216],[-165.90874000035066,21.059590000078572],[-165.88477000023525,21.057949999992672],[-165.86008000019177,21.057029999834754],[-165.83490000003491,21.056610000251453],[-165.80936999992548,21.056510000136541],[-165.78377000018529,21.056510000136541],[-165.75826000009886,21.056619999813279],[-165.73305999991899,21.057029999834754],[-165.70836999987552,21.057949999992672],[-165.6843999997601,21.059590000078572],[-165.66134999980258,21.062159999884216],[-165.63913000034916,21.065540000170984],[-165.61729000043309,21.069340000041109],[-165.59558000021676,21.073240000026146],[-165.57376000032369,21.077030000334389],[-165.55164000008585,21.080520000297895],[-165.52929999959522,21.083810000031633],[-165.50718999981856,21.087299999995139],[-165.4853499999025,21.091090000303439],[-165.46375000026222,21.095099999965157],[-165.44234000039063,21.099300000294932],[-165.42104000019577,21.103610000301387],[-165.39959999984004,21.107820000192987],[-165.37829999964518,21.1121300001995],[-165.35741000037115,21.116850000227487],[-165.33691000019627,21.121980000276949],[-165.31682999960472,21.127520000347886],[-165.29726999961071,21.133580000117036],[-165.2780200004226,21.139940000230979],[-165.25875999987403,21.146300000344866],[-165.23950000022475,21.152659999559489],[-165.22035000025224,21.159130000249434],[-165.21072000042759,21.162310000306434],[-165.1819300001693,21.171960000154002],[-165.16278000019676,21.178420000382857],[-165.14392000010784,21.185189999618956],[-165.12526999981057,21.192170000445287],[-165.10683999976609,21.199349999702861],[-165.08889999983504,21.207049999557967],[-165.07138000038663,21.215160000333867],[-165.0539899997386,21.223370000325417],[-165.03676999973561,21.231779999647415],[-165.01978000044659,21.240399999660383],[-165.00265999965919,21.248919999558495],[-164.98557000025522,21.257429999894725],[-164.96866000015879,21.266159999584431],[-164.95183999971613,21.274979999827281],[-164.93524000042561,21.284009999861723],[-164.91905000025722,21.293449999917698],[-164.88742000033267,21.313049999957684],[-164.87164000018578,21.322900000035133],[-164.855739999901,21.33264999999767],[-164.83968000033167,21.3421900001685],[-164.82337999958725,21.351530000109562],[-164.80709999976509,21.360870000050625],[-164.79100000014981,21.370410000221455],[-164.77515000037215,21.379959999954167],[-164.759479999902,21.389090000103579],[-164.74410999977658,21.397090000303422],[-164.73620999969165,21.401200000080053],[-164.7148100002812,21.40571000031639],[-164.71387000010034,21.407250000287434],[-164.70059000012833,21.406020000222952],[-164.69472999968966,21.402740000051097],[-164.68981999989299,21.397090000303422],[-164.67998000027671,21.386830000204498],[-164.67157000005537,21.372879999912186],[-164.66880999958173,21.363029999834737],[-164.66196000025374,21.345680000132063],[-164.65314000001092,21.316849999827753],[-164.65100000024972,21.306179999707354],[-164.6441200004376,21.274569999805806],[-164.63992000010785,21.253119999888213],[-164.63559999964019,21.231779999647415],[-164.63132000011782,21.210440000305937],[-164.62701000011134,21.189089999603937],[-164.62270999966668,21.167750000262458],[-164.61851999979808,21.146300000344866],[-164.61432000036766,21.124859999989155],[-164.61001999992297,21.103510000186475],[-164.60570000035466,21.082169999945677],[-164.60139000034815,21.060820000143053],[-164.59708999990349,21.039479999902198],[-164.59290000003489,21.018029999984662],[-164.58869999970514,20.996589999628895],[-164.58438000013683,20.975239999826272],[-164.58011000017629,20.953899999585474],[-164.57578000014681,20.932549999782793],[-164.57147000014032,20.911210000441315],[-164.56728999983355,20.889759999624403],[-164.56307999994198,20.868320000168012],[-164.55878000039661,20.846970000365388],[-164.55447000039013,20.825630000124534],[-164.55018999996844,20.804289999883736],[-164.54587000040013,20.782940000081055],[-164.54169000009335,20.761490000163519],[-164.53748000020178,20.740049999807809],[-164.53317000019527,20.718700000005128],[-164.53103999999593,20.708029999884729],[-164.52457000020527,20.676020000422795],[-164.52028000022176,20.654669999720852],[-164.51607000033016,20.633230000264462],[-164.51187000000041,20.611780000346869],[-164.5075500004321,20.590440000106071],[-164.50327000001042,20.569099999865216],[-164.4989600000039,20.547750000062592],[-164.49465999955925,20.526409999821794],[-164.49046000012882,20.504959999904202],[-164.48615999968416,20.483619999663404],[-164.48145000011732,20.462679999882255],[-164.47621000039112,20.442259999799319],[-164.47028000032168,20.42255999964442],[-164.46332000041761,20.403879999762296],[-164.45532000021777,20.386229999714828],[-164.4462900001833,20.369610000401337],[-164.43615999978408,20.354109999676893],[-164.43032999982955,20.34714000021097],[-164.40688000031167,20.319330000179491],[-164.39354000027072,20.30701000041131],[-164.37961999956326,20.295309999556991],[-164.36477999959723,20.284640000335912],[-164.34090000003491,20.270790000158513],[-164.33289999983504,20.266580000266913],[-164.31651000033617,20.258990000088602],[-164.29979999957024,20.252629999974658],[-164.27411000017628,20.245139999911203],[-164.25619999983005,20.241340000041134]]]},"properties":{"objectid":365,"stormname":"Nolo","stormtype":"HU","basin":"EP","advdate":"500 AM HST Tue Sep 29 2026","advisnum":"36","fcstprd":120,"stormnum":15,"idp_source":"ep152026-036_5day_pgn","idp_filedate":1790694510000,"idp_ingestdate":1790694938000,"st_area(shape)":50.379383029758536,"st_perimeter(shape)":35.343699674323702,"binnumber":"CP2"}}]}