{"type":"FeatureCollection","features":[{"type":"Feature","id":3268,"geometry":{"type":"LineString","coordinates":[[-108.49999999980008,10.499999999800309],[-109.49999999960022,11.100000000399859],[-110.50000000029968,11.600000000299929],[-111.40000000029966,11.899999999700356],[-112.19999999960021,12.299999999800264],[-113.09999999960019,12.900000000399814],[-113.70000000019974,13.699999999700367],[-113.7999999999999,14.800000000199987],[-113.7999999999999,16.100000000299929]]},"properties":{"objectid":3268,"stormtype":"DB","stormnum":15,"ss":0,"idp_source":"EP152026_lin","idp_filedate":1790791362000,"idp_ingestdate":1790791428000,"st_length(shape)":8.6135363417869115,"binnumber":"CP2"}},{"type":"Feature","id":3269,"geometry":{"type":"LineString","coordinates":[[-113.7999999999999,16.100000000299929],[-114.29999999989997,16.799999999800264],[-114.8999999996002,17.199999999900228],[-115.59999999999991,17.400000000399814],[-116.19999999970014,17.400000000399814],[-116.80000000029969,17.29999999970039]]},"properties":{"objectid":3269,"stormtype":"LO","stormnum":15,"ss":0,"idp_source":"EP152026_lin","idp_filedate":1790791362000,"idp_ingestdate":1790791428000,"st_length(shape)":3.5176300240244709,"binnumber":"CP2"}},{"type":"Feature","id":3270,"geometry":{"type":"LineString","coordinates":[[-116.80000000029969,17.29999999970039],[-117.89999999989999,17.100000000100067],[-118.49999999960022,16.600000000199998],[-119.29999999980004,16.299999999900194],[-120.00000000019975,16.899999999600425],[-121.09999999980005,16.500000000399837],[-122.09999999960019,16.20000000010009],[-123.39999999970013,16.100000000299929],[-124.40000000039959,15.800000000000125],[-125.30000000039962,15.600000000399859]]},"properties":{"objectid":3270,"stormtype":"TD","stormnum":15,"ss":0,"idp_source":"EP152026_lin","idp_filedate":1790791362000,"idp_ingestdate":1790791428000,"st_length(shape)":9.1597399958668539,"binnumber":"CP2"}},{"type":"Feature","id":3271,"geometry":{"type":"LineString","coordinates":[[-125.30000000039962,15.600000000399859],[-126.49999999980008,15.399999999900217]]},"properties":{"objectid":3271,"stormtype":"DB","stormnum":15,"ss":0,"idp_source":"EP152026_lin","idp_filedate":1790791362000,"idp_ingestdate":1790791428000,"st_length(shape)":1.2165525055504032,"binnumber":"CP2"}},{"type":"Feature","id":3272,"geometry":{"type":"LineString","coordinates":[[-126.49999999980008,15.399999999900217],[-127.70000000009981,15.200000000299895],[-128.6999999999,14.900000000000148],[-129.80000000039962,14.700000000399825],[-130.7000000003996,14.700000000399825],[-131.60000000039963,14.800000000199987],[-132.50000000039961,15.399999999900217],[-133.90000000029971,15.499999999700378],[-135.2000000003996,14.999999999800309],[-135.99999999970015,15.499999999700378]]},"properties":{"objectid":3272,"stormtype":"LO","stormnum":15,"ss":0,"idp_source":"EP152026_lin","idp_filedate":1790791362000,"idp_ingestdate":1790791428000,"st_length(shape)":10.005624867493204,"binnumber":"CP2"}},{"type":"Feature","id":3273,"geometry":{"type":"LineString","coordinates":[[-135.99999999970015,15.499999999700378],[-136.70000000009986,15.999999999600448],[-137.60000000009984,16.399999999700356],[-138.59999999989998,16.500000000399837],[-139.7000000003996,16.600000000199998],[-140.49999999970015,16.100000000299929],[-141.50000000039961,15.300000000100056],[-146.29999999980006,13.199999999800298],[-146.79999999970013,13.199999999800298],[-147.59999999989998,13.100000000000136],[-148.99999999980005,13.000000000199975],[-150.6999999999999,13.000000000199975],[-152.40000000019975,13.299999999600459],[-153.39999999999992,13.900000000200009]]},"properties":{"objectid":3273,"stormtype":"DB","stormnum":15,"ss":0,"idp_source":"EP152026_lin","idp_filedate":1790791362000,"idp_ingestdate":1790791428000,"st_length(shape)":18.720190379745773,"binnumber":"CP2"}},{"type":"Feature","id":3274,"geometry":{"type":"LineString","coordinates":[[-153.39999999999992,13.900000000200009],[-154.29999999999993,14.300000000299917],[-155.10000000019977,14.49999999990024],[-155.79999999970013,14.599999999700344]]},"properties":{"objectid":3274,"stormtype":"TD","stormnum":15,"ss":0,"idp_source":"EP152026_lin","idp_filedate":1790791362000,"idp_ingestdate":1790791428000,"st_length(shape)":2.5166136861043289,"binnumber":"CP2"}},{"type":"Feature","id":3275,"geometry":{"type":"LineString","coordinates":[[-155.79999999970013,14.599999999700344],[-156.00000000019978,14.599999999700344],[-156.19999999980007,14.599999999700344],[-156.19999999980007,14.700000000399825],[-156.00000000019978,14.900000000000148],[-155.79999999970013,15.200000000299895]]},"properties":{"objectid":3275,"stormtype":"TS","stormnum":15,"ss":0,"idp_source":"EP152026_lin","idp_filedate":1790791362000,"idp_ingestdate":1790791428000,"st_length(shape)":1.143397840781742,"binnumber":"CP2"}},{"type":"Feature","id":3276,"geometry":{"type":"LineString","coordinates":[[-155.79999999970013,15.200000000299895],[-155.50000000029968,15.700000000199964],[-155.39999999960023,16.299999999900194]]},"properties":{"objectid":3276,"stormtype":"HU","stormnum":15,"ss":1,"idp_source":"EP152026_lin","idp_filedate":1790791362000,"idp_ingestdate":1790791428000,"st_length(shape)":1.1913714419394974,"binnumber":"CP2"}},{"type":"Feature","id":3277,"geometry":{"type":"LineString","coordinates":[[-155.39999999960023,16.299999999900194],[-155.29999999980006,16.700000000000159],[-155.19999999999993,16.899999999600425],[-155.29999999980006,16.899999999600425],[-155.6999999999,16.799999999800264],[-156.09999999999991,16.700000000000159]]},"properties":{"objectid":3277,"stormtype":"HU","stormnum":15,"ss":2,"idp_source":"EP152026_lin","idp_filedate":1790791362000,"idp_ingestdate":1790791428000,"st_length(shape)":1.5605384849339332,"binnumber":"CP2"}},{"type":"Feature","id":3278,"geometry":{"type":"LineString","coordinates":[[-156.09999999999991,16.700000000000159],[-156.90000000019978,16.600000000199998]]},"properties":{"objectid":3278,"stormtype":"HU","stormnum":15,"ss":1,"idp_source":"EP152026_lin","idp_filedate":1790791362000,"idp_ingestdate":1790791428000,"st_length(shape)":0.80622577500339743,"binnumber":"CP2"}},{"type":"Feature","id":3279,"geometry":{"type":"LineString","coordinates":[[-156.90000000019978,16.600000000199998],[-157.80000000019976,16.20000000010009],[-158.79999999999993,16.100000000299929]]},"properties":{"objectid":3279,"stormtype":"HU","stormnum":15,"ss":2,"idp_source":"EP152026_lin","idp_filedate":1790791362000,"idp_ingestdate":1790791428000,"st_length(shape)":1.9898733421135293,"binnumber":"CP2"}},{"type":"Feature","id":3280,"geometry":{"type":"LineString","coordinates":[[-158.79999999999993,16.100000000299929],[-159.79999999980006,16.20000000010009]]},"properties":{"objectid":3280,"stormtype":"HU","stormnum":15,"ss":3,"idp_source":"EP152026_lin","idp_filedate":1790791362000,"idp_ingestdate":1790791428000,"st_length(shape)":1.0049875618933348,"binnumber":"CP2"}},{"type":"Feature","id":3281,"geometry":{"type":"LineString","coordinates":[[-159.79999999980006,16.20000000010009],[-160.79999999960023,16.399999999700356],[-161.90000000009985,16.799999999800264],[-162.7000000002997,17.29999999970039],[-163.49999999960022,18.300000000399848],[-164.19999999999993,19.499999999800309]]},"properties":{"objectid":3281,"stormtype":"HU","stormnum":15,"ss":4,"idp_source":"EP152026_lin","idp_filedate":1790791362000,"idp_ingestdate":1790791428000,"st_length(shape)":5.8035412535663609,"binnumber":"CP2"}},{"type":"Feature","id":3282,"geometry":{"type":"LineString","coordinates":[[-164.19999999999993,19.499999999800309],[-164.19999999999993,20.100000000399859],[-164.19999999999993,21.000000000399837]]},"properties":{"objectid":3282,"stormtype":"HU","stormnum":15,"ss":3,"idp_source":"EP152026_lin","idp_filedate":1790791362000,"idp_ingestdate":1790791428000,"st_length(shape)":1.5000000005995275,"binnumber":"CP2"}},{"type":"Feature","id":3283,"geometry":{"type":"LineString","coordinates":[[-164.19999999999993,21.000000000399837],[-164.19999999999993,21.79999999970039]]},"properties":{"objectid":3283,"stormtype":"HU","stormnum":15,"ss":2,"idp_source":"EP152026_lin","idp_filedate":1790791362000,"idp_ingestdate":1790791428000,"st_length(shape)":0.7999999993005531,"binnumber":"CP2"}},{"type":"Feature","id":3284,"geometry":{"type":"LineString","coordinates":[[-164.19999999999993,21.79999999970039],[-164.19999999999993,22.40000000029994],[-164.79999999970013,22.199999999800298]]},"properties":{"objectid":3284,"stormtype":"HU","stormnum":15,"ss":1,"idp_source":"EP152026_lin","idp_filedate":1790791362000,"idp_ingestdate":1790791428000,"st_length(shape)":1.2324555325068136,"binnumber":"CP2"}},{"type":"Feature","id":3285,"geometry":{"type":"LineString","coordinates":[[-164.19999999999993,21.79999999970039],[-164.19999999999993,22.40000000029994],[-164.79999999970013,22.199999999800298]]},"properties":{"objectid":3285,"stormtype":"HU","stormnum":15,"ss":1,"idp_source":"EP152026_lin","idp_filedate":1790791362000,"idp_ingestdate":1790791428000,"st_length(shape)":1.2324555325068136,"binnumber":"CP2"}}]}