{"type":"FeatureCollection","features":[{"type":"Feature","id":16463,"geometry":{"type":"Point","coordinates":[-108.49999999980008,10.499999999800309]},"properties":{"objectid":16463,"stormname":"GENESIS023","stormtype":"DB","stormnum":15,"intensity":15,"basin":"ep","mslp":0,"dtg":2026091012,"year":2026,"month":"09","day":10,"hhmm":"1200","lat":10,"lon":-108,"ss":0,"idp_source":"EP152026_pts","idp_filedate":1790888901000,"idp_ingestdate":1790889108000,"binnumber":"CP2"}},{"type":"Feature","id":16464,"geometry":{"type":"Point","coordinates":[-109.49999999960022,11.100000000399859]},"properties":{"objectid":16464,"stormname":"GENESIS023","stormtype":"DB","stormnum":15,"intensity":15,"basin":"ep","mslp":0,"dtg":2026091018,"year":2026,"month":"09","day":10,"hhmm":"1800","lat":11,"lon":-110,"ss":0,"idp_source":"EP152026_pts","idp_filedate":1790888901000,"idp_ingestdate":1790889108000,"binnumber":"CP2"}},{"type":"Feature","id":16465,"geometry":{"type":"Point","coordinates":[-110.50000000029968,11.600000000299929]},"properties":{"objectid":16465,"stormname":"GENESIS023","stormtype":"DB","stormnum":15,"intensity":15,"basin":"ep","mslp":0,"dtg":2026091100,"year":2026,"month":"09","day":11,"hhmm":"0000","lat":12,"lon":-110,"ss":0,"idp_source":"EP152026_pts","idp_filedate":1790888901000,"idp_ingestdate":1790889108000,"binnumber":"CP2"}},{"type":"Feature","id":16466,"geometry":{"type":"Point","coordinates":[-111.40000000029966,11.899999999700356]},"properties":{"objectid":16466,"stormname":"GENESIS023","stormtype":"DB","stormnum":15,"intensity":20,"basin":"ep","mslp":0,"dtg":2026091106,"year":2026,"month":"09","day":11,"hhmm":"0600","lat":12,"lon":-111,"ss":0,"idp_source":"EP152026_pts","idp_filedate":1790888901000,"idp_ingestdate":1790889108000,"binnumber":"CP2"}},{"type":"Feature","id":16467,"geometry":{"type":"Point","coordinates":[-112.19999999960021,12.299999999800264]},"properties":{"objectid":16467,"stormname":"INVEST","stormtype":"DB","stormnum":15,"intensity":20,"basin":"ep","mslp":1009,"dtg":2026091112,"year":2026,"month":"09","day":11,"hhmm":"1200","lat":12,"lon":-112,"ss":0,"idp_source":"EP152026_pts","idp_filedate":1790888901000,"idp_ingestdate":1790889108000,"binnumber":"CP2"}},{"type":"Feature","id":16468,"geometry":{"type":"Point","coordinates":[-113.09999999960019,12.900000000399814]},"properties":{"objectid":16468,"stormname":"INVEST","stormtype":"DB","stormnum":15,"intensity":20,"basin":"ep","mslp":1009,"dtg":2026091118,"year":2026,"month":"09","day":11,"hhmm":"1800","lat":13,"lon":-113,"ss":0,"idp_source":"EP152026_pts","idp_filedate":1790888901000,"idp_ingestdate":1790889108000,"binnumber":"CP2"}},{"type":"Feature","id":16469,"geometry":{"type":"Point","coordinates":[-113.70000000019974,13.699999999700367]},"properties":{"objectid":16469,"stormname":"INVEST","stormtype":"DB","stormnum":15,"intensity":25,"basin":"ep","mslp":1007,"dtg":2026091200,"year":2026,"month":"09","day":12,"hhmm":"0000","lat":14,"lon":-114,"ss":0,"idp_source":"EP152026_pts","idp_filedate":1790888901000,"idp_ingestdate":1790889108000,"binnumber":"CP2"}},{"type":"Feature","id":16470,"geometry":{"type":"Point","coordinates":[-113.7999999999999,14.800000000199987]},"properties":{"objectid":16470,"stormname":"INVEST","stormtype":"DB","stormnum":15,"intensity":30,"basin":"ep","mslp":1006,"dtg":2026091206,"year":2026,"month":"09","day":12,"hhmm":"0600","lat":15,"lon":-114,"ss":0,"idp_source":"EP152026_pts","idp_filedate":1790888901000,"idp_ingestdate":1790889108000,"binnumber":"CP2"}},{"type":"Feature","id":16471,"geometry":{"type":"Point","coordinates":[-113.7999999999999,16.100000000299929]},"properties":{"objectid":16471,"stormname":"INVEST","stormtype":"LO","stormnum":15,"intensity":30,"basin":"ep","mslp":1006,"dtg":2026091212,"year":2026,"month":"09","day":12,"hhmm":"1200","lat":16,"lon":-114,"ss":0,"idp_source":"EP152026_pts","idp_filedate":1790888901000,"idp_ingestdate":1790889108000,"binnumber":"CP2"}},{"type":"Feature","id":16472,"geometry":{"type":"Point","coordinates":[-114.29999999989997,16.799999999800264]},"properties":{"objectid":16472,"stormname":"INVEST","stormtype":"LO","stormnum":15,"intensity":25,"basin":"ep","mslp":1008,"dtg":2026091218,"year":2026,"month":"09","day":12,"hhmm":"1800","lat":17,"lon":-114,"ss":0,"idp_source":"EP152026_pts","idp_filedate":1790888901000,"idp_ingestdate":1790889108000,"binnumber":"CP2"}},{"type":"Feature","id":16473,"geometry":{"type":"Point","coordinates":[-114.8999999996002,17.199999999900228]},"properties":{"objectid":16473,"stormname":"INVEST","stormtype":"LO","stormnum":15,"intensity":25,"basin":"ep","mslp":1008,"dtg":2026091300,"year":2026,"month":"09","day":13,"hhmm":"0000","lat":17,"lon":-115,"ss":0,"idp_source":"EP152026_pts","idp_filedate":1790888901000,"idp_ingestdate":1790889108000,"binnumber":"CP2"}},{"type":"Feature","id":16474,"geometry":{"type":"Point","coordinates":[-115.59999999999991,17.400000000399814]},"properties":{"objectid":16474,"stormname":"INVEST","stormtype":"LO","stormnum":15,"intensity":25,"basin":"ep","mslp":1008,"dtg":2026091306,"year":2026,"month":"09","day":13,"hhmm":"0600","lat":17,"lon":-116,"ss":0,"idp_source":"EP152026_pts","idp_filedate":1790888901000,"idp_ingestdate":1790889108000,"binnumber":"CP2"}},{"type":"Feature","id":16475,"geometry":{"type":"Point","coordinates":[-116.19999999970014,17.400000000399814]},"properties":{"objectid":16475,"stormname":"INVEST","stormtype":"LO","stormnum":15,"intensity":25,"basin":"ep","mslp":1007,"dtg":2026091312,"year":2026,"month":"09","day":13,"hhmm":"1200","lat":17,"lon":-116,"ss":0,"idp_source":"EP152026_pts","idp_filedate":1790888901000,"idp_ingestdate":1790889108000,"binnumber":"CP2"}},{"type":"Feature","id":16476,"geometry":{"type":"Point","coordinates":[-116.80000000029969,17.29999999970039]},"properties":{"objectid":16476,"stormname":"FIFTEEN","stormtype":"TD","stormnum":15,"intensity":30,"basin":"ep","mslp":1006,"dtg":2026091318,"year":2026,"month":"09","day":13,"hhmm":"1800","lat":17,"lon":-117,"ss":0,"idp_source":"EP152026_pts","idp_filedate":1790888901000,"idp_ingestdate":1790889108000,"binnumber":"CP2"}},{"type":"Feature","id":16477,"geometry":{"type":"Point","coordinates":[-117.89999999989999,17.100000000100067]},"properties":{"objectid":16477,"stormname":"FIFTEEN","stormtype":"TD","stormnum":15,"intensity":30,"basin":"ep","mslp":1006,"dtg":2026091400,"year":2026,"month":"09","day":14,"hhmm":"0000","lat":17,"lon":-118,"ss":0,"idp_source":"EP152026_pts","idp_filedate":1790888901000,"idp_ingestdate":1790889108000,"binnumber":"CP2"}},{"type":"Feature","id":16478,"geometry":{"type":"Point","coordinates":[-118.49999999960022,16.600000000199998]},"properties":{"objectid":16478,"stormname":"FIFTEEN","stormtype":"TD","stormnum":15,"intensity":30,"basin":"ep","mslp":1006,"dtg":2026091406,"year":2026,"month":"09","day":14,"hhmm":"0600","lat":17,"lon":-118,"ss":0,"idp_source":"EP152026_pts","idp_filedate":1790888901000,"idp_ingestdate":1790889108000,"binnumber":"CP2"}},{"type":"Feature","id":16479,"geometry":{"type":"Point","coordinates":[-119.29999999980004,16.299999999900194]},"properties":{"objectid":16479,"stormname":"FIFTEEN","stormtype":"TD","stormnum":15,"intensity":30,"basin":"ep","mslp":1006,"dtg":2026091412,"year":2026,"month":"09","day":14,"hhmm":"1200","lat":16,"lon":-119,"ss":0,"idp_source":"EP152026_pts","idp_filedate":1790888901000,"idp_ingestdate":1790889108000,"binnumber":"CP2"}},{"type":"Feature","id":16480,"geometry":{"type":"Point","coordinates":[-120.00000000019975,16.899999999600425]},"properties":{"objectid":16480,"stormname":"FIFTEEN","stormtype":"TD","stormnum":15,"intensity":30,"basin":"ep","mslp":1006,"dtg":2026091418,"year":2026,"month":"09","day":14,"hhmm":"1800","lat":17,"lon":-120,"ss":0,"idp_source":"EP152026_pts","idp_filedate":1790888901000,"idp_ingestdate":1790889108000,"binnumber":"CP2"}},{"type":"Feature","id":16481,"geometry":{"type":"Point","coordinates":[-121.09999999980005,16.500000000399837]},"properties":{"objectid":16481,"stormname":"FIFTEEN","stormtype":"TD","stormnum":15,"intensity":30,"basin":"ep","mslp":1005,"dtg":2026091500,"year":2026,"month":"09","day":15,"hhmm":"0000","lat":16,"lon":-121,"ss":0,"idp_source":"EP152026_pts","idp_filedate":1790888901000,"idp_ingestdate":1790889108000,"binnumber":"CP2"}},{"type":"Feature","id":16482,"geometry":{"type":"Point","coordinates":[-122.09999999960019,16.20000000010009]},"properties":{"objectid":16482,"stormname":"FIFTEEN","stormtype":"TD","stormnum":15,"intensity":30,"basin":"ep","mslp":1005,"dtg":2026091506,"year":2026,"month":"09","day":15,"hhmm":"0600","lat":16,"lon":-122,"ss":0,"idp_source":"EP152026_pts","idp_filedate":1790888901000,"idp_ingestdate":1790889108000,"binnumber":"CP2"}},{"type":"Feature","id":16483,"geometry":{"type":"Point","coordinates":[-123.39999999970013,16.100000000299929]},"properties":{"objectid":16483,"stormname":"FIFTEEN","stormtype":"TD","stormnum":15,"intensity":30,"basin":"ep","mslp":1005,"dtg":2026091512,"year":2026,"month":"09","day":15,"hhmm":"1200","lat":16,"lon":-123,"ss":0,"idp_source":"EP152026_pts","idp_filedate":1790888901000,"idp_ingestdate":1790889108000,"binnumber":"CP2"}},{"type":"Feature","id":16484,"geometry":{"type":"Point","coordinates":[-124.40000000039959,15.800000000000125]},"properties":{"objectid":16484,"stormname":"FIFTEEN","stormtype":"TD","stormnum":15,"intensity":25,"basin":"ep","mslp":1006,"dtg":2026091518,"year":2026,"month":"09","day":15,"hhmm":"1800","lat":16,"lon":-124,"ss":0,"idp_source":"EP152026_pts","idp_filedate":1790888901000,"idp_ingestdate":1790889108000,"binnumber":"CP2"}},{"type":"Feature","id":16485,"geometry":{"type":"Point","coordinates":[-125.30000000039962,15.600000000399859]},"properties":{"objectid":16485,"stormname":"FIFTEEN","stormtype":"DB","stormnum":15,"intensity":25,"basin":"ep","mslp":1006,"dtg":2026091600,"year":2026,"month":"09","day":16,"hhmm":"0000","lat":16,"lon":-125,"ss":0,"idp_source":"EP152026_pts","idp_filedate":1790888901000,"idp_ingestdate":1790889108000,"binnumber":"CP2"}},{"type":"Feature","id":16486,"geometry":{"type":"Point","coordinates":[-126.49999999980008,15.399999999900217]},"properties":{"objectid":16486,"stormname":"FIFTEEN","stormtype":"LO","stormnum":15,"intensity":25,"basin":"ep","mslp":1006,"dtg":2026091606,"year":2026,"month":"09","day":16,"hhmm":"0600","lat":15,"lon":-126,"ss":0,"idp_source":"EP152026_pts","idp_filedate":1790888901000,"idp_ingestdate":1790889108000,"binnumber":"CP2"}},{"type":"Feature","id":16487,"geometry":{"type":"Point","coordinates":[-127.70000000009981,15.200000000299895]},"properties":{"objectid":16487,"stormname":"FIFTEEN","stormtype":"LO","stormnum":15,"intensity":25,"basin":"ep","mslp":1006,"dtg":2026091612,"year":2026,"month":"09","day":16,"hhmm":"1200","lat":15,"lon":-128,"ss":0,"idp_source":"EP152026_pts","idp_filedate":1790888901000,"idp_ingestdate":1790889108000,"binnumber":"CP2"}},{"type":"Feature","id":16488,"geometry":{"type":"Point","coordinates":[-128.6999999999,14.900000000000148]},"properties":{"objectid":16488,"stormname":"FIFTEEN","stormtype":"LO","stormnum":15,"intensity":25,"basin":"ep","mslp":1006,"dtg":2026091618,"year":2026,"month":"09","day":16,"hhmm":"1800","lat":15,"lon":-129,"ss":0,"idp_source":"EP152026_pts","idp_filedate":1790888901000,"idp_ingestdate":1790889108000,"binnumber":"CP2"}},{"type":"Feature","id":16489,"geometry":{"type":"Point","coordinates":[-129.80000000039962,14.700000000399825]},"properties":{"objectid":16489,"stormname":"FIFTEEN","stormtype":"LO","stormnum":15,"intensity":25,"basin":"ep","mslp":1006,"dtg":2026091700,"year":2026,"month":"09","day":17,"hhmm":"0000","lat":15,"lon":-130,"ss":0,"idp_source":"EP152026_pts","idp_filedate":1790888901000,"idp_ingestdate":1790889108000,"binnumber":"CP2"}},{"type":"Feature","id":16490,"geometry":{"type":"Point","coordinates":[-130.7000000003996,14.700000000399825]},"properties":{"objectid":16490,"stormname":"FIFTEEN","stormtype":"LO","stormnum":15,"intensity":25,"basin":"ep","mslp":1006,"dtg":2026091706,"year":2026,"month":"09","day":17,"hhmm":"0600","lat":15,"lon":-131,"ss":0,"idp_source":"EP152026_pts","idp_filedate":1790888901000,"idp_ingestdate":1790889108000,"binnumber":"CP2"}},{"type":"Feature","id":16491,"geometry":{"type":"Point","coordinates":[-131.60000000039963,14.800000000199987]},"properties":{"objectid":16491,"stormname":"FIFTEEN","stormtype":"LO","stormnum":15,"intensity":25,"basin":"ep","mslp":1005,"dtg":2026091712,"year":2026,"month":"09","day":17,"hhmm":"1200","lat":15,"lon":-132,"ss":0,"idp_source":"EP152026_pts","idp_filedate":1790888901000,"idp_ingestdate":1790889108000,"binnumber":"CP2"}},{"type":"Feature","id":16492,"geometry":{"type":"Point","coordinates":[-132.50000000039961,15.399999999900217]},"properties":{"objectid":16492,"stormname":"FIFTEEN","stormtype":"LO","stormnum":15,"intensity":25,"basin":"ep","mslp":1006,"dtg":2026091718,"year":2026,"month":"09","day":17,"hhmm":"1800","lat":15,"lon":-132,"ss":0,"idp_source":"EP152026_pts","idp_filedate":1790888901000,"idp_ingestdate":1790889108000,"binnumber":"CP2"}},{"type":"Feature","id":16493,"geometry":{"type":"Point","coordinates":[-133.90000000029971,15.499999999700378]},"properties":{"objectid":16493,"stormname":"FIFTEEN","stormtype":"LO","stormnum":15,"intensity":25,"basin":"ep","mslp":1006,"dtg":2026091800,"year":2026,"month":"09","day":18,"hhmm":"0000","lat":16,"lon":-134,"ss":0,"idp_source":"EP152026_pts","idp_filedate":1790888901000,"idp_ingestdate":1790889108000,"binnumber":"CP2"}},{"type":"Feature","id":16494,"geometry":{"type":"Point","coordinates":[-135.2000000003996,14.999999999800309]},"properties":{"objectid":16494,"stormname":"FIFTEEN","stormtype":"LO","stormnum":15,"intensity":25,"basin":"ep","mslp":1006,"dtg":2026091806,"year":2026,"month":"09","day":18,"hhmm":"0600","lat":15,"lon":-135,"ss":0,"idp_source":"EP152026_pts","idp_filedate":1790888901000,"idp_ingestdate":1790889108000,"binnumber":"CP2"}},{"type":"Feature","id":16495,"geometry":{"type":"Point","coordinates":[-135.99999999970015,15.499999999700378]},"properties":{"objectid":16495,"stormname":"FIFTEEN","stormtype":"DB","stormnum":15,"intensity":25,"basin":"ep","mslp":1008,"dtg":2026091812,"year":2026,"month":"09","day":18,"hhmm":"1200","lat":16,"lon":-136,"ss":0,"idp_source":"EP152026_pts","idp_filedate":1790888901000,"idp_ingestdate":1790889108000,"binnumber":"CP2"}},{"type":"Feature","id":16496,"geometry":{"type":"Point","coordinates":[-136.70000000009986,15.999999999600448]},"properties":{"objectid":16496,"stormname":"FIFTEEN","stormtype":"DB","stormnum":15,"intensity":25,"basin":"ep","mslp":1008,"dtg":2026091818,"year":2026,"month":"09","day":18,"hhmm":"1800","lat":16,"lon":-137,"ss":0,"idp_source":"EP152026_pts","idp_filedate":1790888901000,"idp_ingestdate":1790889108000,"binnumber":"CP2"}},{"type":"Feature","id":16497,"geometry":{"type":"Point","coordinates":[-137.60000000009984,16.399999999700356]},"properties":{"objectid":16497,"stormname":"FIFTEEN","stormtype":"DB","stormnum":15,"intensity":25,"basin":"ep","mslp":1008,"dtg":2026091900,"year":2026,"month":"09","day":19,"hhmm":"0000","lat":16,"lon":-138,"ss":0,"idp_source":"EP152026_pts","idp_filedate":1790888901000,"idp_ingestdate":1790889108000,"binnumber":"CP2"}},{"type":"Feature","id":16498,"geometry":{"type":"Point","coordinates":[-138.59999999989998,16.500000000399837]},"properties":{"objectid":16498,"stormname":"FIFTEEN","stormtype":"DB","stormnum":15,"intensity":25,"basin":"ep","mslp":1008,"dtg":2026091906,"year":2026,"month":"09","day":19,"hhmm":"0600","lat":16,"lon":-139,"ss":0,"idp_source":"EP152026_pts","idp_filedate":1790888901000,"idp_ingestdate":1790889108000,"binnumber":"CP2"}},{"type":"Feature","id":16499,"geometry":{"type":"Point","coordinates":[-139.7000000003996,16.600000000199998]},"properties":{"objectid":16499,"stormname":"FIFTEEN","stormtype":"DB","stormnum":15,"intensity":25,"basin":"ep","mslp":1007,"dtg":2026091912,"year":2026,"month":"09","day":19,"hhmm":"1200","lat":17,"lon":-140,"ss":0,"idp_source":"EP152026_pts","idp_filedate":1790888901000,"idp_ingestdate":1790889108000,"binnumber":"CP2"}},{"type":"Feature","id":16500,"geometry":{"type":"Point","coordinates":[-140.49999999970015,16.100000000299929]},"properties":{"objectid":16500,"stormname":"FIFTEEN","stormtype":"DB","stormnum":15,"intensity":25,"basin":"ep","mslp":1007,"dtg":2026091918,"year":2026,"month":"09","day":19,"hhmm":"1800","lat":16,"lon":-140,"ss":0,"idp_source":"EP152026_pts","idp_filedate":1790888901000,"idp_ingestdate":1790889108000,"binnumber":"CP2"}},{"type":"Feature","id":16501,"geometry":{"type":"Point","coordinates":[-141.50000000039961,15.300000000100056]},"properties":{"objectid":16501,"stormname":"FIFTEEN","stormtype":"DB","stormnum":15,"intensity":25,"basin":"ep","mslp":1007,"dtg":2026092000,"year":2026,"month":"09","day":20,"hhmm":"0000","lat":15,"lon":-142,"ss":0,"idp_source":"EP152026_pts","idp_filedate":1790888901000,"idp_ingestdate":1790889108000,"binnumber":"CP2"}},{"type":"Feature","id":16502,"geometry":{"type":"Point","coordinates":[-146.29999999980006,13.199999999800298]},"properties":{"objectid":16502,"stormname":"FIFTEEN","stormtype":"DB","stormnum":15,"intensity":25,"basin":"ep","mslp":1007,"dtg":2026092118,"year":2026,"month":"09","day":21,"hhmm":"1800","lat":13,"lon":-146,"ss":0,"idp_source":"EP152026_pts","idp_filedate":1790888901000,"idp_ingestdate":1790889108000,"binnumber":"CP2"}},{"type":"Feature","id":16503,"geometry":{"type":"Point","coordinates":[-146.79999999970013,13.199999999800298]},"properties":{"objectid":16503,"stormname":"FIFTEEN","stormtype":"DB","stormnum":15,"intensity":25,"basin":"ep","mslp":1007,"dtg":2026092200,"year":2026,"month":"09","day":22,"hhmm":"0000","lat":13,"lon":-147,"ss":0,"idp_source":"EP152026_pts","idp_filedate":1790888901000,"idp_ingestdate":1790889108000,"binnumber":"CP2"}},{"type":"Feature","id":16504,"geometry":{"type":"Point","coordinates":[-147.59999999989998,13.100000000000136]},"properties":{"objectid":16504,"stormname":"FIFTEEN","stormtype":"DB","stormnum":15,"intensity":25,"basin":"ep","mslp":1007,"dtg":2026092206,"year":2026,"month":"09","day":22,"hhmm":"0600","lat":13,"lon":-148,"ss":0,"idp_source":"EP152026_pts","idp_filedate":1790888901000,"idp_ingestdate":1790889108000,"binnumber":"CP2"}},{"type":"Feature","id":16505,"geometry":{"type":"Point","coordinates":[-148.99999999980005,13.000000000199975]},"properties":{"objectid":16505,"stormname":"FIFTEEN","stormtype":"DB","stormnum":15,"intensity":25,"basin":"ep","mslp":1007,"dtg":2026092212,"year":2026,"month":"09","day":22,"hhmm":"1200","lat":13,"lon":-149,"ss":0,"idp_source":"EP152026_pts","idp_filedate":1790888901000,"idp_ingestdate":1790889108000,"binnumber":"CP2"}},{"type":"Feature","id":16506,"geometry":{"type":"Point","coordinates":[-150.6999999999999,13.000000000199975]},"properties":{"objectid":16506,"stormname":"FIFTEEN","stormtype":"DB","stormnum":15,"intensity":25,"basin":"ep","mslp":1007,"dtg":2026092218,"year":2026,"month":"09","day":22,"hhmm":"1800","lat":13,"lon":-151,"ss":0,"idp_source":"EP152026_pts","idp_filedate":1790888901000,"idp_ingestdate":1790889108000,"binnumber":"CP2"}},{"type":"Feature","id":16507,"geometry":{"type":"Point","coordinates":[-152.40000000019975,13.299999999600459]},"properties":{"objectid":16507,"stormname":"FIFTEEN","stormtype":"DB","stormnum":15,"intensity":25,"basin":"ep","mslp":1006,"dtg":2026092300,"year":2026,"month":"09","day":23,"hhmm":"0000","lat":13,"lon":-152,"ss":0,"idp_source":"EP152026_pts","idp_filedate":1790888901000,"idp_ingestdate":1790889108000,"binnumber":"CP2"}},{"type":"Feature","id":16508,"geometry":{"type":"Point","coordinates":[-153.39999999999992,13.900000000200009]},"properties":{"objectid":16508,"stormname":"FIFTEEN","stormtype":"TD","stormnum":15,"intensity":30,"basin":"ep","mslp":1006,"dtg":2026092306,"year":2026,"month":"09","day":23,"hhmm":"0600","lat":14,"lon":-153,"ss":0,"idp_source":"EP152026_pts","idp_filedate":1790888901000,"idp_ingestdate":1790889108000,"binnumber":"CP2"}},{"type":"Feature","id":16509,"geometry":{"type":"Point","coordinates":[-154.29999999999993,14.300000000299917]},"properties":{"objectid":16509,"stormname":"FIFTEEN","stormtype":"TD","stormnum":15,"intensity":30,"basin":"ep","mslp":1004,"dtg":2026092312,"year":2026,"month":"09","day":23,"hhmm":"1200","lat":14,"lon":-154,"ss":0,"idp_source":"EP152026_pts","idp_filedate":1790888901000,"idp_ingestdate":1790889108000,"binnumber":"CP2"}},{"type":"Feature","id":16510,"geometry":{"type":"Point","coordinates":[-155.10000000019977,14.49999999990024]},"properties":{"objectid":16510,"stormname":"FIFTEEN","stormtype":"TD","stormnum":15,"intensity":30,"basin":"ep","mslp":1004,"dtg":2026092318,"year":2026,"month":"09","day":23,"hhmm":"1800","lat":14,"lon":-155,"ss":0,"idp_source":"EP152026_pts","idp_filedate":1790888901000,"idp_ingestdate":1790889108000,"binnumber":"CP2"}},{"type":"Feature","id":16511,"geometry":{"type":"Point","coordinates":[-155.79999999970013,14.599999999700344]},"properties":{"objectid":16511,"stormname":"NOLO","stormtype":"TS","stormnum":15,"intensity":40,"basin":"ep","mslp":1002,"dtg":2026092400,"year":2026,"month":"09","day":24,"hhmm":"0000","lat":15,"lon":-156,"ss":0,"idp_source":"EP152026_pts","idp_filedate":1790888901000,"idp_ingestdate":1790889108000,"binnumber":"CP2"}},{"type":"Feature","id":16512,"geometry":{"type":"Point","coordinates":[-156.00000000019978,14.599999999700344]},"properties":{"objectid":16512,"stormname":"NOLO","stormtype":"TS","stormnum":15,"intensity":45,"basin":"ep","mslp":1001,"dtg":2026092406,"year":2026,"month":"09","day":24,"hhmm":"0600","lat":15,"lon":-156,"ss":0,"idp_source":"EP152026_pts","idp_filedate":1790888901000,"idp_ingestdate":1790889108000,"binnumber":"CP2"}},{"type":"Feature","id":16513,"geometry":{"type":"Point","coordinates":[-156.19999999980007,14.599999999700344]},"properties":{"objectid":16513,"stormname":"NOLO","stormtype":"TS","stormnum":15,"intensity":50,"basin":"ep","mslp":997,"dtg":2026092412,"year":2026,"month":"09","day":24,"hhmm":"1200","lat":15,"lon":-156,"ss":0,"idp_source":"EP152026_pts","idp_filedate":1790888901000,"idp_ingestdate":1790889108000,"binnumber":"CP2"}},{"type":"Feature","id":16514,"geometry":{"type":"Point","coordinates":[-156.19999999980007,14.700000000399825]},"properties":{"objectid":16514,"stormname":"NOLO","stormtype":"TS","stormnum":15,"intensity":55,"basin":"ep","mslp":993,"dtg":2026092418,"year":2026,"month":"09","day":24,"hhmm":"1800","lat":15,"lon":-156,"ss":0,"idp_source":"EP152026_pts","idp_filedate":1790888901000,"idp_ingestdate":1790889108000,"binnumber":"CP2"}},{"type":"Feature","id":16515,"geometry":{"type":"Point","coordinates":[-156.00000000019978,14.900000000000148]},"properties":{"objectid":16515,"stormname":"NOLO","stormtype":"TS","stormnum":15,"intensity":60,"basin":"ep","mslp":986,"dtg":2026092500,"year":2026,"month":"09","day":25,"hhmm":"0000","lat":15,"lon":-156,"ss":0,"idp_source":"EP152026_pts","idp_filedate":1790888901000,"idp_ingestdate":1790889108000,"binnumber":"CP2"}},{"type":"Feature","id":16516,"geometry":{"type":"Point","coordinates":[-155.79999999970013,15.200000000299895]},"properties":{"objectid":16516,"stormname":"NOLO","stormtype":"HU","stormnum":15,"intensity":70,"basin":"ep","mslp":985,"dtg":2026092506,"year":2026,"month":"09","day":25,"hhmm":"0600","lat":15,"lon":-156,"ss":1,"idp_source":"EP152026_pts","idp_filedate":1790888901000,"idp_ingestdate":1790889108000,"binnumber":"CP2"}},{"type":"Feature","id":16517,"geometry":{"type":"Point","coordinates":[-155.50000000029968,15.700000000199964]},"properties":{"objectid":16517,"stormname":"NOLO","stormtype":"HU","stormnum":15,"intensity":80,"basin":"ep","mslp":980,"dtg":2026092512,"year":2026,"month":"09","day":25,"hhmm":"1200","lat":16,"lon":-156,"ss":1,"idp_source":"EP152026_pts","idp_filedate":1790888901000,"idp_ingestdate":1790889108000,"binnumber":"CP2"}},{"type":"Feature","id":16518,"geometry":{"type":"Point","coordinates":[-155.39999999960023,16.299999999900194]},"properties":{"objectid":16518,"stormname":"NOLO","stormtype":"HU","stormnum":15,"intensity":90,"basin":"ep","mslp":978,"dtg":2026092518,"year":2026,"month":"09","day":25,"hhmm":"1800","lat":16,"lon":-155,"ss":2,"idp_source":"EP152026_pts","idp_filedate":1790888901000,"idp_ingestdate":1790889108000,"binnumber":"CP2"}},{"type":"Feature","id":16519,"geometry":{"type":"Point","coordinates":[-155.29999999980006,16.700000000000159]},"properties":{"objectid":16519,"stormname":"NOLO","stormtype":"HU","stormnum":15,"intensity":90,"basin":"ep","mslp":975,"dtg":2026092600,"year":2026,"month":"09","day":26,"hhmm":"0000","lat":17,"lon":-155,"ss":2,"idp_source":"EP152026_pts","idp_filedate":1790888901000,"idp_ingestdate":1790889108000,"binnumber":"CP2"}},{"type":"Feature","id":16520,"geometry":{"type":"Point","coordinates":[-155.19999999999993,16.899999999600425]},"properties":{"objectid":16520,"stormname":"NOLO","stormtype":"HU","stormnum":15,"intensity":90,"basin":"ep","mslp":975,"dtg":2026092606,"year":2026,"month":"09","day":26,"hhmm":"0600","lat":17,"lon":-155,"ss":2,"idp_source":"EP152026_pts","idp_filedate":1790888901000,"idp_ingestdate":1790889108000,"binnumber":"CP2"}},{"type":"Feature","id":16521,"geometry":{"type":"Point","coordinates":[-155.29999999980006,16.899999999600425]},"properties":{"objectid":16521,"stormname":"NOLO","stormtype":"HU","stormnum":15,"intensity":85,"basin":"ep","mslp":976,"dtg":2026092612,"year":2026,"month":"09","day":26,"hhmm":"1200","lat":17,"lon":-155,"ss":2,"idp_source":"EP152026_pts","idp_filedate":1790888901000,"idp_ingestdate":1790889108000,"binnumber":"CP2"}},{"type":"Feature","id":16522,"geometry":{"type":"Point","coordinates":[-155.6999999999,16.799999999800264]},"properties":{"objectid":16522,"stormname":"NOLO","stormtype":"HU","stormnum":15,"intensity":85,"basin":"ep","mslp":977,"dtg":2026092618,"year":2026,"month":"09","day":26,"hhmm":"1800","lat":17,"lon":-156,"ss":2,"idp_source":"EP152026_pts","idp_filedate":1790888901000,"idp_ingestdate":1790889108000,"binnumber":"CP2"}},{"type":"Feature","id":16523,"geometry":{"type":"Point","coordinates":[-156.09999999999991,16.700000000000159]},"properties":{"objectid":16523,"stormname":"NOLO","stormtype":"HU","stormnum":15,"intensity":80,"basin":"ep","mslp":972,"dtg":2026092700,"year":2026,"month":"09","day":27,"hhmm":"0000","lat":17,"lon":-156,"ss":1,"idp_source":"EP152026_pts","idp_filedate":1790888901000,"idp_ingestdate":1790889108000,"binnumber":"CP2"}},{"type":"Feature","id":16524,"geometry":{"type":"Point","coordinates":[-156.90000000019978,16.600000000199998]},"properties":{"objectid":16524,"stormname":"NOLO","stormtype":"HU","stormnum":15,"intensity":85,"basin":"ep","mslp":968,"dtg":2026092706,"year":2026,"month":"09","day":27,"hhmm":"0600","lat":17,"lon":-157,"ss":2,"idp_source":"EP152026_pts","idp_filedate":1790888901000,"idp_ingestdate":1790889108000,"binnumber":"CP2"}},{"type":"Feature","id":16525,"geometry":{"type":"Point","coordinates":[-157.80000000019976,16.20000000010009]},"properties":{"objectid":16525,"stormname":"NOLO","stormtype":"HU","stormnum":15,"intensity":85,"basin":"ep","mslp":969,"dtg":2026092712,"year":2026,"month":"09","day":27,"hhmm":"1200","lat":16,"lon":-158,"ss":2,"idp_source":"EP152026_pts","idp_filedate":1790888901000,"idp_ingestdate":1790889108000,"binnumber":"CP2"}},{"type":"Feature","id":16526,"geometry":{"type":"Point","coordinates":[-158.79999999999993,16.100000000299929]},"properties":{"objectid":16526,"stormname":"NOLO","stormtype":"HU","stormnum":15,"intensity":100,"basin":"ep","mslp":966,"dtg":2026092718,"year":2026,"month":"09","day":27,"hhmm":"1800","lat":16,"lon":-159,"ss":3,"idp_source":"EP152026_pts","idp_filedate":1790888901000,"idp_ingestdate":1790889108000,"binnumber":"CP2"}},{"type":"Feature","id":16527,"geometry":{"type":"Point","coordinates":[-159.79999999980006,16.20000000010009]},"properties":{"objectid":16527,"stormname":"NOLO","stormtype":"HU","stormnum":15,"intensity":115,"basin":"ep","mslp":948,"dtg":2026092800,"year":2026,"month":"09","day":28,"hhmm":"0000","lat":16,"lon":-160,"ss":4,"idp_source":"EP152026_pts","idp_filedate":1790888901000,"idp_ingestdate":1790889108000,"binnumber":"CP2"}},{"type":"Feature","id":16528,"geometry":{"type":"Point","coordinates":[-160.79999999960023,16.399999999700356]},"properties":{"objectid":16528,"stormname":"NOLO","stormtype":"HU","stormnum":15,"intensity":135,"basin":"ep","mslp":929,"dtg":2026092806,"year":2026,"month":"09","day":28,"hhmm":"0600","lat":16,"lon":-161,"ss":4,"idp_source":"EP152026_pts","idp_filedate":1790888901000,"idp_ingestdate":1790889108000,"binnumber":"CP2"}},{"type":"Feature","id":16529,"geometry":{"type":"Point","coordinates":[-161.90000000009985,16.799999999800264]},"properties":{"objectid":16529,"stormname":"NOLO","stormtype":"HU","stormnum":15,"intensity":135,"basin":"ep","mslp":929,"dtg":2026092812,"year":2026,"month":"09","day":28,"hhmm":"1200","lat":17,"lon":-162,"ss":4,"idp_source":"EP152026_pts","idp_filedate":1790888901000,"idp_ingestdate":1790889108000,"binnumber":"CP2"}},{"type":"Feature","id":16530,"geometry":{"type":"Point","coordinates":[-162.7000000002997,17.29999999970039]},"properties":{"objectid":16530,"stormname":"NOLO","stormtype":"HU","stormnum":15,"intensity":130,"basin":"ep","mslp":933,"dtg":2026092818,"year":2026,"month":"09","day":28,"hhmm":"1800","lat":17,"lon":-163,"ss":4,"idp_source":"EP152026_pts","idp_filedate":1790888901000,"idp_ingestdate":1790889108000,"binnumber":"CP2"}},{"type":"Feature","id":16531,"geometry":{"type":"Point","coordinates":[-163.49999999960022,18.300000000399848]},"properties":{"objectid":16531,"stormname":"NOLO","stormtype":"HU","stormnum":15,"intensity":125,"basin":"ep","mslp":936,"dtg":2026092900,"year":2026,"month":"09","day":29,"hhmm":"0000","lat":18,"lon":-164,"ss":4,"idp_source":"EP152026_pts","idp_filedate":1790888901000,"idp_ingestdate":1790889108000,"binnumber":"CP2"}},{"type":"Feature","id":16532,"geometry":{"type":"Point","coordinates":[-164.19999999999993,19.499999999800309]},"properties":{"objectid":16532,"stormname":"NOLO","stormtype":"HU","stormnum":15,"intensity":100,"basin":"ep","mslp":958,"dtg":2026092906,"year":2026,"month":"09","day":29,"hhmm":"0600","lat":20,"lon":-164,"ss":3,"idp_source":"EP152026_pts","idp_filedate":1790888901000,"idp_ingestdate":1790889108000,"binnumber":"CP2"}},{"type":"Feature","id":16533,"geometry":{"type":"Point","coordinates":[-164.19999999999993,20.100000000399859]},"properties":{"objectid":16533,"stormname":"NOLO","stormtype":"HU","stormnum":15,"intensity":100,"basin":"ep","mslp":958,"dtg":2026092912,"year":2026,"month":"09","day":29,"hhmm":"1200","lat":20,"lon":-164,"ss":3,"idp_source":"EP152026_pts","idp_filedate":1790888901000,"idp_ingestdate":1790889108000,"binnumber":"CP2"}},{"type":"Feature","id":16534,"geometry":{"type":"Point","coordinates":[-164.19999999999993,21.000000000399837]},"properties":{"objectid":16534,"stormname":"NOLO","stormtype":"HU","stormnum":15,"intensity":90,"basin":"ep","mslp":968,"dtg":2026092918,"year":2026,"month":"09","day":29,"hhmm":"1800","lat":21,"lon":-164,"ss":2,"idp_source":"EP152026_pts","idp_filedate":1790888901000,"idp_ingestdate":1790889108000,"binnumber":"CP2"}},{"type":"Feature","id":16535,"geometry":{"type":"Point","coordinates":[-164.19999999999993,21.79999999970039]},"properties":{"objectid":16535,"stormname":"NOLO","stormtype":"HU","stormnum":15,"intensity":80,"basin":"ep","mslp":974,"dtg":2026093000,"year":2026,"month":"09","day":30,"hhmm":"0000","lat":22,"lon":-164,"ss":1,"idp_source":"EP152026_pts","idp_filedate":1790888901000,"idp_ingestdate":1790889108000,"binnumber":"CP2"}},{"type":"Feature","id":16536,"geometry":{"type":"Point","coordinates":[-164.19999999999993,22.40000000029994]},"properties":{"objectid":16536,"stormname":"NOLO","stormtype":"HU","stormnum":15,"intensity":65,"basin":"ep","mslp":984,"dtg":2026093006,"year":2026,"month":"09","day":30,"hhmm":"0600","lat":22,"lon":-164,"ss":1,"idp_source":"EP152026_pts","idp_filedate":1790888901000,"idp_ingestdate":1790889108000,"binnumber":"CP2"}},{"type":"Feature","id":16537,"geometry":{"type":"Point","coordinates":[-164.6999999999,22.199999999800298]},"properties":{"objectid":16537,"stormname":"NOLO","stormtype":"TS","stormnum":15,"intensity":55,"basin":"ep","mslp":991,"dtg":2026093012,"year":2026,"month":"09","day":30,"hhmm":"1200","lat":22,"lon":-165,"ss":0,"idp_source":"EP152026_pts","idp_filedate":1790888901000,"idp_ingestdate":1790889108000,"binnumber":"CP2"}},{"type":"Feature","id":16538,"geometry":{"type":"Point","coordinates":[-164.6999999999,21.900000000399814]},"properties":{"objectid":16538,"stormname":"NOLO","stormtype":"TS","stormnum":15,"intensity":50,"basin":"ep","mslp":994,"dtg":2026093018,"year":2026,"month":"09","day":30,"hhmm":"1800","lat":22,"lon":-165,"ss":0,"idp_source":"EP152026_pts","idp_filedate":1790888901000,"idp_ingestdate":1790889108000,"binnumber":"CP2"}},{"type":"Feature","id":16539,"geometry":{"type":"Point","coordinates":[-164.6999999999,21.600000000100067]},"properties":{"objectid":16539,"stormname":"NOLO","stormtype":"TS","stormnum":15,"intensity":50,"basin":"ep","mslp":994,"dtg":2026100100,"year":2026,"month":"10","day":1,"hhmm":"0000","lat":22,"lon":-165,"ss":0,"idp_source":"EP152026_pts","idp_filedate":1790888901000,"idp_ingestdate":1790889108000,"binnumber":"CP2"}},{"type":"Feature","id":16540,"geometry":{"type":"Point","coordinates":[-165.00000000019978,21.699999999900228]},"properties":{"objectid":16540,"stormname":"NOLO","stormtype":"TS","stormnum":15,"intensity":50,"basin":"ep","mslp":994,"dtg":2026100106,"year":2026,"month":"10","day":1,"hhmm":"0600","lat":22,"lon":-165,"ss":0,"idp_source":"EP152026_pts","idp_filedate":1790888901000,"idp_ingestdate":1790889108000,"binnumber":"CP2"}},{"type":"Feature","id":16541,"geometry":{"type":"Point","coordinates":[-165.19999999980007,21.79999999970039]},"properties":{"objectid":16541,"stormname":"NOLO","stormtype":"TS","stormnum":15,"intensity":50,"basin":"ep","mslp":993,"dtg":2026100112,"year":2026,"month":"10","day":1,"hhmm":"1200","lat":22,"lon":-165,"ss":0,"idp_source":"EP152026_pts","idp_filedate":1790888901000,"idp_ingestdate":1790889108000,"binnumber":"CP2"}},{"type":"Feature","id":16542,"geometry":{"type":"Point","coordinates":[-165.40000000029968,22.000000000199975]},"properties":{"objectid":16542,"stormname":"NOLO","stormtype":"TS","stormnum":15,"intensity":50,"basin":"ep","mslp":993,"dtg":2026100118,"year":2026,"month":"10","day":1,"hhmm":"1800","lat":22,"lon":-165,"ss":0,"idp_source":"EP152026_pts","idp_filedate":1790888901000,"idp_ingestdate":1790889108000,"binnumber":"CP2"}}]}