{"type":"FeatureCollection","features":[{"type":"Feature","id":7864,"geometry":{"type":"Point","coordinates":[-109.79999999989997,10.599999999600414]},"properties":{"objectid":7864,"stormname":"GENESIS024","stormtype":"DB","stormnum":16,"intensity":20,"basin":"ep","mslp":1010,"dtg":2026091618,"year":2026,"month":"09","day":16,"hhmm":"1800","lat":11,"lon":-110,"ss":0,"idp_source":"EP162026_pts","idp_filedate":1790521351000,"idp_ingestdate":1790521479000,"binnumber":"EP1"}},{"type":"Feature","id":7865,"geometry":{"type":"Point","coordinates":[-110.90000000039959,10.700000000299895]},"properties":{"objectid":7865,"stormname":"GENESIS024","stormtype":"DB","stormnum":16,"intensity":20,"basin":"ep","mslp":1010,"dtg":2026091700,"year":2026,"month":"09","day":17,"hhmm":"0000","lat":11,"lon":-111,"ss":0,"idp_source":"EP162026_pts","idp_filedate":1790521351000,"idp_ingestdate":1790521479000,"binnumber":"EP1"}},{"type":"Feature","id":7866,"geometry":{"type":"Point","coordinates":[-112.09999999980005,10.899999999900217]},"properties":{"objectid":7866,"stormname":"GENESIS024","stormtype":"DB","stormnum":16,"intensity":20,"basin":"ep","mslp":1010,"dtg":2026091706,"year":2026,"month":"09","day":17,"hhmm":"0600","lat":11,"lon":-112,"ss":0,"idp_source":"EP162026_pts","idp_filedate":1790521351000,"idp_ingestdate":1790521479000,"binnumber":"EP1"}},{"type":"Feature","id":7867,"geometry":{"type":"Point","coordinates":[-113.09999999960019,11.200000000199964]},"properties":{"objectid":7867,"stormname":"GENESIS024","stormtype":"DB","stormnum":16,"intensity":25,"basin":"ep","mslp":1009,"dtg":2026091712,"year":2026,"month":"09","day":17,"hhmm":"1200","lat":11,"lon":-113,"ss":0,"idp_source":"EP162026_pts","idp_filedate":1790521351000,"idp_ingestdate":1790521479000,"binnumber":"EP1"}},{"type":"Feature","id":7868,"geometry":{"type":"Point","coordinates":[-115.10000000009984,11.499999999600448]},"properties":{"objectid":7868,"stormname":"INVEST","stormtype":"DB","stormnum":16,"intensity":20,"basin":"ep","mslp":1009,"dtg":2026091718,"year":2026,"month":"09","day":17,"hhmm":"1800","lat":12,"lon":-115,"ss":0,"idp_source":"EP162026_pts","idp_filedate":1790521351000,"idp_ingestdate":1790521479000,"binnumber":"EP1"}},{"type":"Feature","id":7869,"geometry":{"type":"Point","coordinates":[-116.09999999989998,11.499999999600448]},"properties":{"objectid":7869,"stormname":"INVEST","stormtype":"DB","stormnum":16,"intensity":20,"basin":"ep","mslp":1009,"dtg":2026091800,"year":2026,"month":"09","day":18,"hhmm":"0000","lat":12,"lon":-116,"ss":0,"idp_source":"EP162026_pts","idp_filedate":1790521351000,"idp_ingestdate":1790521479000,"binnumber":"EP1"}},{"type":"Feature","id":7870,"geometry":{"type":"Point","coordinates":[-116.69999999960021,11.499999999600448]},"properties":{"objectid":7870,"stormname":"INVEST","stormtype":"DB","stormnum":16,"intensity":20,"basin":"ep","mslp":1009,"dtg":2026091806,"year":2026,"month":"09","day":18,"hhmm":"0600","lat":12,"lon":-117,"ss":0,"idp_source":"EP162026_pts","idp_filedate":1790521351000,"idp_ingestdate":1790521479000,"binnumber":"EP1"}},{"type":"Feature","id":7871,"geometry":{"type":"Point","coordinates":[-117.30000000019976,11.499999999600448]},"properties":{"objectid":7871,"stormname":"INVEST","stormtype":"DB","stormnum":16,"intensity":20,"basin":"ep","mslp":1009,"dtg":2026091812,"year":2026,"month":"09","day":18,"hhmm":"1200","lat":12,"lon":-117,"ss":0,"idp_source":"EP162026_pts","idp_filedate":1790521351000,"idp_ingestdate":1790521479000,"binnumber":"EP1"}},{"type":"Feature","id":7872,"geometry":{"type":"Point","coordinates":[-117.89999999989999,11.399999999800286]},"properties":{"objectid":7872,"stormname":"INVEST","stormtype":"DB","stormnum":16,"intensity":20,"basin":"ep","mslp":1009,"dtg":2026091818,"year":2026,"month":"09","day":18,"hhmm":"1800","lat":11,"lon":-118,"ss":0,"idp_source":"EP162026_pts","idp_filedate":1790521351000,"idp_ingestdate":1790521479000,"binnumber":"EP1"}},{"type":"Feature","id":7873,"geometry":{"type":"Point","coordinates":[-119.10000000019977,11.399999999800286]},"properties":{"objectid":7873,"stormname":"INVEST","stormtype":"DB","stormnum":16,"intensity":20,"basin":"ep","mslp":1009,"dtg":2026091900,"year":2026,"month":"09","day":19,"hhmm":"0000","lat":11,"lon":-119,"ss":0,"idp_source":"EP162026_pts","idp_filedate":1790521351000,"idp_ingestdate":1790521479000,"binnumber":"EP1"}},{"type":"Feature","id":7874,"geometry":{"type":"Point","coordinates":[-120.29999999960023,11.399999999800286]},"properties":{"objectid":7874,"stormname":"INVEST","stormtype":"DB","stormnum":16,"intensity":25,"basin":"ep","mslp":1009,"dtg":2026091906,"year":2026,"month":"09","day":19,"hhmm":"0600","lat":11,"lon":-120,"ss":0,"idp_source":"EP162026_pts","idp_filedate":1790521351000,"idp_ingestdate":1790521479000,"binnumber":"EP1"}},{"type":"Feature","id":7875,"geometry":{"type":"Point","coordinates":[-121.40000000009985,11.300000000000125]},"properties":{"objectid":7875,"stormname":"INVEST","stormtype":"DB","stormnum":16,"intensity":25,"basin":"ep","mslp":1008,"dtg":2026091912,"year":2026,"month":"09","day":19,"hhmm":"1200","lat":11,"lon":-121,"ss":0,"idp_source":"EP162026_pts","idp_filedate":1790521351000,"idp_ingestdate":1790521479000,"binnumber":"EP1"}},{"type":"Feature","id":7876,"geometry":{"type":"Point","coordinates":[-122.49999999970015,11.200000000199964]},"properties":{"objectid":7876,"stormname":"INVEST","stormtype":"DB","stormnum":16,"intensity":25,"basin":"ep","mslp":1008,"dtg":2026091918,"year":2026,"month":"09","day":19,"hhmm":"1800","lat":11,"lon":-122,"ss":0,"idp_source":"EP162026_pts","idp_filedate":1790521351000,"idp_ingestdate":1790521479000,"binnumber":"EP1"}},{"type":"Feature","id":7877,"geometry":{"type":"Point","coordinates":[-123.50000000039961,11.300000000000125]},"properties":{"objectid":7877,"stormname":"INVEST","stormtype":"DB","stormnum":16,"intensity":25,"basin":"ep","mslp":1008,"dtg":2026092000,"year":2026,"month":"09","day":20,"hhmm":"0000","lat":11,"lon":-124,"ss":0,"idp_source":"EP162026_pts","idp_filedate":1790521351000,"idp_ingestdate":1790521479000,"binnumber":"EP1"}},{"type":"Feature","id":7878,"geometry":{"type":"Point","coordinates":[-124.29999999970016,11.100000000399859]},"properties":{"objectid":7878,"stormname":"ODALYS","stormtype":"TS","stormnum":16,"intensity":35,"basin":"ep","mslp":1005,"dtg":2026092006,"year":2026,"month":"09","day":20,"hhmm":"0600","lat":11,"lon":-124,"ss":0,"idp_source":"EP162026_pts","idp_filedate":1790521351000,"idp_ingestdate":1790521479000,"binnumber":"EP1"}},{"type":"Feature","id":7879,"geometry":{"type":"Point","coordinates":[-125.19999999970014,11.100000000399859]},"properties":{"objectid":7879,"stormname":"ODALYS","stormtype":"TS","stormnum":16,"intensity":40,"basin":"ep","mslp":1003,"dtg":2026092012,"year":2026,"month":"09","day":20,"hhmm":"1200","lat":11,"lon":-125,"ss":0,"idp_source":"EP162026_pts","idp_filedate":1790521351000,"idp_ingestdate":1790521479000,"binnumber":"EP1"}},{"type":"Feature","id":7880,"geometry":{"type":"Point","coordinates":[-126.30000000019976,11.600000000299929]},"properties":{"objectid":7880,"stormname":"ODALYS","stormtype":"TS","stormnum":16,"intensity":45,"basin":"ep","mslp":1002,"dtg":2026092018,"year":2026,"month":"09","day":20,"hhmm":"1800","lat":12,"lon":-126,"ss":0,"idp_source":"EP162026_pts","idp_filedate":1790521351000,"idp_ingestdate":1790521479000,"binnumber":"EP1"}},{"type":"Feature","id":7881,"geometry":{"type":"Point","coordinates":[-127.2999999999999,12.79999999970039]},"properties":{"objectid":7881,"stormname":"ODALYS","stormtype":"TS","stormnum":16,"intensity":45,"basin":"ep","mslp":1002,"dtg":2026092100,"year":2026,"month":"09","day":21,"hhmm":"0000","lat":13,"lon":-127,"ss":0,"idp_source":"EP162026_pts","idp_filedate":1790521351000,"idp_ingestdate":1790521479000,"binnumber":"EP1"}},{"type":"Feature","id":7882,"geometry":{"type":"Point","coordinates":[-128.29999999980004,13.299999999600459]},"properties":{"objectid":7882,"stormname":"ODALYS","stormtype":"TS","stormnum":16,"intensity":40,"basin":"ep","mslp":1004,"dtg":2026092106,"year":2026,"month":"09","day":21,"hhmm":"0600","lat":13,"lon":-128,"ss":0,"idp_source":"EP162026_pts","idp_filedate":1790521351000,"idp_ingestdate":1790521479000,"binnumber":"EP1"}},{"type":"Feature","id":7883,"geometry":{"type":"Point","coordinates":[-129.00000000019975,13.599999999900206]},"properties":{"objectid":7883,"stormname":"ODALYS","stormtype":"TS","stormnum":16,"intensity":40,"basin":"ep","mslp":1003,"dtg":2026092112,"year":2026,"month":"09","day":21,"hhmm":"1200","lat":14,"lon":-129,"ss":0,"idp_source":"EP162026_pts","idp_filedate":1790521351000,"idp_ingestdate":1790521479000,"binnumber":"EP1"}},{"type":"Feature","id":7884,"geometry":{"type":"Point","coordinates":[-129.69999999970014,13.800000000399848]},"properties":{"objectid":7884,"stormname":"ODALYS","stormtype":"TS","stormnum":16,"intensity":45,"basin":"ep","mslp":1002,"dtg":2026092118,"year":2026,"month":"09","day":21,"hhmm":"1800","lat":14,"lon":-130,"ss":0,"idp_source":"EP162026_pts","idp_filedate":1790521351000,"idp_ingestdate":1790521479000,"binnumber":"EP1"}},{"type":"Feature","id":7885,"geometry":{"type":"Point","coordinates":[-130.19999999960021,14.300000000299917]},"properties":{"objectid":7885,"stormname":"ODALYS","stormtype":"TS","stormnum":16,"intensity":45,"basin":"ep","mslp":1002,"dtg":2026092200,"year":2026,"month":"09","day":22,"hhmm":"0000","lat":14,"lon":-130,"ss":0,"idp_source":"EP162026_pts","idp_filedate":1790521351000,"idp_ingestdate":1790521479000,"binnumber":"EP1"}},{"type":"Feature","id":7886,"geometry":{"type":"Point","coordinates":[-130.49999999990001,14.49999999990024]},"properties":{"objectid":7886,"stormname":"ODALYS","stormtype":"TS","stormnum":16,"intensity":50,"basin":"ep","mslp":1000,"dtg":2026092206,"year":2026,"month":"09","day":22,"hhmm":"0600","lat":14,"lon":-130,"ss":0,"idp_source":"EP162026_pts","idp_filedate":1790521351000,"idp_ingestdate":1790521479000,"binnumber":"EP1"}},{"type":"Feature","id":7887,"geometry":{"type":"Point","coordinates":[-130.7000000003996,14.800000000199987]},"properties":{"objectid":7887,"stormname":"ODALYS","stormtype":"TS","stormnum":16,"intensity":55,"basin":"ep","mslp":998,"dtg":2026092212,"year":2026,"month":"09","day":22,"hhmm":"1200","lat":15,"lon":-131,"ss":0,"idp_source":"EP162026_pts","idp_filedate":1790521351000,"idp_ingestdate":1790521479000,"binnumber":"EP1"}},{"type":"Feature","id":7888,"geometry":{"type":"Point","coordinates":[-130.40000000009985,14.999999999800309]},"properties":{"objectid":7888,"stormname":"ODALYS","stormtype":"TS","stormnum":16,"intensity":60,"basin":"ep","mslp":994,"dtg":2026092218,"year":2026,"month":"09","day":22,"hhmm":"1800","lat":15,"lon":-130,"ss":0,"idp_source":"EP162026_pts","idp_filedate":1790521351000,"idp_ingestdate":1790521479000,"binnumber":"EP1"}},{"type":"Feature","id":7889,"geometry":{"type":"Point","coordinates":[-129.40000000029966,15.200000000299895]},"properties":{"objectid":7889,"stormname":"ODALYS","stormtype":"TS","stormnum":16,"intensity":60,"basin":"ep","mslp":994,"dtg":2026092300,"year":2026,"month":"09","day":23,"hhmm":"0000","lat":15,"lon":-129,"ss":0,"idp_source":"EP162026_pts","idp_filedate":1790521351000,"idp_ingestdate":1790521479000,"binnumber":"EP1"}},{"type":"Feature","id":7890,"geometry":{"type":"Point","coordinates":[-128.6999999999,15.399999999900217]},"properties":{"objectid":7890,"stormname":"ODALYS","stormtype":"HU","stormnum":16,"intensity":65,"basin":"ep","mslp":989,"dtg":2026092306,"year":2026,"month":"09","day":23,"hhmm":"0600","lat":15,"lon":-129,"ss":1,"idp_source":"EP162026_pts","idp_filedate":1790521351000,"idp_ingestdate":1790521479000,"binnumber":"EP1"}},{"type":"Feature","id":7891,"geometry":{"type":"Point","coordinates":[-128.10000000019977,15.499999999700378]},"properties":{"objectid":7891,"stormname":"ODALYS","stormtype":"HU","stormnum":16,"intensity":65,"basin":"ep","mslp":989,"dtg":2026092312,"year":2026,"month":"09","day":23,"hhmm":"1200","lat":16,"lon":-128,"ss":1,"idp_source":"EP162026_pts","idp_filedate":1790521351000,"idp_ingestdate":1790521479000,"binnumber":"EP1"}},{"type":"Feature","id":7892,"geometry":{"type":"Point","coordinates":[-127.49999999960022,15.499999999700378]},"properties":{"objectid":7892,"stormname":"ODALYS","stormtype":"HU","stormnum":16,"intensity":70,"basin":"ep","mslp":984,"dtg":2026092318,"year":2026,"month":"09","day":23,"hhmm":"1800","lat":16,"lon":-128,"ss":1,"idp_source":"EP162026_pts","idp_filedate":1790521351000,"idp_ingestdate":1790521479000,"binnumber":"EP1"}},{"type":"Feature","id":7893,"geometry":{"type":"Point","coordinates":[-126.89999999989999,15.600000000399859]},"properties":{"objectid":7893,"stormname":"ODALYS","stormtype":"HU","stormnum":16,"intensity":75,"basin":"ep","mslp":978,"dtg":2026092400,"year":2026,"month":"09","day":24,"hhmm":"0000","lat":16,"lon":-127,"ss":1,"idp_source":"EP162026_pts","idp_filedate":1790521351000,"idp_ingestdate":1790521479000,"binnumber":"EP1"}},{"type":"Feature","id":7894,"geometry":{"type":"Point","coordinates":[-126.30000000019976,15.899999999800286]},"properties":{"objectid":7894,"stormname":"ODALYS","stormtype":"HU","stormnum":16,"intensity":75,"basin":"ep","mslp":978,"dtg":2026092406,"year":2026,"month":"09","day":24,"hhmm":"0600","lat":16,"lon":-126,"ss":1,"idp_source":"EP162026_pts","idp_filedate":1790521351000,"idp_ingestdate":1790521479000,"binnumber":"EP1"}},{"type":"Feature","id":7895,"geometry":{"type":"Point","coordinates":[-125.80000000029969,16.20000000010009]},"properties":{"objectid":7895,"stormname":"ODALYS","stormtype":"HU","stormnum":16,"intensity":80,"basin":"ep","mslp":976,"dtg":2026092412,"year":2026,"month":"09","day":24,"hhmm":"1200","lat":16,"lon":-126,"ss":1,"idp_source":"EP162026_pts","idp_filedate":1790521351000,"idp_ingestdate":1790521479000,"binnumber":"EP1"}},{"type":"Feature","id":7896,"geometry":{"type":"Point","coordinates":[-125.09999999989998,16.600000000199998]},"properties":{"objectid":7896,"stormname":"ODALYS","stormtype":"HU","stormnum":16,"intensity":80,"basin":"ep","mslp":976,"dtg":2026092418,"year":2026,"month":"09","day":24,"hhmm":"1800","lat":17,"lon":-125,"ss":1,"idp_source":"EP162026_pts","idp_filedate":1790521351000,"idp_ingestdate":1790521479000,"binnumber":"EP1"}},{"type":"Feature","id":7897,"geometry":{"type":"Point","coordinates":[-124.50000000019975,16.899999999600425]},"properties":{"objectid":7897,"stormname":"ODALYS","stormtype":"HU","stormnum":16,"intensity":90,"basin":"ep","mslp":968,"dtg":2026092500,"year":2026,"month":"09","day":25,"hhmm":"0000","lat":17,"lon":-124,"ss":2,"idp_source":"EP162026_pts","idp_filedate":1790521351000,"idp_ingestdate":1790521479000,"binnumber":"EP1"}},{"type":"Feature","id":7898,"geometry":{"type":"Point","coordinates":[-124.10000000009984,17.29999999970039]},"properties":{"objectid":7898,"stormname":"ODALYS","stormtype":"HU","stormnum":16,"intensity":115,"basin":"ep","mslp":962,"dtg":2026092506,"year":2026,"month":"09","day":25,"hhmm":"0600","lat":17,"lon":-124,"ss":4,"idp_source":"EP162026_pts","idp_filedate":1790521351000,"idp_ingestdate":1790521479000,"binnumber":"EP1"}},{"type":"Feature","id":7899,"geometry":{"type":"Point","coordinates":[-123.79999999980004,17.699999999800298]},"properties":{"objectid":7899,"stormname":"ODALYS","stormtype":"HU","stormnum":16,"intensity":115,"basin":"ep","mslp":946,"dtg":2026092512,"year":2026,"month":"09","day":25,"hhmm":"1200","lat":18,"lon":-124,"ss":4,"idp_source":"EP162026_pts","idp_filedate":1790521351000,"idp_ingestdate":1790521479000,"binnumber":"EP1"}},{"type":"Feature","id":7900,"geometry":{"type":"Point","coordinates":[-123.69999999999993,18.000000000100044]},"properties":{"objectid":7900,"stormname":"ODALYS","stormtype":"HU","stormnum":16,"intensity":115,"basin":"ep","mslp":947,"dtg":2026092518,"year":2026,"month":"09","day":25,"hhmm":"1800","lat":18,"lon":-124,"ss":4,"idp_source":"EP162026_pts","idp_filedate":1790521351000,"idp_ingestdate":1790521479000,"binnumber":"EP1"}},{"type":"Feature","id":7901,"geometry":{"type":"Point","coordinates":[-123.69999999999993,18.400000000200009]},"properties":{"objectid":7901,"stormname":"ODALYS","stormtype":"HU","stormnum":16,"intensity":110,"basin":"ep","mslp":947,"dtg":2026092600,"year":2026,"month":"09","day":26,"hhmm":"0000","lat":18,"lon":-124,"ss":3,"idp_source":"EP162026_pts","idp_filedate":1790521351000,"idp_ingestdate":1790521479000,"binnumber":"EP1"}},{"type":"Feature","id":7902,"geometry":{"type":"Point","coordinates":[-123.79999999980004,18.800000000299917]},"properties":{"objectid":7902,"stormname":"ODALYS","stormtype":"HU","stormnum":16,"intensity":100,"basin":"ep","mslp":955,"dtg":2026092606,"year":2026,"month":"09","day":26,"hhmm":"0600","lat":19,"lon":-124,"ss":3,"idp_source":"EP162026_pts","idp_filedate":1790521351000,"idp_ingestdate":1790521479000,"binnumber":"EP1"}},{"type":"Feature","id":7903,"geometry":{"type":"Point","coordinates":[-123.69999999999993,19.499999999800309]},"properties":{"objectid":7903,"stormname":"ODALYS","stormtype":"HU","stormnum":16,"intensity":90,"basin":"ep","mslp":965,"dtg":2026092612,"year":2026,"month":"09","day":26,"hhmm":"1200","lat":20,"lon":-124,"ss":2,"idp_source":"EP162026_pts","idp_filedate":1790521351000,"idp_ingestdate":1790521479000,"binnumber":"EP1"}},{"type":"Feature","id":7904,"geometry":{"type":"Point","coordinates":[-123.60000000019977,20.200000000199964]},"properties":{"objectid":7904,"stormname":"ODALYS","stormtype":"HU","stormnum":16,"intensity":80,"basin":"ep","mslp":973,"dtg":2026092618,"year":2026,"month":"09","day":26,"hhmm":"1800","lat":20,"lon":-124,"ss":1,"idp_source":"EP162026_pts","idp_filedate":1790521351000,"idp_ingestdate":1790521479000,"binnumber":"EP1"}},{"type":"Feature","id":7905,"geometry":{"type":"Point","coordinates":[-123.60000000019977,20.899999999700356]},"properties":{"objectid":7905,"stormname":"ODALYS","stormtype":"HU","stormnum":16,"intensity":75,"basin":"ep","mslp":975,"dtg":2026092700,"year":2026,"month":"09","day":27,"hhmm":"0000","lat":21,"lon":-124,"ss":1,"idp_source":"EP162026_pts","idp_filedate":1790521351000,"idp_ingestdate":1790521479000,"binnumber":"EP1"}},{"type":"Feature","id":7906,"geometry":{"type":"Point","coordinates":[-123.50000000039961,21.699999999900228]},"properties":{"objectid":7906,"stormname":"ODALYS","stormtype":"HU","stormnum":16,"intensity":65,"basin":"ep","mslp":985,"dtg":2026092706,"year":2026,"month":"09","day":27,"hhmm":"0600","lat":22,"lon":-124,"ss":1,"idp_source":"EP162026_pts","idp_filedate":1790521351000,"idp_ingestdate":1790521479000,"binnumber":"EP1"}},{"type":"Feature","id":7907,"geometry":{"type":"Point","coordinates":[-123.39999999970013,22.40000000029994]},"properties":{"objectid":7907,"stormname":"ODALYS","stormtype":"TS","stormnum":16,"intensity":55,"basin":"ep","mslp":992,"dtg":2026092712,"year":2026,"month":"09","day":27,"hhmm":"1200","lat":22,"lon":-123,"ss":0,"idp_source":"EP162026_pts","idp_filedate":1790521351000,"idp_ingestdate":1790521479000,"binnumber":"EP1"}}]}