{"type":"FeatureCollection","features":[{"type":"Feature","id":233,"geometry":{"type":"Polygon","coordinates":[[[-122.32253000035911,17.816739999951153],[-122.30533999994094,17.814460000029101],[-122.28678999975858,17.813000000149998],[-122.26669000004335,17.812180000107048],[-122.24540999987153,17.811819999693398],[-122.22330999965669,17.811730000039631],[-122.2007600002737,17.811730000039631],[-122.17802000022272,17.811730000039631],[-122.15528999973361,17.811730000039631],[-122.13254999968262,17.811730000039631],[-122.10982000009284,17.811730000039631],[-122.08706999958071,17.811730000039631],[-122.06433000042909,17.811730000039631],[-122.04159999993993,17.811730000039631],[-122.018859999889,17.811730000039631],[-121.99611999983802,17.811730000039631],[-121.973479999902,17.811819999693398],[-121.95110000026472,17.812180000107048],[-121.92918000025674,17.813000000149998],[-121.90790999964668,17.814460000029101],[-121.88745000041712,17.816739999951153],[-121.86779999986999,17.819839999916212],[-121.84879999962021,17.823570000155541],[-121.83023999987603,17.827760000024114],[-121.81197000001538,17.832230000214452],[-121.79376999978558,17.836779999597468],[-121.77556999955573,17.841340000340892],[-121.76648000035163,17.843609999801799],[-121.73919999958025,17.850449999567957],[-121.7119100001463,17.857279999772288],[-121.70290999969666,17.859650000247427],[-121.68500000024972,17.864479999952152],[-121.67618000000692,17.867029999734825],[-121.64980999983152,17.87476999963593],[-121.6327999996202,17.880509999936692],[-121.61614999982254,17.886620000212986],[-121.59968999979355,17.892900000234988],[-121.58349999962519,17.89945999967938],[-121.56748999966368,17.906200000229944],[-121.55130000039463,17.912759999674392],[-121.53493000001941,17.919139999811307],[-121.51865000019728,17.925609999601932],[-121.50237000037515,17.932080000291933],[-121.47799999980003,17.941819999793267],[-121.47017999980704,17.945380000286946],[-121.45470999956672,17.952659999659375],[-121.4395300001093,17.960229999814771],[-121.42469999970513,17.968149999922673],[-121.41032000026769,17.976529999659874],[-121.38924000032569,17.989559999794267],[-121.38231999956821,17.994029999984662],[-121.36857999996693,18.003039999996133],[-121.35495000004238,18.012150000122574],[-121.34130000009486,18.021260000248958],[-121.32767000017026,18.030370000375342],[-121.30721000004138,18.044040000345888],[-121.30037999983705,18.048600000189992],[-121.28683000000439,18.057799999970143],[-121.27346000037863,18.067179999957148],[-121.26027000006036,18.076749999712831],[-121.24725999994894,18.086490000113542],[-121.22806999993048,18.101439999756337],[-121.21515000037215,18.111269999810759],[-121.20859999959021,18.116100000414804],[-121.19551000028622,18.125759999824254],[-121.17587000020023,18.140240000275924],[-121.16940999997144,18.145159999634416],[-121.1504099997216,18.160290000383327],[-121.14439999956022,18.165659999809293],[-121.12659000022825,18.181970000115541],[-121.12084999992749,18.187619999863216],[-121.10366999997041,18.204560000443792],[-121.09238000003688,18.216040000146052],[-121.08675000031218,18.221780000446813],[-121.07019000016828,18.239359999964165],[-121.0648300003042,18.245379999687373],[-121.04927999997193,18.263960000353848],[-121.03944000035563,18.27689999993521],[-121.02982000009285,18.29001999972337],[-121.02017000024523,18.303140000410849],[-121.01052999995943,18.316249999737863],[-121.00069999990495,18.329190000218489],[-120.99068999964368,18.341949999592941],[-120.98087000005034,18.354890000073567],[-120.96650999973662,18.374650000297436],[-120.9617800001468,18.381300000294914],[-120.95250000027471,18.394790000058606],[-120.9434100001713,18.408449999567949],[-120.93430999960668,18.422120000437815],[-120.92522000040259,18.435779999947158],[-120.91611999983803,18.449449999917704],[-120.90702999973462,18.463119999888249],[-120.89793000006938,18.476780000296912],[-120.88902000017276,18.490629999574935],[-120.88028999958374,18.504659999959188],[-120.87174999966265,18.518869999650917],[-120.85973999980104,18.541009999911694],[-120.85218999966867,18.556219999853226],[-120.84844999986751,18.563870000100565],[-120.83808999965368,18.587650000447297],[-120.83481000038114,18.595760000323878],[-120.82862999957473,18.612339999591427],[-120.81954000037064,18.637390000048583],[-120.81663999973608,18.645869999900697],[-120.80817000034517,18.671560000194006],[-120.80243999960618,18.688590000428292],[-120.79955000033215,18.697070000280405],[-120.79387999966218,18.71419999973034],[-120.78824999993748,18.731319999618449],[-120.77979000010833,18.757020000372847],[-120.77698000002687,18.765580000316902],[-120.77170999981655,18.783070000180487],[-120.76659999979006,18.800740000250926],[-120.76168999999339,18.818600000090044],[-120.75696000040358,18.836640000136015],[-120.7524100001213,18.85486000038884],[-120.7480499996077,18.873259999949198],[-120.74405000040713,18.892030000384352],[-120.74059000002836,18.911339999641427],[-120.73695000034218,18.941859999639405],[-120.7355000000249,18.963179999857232],[-120.73467999998189,18.985130000349386],[-120.73431000000642,19.007550000032609],[-120.73422000035265,19.030230000014626],[-120.73422000035265,19.053010000111556],[-120.73422000035265,19.064389999698847],[-120.73422000035265,19.098559999844269],[-120.73422000035265,19.121330000379373],[-120.73422000035265,19.144109999576983],[-120.73422000035265,19.166889999673913],[-120.73431000000642,19.189569999655873],[-120.73467999998189,19.211979999777327],[-120.7355000000249,19.23393999983125],[-120.73695000034218,19.255260000049077],[-120.73921999980308,19.275749999762809],[-120.74223000011432,19.295520000447823],[-120.74568000003188,19.314840000165987],[-120.74760000043955,19.324309999806758],[-120.75323000016431,19.352830000204506],[-120.75504999955774,19.362390000398364],[-120.76078000029668,19.390820000242968],[-120.76296999966564,19.400020000023119],[-120.76952000044759,19.427620000262948],[-120.77443000024419,19.445480000102066],[-120.77979000010833,19.462880000311884],[-120.78543000029418,19.480009999761819],[-120.79106999958071,19.497140000111074],[-120.79397999977709,19.505610000401362],[-120.80280000001989,19.530929999819762],[-120.80899000038812,19.54750999998663],[-120.81525999994892,19.563999999600469],[-120.82182000029269,19.58022000025295],[-120.82855000038211,19.596250000237433],[-120.83510000026473,19.612469999990651],[-120.84146999994044,19.628869999950666],[-120.84791999970815,19.645180000256971],[-120.85753999997092,19.669679999632422],[-120.86072999958969,19.677880000062089],[-120.86410000031469,19.685900000284903],[-120.87400999956174,19.71012999979979],[-120.87718999961868,19.718330000229457],[-120.88691999955824,19.742750000412343],[-120.89337999978704,19.759059999819272],[-120.8998400000159,19.775359999664374],[-120.90620000012979,19.791759999624446],[-120.91275999957423,19.807980000276928],[-120.91948999966365,19.824010000261467],[-120.9260400004456,19.840230000014628],[-120.92921999960322,19.848430000444296],[-120.93885999988902,19.872929999819803],[-120.94530999965667,19.889240000126051],[-120.95505000005738,19.91366000030888],[-120.95860000008986,19.921489999863752],[-120.96576999978555,19.937069999780817],[-120.97296000040359,19.952649999697883],[-120.98015000012231,19.968229999614948],[-120.98733999984103,19.983810000431333],[-120.99062000001288,19.991909999846769],[-121.00379999987001,20.024259999699382],[-121.00708000004187,20.032360000014137],[-121.01026000009881,20.040560000443804],[-121.01990999994644,20.065070000280457],[-121.02645000026723,20.081290000033619],[-121.03318000035665,20.097320000018101],[-121.03971999977807,20.113539999771319],[-121.04601000026122,20.130030000284421],[-121.05219000016825,20.14660999955197],[-121.05818999986849,20.163369999925692],[-121.06391000014628,20.18040999972186],[-121.06682000034266,20.188880000012148],[-121.07565000014728,20.21420999989175],[-121.08183000005437,20.230790000058619],[-121.08811000007637,20.247279999672401],[-121.09802000022273,20.27151000008655],[-121.10137999958721,20.279530000309421],[-121.10457000010535,20.287729999839769],[-121.1142100003911,20.312230000114539],[-121.12039000029819,20.328819999843233],[-121.12638999999842,20.345580000216955],[-121.13213000029918,20.362609999551978],[-121.13776000002389,20.379739999901233],[-121.1434899998635,20.396779999697344],[-121.14921999970312,20.413809999931686],[-121.15485000032714,20.430940000280941],[-121.16331000015629,20.456629999674874],[-121.16622000035267,20.465110000426307],[-121.17195000019228,20.48213999976133],[-121.17759999993996,20.499270000110585],[-121.18322999966466,20.516399999560463],[-121.1889600004036,20.533429999794805],[-121.19469000024321,20.550469999590973],[-121.20033000042906,20.567590000378345],[-121.2087900002582,20.59329000023348],[-121.21168999999344,20.601759999624448],[-121.21450999963668,20.610319999568446],[-121.22024999993744,20.627360000263934],[-121.22870999976658,20.653049999657924],[-121.23161000040108,20.661519999948155],[-121.24017000034513,20.687119999688377],[-121.2429800004266,20.695690000093578],[-121.24861999971313,20.71280999998163],[-121.25717999965718,20.738409999721853],[-121.26291000039612,20.755450000417341],[-121.26573000003935,20.764010000361395],[-121.27418000030667,20.789710000216473],[-121.27991000014629,20.806739999551496],[-121.28272999978958,20.81530000039487],[-121.28847000009034,20.832340000190982],[-121.29692000035766,20.858029999584971],[-121.30265000019727,20.875070000280402],[-121.30838000003689,20.892099999615425],[-121.31402000022274,20.90922999996468],[-121.31975000006236,20.926269999760848],[-121.32884000016577,20.951320000218004],[-121.33194000013083,20.959610000301439],[-121.33820999969163,20.97609999991522],[-121.34475999957425,20.992319999668382],[-121.35150000012482,21.008349999652921],[-121.35805000000738,21.024570000305403],[-121.36114000041061,21.032860000388837],[-121.37050000037465,21.057640000086053],[-121.37650000007483,21.074399999560455],[-121.37931999971812,21.08296000040383],[-121.38787000010035,21.108560000144053],[-121.39359999993997,21.125599999940164],[-121.39932000021776,21.142639999736332],[-121.40778999960872,21.168330000029641],[-121.4163399999909,21.193929999769807],[-121.42206000026869,21.21096000000415],[-121.42769999955522,21.228090000353347],[-121.43333999974112,21.245219999803282],[-121.43624999993744,21.25369000009357],[-121.44478999985853,21.279289999833793],[-121.45043000004438,21.296420000182991],[-121.45607999979205,21.313549999632926],[-121.46180999963167,21.330579999867268],[-121.4675400003706,21.34761999966338],[-121.47317999965719,21.364750000012634],[-121.47881000028121,21.381869999900744],[-121.48743999985601,21.407379999987143],[-121.49026999996045,21.415950000392343],[-121.49591999970812,21.433070000280452],[-121.50155999989397,21.45019999973033],[-121.50718999961867,21.467330000079585],[-121.51264999959773,21.484639999736316],[-121.51783000015428,21.502220000153045],[-121.52284000006586,21.519990000338396],[-121.52766000020875,21.537930000269455],[-121.53238999979857,21.555970000315426],[-121.53720999994147,21.573919999808311],[-121.54221000029116,21.591680000431836],[-121.5474000004096,21.609270000410334],[-121.55284999992745,21.626580000067065],[-121.5584900001133,21.643699999955174],[-121.5641300002992,21.660830000304429],[-121.5697600000239,21.677959999754307],[-121.57550000032467,21.694999999550475],[-121.58123000016428,21.712029999784818],[-121.58404999980758,21.720600000190018],[-121.59250999963666,21.746289999583951],[-121.59541000027122,21.754759999874238],[-121.60395999975407,21.780359999614404],[-121.60959999993997,21.797489999963659],[-121.61522999966468,21.814609999851768],[-121.62096999996544,21.83164999964788],[-121.62669999980506,21.848679999882222],[-121.63233000042908,21.865810000231477],[-121.63796999971561,21.882939999681355],[-121.64087999991199,21.891409999971643],[-121.64943000029416,21.917009999711865],[-121.65508000004189,21.93414000006112],[-121.6607099997666,21.951270000410318],[-121.66643999960621,21.968299999745341],[-121.67217000034515,21.985340000440829],[-121.67780000006985,22.002469999890707],[-121.68354000037061,22.019500000125049],[-121.69264000003591,22.044560000144031],[-121.69571999997794,22.052850000227465],[-121.70199999999988,22.069339999841247],[-121.70536999982556,22.077349999602916],[-121.7119100001463,22.093570000255454],[-121.72182000029267,22.117799999770341],[-121.72500999991149,22.126000000200008],[-121.73465000019723,22.150510000036604],[-121.74109999996494,22.166820000342909],[-121.74756999975557,22.183120000188012],[-121.75439000039813,22.199070000080553],[-121.76156999965565,22.214649999997619],[-121.76884000036563,22.230129999799772],[-121.77631000040611,22.245439999856274],[-121.7839399997311,22.260560000144039],[-121.79148999986353,22.275779999647398],[-121.7990399999959,22.29098999958893],[-121.80667000022027,22.306109999876753],[-121.81422000035263,22.321330000279431],[-121.81804999980756,22.328889999973683],[-121.82561000040113,22.344099999915215],[-121.83696000040362,22.366880000012145],[-121.84452000009782,22.382089999953678],[-121.8522500004371,22.397130000149502],[-121.86007000043008,22.412070000230472],[-121.87216000038364,22.434110000376336],[-121.88072000032764,22.448329999629948],[-121.8894500000174,22.462349999552998],[-121.89835999991396,22.476199999730341],[-121.9074599995792,22.489869999700886],[-121.91654999968267,22.503530000109549],[-121.93474000035064,22.530859999589438],[-121.94382999955474,22.544529999559984],[-121.9529300001193,22.558200000429792],[-121.96202000022276,22.571859999939193],[-121.98020999999142,22.599190000318401],[-121.9847600002737,22.606030000084559],[-121.98930000009483,22.612860000288947],[-122.00767999963216,22.640009999561983],[-122.01713999971111,22.653309999556996],[-122.01723000026419,22.653219999903229],[-122.03659999959024,22.679360000263955],[-122.04660000028969,22.692119999638408],[-122.05151000008635,22.698590000328409],[-122.06606000016876,22.718170000345367],[-122.07569999955524,22.731290000133527],[-122.08051999969814,22.737849999577975],[-122.09516999989546,22.757350000402312],[-122.10536000036365,22.769920000008142],[-122.11072999978956,22.775930000169524],[-122.12154999963269,22.787859999939201],[-122.13828000042162,22.805269999710845],[-122.14957000035514,22.816750000312425],[-122.1610100000114,22.828040000245949],[-122.16092999991946,22.828129999899716],[-122.18375000006233,22.850820000342878],[-122.19503999999591,22.862300000045082],[-122.20647999965217,22.873600000439808],[-122.2177699995857,22.885069999680866],[-122.22350000032463,22.890720000327917],[-122.24050999963669,22.907849999777795],[-122.25195000019227,22.919150000172522],[-122.26324000012579,22.930629999874725],[-122.2746900002432,22.941919999808306],[-122.28598000017678,22.953400000409829],[-122.29741999983304,22.964699999905235],[-122.30890000043456,22.97598999983876],[-122.30907000018027,22.975809999631906],[-122.33271999992797,22.997680000032119],[-122.33899999994992,23.002779999597465],[-122.35818000040661,23.017719999678377],[-122.37146999994047,23.027190000218468],[-122.38491999965817,23.036479999652386],[-122.39856999960568,23.045600000239972],[-122.41221999955326,23.054710000366356],[-122.42585999993895,23.06381999959342],[-122.43950000032464,23.072929999719861],[-122.45313999981107,23.082039999846245],[-122.46678000019676,23.091149999972686],[-122.48769000039312,23.104360000313932],[-122.49480000001989,23.108639999836271],[-122.51688999977358,23.12066999972086],[-122.52443999990595,23.124489999613957],[-122.5483600004136,23.134700000105056],[-122.55645999982903,23.137980000276912],[-122.58083000040409,23.147719999778303],[-122.58902000037261,23.150910000296392],[-122.60538000028669,23.157290000433306],[-122.62976000042357,23.167040000395843],[-122.64641000022124,23.173140000210992],[-122.65485999958923,23.176059999969141],[-122.68097000036511,23.184069999730866],[-122.69879000015828,23.188989999988678],[-122.71697999992693,23.193549999832783],[-122.73553000010935,23.197739999701355],[-122.74489999963521,23.199749999762844],[-122.7741899995687,23.204569999905686],[-122.79464999969764,23.206849999827796],[-122.80509999956524,23.207760000423832],[-122.83784000031568,23.209129999749848],[-122.86021000039113,23.209490000163498],[-122.88285999988898,23.209579999817265],[-122.90559999993997,23.209579999817265],[-122.92825000033713,23.209490000163498],[-122.93934999960271,23.209220000302935],[-122.97254999998245,23.208309999706842],[-122.99381999969313,23.206849999827796],[-123.01427999982207,23.204569999905686],[-123.03393999993096,23.201469999940684],[-123.05292999971959,23.197739999701355],[-123.07149000036316,23.193549999832783],[-123.08057999956725,23.19126999991073],[-123.09877000023522,23.186719999628394],[-123.11677999979707,23.181979999577436],[-123.1346100000514,23.177060000219001],[-123.16098000022674,23.169320000317896],[-123.17799000043806,23.163569999555989],[-123.20291000029619,23.154369999775838],[-123.21100999971162,23.151089999603926],[-123.23473999955127,23.140710000266438],[-123.24238999979855,23.136969999565963],[-123.26512000028771,23.125589999978672],[-123.27230000044455,23.121400000110043],[-123.29330999985649,23.108280000321884],[-123.30677999959721,23.09898000042682],[-123.31986999980057,23.08932000011805],[-123.32622999991446,23.084310000206472],[-123.34552000004788,23.069470000240472],[-123.35861000025125,23.059809999931701],[-123.37169999955523,23.050149999622931],[-123.37825000033718,23.045319999918206],[-123.39771999977808,23.030649999697857],[-123.40389999968517,23.025459999579482],[-123.4217200003776,23.009159999734322],[-123.43283000010433,22.99749000026344],[-123.43800000019974,22.991299999895205],[-123.45302000037265,22.972169999945663],[-123.46246000042856,22.95886999995065],[-123.46710000036461,22.952130000299405],[-123.4808500004271,22.931719999778295],[-123.48993999963119,22.918049999807806],[-123.49904000019575,22.904390000298406],[-123.50813000029916,22.890720000327917],[-123.51722999996446,22.877059999919197],[-123.52632000006787,22.863389999948652],[-123.53077999979706,22.856470000090553],[-123.54378000034666,22.83533000007958],[-123.55579000020828,22.813189999818803],[-123.55959999964017,22.805630000124552],[-123.56652999995941,22.789780000346866],[-123.57289000007336,22.773380000386851],[-123.57906999998045,22.756800000219982],[-123.58771000001639,22.731290000133527],[-123.59052999965968,22.722730000189472],[-123.5961600002837,22.705599999840274],[-123.60435000025223,22.679639999686401],[-123.6069000000349,22.6708000003199],[-123.61162999962471,22.652760000273929],[-123.61599999970014,22.634359999814308],[-123.61999999980009,22.615590000278416],[-123.62553999987102,22.586980000226959],[-123.62746000027869,22.577509999686868],[-123.63126000014881,22.55855999994418],[-123.63489999983506,22.539429999994638],[-123.63834999975262,22.520110000276418],[-123.64162999992448,22.500619999913226],[-123.64454999968262,22.480759999574445],[-123.647459999879,22.460900000135041],[-123.65246999979058,22.431750000362342],[-123.65418999996842,22.422090000053629],[-123.65929000043309,22.393020000372871],[-123.66092000005784,22.38327999997216],[-123.66363999958622,22.363240000325902],[-123.66601999962319,22.331439999756299],[-123.66683999966614,22.309479999702376],[-123.6671899996187,22.287080000042124],[-123.66728000017179,22.264389999598961],[-123.66728000017179,22.241610000401351],[-123.66728000017179,22.218839999866248],[-123.66728000017179,22.207449999817754],[-123.66773999980109,22.173740000201008],[-123.66855999984404,22.151780000147028],[-123.66911000002636,22.140949999842746],[-123.67093000031917,22.119990000038626],[-123.6736600003087,22.099950000392369],[-123.67867000022022,22.07079999972035],[-123.68037999993697,22.0611400003109],[-123.68364999964768,22.041640000385826],[-123.68729000023325,22.011120000387848],[-123.68875000011235,21.989800000170021],[-123.68947999960221,21.967940000230954],[-123.68947999960221,21.945889999623944],[-123.68875000011235,21.924029999684876],[-123.68729999979507,21.902710000366369],[-123.68347000034015,21.872369999675868],[-123.68156000039363,21.862900000035097],[-123.67729000043306,21.844400000359883],[-123.67210999987651,21.826819999943211],[-123.66592999996942,21.810239999776286],[-123.65882999990447,21.79457000020551],[-123.64655000018229,21.772710000266443],[-123.64608999965367,21.773160000333917],[-123.62672000032768,21.747019999973134],[-123.61599999970014,21.734990000088601],[-123.60470999976656,21.723510000386341],[-123.59325999964915,21.712209999991671],[-123.58124999978759,21.701459999779331],[-123.56888000041158,21.691080000441787],[-123.56223999997593,21.686340000390828],[-123.53387000020024,21.66921000004163],[-123.52632000006787,21.665390000148534],[-123.51105000005737,21.657920000108049],[-123.50331000015626,21.654269999960661],[-123.48067000022024,21.642790000258458],[-123.46702999983455,21.633680000132017],[-123.45501999997293,21.622929999919677],[-123.44974999976256,21.616830000104585],[-123.43591000004636,21.596510000136561],[-123.43264999989748,21.588409999821749],[-123.42445000036713,21.562440000106051],[-123.4251900003182,21.561709999716868],[-123.42000000019976,21.532740000151023],[-123.41846000022872,21.511509999586963],[-123.41762999972462,21.489559999994128],[-123.41727000021024,21.467149999872731],[-123.41717999965715,21.444460000328888],[-123.41717999965715,21.421689999793784],[-123.41717999965715,21.398909999696855],[-123.41717999965715,21.376129999599925],[-123.41717999965715,21.364750000012634],[-123.41717999965715,21.330579999867268],[-123.41717999965715,21.319189999818775],[-123.41717999965715,21.296420000182991],[-123.41708000044156,21.262350000152537],[-123.41672000002791,21.239929999569938],[-123.41589000042308,21.21797999997716],[-123.41446000012883,21.196659999759333],[-123.41308999990349,21.186639999936176],[-123.40916999989548,21.156389999798819],[-123.40744000015582,21.146739999951194],[-123.40417000044505,21.12724000002612],[-123.39943999995592,21.097809999931712],[-123.39716999959569,21.077320000217981],[-123.39570999971664,21.056000000000154],[-123.39490000013478,21.034039999946174],[-123.39453000015931,21.011629999824777],[-123.39443999960622,20.98894999984276],[-123.39443999960622,20.977559999794323],[-123.39443999960622,20.9433899996489],[-123.39443999960622,20.920620000013116],[-123.39443999960622,20.897839999916187],[-123.39443999960622,20.875070000280402],[-123.39443999960622,20.85229000018353],[-123.39443999960622,20.829519999648426],[-123.39443999960622,20.806739999551496],[-123.39443999960622,20.783960000353886],[-123.39443999960622,20.761189999818782],[-123.39443999960622,20.738409999721853],[-123.39443999960622,20.715640000086069],[-123.39434999995245,20.692949999642906],[-123.39397999997692,20.670540000420829],[-123.39315999993397,20.648580000366849],[-123.39170999961669,20.627269999710848],[-123.38944000015579,20.60677000043529],[-123.3864400003057,20.586999999750333],[-123.38133999984103,20.557939999631401],[-123.38143000039412,20.557849999977634],[-123.3753400001408,20.518400000060069],[-123.37579000020827,20.517940000430826],[-123.3729800001268,20.486600000389842],[-123.37214999962271,20.464649999897745],[-123.37179999967015,20.442239999776291],[-123.37169999955523,20.419550000232448],[-123.37169999955523,20.396779999697344],[-123.37169999955523,20.373999999600414],[-123.37169999955523,20.351220000402861],[-123.37169999955523,20.328449999867757],[-123.37169999955523,20.317059999819264],[-123.37169999955523,20.282900000135044],[-123.37169999955523,20.260120000038114],[-123.37169999955523,20.23735000040233],[-123.37169999955523,20.2145700003054],[-123.37169999955523,20.191790000208471],[-123.37169999955523,20.169019999673367],[-123.37169999955523,20.146239999576437],[-123.37169999955523,20.12346999994071],[-123.37169999955523,20.10068999984378],[-123.37169999955523,20.077920000207996],[-123.37169999955523,20.055140000111066],[-123.37169999955523,20.032360000014137],[-123.37169999955523,20.009590000378353],[-123.37169999955523,19.986810000281423],[-123.37169999955523,19.964039999746319],[-123.37169999955523,19.94125999964939],[-123.37179999967015,19.918579999667372],[-123.37216000008385,19.896170000445295],[-123.37298999968863,19.874210000391372],[-123.3744400000059,19.852890000173488],[-123.3753400001408,19.842409999821768],[-123.37807000013032,19.822370000175511],[-123.38135000030218,19.802879999812262],[-123.3864400003057,19.773819999693387],[-123.3880800003916,19.764060000169025],[-123.39098999968866,19.744210000291446],[-123.39443999960622,19.713499999625412],[-123.39553999997094,19.703209999941691],[-123.39935000030221,19.67287000015051],[-123.40079999972011,19.662939999981177],[-123.40580999963169,19.633790000208478],[-123.40754999983255,19.624129999899708],[-123.41263999983602,19.595069999780833],[-123.414259999899,19.585319999818296],[-123.41862999997443,19.555530000209501],[-123.42172999993943,19.535850000077573],[-123.42509000020323,19.516450000267412],[-123.42681999994295,19.506789999958698],[-123.43028000032166,19.487479999802304],[-123.43355000003237,19.46797999987723],[-123.43763999978609,19.437920000407814],[-123.4388099997816,19.427709999916715],[-123.44217999960722,19.396920000058117],[-123.44481999994298,19.376789999858772],[-123.4462700002602,19.366859999689382],[-123.44955000043205,19.347359999764308],[-123.45302000037265,19.328049999607913],[-123.45766000030869,19.298529999859738],[-123.45900999961168,19.288510000036638],[-123.46138000008682,19.256710000366354],[-123.46220000012983,19.234759999874257],[-123.46255000008233,19.212349999752803],[-123.46265000019724,19.18966000020896],[-123.46265000019724,19.166889999673913],[-123.46265000019724,19.144109999576983],[-123.46265000019724,19.121330000379373],[-123.46265000019724,19.098559999844269],[-123.46265000019724,19.07577999974734],[-123.46265000019724,19.053010000111556],[-123.46265000019724,19.030230000014626],[-123.46255000008233,19.007550000032609],[-123.46218999966868,18.985130000349386],[-123.46136000006385,18.963179999857232],[-123.4599299997696,18.941859999639405],[-123.45856000044358,18.931839999816304],[-123.4546499999974,18.90158999967889],[-123.45120000007984,18.882280000421815],[-123.44746000027868,18.863240000126041],[-123.44555999989399,18.853760000024124],[-123.43991999970814,18.825250000087578],[-123.43410000021476,18.796920000357886],[-123.43391000044608,18.79709999966542],[-123.42952999990945,18.778689999643916],[-123.42244999986752,18.751639999586473],[-123.41708000044156,18.734240000275918],[-123.41144999981753,18.71710999992672],[-123.40582000009283,18.699979999577465],[-123.40290999989651,18.691510000186497],[-123.39408000009183,18.666180000306895],[-123.3878899997236,18.649600000140026],[-123.38152000004789,18.633200000180011],[-123.37468999984355,18.617259999849239],[-123.36752000014781,18.601679999932173],[-123.360239999876,18.586189999668875],[-123.34896999996545,18.563330000379381],[-123.34515000007235,18.555769999785809],[-123.33759999993993,18.540550000282451],[-123.33004999980756,18.525340000340861],[-123.32232999992948,18.510309999706863],[-123.31450000037461,18.495369999625893],[-123.30650000017476,18.480609999751834],[-123.29812999999939,18.466210000291426],[-123.28513000034917,18.445079999842278],[-123.27620999999141,18.431229999664879],[-123.27612000033764,18.431320000217966],[-123.2578400000159,18.404080000391843],[-123.25311000042609,18.397430000394365],[-123.23873999965116,18.377659999709351],[-123.22890999959674,18.364720000128045],[-123.2189200002577,18.351970000315418],[-123.20909000020328,18.339029999834736],[-123.19944999991748,18.325910000046576],[-123.19462999977458,18.319360000164011],[-123.18017999980708,18.299669999570938],[-123.1703499997526,18.286739999551457],[-123.16016000018379,18.274169999945684],[-123.15480000031965,18.268150000222477],[-123.14397999957725,18.25621999955348],[-123.12724000012582,18.238820000242981],[-123.11597000021527,18.227339999641401],[-123.10448999961369,18.216040000146052],[-123.09323000016428,18.204570000005617],[-123.08176000002391,18.193269999610948],[-123.07603000018429,18.187619999863216],[-123.06439999986003,18.176510000136545],[-123.04647999995194,18.160290000383327],[-123.03391999990799,18.150090000353373],[-123.02100999991148,18.140240000275924],[-123.00791999970812,18.130590000428299],[-123.00136999982556,18.125759999824254],[-122.9819000003846,18.111089999603962],[-122.96936000036362,18.100889999573951],[-122.95717000029521,18.090319999568464],[-122.93888999997341,18.074469999790779],[-122.93279999972015,18.069190000018637],[-122.92006000036861,18.059159999734334],[-122.89987999966218,18.04523000036437],[-122.89295999980408,18.040760000174032],[-122.87877000013532,18.032200000229977],[-122.86420999959171,18.02399999980031],[-122.8498500001773,18.015620000063109],[-122.83565999960922,18.007049999657909],[-122.82165999970914,17.99831000040632],[-122.80765000024724,17.989559999794267],[-122.79363999988601,17.98081000008159],[-122.77218000040659,17.968149999922673],[-122.76490999969661,17.964049999707868],[-122.74998000007685,17.956220000152996],[-122.73508000004188,17.948380000137035],[-122.71999000023823,17.940729999889697],[-122.69678999965868,17.92980000036988],[-122.68906000021872,17.926150000222492],[-122.67342000023274,17.91905000015754],[-122.64895000044208,17.90938999984877],[-122.64066999992048,17.906289999883711],[-122.61566000040858,17.897179999757327],[-122.60721000014132,17.894269999560947],[-122.59009999981504,17.888619999813272],[-122.5730100004111,17.882970000065598],[-122.5560899998535,17.877140000111069],[-122.53899999955024,17.871490000363337],[-122.52189999968516,17.865839999716343],[-122.5047900002582,17.860200000429813],[-122.48769999995494,17.854549999782819],[-122.47006000036862,17.849450000217473],[-122.45206000036865,17.844710000166515],[-122.43376000002388,17.840340000091089],[-122.41539000004838,17.836330000429314],[-122.39712000018778,17.832680000281925],[-122.37109000040311,17.826939999981164],[-122.35482999970463,17.823209999741835],[-122.33881999974312,17.8197399998013],[-122.32253000035911,17.816739999951153]]]},"properties":{"objectid":233,"stormname":"Odalys","stormtype":"HU","basin":"EP","advdate":"200 AM PDT Sun Sep 27 2026","advisnum":"30","fcstprd":120,"stormnum":16,"idp_source":"ep162026-030_5day_pgn","idp_filedate":1790500685000,"idp_ingestdate":1790500800000,"st_area(shape)":11.143505577725373,"st_perimeter(shape)":13.745883368124685,"binnumber":"EP1"}}]}