{"type": "FeatureCollection", "features": [{"type": "Feature", "id": 1822, "geometry": {"type": "Point", "coordinates": [-123.60000000019977, 20.499999999600448]}, "properties": {"objectid": 1822, "stormname": "Hurricane Odalys", "stormtype": "HU", "dvlbl": "H", "basin": "EP", "advdate": "200 PM PDT Sat Sep 26 2026", "advisnum": "28", "fcstprd": 120, "gust": 100, "maxwind": 80, "mslp": 973, "ssnum": 1, "datelbl": "2:00 PM Sat", "tcdvlp": "Hurricane", "tcdir": 5, "tcspd": 6, "fldatelbl": "2026-09-26 11:00 AM Sat PDT", "lat": 20, "lon": -124, "stormnum": 16, "stormsrc": "Tropical Cyclone", "tau": 0, "timezone": "PDT", "validtime": "26/1800", "idp_source": "ep162026-028_5day_pts", "idp_filedate": 1790456570000, "idp_ingestdate": 1790456764000, "binnumber": "EP1", "MAXWIND": 80, "VALIDTIME": "26/1800"}}, {"type": "Feature", "id": 1823, "geometry": {"type": "Point", "coordinates": [-123.50000000039961, 21.299999999800264]}, "properties": {"objectid": 1823, "stormname": "Hurricane Odalys", "stormtype": "TS", "dvlbl": "S", "basin": "EP", "advdate": "200 PM PDT Sat Sep 26 2026", "advisnum": "28", "fcstprd": 120, "gust": 75, "maxwind": 60, "mslp": 9999, "ssnum": 0, "datelbl": "11:00 PM Sat", "tcdvlp": "Tropical Storm", "tcdir": 9999, "tcspd": 9999, "fldatelbl": "2026-09-26 11:00 PM Sat PDT", "lat": 21, "lon": -124, "stormnum": 16, "stormsrc": "Tropical Cyclone", "tau": 12, "timezone": "PDT", "validtime": "27/0600", "idp_source": "ep162026-028_5day_pts", "idp_filedate": 1790456570000, "idp_ingestdate": 1790456764000, "binnumber": "EP1", "MAXWIND": 60, "VALIDTIME": "27/0600"}}, {"type": "Feature", "id": 1824, "geometry": {"type": "Point", "coordinates": [-123.2000000000998, 22.29999999960046]}, "properties": {"objectid": 1824, "stormname": "Hurricane Odalys", "stormtype": "TS", "dvlbl": "S", "basin": "EP", "advdate": "200 PM PDT Sat Sep 26 2026", "advisnum": "28", "fcstprd": 120, "gust": 55, "maxwind": 45, "mslp": 9999, "ssnum": 0, "datelbl": "11:00 AM Sun", "tcdvlp": "Tropical Storm", "tcdir": 9999, "tcspd": 9999, "fldatelbl": "2026-09-27 11:00 AM Sun PDT", "lat": 22, "lon": -123, "stormnum": 16, "stormsrc": "Tropical Cyclone", "tau": 24, "timezone": "PDT", "validtime": "27/1800", "idp_source": "ep162026-028_5day_pts", "idp_filedate": 1790456570000, "idp_ingestdate": 1790456764000, "binnumber": "EP1", "MAXWIND": 45, "VALIDTIME": "27/1800"}}, {"type": "Feature", "id": 1825, "geometry": {"type": "Point", "coordinates": [-122.89999999980006, 22.40000000029994]}, "properties": {"objectid": 1825, "stormname": "Hurricane Odalys", "stormtype": "TS", "dvlbl": "S", "basin": "EP", "advdate": "200 PM PDT Sat Sep 26 2026", "advisnum": "28", "fcstprd": 120, "gust": 45, "maxwind": 35, "mslp": 9999, "ssnum": 0, "datelbl": "11:00 PM Sun", "tcdvlp": "Tropical Storm", "tcdir": 9999, "tcspd": 9999, "fldatelbl": "2026-09-27 11:00 PM Sun PDT", "lat": 22, "lon": -123, "stormnum": 16, "stormsrc": "Tropical Cyclone", "tau": 36, "timezone": "PDT", "validtime": "28/0600", "idp_source": "ep162026-028_5day_pts", "idp_filedate": 1790456570000, "idp_ingestdate": 1790456764000, "binnumber": "EP1", "MAXWIND": 35, "VALIDTIME": "28/0600"}}, {"type": "Feature", "id": 1826, "geometry": {"type": "Point", "coordinates": [-122.49999999970015, 21.79999999970039]}, "properties": {"objectid": 1826, "stormname": "Hurricane Odalys", "stormtype": "STD", "dvlbl": "D", "basin": "EP", "advdate": "200 PM PDT Sat Sep 26 2026", "advisnum": "28", "fcstprd": 120, "gust": 35, "maxwind": 25, "mslp": 9999, "ssnum": 0, "datelbl": "11:00 AM Mon", "tcdvlp": "Subtropical Depression", "tcdir": 9999, "tcspd": 9999, "fldatelbl": "2026-09-28 11:00 AM Mon PDT", "lat": 22, "lon": -122, "stormnum": 16, "stormsrc": "Post-Tropical Cyclone", "tau": 48, "timezone": "PDT", "validtime": "28/1800", "idp_source": "ep162026-028_5day_pts", "idp_filedate": 1790456570000, "idp_ingestdate": 1790456764000, "binnumber": "EP1", "MAXWIND": 25, "VALIDTIME": "28/1800"}}, {"type": "Feature", "id": 1827, "geometry": {"type": "Point", "coordinates": [-122.09999999960019, 20.70000000010009]}, "properties": {"objectid": 1827, "stormname": "Hurricane Odalys", "stormtype": "STD", "dvlbl": "D", "basin": "EP", "advdate": "200 PM PDT Sat Sep 26 2026", "advisnum": "28", "fcstprd": 120, "gust": 35, "maxwind": 25, "mslp": 9999, "ssnum": 0, "datelbl": "11:00 PM Mon", "tcdvlp": "Subtropical Depression", "tcdir": 9999, "tcspd": 9999, "fldatelbl": "2026-09-28 11:00 PM Mon PDT", "lat": 21, "lon": -122, "stormnum": 16, "stormsrc": "Post-Tropical Cyclone", "tau": 60, "timezone": "PDT", "validtime": "29/0600", "idp_source": "ep162026-028_5day_pts", "idp_filedate": 1790456570000, "idp_ingestdate": 1790456764000, "binnumber": "EP1", "MAXWIND": 25, "VALIDTIME": "29/0600"}}, {"type": "Feature", "id": 1828, "geometry": {"type": "Point", "coordinates": [-121.89999999999992, 19.49999999980031]}, "properties": {"objectid": 1828, "stormname": "Hurricane Odalys", "stormtype": "STD", "dvlbl": "D", "basin": "EP", "advdate": "200 PM PDT Sat Sep 26 2026", "advisnum": "28", "fcstprd": 120, "gust": 30, "maxwind": 20, "mslp": 9999, "ssnum": 0, "datelbl": "11:00 AM Tue", "tcdvlp": "Subtropical Depression", "tcdir": 9999, "tcspd": 9999, "fldatelbl": "2026-09-29 11:00 AM Tue PDT", "lat": 20, "lon": -122, "stormnum": 16, "stormsrc": "Post-Tropical Cyclone", "tau": 72, "timezone": "PDT", "validtime": "29/1800", "idp_source": "ep162026-028_5day_pts", "idp_filedate": 1790456570000, "idp_ingestdate": 1790456764000, "binnumber": "EP1", "MAXWIND": 20, "VALIDTIME": "29/1800"}}, {"type": "Feature", "id": 1829, "geometry": {"type": "Point", "coordinates": [-122.20000000029967, 18.199999999700367]}, "properties": {"objectid": 1829, "stormname": "Hurricane Odalys", "stormtype": "STD", "dvlbl": "D", "basin": "EP", "advdate": "200 PM PDT Sat Sep 26 2026", "advisnum": "28", "fcstprd": 120, "gust": 30, "maxwind": 20, "mslp": 9999, "ssnum": 0, "datelbl": "11:00 AM Wed", "tcdvlp": "Subtropical Depression", "tcdir": 9999, "tcspd": 9999, "fldatelbl": "2026-09-30 11:00 AM Wed PDT", "lat": 18, "lon": -122, "stormnum": 16, "stormsrc": "Post-Tropical Cyclone", "tau": 96, "timezone": "PDT", "validtime": "30/1800", "idp_source": "ep162026-028_5day_pts", "idp_filedate": 1790456570000, "idp_ingestdate": 1790456764000, "binnumber": "EP1", "MAXWIND": 20, "VALIDTIME": "30/1800"}}]}