{"type":"FeatureCollection","features":[{"type":"Feature","id":240,"geometry":{"type":"LineString","coordinates":[[-123.39999999970013,22.599999999900206],[-123.20000000009981,23.000000000000114],[-122.7999999999999,22.800000000399848],[-122.60000000039963,21.900000000399814],[-122.60000000039963,20.600000000299929],[-122.89999999980006,19.599999999600414],[-123.60000000019977,18.99999999990024]]},"properties":{"objectid":240,"stormname":"Odalys","stormtype":"TS","basin":"EP","advdate":"800 AM PDT Sun Sep 27 2026","advisnum":"31","fcstprd":120,"stormnum":16,"idp_source":"ep162026-031_5day_lin","idp_filedate":1790521351000,"idp_ingestdate":1790521443000,"st_length(shape)":5.0823667337900531,"binnumber":"EP1"}}]}