{"type":"FeatureCollection","features":[{"type":"Feature","id":1424,"geometry":{"type":"LineString","coordinates":[[-109.79999999989997,10.599999999600414],[-110.90000000039959,10.700000000299895],[-112.09999999980005,10.899999999900217],[-113.09999999960019,11.200000000199964],[-115.10000000009984,11.499999999600448],[-116.09999999989998,11.499999999600448],[-116.69999999960021,11.499999999600448],[-117.30000000019976,11.499999999600448],[-117.89999999989999,11.399999999800286],[-119.10000000019977,11.399999999800286],[-120.29999999960023,11.399999999800286],[-121.40000000009985,11.300000000000125],[-122.49999999970015,11.200000000199964],[-123.50000000039961,11.300000000000125],[-124.29999999970016,11.100000000399859]]},"properties":{"objectid":1424,"stormtype":"DB","stormnum":16,"ss":0,"idp_source":"EP162026_lin","idp_filedate":1790478148000,"idp_ingestdate":1790478283000,"st_length(shape)":14.634451243627218,"binnumber":"EP1"}},{"type":"Feature","id":1425,"geometry":{"type":"LineString","coordinates":[[-124.29999999970016,11.100000000399859],[-125.19999999970014,11.100000000399859],[-126.30000000019976,11.600000000299929],[-127.2999999999999,12.79999999970039],[-128.29999999980004,13.299999999600459],[-129.00000000019975,13.599999999900206],[-129.69999999970014,13.800000000399848],[-130.19999999960021,14.300000000299917],[-130.49999999990001,14.49999999990024],[-130.7000000003996,14.800000000199987],[-130.40000000009985,14.999999999800309],[-129.40000000029966,15.200000000299895],[-128.6999999999,15.399999999900217]]},"properties":{"objectid":1425,"stormtype":"TS","stormnum":16,"ss":0,"idp_source":"EP162026_lin","idp_filedate":1790478148000,"idp_ingestdate":1790478283000,"st_length(shape)":9.8145638766384931,"binnumber":"EP1"}},{"type":"Feature","id":1426,"geometry":{"type":"LineString","coordinates":[[-128.6999999999,15.399999999900217],[-128.10000000019977,15.499999999700378],[-127.49999999960022,15.499999999700378],[-126.89999999989999,15.600000000399859],[-126.30000000019976,15.899999999800286],[-125.80000000029969,16.20000000010009],[-125.09999999989998,16.600000000199998],[-124.50000000019975,16.899999999600425]]},"properties":{"objectid":1426,"stormtype":"HU","stormnum":16,"ss":1,"idp_source":"EP162026_lin","idp_filedate":1790478148000,"idp_ingestdate":1790478283000,"st_length(shape)":4.5475142563568669,"binnumber":"EP1"}},{"type":"Feature","id":1427,"geometry":{"type":"LineString","coordinates":[[-124.50000000019975,16.899999999600425],[-124.10000000009984,17.29999999970039]]},"properties":{"objectid":1427,"stormtype":"HU","stormnum":16,"ss":2,"idp_source":"EP162026_lin","idp_filedate":1790478148000,"idp_ingestdate":1790478283000,"st_length(shape)":0.5656854250905694,"binnumber":"EP1"}},{"type":"Feature","id":1428,"geometry":{"type":"LineString","coordinates":[[-124.10000000009984,17.29999999970039],[-123.79999999980004,17.699999999800298],[-123.69999999999993,18.000000000100044],[-123.69999999999993,18.400000000200009]]},"properties":{"objectid":1428,"stormtype":"HU","stormnum":16,"ss":4,"idp_source":"EP162026_lin","idp_filedate":1790478148000,"idp_ingestdate":1790478283000,"st_length(shape)":1.2162277665977634,"binnumber":"EP1"}},{"type":"Feature","id":1429,"geometry":{"type":"LineString","coordinates":[[-123.69999999999993,18.400000000200009],[-123.79999999980004,18.800000000299917],[-123.69999999999993,19.499999999800309]]},"properties":{"objectid":1429,"stormtype":"HU","stormnum":16,"ss":3,"idp_source":"EP162026_lin","idp_filedate":1790478148000,"idp_ingestdate":1790478283000,"st_length(shape)":1.1194173432739003,"binnumber":"EP1"}},{"type":"Feature","id":1430,"geometry":{"type":"LineString","coordinates":[[-123.69999999999993,19.499999999800309],[-123.60000000019977,20.200000000199964]]},"properties":{"objectid":1430,"stormtype":"HU","stormnum":16,"ss":2,"idp_source":"EP162026_lin","idp_filedate":1790478148000,"idp_ingestdate":1790478283000,"st_length(shape)":0.70710678155392404,"binnumber":"EP1"}},{"type":"Feature","id":1431,"geometry":{"type":"LineString","coordinates":[[-123.60000000019977,20.200000000199964],[-123.60000000019977,20.799999999900194]]},"properties":{"objectid":1431,"stormtype":"HU","stormnum":16,"ss":2,"idp_source":"EP162026_lin","idp_filedate":1790478148000,"idp_ingestdate":1790478283000,"st_length(shape)":0.59999999970023055,"binnumber":"EP1"}}]}