{"type":"FeatureCollection","features":[{"type":"Feature","id":279,"geometry":{"type":"LineString","coordinates":[[-113.99999999960022,22.800000000399848],[-113.70000000019974,24.09999999960047],[-112.40000000009985,25.899999999600425],[-110.29999999980004,28.300000000199987],[-107.49999999999989,31.299999999600459]]},"properties":{"objectid":279,"stormname":"Polo","stormtype":"HU","basin":"EP","advdate":"800 PM MST Sun Sep 27 2026","advisnum":"30","fcstprd":120,"stormnum":17,"idp_source":"ep172026-030_5day_lin","idp_filedate":1790566080000,"idp_ingestdate":1790566159000,"st_length(shape)":10.847227386305846,"binnumber":"EP2"}}]}