{"type": "FeatureCollection", "features": [{"type": "Feature", "id": 1872, "geometry": {"type": "Point", "coordinates": [-112.80000000019976, 19.099999999700344]}, "properties": {"objectid": 1872, "stormname": "Hurricane Polo", "stormtype": "MH", "dvlbl": "M", "basin": "EP", "advdate": "500 PM MST Sat Sep 26 2026", "advisnum": "25A", "fcstprd": 120, "gust": 150, "maxwind": 120, "mslp": 940, "ssnum": 4, "datelbl": "5:00 PM Sat", "tcdvlp": "Major Hurricane", "tcdir": 320, "tcspd": 9, "fldatelbl": "2026-09-26 2:00 PM Sat MST", "lat": 19, "lon": -113, "stormnum": 17, "stormsrc": "Tropical Cyclone", "tau": 0, "timezone": "MST", "validtime": "26/2100", "idp_source": "ep172026-025A_5day_pts", "idp_filedate": 1790468266000, "idp_ingestdate": 1790468362000, "binnumber": "EP2", "MAXWIND": 120, "VALIDTIME": "26/2100"}}, {"type": "Feature", "id": 1873, "geometry": {"type": "Point", "coordinates": [-113.39999999989999, 19.800000000100056]}, "properties": {"objectid": 1873, "stormname": "Hurricane Polo", "stormtype": "MH", "dvlbl": "M", "basin": "EP", "advdate": "500 PM MST Sat Sep 26 2026", "advisnum": "25A", "fcstprd": 120, "gust": 140, "maxwind": 115, "mslp": 9999, "ssnum": 4, "datelbl": "11:00 PM Sat", "tcdvlp": "Major Hurricane", "tcdir": 9999, "tcspd": 9999, "fldatelbl": "2026-09-26 11:00 PM Sat MST", "lat": 20, "lon": -113, "stormnum": 17, "stormsrc": "Tropical Cyclone", "tau": 12, "timezone": "MST", "validtime": "27/0600", "idp_source": "ep172026-025A_5day_pts", "idp_filedate": 1790468266000, "idp_ingestdate": 1790468362000, "binnumber": "EP2", "MAXWIND": 115, "VALIDTIME": "27/0600"}}, {"type": "Feature", "id": 1874, "geometry": {"type": "Point", "coordinates": [-113.99999999960022, 21.399999999600425]}, "properties": {"objectid": 1874, "stormname": "Hurricane Polo", "stormtype": "MH", "dvlbl": "M", "basin": "EP", "advdate": "500 PM MST Sat Sep 26 2026", "advisnum": "25A", "fcstprd": 120, "gust": 130, "maxwind": 105, "mslp": 9999, "ssnum": 3, "datelbl": "11:00 AM Sun", "tcdvlp": "Major Hurricane", "tcdir": 9999, "tcspd": 9999, "fldatelbl": "2026-09-27 11:00 AM Sun MST", "lat": 21, "lon": -114, "stormnum": 17, "stormsrc": "Tropical Cyclone", "tau": 24, "timezone": "MST", "validtime": "27/1800", "idp_source": "ep172026-025A_5day_pts", "idp_filedate": 1790468266000, "idp_ingestdate": 1790468362000, "binnumber": "EP2", "MAXWIND": 105, "VALIDTIME": "27/1800"}}, {"type": "Feature", "id": 1875, "geometry": {"type": "Point", "coordinates": [-113.99999999960022, 23.199999999600436]}, "properties": {"objectid": 1875, "stormname": "Hurricane Polo", "stormtype": "HU", "dvlbl": "H", "basin": "EP", "advdate": "500 PM MST Sat Sep 26 2026", "advisnum": "25A", "fcstprd": 120, "gust": 115, "maxwind": 95, "mslp": 9999, "ssnum": 2, "datelbl": "11:00 PM Sun", "tcdvlp": "Hurricane", "tcdir": 9999, "tcspd": 9999, "fldatelbl": "2026-09-27 11:00 PM Sun MST", "lat": 23, "lon": -114, "stormnum": 17, "stormsrc": "Tropical Cyclone", "tau": 36, "timezone": "MST", "validtime": "28/0600", "idp_source": "ep172026-025A_5day_pts", "idp_filedate": 1790468266000, "idp_ingestdate": 1790468362000, "binnumber": "EP2", "MAXWIND": 95, "VALIDTIME": "28/0600"}}, {"type": "Feature", "id": 1876, "geometry": {"type": "Point", "coordinates": [-113.30000000009983, 24.800000000000125]}, "properties": {"objectid": 1876, "stormname": "Hurricane Polo", "stormtype": "HU", "dvlbl": "H", "basin": "EP", "advdate": "500 PM MST Sat Sep 26 2026", "advisnum": "25A", "fcstprd": 120, "gust": 105, "maxwind": 85, "mslp": 9999, "ssnum": 2, "datelbl": "11:00 AM Mon", "tcdvlp": "Hurricane", "tcdir": 9999, "tcspd": 9999, "fldatelbl": "2026-09-28 11:00 AM Mon MST", "lat": 25, "lon": -113, "stormnum": 17, "stormsrc": "Tropical Cyclone", "tau": 48, "timezone": "MST", "validtime": "28/1800", "idp_source": "ep172026-025A_5day_pts", "idp_filedate": 1790468266000, "idp_ingestdate": 1790468362000, "binnumber": "EP2", "MAXWIND": 85, "VALIDTIME": "28/1800"}}, {"type": "Feature", "id": 1877, "geometry": {"type": "Point", "coordinates": [-111.90000000019973, 26.400000000399814]}, "properties": {"objectid": 1877, "stormname": "Hurricane Polo", "stormtype": "HU", "dvlbl": "H", "basin": "EP", "advdate": "500 PM MST Sat Sep 26 2026", "advisnum": "25A", "fcstprd": 120, "gust": 85, "maxwind": 70, "mslp": 9999, "ssnum": 1, "datelbl": "11:00 PM Mon", "tcdvlp": "Hurricane", "tcdir": 9999, "tcspd": 9999, "fldatelbl": "2026-09-28 11:00 PM Mon MST", "lat": 26, "lon": -112, "stormnum": 17, "stormsrc": "Tropical Cyclone", "tau": 60, "timezone": "MST", "validtime": "29/0600", "idp_source": "ep172026-025A_5day_pts", "idp_filedate": 1790468266000, "idp_ingestdate": 1790468362000, "binnumber": "EP2", "MAXWIND": 70, "VALIDTIME": "29/0600"}}, {"type": "Feature", "id": 1878, "geometry": {"type": "Point", "coordinates": [-110.19999999999987, 27.99999999990024]}, "properties": {"objectid": 1878, "stormname": "Hurricane Polo", "stormtype": "TS", "dvlbl": "S", "basin": "EP", "advdate": "500 PM MST Sat Sep 26 2026", "advisnum": "25A", "fcstprd": 120, "gust": 60, "maxwind": 50, "mslp": 9999, "ssnum": 0, "datelbl": "11:00 AM Tue", "tcdvlp": "Tropical Storm", "tcdir": 9999, "tcspd": 9999, "fldatelbl": "2026-09-29 11:00 AM Tue MST", "lat": 28, "lon": -110, "stormnum": 17, "stormsrc": "Tropical Cyclone", "tau": 72, "timezone": "MST", "validtime": "29/1800", "idp_source": "ep172026-025A_5day_pts", "idp_filedate": 1790468266000, "idp_ingestdate": 1790468362000, "binnumber": "EP2", "MAXWIND": 50, "VALIDTIME": "29/1800"}}, {"type": "Feature", "id": 1879, "geometry": {"type": "Point", "coordinates": [-105.69999999999987, 31.199999999800298]}, "properties": {"objectid": 1879, "stormname": "Hurricane Polo", "stormtype": "STD", "dvlbl": "D", "basin": "EP", "advdate": "500 PM MST Sat Sep 26 2026", "advisnum": "25A", "fcstprd": 120, "gust": 30, "maxwind": 20, "mslp": 9999, "ssnum": 0, "datelbl": "11:00 AM Wed", "tcdvlp": "Subtropical Depression", "tcdir": 9999, "tcspd": 9999, "fldatelbl": "2026-09-30 11:00 AM Wed MST", "lat": 31, "lon": -106, "stormnum": 17, "stormsrc": "Post-Tropical Cyclone", "tau": 96, "timezone": "MST", "validtime": "30/1800", "idp_source": "ep172026-025A_5day_pts", "idp_filedate": 1790468266000, "idp_ingestdate": 1790468362000, "binnumber": "EP2", "MAXWIND": 20, "VALIDTIME": "30/1800"}}]}