{"type":"FeatureCollection","features":[{"type":"Feature","id":324,"geometry":{"type":"Polygon","coordinates":[[[-112.59059999969014,25.647970000015619],[-112.58154000007085,25.64614000016104],[-112.55114000021075,25.643279999572485],[-112.52875999967415,25.642469999990624],[-112.50537999978707,25.642469999990624],[-112.48158000031668,25.643279999572485],[-112.45808000029166,25.645019999773297],[-112.43561000010135,25.647970000015619],[-112.41445000006735,25.652250000437334],[-112.39452000009783,25.657749999562952],[-112.37580999973159,25.664479999652428],[-112.35811000007635,25.672219999553477],[-112.34103000023424,25.680569999705881],[-112.32455000018228,25.68953999967141],[-112.30879000005837,25.699210000441326],[-112.29364000018575,25.709500000125047],[-112.26525000038708,25.732019999923182],[-112.25854000032064,25.738030000084564],[-112.25193999993098,25.744140000360858],[-112.22609999991499,25.76920000037984],[-112.21339000014831,25.781939999731321],[-112.20068000038162,25.794670000420354],[-112.19426999976059,25.800989999588978],[-112.17525000038711,25.820139999561491],[-112.14982999995442,25.845609999601947],[-112.14342000023271,25.851920000108066],[-112.13712000018774,25.858349999852749],[-112.12439999995996,25.871079999642404],[-112.11167999973213,25.88381000033138],[-112.09896999996545,25.896549999682861],[-112.07355000043208,25.922019999723375],[-112.05453000015928,25.941169999695887],[-112.04812999999939,25.947489999763832],[-112.02910999972659,25.966639999736344],[-112.02270999956676,25.972950000242463],[-111.99727000001042,25.99842000028292],[-111.99086000028871,26.004740000350864],[-111.97826000019876,26.017570000255432],[-111.95913000024922,26.036620000113032],[-111.9528199997431,26.043049999857772],[-111.94002000032265,26.055680000431835],[-111.9337000002547,26.062099999715372],[-111.9209899995887,26.074830000404347],[-111.90827999982201,26.087560000194003],[-111.88916000033367,26.106610000051603],[-111.8828600002887,26.11303000023446],[-111.86373999990099,26.13208000009206],[-111.85743999985601,26.138500000274917],[-111.83202000032264,26.16397000031543],[-111.82570999981652,26.170389999598967],[-111.81930999965664,26.176709999666912],[-111.80659000032813,26.189440000355887],[-111.79387000010036,26.202179999707369],[-111.7684299996447,26.227640000186],[-111.76844999966767,26.227640000186],[-111.75571999987801,26.240380000436801],[-111.73030000034464,26.265849999577938],[-111.71758999967864,26.278580000266913],[-111.70487999991195,26.291310000056626],[-111.69217000014527,26.304050000307427],[-111.67946000037864,26.316780000097083],[-111.65403999994595,26.34225000013754],[-111.6413100001563,26.354990000388341],[-111.63490000043458,26.36129999999514],[-111.62860999995144,26.367720000177997],[-111.61588999972361,26.380460000428798],[-111.60317999995692,26.393190000218453],[-111.59047000019024,26.405929999569992],[-111.57774000040058,26.418660000258967],[-111.56502999973458,26.431390000048623],[-111.53961000020126,26.45686000008908],[-111.53319999958023,26.463180000157024],[-111.52690000043458,26.469600000339881],[-111.51418999976858,26.482330000129537],[-111.50148000000189,26.495070000380338],[-111.4760599995692,26.520540000420851],[-111.46332999977955,26.533270000210507],[-111.45062999417877,26.545999994604188],[-111.4506200036102,26.546010004058587],[-111.43791000024623,26.558740000250964],[-111.42519999958023,26.57147000004062],[-111.41248999981354,26.584210000291421],[-111.3870500002572,26.609680000331878],[-111.37435000005235,26.622410000121533],[-111.36162999982452,26.635150000372334],[-111.34262000001291,26.654300000344904],[-111.3362100002912,26.660609999951703],[-111.3234999996252,26.673350000202504],[-111.31078999985851,26.68607999999216],[-111.29178000004686,26.705240000425817],[-111.28537000032514,26.711550000032616],[-111.27265000009731,26.724290000283418],[-111.25992999986948,26.737020000073073],[-111.2472200001028,26.749760000323874],[-111.23451000033617,26.76249000011353],[-111.22179000010834,26.775230000364388],[-111.20908999990348,26.787960000154044],[-111.19636999967565,26.8006899999437],[-111.17093999968114,26.826159999984156],[-111.15822999991445,26.838900000234958],[-111.13281000038114,26.864359999814269],[-111.12639999976011,26.870679999882213],[-111.10738000398391,26.889840003913207],[-111.09466999972062,26.902570000105584],[-111.08195000039211,26.91529999989524],[-111.05652999995942,26.940769999935696],[-111.04382000019274,26.953510000186498],[-111.03750999968662,26.959919999908209],[-111.02469999980502,26.972560000044098],[-111.01188999992348,26.985189999718841],[-111.00527999997195,26.991299999995135],[-110.9920699996307,27.003530000109549],[-110.97182000019274,27.021459999579463],[-110.95107000018027,27.038879999812309],[-110.94415000032217,27.044689999743809],[-110.93052999995945,27.056500000274923],[-110.92361000010135,27.06231000020648],[-110.90977000038509,27.073930000069595],[-110.89606000036861,27.085639999586476],[-110.88231000030618,27.097350000002621],[-110.86848000015181,27.108969999865735],[-110.85475000011235,27.120689999843762],[-110.82811000007632,27.144929999819794],[-110.82150000012479,27.151040000096089],[-110.81509000040307,27.157360000164033],[-110.80227999962221,27.169989999838776],[-110.78956999985553,27.182730000089578],[-110.76413999986102,27.208189999668889],[-110.75141999963319,27.22092999991969],[-110.75143000009433,27.22092999991969],[-110.73872000032765,27.233670000170491],[-110.71327999987199,27.25912999974986],[-110.70697000026519,27.265549999932716],[-110.69416999994547,27.27817999960746],[-110.68786000033867,27.284599999790316],[-110.67516000013381,27.297340000041117],[-110.6497300001393,27.322810000081574],[-110.64971999967815,27.322810000081574],[-110.63702000037262,27.33553999987123],[-110.6115900003781,27.361009999911687],[-110.58616999994547,27.386479999952201],[-110.57346000017878,27.399209999741856],[-110.56073999995095,27.411949999992657],[-110.54161000000141,27.430999999850258],[-110.53530999995644,27.437420000033114],[-110.52260000018975,27.45014999982277],[-110.50987999996192,27.462879999612426],[-110.49717999975707,27.475619999863227],[-110.47176000022375,27.501089999903741],[-110.47174000020073,27.501089999903741],[-110.45273000038912,27.520239999876253],[-110.43991999960821,27.532869999550996],[-110.42049000021325,27.551619999963179],[-110.40717000019526,27.563740000400855],[-110.37930999965664,27.586770000335378],[-110.37930000009482,27.586770000335378],[-110.36507000038011,27.597969999715872],[-110.33710000016475,27.620900000434801],[-110.32378000014677,27.633019999973158],[-110.31085000012729,27.645550000432308],[-110.29143000029416,27.664299999945172],[-110.28490999999639,27.670510000336378],[-110.26498000002687,27.688740000151029],[-110.25818000030665,27.694650000197498],[-110.24453999992096,27.706470000290437],[-110.21789999988499,27.73071000026647],[-110.20488000021174,27.743139999711389],[-110.17935000010232,27.768509999636933],[-110.17935999966414,27.768509999636933],[-110.16664000033563,27.781249999887734],[-110.14119999987997,27.806719999928191],[-110.12849999967517,27.819449999717847],[-110.11580000036963,27.832180000406822],[-110.11578000034666,27.832180000406822],[-110.1030800001418,27.844919999758304],[-110.09037000037512,27.857650000447279],[-110.07135000010231,27.876809999981674],[-110.0522299997146,27.895859999839274],[-110.04592999966962,27.902280000022131],[-110.02681000018129,27.921329999879731],[-110.02051000013631,27.927739999601442],[-110.00128000007186,27.94669000024345],[-109.99487000035015,27.953010000311394],[-109.98826000039861,27.959119999688369],[-109.96119999987997,27.982960000104072],[-109.9541900003681,27.988669999920717],[-109.94695999970412,27.994169999945711],[-109.93242000008286,28.005069999880732],[-109.91776999988548,28.015869999700897],[-109.90323999982604,28.026769999635917],[-109.87526999961068,28.049689999893701],[-109.86194000003087,28.061810000331377],[-109.84892000035762,28.074239999776296],[-109.82971000031614,28.093190000418303],[-109.81067999958219,28.112340000390873],[-109.79796999981556,28.125079999742354],[-109.78526000004888,28.13781000043133],[-109.77253999982105,28.150549999782811],[-109.75342999989448,28.169599999640411],[-109.74712000028768,28.176010000261442],[-109.73440999962168,28.188749999612924],[-109.70897999962716,28.21421999965338],[-109.69626999986053,28.226950000342413],[-109.68356000009385,28.239689999693894],[-109.67715000037214,28.246000000200013],[-109.67085000032716,28.25242000038287],[-109.64532000021774,28.277790000308414],[-109.63229999964517,28.290219999753333],[-109.61897000006536,28.302340000191009],[-109.60524999958773,28.31404999970789],[-109.59111000042606,28.325359999664386],[-109.56975999972411,28.342169999645932],[-109.5627399997511,28.347880000361897],[-109.54890000003491,28.359489999763809],[-109.53558000001686,28.371619999763311],[-109.51626999986053,28.390459999829261],[-109.50974999956276,28.396679999782293],[-109.49672999988951,28.409110000126532],[-109.48352000044758,28.4213299997798],[-109.46998999973857,28.433249999987652],[-109.45635999981403,28.445070000080591],[-109.4429300001193,28.457090000403355],[-109.41668999964367,28.481740000400862],[-109.40387999976207,28.494379999637431],[-109.39116999999538,28.507110000326406],[-109.37846000022876,28.519849999677888],[-109.36574000000093,28.532580000366863],[-109.35303000023424,28.545310000156519],[-109.33400999996144,28.564469999690857],[-109.31490000003487,28.583520000447834],[-109.30859000042807,28.589939999731371],[-109.30219000026818,28.59625000023749],[-109.27674999981252,28.621720000277946],[-109.2640400000459,28.634450000067602],[-109.23850999993647,28.659819999993147],[-109.23210000021476,28.666140000061091],[-109.21227999992198,28.684469999990654],[-109.19885000022725,28.696499999875243],[-109.18512000018774,28.708210000291444],[-109.16437000017527,28.725629999624914],[-109.15755000043208,28.731539999671384],[-109.14382999995445,28.74325999964941],[-109.12999000023825,28.754869999950699],[-109.1025399997211,28.778300000344871],[-109.09563000032415,28.784110000276428],[-109.08178999970863,28.795719999678397],[-109.07496999996545,28.801629999724867],[-109.05493000031919,28.81976999988575],[-109.03531000025623,28.838309999606963],[-109.0288999996352,28.844629999674908],[-109.02250000037463,28.850940000181026],[-109.00348000010183,28.870090000153539],[-108.99707000038012,28.876410000221483],[-108.97164999994743,28.90188000026194],[-108.95894000018075,28.914610000051596],[-108.94623000041412,28.927350000302397],[-108.93351000018629,28.940080000092053],[-108.92078999995846,28.952820000342911],[-108.89537000042509,28.978290000383367],[-108.89537000042509,28.978279999922222],[-108.88265999975908,28.991020000173023],[-108.8699499999924,29.003749999962679],[-108.85071999992795,29.022699999705367],[-108.84412000043756,29.028820000442806],[-108.83080000041957,29.040939999981163],[-108.81705999991897,29.052650000397364],[-108.78867999968213,29.075170000195499],[-108.76071000036615,29.098089999553963],[-108.75390999974661,29.103999999600433],[-108.74739000034816,29.110209999991639],[-108.73446999989051,29.122750000012616],[-108.71505000005737,29.141489999963653],[-108.70203000038413,29.153920000307892],[-108.6953299998795,29.159929999569954],[-108.66817000014527,29.183669999870745],[-108.66135000040208,29.189570000355388],[-108.65473999955123,29.195690000193508],[-108.62851000043605,29.220340000191015],[-108.62209999981502,29.22666000025896],[-108.61569000009331,29.232969999865759],[-108.60298000032668,29.24571000011656],[-108.59026999966068,29.258439999906216],[-108.57123999982605,29.277600000339874],[-108.56483000010434,29.283909999946673],[-108.53940999967165,29.309379999987129],[-108.53299999994994,29.315700000055074],[-108.52669999990496,29.322120000237987],[-108.51399000013828,29.334850000027643],[-108.49496000030365,29.354000000000156],[-108.48856000014382,29.3603200000681],[-108.46272999968966,29.385380000087082],[-108.44940000010985,29.397499999625438],[-108.43567999963216,29.409219999603465],[-108.42142999989449,29.420430000344368],[-108.40691000029619,29.431330000279445],[-108.38493000021924,29.447530000009635],[-108.37771000001641,29.453019999573485],[-108.36346000027868,29.464230000314387],[-108.34302000017277,29.481959999554476],[-108.33641000022124,29.48806999983077],[-108.31057999976707,29.513129999849752],[-108.31059000022822,29.513129999849752],[-108.29787000000039,29.525870000100554],[-108.27874999961267,29.544919999958154],[-108.26613999996096,29.557749999862722],[-108.25973999980107,29.564069999930723],[-108.24701999957324,29.576810000181524],[-108.23430999980656,29.58953999997118],[-108.2152999999949,29.608689999943692],[-108.19617000004536,29.627739999801292],[-108.1834699998405,29.640480000052094],[-108.18346000027867,29.640480000052094],[-108.15803999984604,29.66595000009255],[-108.14531999961821,29.678679999882206],[-108.13260999985152,29.691420000133064],[-108.11988999962369,29.70414999992272],[-108.10717999985701,29.716879999712376],[-108.08176000032364,29.742349999752832],[-108.0689399999809,29.754989999888721],[-108.05592999986948,29.767409999771814],[-108.02887000025021,29.791250000187517],[-108.0218500002772,29.796960000004162],[-108.01463000007436,29.8024600000291],[-107.99277000013529,29.81875999987426],[-107.98544000025572,29.824159999784285],[-107.95667000002038,29.84625999999912],[-107.9429300004191,29.857979999977147],[-107.92961000040111,29.870100000414823],[-107.91658999982855,29.882529999859742],[-107.90377999994695,29.89516999999563],[-107.89107000018026,29.907899999785286],[-107.86564999974757,29.9333699998258],[-107.86564000018575,29.9333699998258],[-107.85293999998089,29.946099999615456],[-107.83391000014632,29.965260000049113],[-107.82750000042461,29.971569999655912],[-107.80846999969066,29.99073000008957],[-107.79567000027021,30.003359999764314],[-107.77664000043558,30.022509999736826],[-107.77024999983752,30.028829999804771],[-107.7576299997246,30.041659999709339],[-107.74481000028118,30.054299999845284],[-107.73221000019123,30.067129999749852],[-107.71938999984854,30.079769999885741],[-107.7067899997586,30.092599999790309],[-107.69397000031518,30.105230000364372],[-107.68765999980906,30.111649999647909],[-107.66852999985952,30.130700000404829],[-107.65573000043906,30.143339999641398],[-107.64252000009782,30.155560000193987],[-107.63579999957022,30.161570000355368],[-107.62207000043009,30.173290000333395],[-107.6005999995902,30.189989999738827],[-107.59328000017177,30.19538999964891],[-107.5786400004356,30.206190000368338],[-107.55687999971212,30.22259000032841],[-107.54283000020428,30.234000000399817],[-107.52941999963321,30.246030000284406],[-107.51619000016825,30.258249999937675],[-107.50338999984854,30.270879999612418],[-107.49055000038209,30.283519999748307],[-107.4779500002922,30.296349999652932],[-107.46512999994945,30.308989999788821],[-107.45250999983654,30.321819999693389],[-107.43971000041608,30.334450000267452],[-107.42709000030317,30.347289999733846],[-107.4142899999834,30.359920000307909],[-107.40166999987048,30.372759999774303],[-107.38885000042706,30.385390000348366],[-107.37625000033717,30.39822999981476],[-107.36342999999442,30.410860000388823],[-107.35082999990448,30.423699999855273],[-107.33800999956173,30.436330000429336],[-107.31897999972711,30.455480000401849],[-107.31257999956722,30.461799999570474],[-107.29996999991545,30.474630000374361],[-107.28716000003385,30.48726999961093],[-107.27435000015231,30.499900000184994],[-107.26111999978804,30.512130000299408],[-107.25440999972159,30.51813999956147],[-107.23367000017026,30.535559999794316],[-107.21922000020277,30.546559999844249],[-107.20457000000539,30.557359999664413],[-107.18993999983104,30.568160000383841],[-107.17548999986349,30.579160000433831],[-107.16165000014729,30.590769999835743],[-107.14864999959769,30.603200000179982],[-107.1362299997146,30.616239999876257],[-107.12462999987451,30.630099999615425],[-107.1136499998475,30.644560000044123],[-107.10307000028018,30.659440000056122],[-107.09271000006635,30.674509999836744],[-107.08253000005936,30.689790000308392],[-107.06769000009331,30.713119999688388],[-107.06280999988149,30.720970000165494],[-107.05324999968764,30.736859999989179],[-107.04410000041457,30.753159999834281],[-107.0355500000324,30.770069999930683],[-107.02742000013279,30.787390000048617],[-107.01654000022074,30.81468999994371],[-107.01317999995695,30.824069999930714],[-107.00423000001439,30.853310000256442],[-107.00139000034812,30.863189999918688],[-106.99608999965369,30.883360000164032],[-106.98898000002686,30.914430000344396],[-106.98481000018126,30.935720000078106],[-106.98144999991746,30.957629999624942],[-106.97931999971809,30.980139999861251],[-106.97859000022822,31.003060000119035],[-106.97931000015626,31.025989999938702],[-106.9805299997596,31.036889999873722],[-106.98479999972011,31.070400000160021],[-106.98896999956571,31.091689999893731],[-106.99365000044708,31.1124799999522],[-106.99872999998939,31.132850000427311],[-107.00421999955324,31.15282000044283],[-107.01012000003789,31.172380000436817],[-107.01346999984054,31.181760000423822],[-107.02364999984752,31.209769999785806],[-107.02773000003936,31.218429999844773],[-107.03982999955474,31.244510000136529],[-107.04876999993547,31.261010000211456],[-107.05843000024424,31.276799999920229],[-107.06859999979008,31.292089999953703],[-107.07918000025671,31.306960000403819],[-107.09016000028367,31.321430000394344],[-107.10124000042561,31.33578999980881],[-107.11212999989948,31.35035999991419],[-107.12292000015776,31.365030000134539],[-107.13378999960872,31.379600000239975],[-107.14498000032665,31.393860000438792],[-107.1628899997736,31.414129999899728],[-107.18310999962671,31.432060000268962],[-107.19012000003789,31.437770000085607],[-107.20477000023521,31.448560000343889],[-107.21982999955475,31.458959999704348],[-107.23509000000342,31.469139999711388],[-107.2428099998815,31.474140000061084],[-107.2662200002527,31.488910000396345],[-107.28207000003039,31.498489999713854],[-107.29021000039108,31.503069999580987],[-107.3150300001343,31.516409999621942],[-107.34015000022225,31.529459999779306],[-107.34859000002837,31.533729999739819],[-107.36587999966218,31.541890000123544],[-107.39191000034612,31.554009999661901],[-107.40066999962067,31.557980000176997],[-107.41876000017379,31.565319999618453],[-107.44663000027418,31.575610000201493],[-107.45599000023822,31.57896999956597],[-107.47551999974809,31.584870000050614],[-107.50632000006783,31.592210000391333],[-107.51680000041961,31.594450000267443],[-107.54944999971764,31.599950000292438],[-107.57161000000139,31.603210000441322],[-107.58269999970514,31.604840000066076],[-107.60436999987547,31.60841000012158],[-107.63630999970661,31.613810000031606],[-107.65703999969611,31.616660000159015],[-107.66690999979653,31.61746999974082],[-107.69783000025421,31.618389999898739],[-107.71827999992195,31.616660000159015],[-107.73900999991145,31.613810000031606],[-107.76027000006036,31.610449999767809],[-107.78213999956125,31.607079999942187],[-107.80460999975156,31.604129999699865],[-107.82750999998643,31.601579999917192],[-107.83888999957372,31.600260000199],[-107.87276000027367,31.595979999777285],[-107.89433000032915,31.592110000276421],[-107.92524999988751,31.584870000050614],[-107.93499999984999,31.581919999808292],[-107.95412000023771,31.575599999740348],[-107.97272999958972,31.568779999997162],[-107.99104000039563,31.561650000347356],[-108.00882999970463,31.554000000100075],[-108.03488000041159,31.541879999662399],[-108.05215000002238,31.533729999739819],[-108.0606000002897,31.52945000021748],[-108.08572000037759,31.516409999621942],[-108.10241999978308,31.507650000347383],[-108.11054000012081,31.503069999580987],[-108.13453999982102,31.488910000396345],[-108.1579300001693,31.474140000061084],[-108.1656599996092,31.469139999711388],[-108.17328999983351,31.464049999707868],[-108.19596999981553,31.448569999905715],[-108.21062000001291,31.437770000085607],[-108.21763999998592,31.432060000268962],[-108.23785000027721,31.414129999899728],[-108.25008000039162,31.400889999973685],[-108.26695000044208,31.379600000239975],[-108.27244999956775,31.372360000014112],[-108.28321999980307,31.35768999979382],[-108.29419999983003,31.343230000264441],[-108.30560000033967,31.329170000295449],[-108.32371000001638,31.309100000165017],[-108.32980999983153,31.30247000019051],[-108.34242000038262,31.289640000285942],[-108.34872000042759,31.283220000103086],[-108.36783999991599,31.264170000245485],[-108.3804600000289,31.251340000340861],[-108.39306999968062,31.238499999975147],[-108.41126999991047,31.218529999959685],[-108.42296999986553,31.204779999897198],[-108.43413999966117,31.190519999698381],[-108.43963999968616,31.183280000371838],[-108.45042000038262,31.168610000151546],[-108.46668999974361,31.146710000166536],[-108.47218000020672,31.139480000401818],[-108.48357999981704,31.125420000432825],[-108.49558000011683,31.111969999815756],[-108.50779000020822,31.098720000327887],[-108.52039999985999,31.085890000423319],[-108.53301999997291,31.073050000057606],[-108.53940999967165,31.066729999989661],[-108.5584400004056,31.047580000017149],[-108.57103999959622,31.034750000112581],[-108.58324999968767,31.021499999725336],[-108.5952499999874,31.008050000007643],[-108.61212000003786,30.986760000273932],[-108.61760999960171,30.979529999609952],[-108.62839999985999,30.964860000288922],[-108.6446700001203,30.942960000303913],[-108.65015999968415,30.935720000078106],[-108.66156000019373,30.921669999670883],[-108.67966000030867,30.901589999978682],[-108.68576999968565,30.894969999565944],[-108.69838000023674,30.882139999661376],[-108.71100000034966,30.869300000194983],[-108.73009999981502,30.850250000337383],[-108.73011000027617,30.850250000337383],[-108.74922000020274,30.831199999580463],[-108.75552999980954,30.824780000296926],[-108.7744400004056,30.805519999748356],[-108.78664999959773,30.792279999822256],[-108.80433999969114,30.771799999670407],[-108.81553999997095,30.757540000370852],[-108.82103000043406,30.750309999706872],[-108.83719999968014,30.728300000045124],[-108.84807999959219,30.713740000400833],[-108.85357999961718,30.706500000175026],[-108.87095999980403,30.685719999678383],[-108.87696999996541,30.67900000005011],[-108.88918000005685,30.665749999662921],[-108.9017800001468,30.652919999758353],[-108.91440000025972,30.640080000291903],[-108.92719999968017,30.62744999971784],[-108.93981999979303,30.614610000251446],[-108.9526200001128,30.601979999677383],[-108.96524000022572,30.589140000210989],[-108.97805000010732,30.576509999636926],[-108.99065999975909,30.563670000170532],[-109.00327999987201,30.550840000265964],[-109.01548999996345,30.537589999878719],[-109.0214800001018,30.530870000250445],[-109.03888000031168,30.510089999753802],[-109.04986999990047,30.495619999763335],[-109.06064000013578,30.480950000442306],[-109.07141000037115,30.466280000221957],[-109.08239999995993,30.45181000023149],[-109.09379999957025,30.437759999824266],[-109.10579000030816,30.424310000106573],[-109.1180000003996,30.411059999719328],[-109.13059999959023,30.39822999981476],[-109.14321999970315,30.385390000348366],[-109.15602999958469,30.372759999774303],[-109.16864000013578,30.359920000307909],[-109.1814599995792,30.347289999733846],[-109.19405999966915,30.334450000267452],[-109.20667999978207,30.321620000362884],[-109.21888999987351,30.308369999975639],[-109.23659000042807,30.287900000284935],[-109.24228000022174,30.280869999850779],[-109.25864999969764,30.259069999980682],[-109.2694300003941,30.244399999760333],[-109.28031999986803,30.229829999654896],[-109.29150000012481,30.215559999894197],[-109.29720000037963,30.208539999921186],[-109.30919999978005,30.195090000203493],[-109.31529000003337,30.188469999790811],[-109.33400999996144,30.169009999911736],[-109.34661999961321,30.156170000445286],[-109.35943999995595,30.143539999871223],[-109.37204000004584,30.130700000404829],[-109.38466000015876,30.117869999600941],[-109.3968700002502,30.104620000113073],[-109.40886999965068,30.091179999957149],[-109.42025999969911,30.077119999988156],[-109.43123999972613,30.062649999997632],[-109.44202000042259,30.04797999977734],[-109.45830000024472,30.026079999792273],[-109.46947999960219,30.01181000003163],[-109.47517000029518,30.004779999597474],[-109.4871800001568,29.99134000034087],[-109.50567999983201,29.971669999770825],[-109.51199000033813,29.965260000049113],[-109.51829999994493,29.958839999866257],[-109.54372000037762,29.9333699998258],[-109.5564300001443,29.920640000036144],[-109.56915000037213,29.907899999785286],[-109.594179999907,29.882019999723354],[-109.59415999988397,29.882019999723354],[-109.61796999981556,29.854920000058087],[-109.62915000007234,29.84065999985927],[-109.64002999998439,29.826089999753833],[-109.65080999978159,29.811420000432804],[-109.66170000015478,29.79685999988925],[-109.67288000041157,29.78259000012855],[-109.68458999992845,29.76884000006612],[-109.69058000006686,29.76212000043779],[-109.69667999988201,29.755489999563963],[-109.70909000020328,29.742449999867745],[-109.72799999989996,29.72319999978032],[-109.73440999962168,29.716879999712376],[-109.74712000028768,29.70414999992272],[-109.77255000028219,29.678679999882206],[-109.77885000032717,29.672259999699349],[-109.78526000004888,29.66595000009255],[-109.80428999988351,29.646789999658893],[-109.81058999992848,29.640370000375356],[-109.83509000020325,29.613989999738862],[-109.84679000015831,29.60023000011455],[-109.85797000041509,29.585969999915733],[-109.86885999988897,29.571399999810296],[-109.87963999968616,29.556729999589948],[-109.88503000003436,29.549399999710374],[-109.90171000031614,29.527900000185014],[-109.90740999967164,29.520880000212003],[-109.92550999978658,29.500799999620426],[-109.94420999969162,29.481350000202497],[-109.95052000019774,29.47493000001964],[-109.96324000042557,29.462189999768839],[-109.97595999975408,29.449459999979183],[-109.99506999968065,29.430410000121526],[-110.00138000018677,29.423989999938669],[-110.01398999983854,29.411160000034101],[-110.03849999967514,29.384769999835783],[-110.05019000006837,29.37101000021147],[-110.06139000034813,29.356750000012653],[-110.07227000026023,29.342190000368362],[-110.08305000005737,29.327509999686868],[-110.09392999996942,29.312950000042633],[-110.10511999978809,29.298680000281934],[-110.1108099995817,29.291649999847778],[-110.11681000018126,29.284930000219504],[-110.14132000001791,29.258540000021128],[-110.15394000013083,29.24571000011656],[-110.17305000005734,29.22666000025896],[-110.17935999966414,29.220240000076103],[-110.19197000021524,29.207410000171535],[-110.20437999963718,29.194360000014115],[-110.22815999998392,29.167260000348904],[-110.23936000026373,29.15300000015003],[-110.25024000017578,29.138439999606419],[-110.26101999997292,29.123759999824301],[-110.27191000034617,29.10920000018001],[-110.28310000016478,29.094930000419311],[-110.28878999995845,29.087899999985154],[-110.30689999963516,29.06782999985478],[-110.31930000039461,29.054790000158505],[-110.3256100000014,29.048369999975648],[-110.3319199996082,29.041949999792791],[-110.34461999981306,29.029220000003136],[-110.35734000004089,29.01649000021348],[-110.37006000026872,29.003749999962679],[-110.3827599995742,28.991020000173023],[-110.3953700001253,28.97817999980731],[-110.40778000044656,28.965140000111035],[-110.43157000035512,28.938050000007649],[-110.44276000017379,28.92378000024695],[-110.45364000008584,28.909210000141513],[-110.46443000034412,28.894539999921221],[-110.46981999979306,28.887210000041591],[-110.48650000007484,28.865709999616911],[-110.49218999986851,28.858680000082074],[-110.51030000044454,28.8386099999517],[-110.52268999984352,28.825570000255425],[-110.52270999986649,28.825570000255425],[-110.53530999995644,28.812740000350857],[-110.54801999972312,28.800000000100056],[-110.56073999995095,28.7872700003104],[-110.57964999964764,28.76800999976183],[-110.58575000036211,28.761390000248468],[-110.60954999983255,28.734289999683881],[-110.62073999965116,28.720030000384327],[-110.63161999956321,28.705460000278947],[-110.64240999982155,28.690790000058598],[-110.6532899997336,28.676219999953162],[-110.66446999999039,28.661959999754345],[-110.67017000024521,28.654930000219451],[-110.67616000038362,28.648209999691858],[-110.68827000036015,28.634860000089077],[-110.70067999978204,28.621820000392859],[-110.71959999993993,28.602570000305434],[-110.72600000009982,28.59625000023749],[-110.75132999997942,28.570680000082064],[-110.76984000011583,28.551019999973164],[-110.78182999995443,28.537570000255471],[-110.79322999956474,28.523510000286421],[-110.80959999993996,28.501710000416324],[-110.82039000019824,28.487040000195975],[-110.83127000011029,28.472470000090595],[-110.84245000036714,28.458209999891722],[-110.85415000032214,28.444459999829292],[-110.86015000002237,28.437729999739815],[-110.86624999983752,28.431110000226454],[-110.87866000015879,28.418069999630916],[-110.90388000036165,28.392400000259954],[-110.91018999996845,28.385980000077097],[-110.92839000019825,28.366010000061578],[-110.94007999969216,28.352259999999148],[-110.95127999997192,28.337999999800275],[-110.96215999988397,28.323429999694895],[-110.97293999968116,28.308760000373866],[-110.98383000005435,28.294190000268429],[-110.9950100003112,28.279930000069612],[-111.00070000010481,28.272899999635399],[-111.0067100002662,28.2661700004453],[-111.0249000000349,28.246209999991663],[-111.04341000017126,28.226540000320881],[-111.04950999998641,28.2199199999082],[-111.06720999964165,28.199439999756351],[-111.07840000035964,28.185179999557477],[-111.08928000027169,28.170619999913185],[-111.10006000006888,28.155940000131068],[-111.11095000044207,28.141379999587457],[-111.12212999979954,28.127109999826757],[-111.1338299997546,28.113359999764327],[-111.14593999973113,28.100019999723372],[-111.1520400004456,28.093389999748808],[-111.15833999959119,28.086980000027097],[-111.17093999968114,28.074139999661384],[-111.18987000030017,28.054880000012133],[-111.19597000011532,28.048259999599452],[-111.21976999958571,28.021159999934184],[-111.2309600003037,28.006899999735367],[-111.24184000021575,27.992329999629931],[-111.25260999955174,27.977660000308902],[-111.26349999992499,27.963090000203465],[-111.27468000018177,27.948830000004648],[-111.28638999969866,27.935079999942161],[-111.2984900001133,27.92173000033938],[-111.29847999965216,27.92173000033938],[-111.32308999960372,27.895449999817799],[-111.32310000006487,27.895449999817799],[-111.34688999997343,27.868350000152532],[-111.35807999979204,27.854089999953658],[-111.36895999970415,27.839519999848278],[-111.37974999996243,27.824849999627929],[-111.39062000031265,27.810280000421812],[-111.40181000013132,27.796020000222995],[-111.40751000038614,27.788989999788782],[-111.4256099996017,27.768919999658408],[-111.43791000024623,27.755779999847277],[-111.45021999955321,27.74264000003609],[-111.47401000036115,27.715540000370879],[-111.48520999974158,27.70126999971086],[-111.49608999965369,27.686710000066569],[-111.50687000035015,27.672039999846277],[-111.51775999982402,27.65746999974084],[-111.52894000008087,27.643210000441286],[-111.54062999957472,27.629449999917711],[-111.55272999998942,27.616109999876755],[-111.55884000026572,27.609479999902192],[-111.57735000040208,27.589819999793292],[-111.58343999975608,27.58320000027993],[-111.60114999987252,27.562720000128024],[-111.61233999969113,27.548459999929207],[-111.62321000004135,27.533889999823771],[-111.63400000029969,27.519219999603422],[-111.64488000021174,27.504650000397362],[-111.65607000003035,27.490390000198488],[-111.66175999982403,27.483359999764332],[-111.66766000030867,27.476540000021146],[-111.67946000037864,27.462879999612426],[-111.70284000026572,27.435380000386829],[-111.71403999964616,27.421109999726866],[-111.72490999999638,27.406550000082575],[-111.73570000025472,27.391879999862226],[-111.74658000016677,27.377309999756847],[-111.75776999998544,27.363039999996147],[-111.7634700002402,27.356020000023136],[-111.78116000033367,27.33553999987123],[-111.78705000035711,27.328720000128044],[-111.79885999998891,27.315059999719381],[-111.81573000003937,27.29376999998567],[-111.82123000006436,27.286540000220953],[-111.83740000020975,27.264529999659885],[-111.84818000000689,27.249860000338913],[-111.85907000038014,27.235290000233476],[-111.8701499996227,27.22092999991969],[-111.88122999976457,27.206569999605961],[-111.89212000013782,27.192000000399844],[-111.90289000037313,27.177330000179495],[-111.9136799997321,27.162659999959146],[-111.92455999964415,27.148089999853767],[-111.93575000036213,27.133829999654893],[-111.94144000015581,27.126800000120056],[-111.94733999974108,27.119969999915725],[-111.95913999981104,27.10631999996815],[-111.98253000015927,27.078810000281408],[-111.99371000041612,27.06455000008259],[-112.00459999988999,27.049979999977154],[-112.01537999968713,27.035309999756805],[-112.02616000038364,27.020640000435833],[-112.03704999985752,27.006070000330396],[-112.04812999999939,26.99171000001661],[-112.05919999968012,26.977340000141055],[-112.07009999961519,26.962779999597444],[-112.08086999985051,26.948110000276415],[-112.09164999964764,26.933440000056123],[-112.09704999955773,26.926099999715348],[-112.11331000025621,26.904199999730338],[-112.12439999995996,26.889829999854726],[-112.13548000010184,26.875470000440316],[-112.14638000003686,26.86090000033488],[-112.15705000015731,26.846129999999619],[-112.16752999960971,26.831149999872764],[-112.17780000016978,26.815979999977174],[-112.18796999971562,26.8006899999437],[-112.19305000015731,26.793050000157507],[-112.2084000002597,26.770230000014635],[-112.21889000017325,26.755260000348869],[-112.22956999985553,26.740490000013608],[-112.24044999976758,26.725919999908228],[-112.25152999990945,26.711559999594442],[-112.26261999961321,26.69718999971883],[-112.27350000042458,26.682619999613451],[-112.28428000022171,26.667950000292421],[-112.29506000001891,26.653280000072073],[-112.30583000025422,26.638609999851781],[-112.31671000016627,26.624039999746344],[-112.32779999987002,26.609680000331878],[-112.33890000003487,26.595309999557003],[-112.34977999994692,26.580740000350886],[-112.3604599996292,26.565970000015625],[-112.37093000041909,26.551000000349859],[-112.38120000007984,26.535819999993123],[-112.39136999962568,26.520540000420851],[-112.40154000007084,26.505259999949203],[-112.41182000019273,26.490079999592467],[-112.42229000008336,26.475100000364876],[-112.43296999976559,26.460330000029614],[-112.44384999967764,26.445759999924178],[-112.45492999981951,26.431390000048623],[-112.46602000042259,26.417029999734837],[-112.47690999989646,26.4024599996294],[-112.48768999969366,26.387790000308428],[-112.49845999992897,26.373120000088079],[-112.50923999972611,26.35844999986773],[-112.52011000007633,26.343879999762294],[-112.53119999978009,26.329520000347884],[-112.54229999994493,26.315160000034098],[-112.55317999985704,26.300589999928718],[-112.55855999974409,26.293249999587943],[-112.57474999991246,26.27125000038734],[-112.58552999970965,26.256580000166991],[-112.5964099996217,26.242010000061612],[-112.60748999976357,26.227649999747825],[-112.61858000036665,26.213279999872213],[-112.6294600002787,26.198709999766834],[-112.64024000007583,26.184040000445805],[-112.65101999987297,26.169370000225456],[-112.66189999978508,26.154800000120076],[-112.67308000004186,26.140539999921202],[-112.68467999988201,26.12668999974386],[-112.69647000039009,26.11303000023446],[-112.71975999972409,26.085429999994631],[-112.7306399996362,26.070859999889251],[-112.74091000019627,26.055680000431835],[-112.75058000006686,26.039880000261917],[-112.75952000044759,26.023380000186989],[-112.76786999970062,26.006269999860763],[-112.7756000000399,25.988539999721354],[-112.78229999964515,25.969799999770316],[-112.78769999955523,25.949929999869767],[-112.79156000039359,25.929150000272443],[-112.79358999957873,25.907549999732851],[-112.79360000003987,25.885540000071103],[-112.79236999997545,25.875250000387325],[-112.78760000033964,25.843269999610925],[-112.78190000008482,25.823709999616938],[-112.77457000020524,25.805570000355374],[-112.76583000005434,25.788859999589477],[-112.75597000041512,25.773279999672411],[-112.7451899997186,25.758610000351382],[-112.73360000033966,25.744749999712838],[-112.71519000031816,25.724990000388345],[-112.70867999958222,25.718770000435313],[-112.69555999979406,25.706549999882725],[-112.66778999980858,25.684139999761328],[-112.66086999995042,25.67894000008107],[-112.63880999978159,25.665490000363377],[-112.63170000015481,25.661419999733369],[-112.61612999979957,25.654900000334862],[-112.59059999969014,25.647970000015619]]]},"properties":{"objectid":324,"stormname":"Polo","stormtype":"HU","basin":"EP","advdate":"800 PM MST Mon Sep 28 2026","advisnum":"34","fcstprd":120,"stormnum":17,"idp_source":"ep172026-034_5day_pgn","idp_filedate":1790650951000,"idp_ingestdate":1790651145000,"st_area(shape)":7.7525941717926496,"st_perimeter(shape)":17.019918415478568,"binnumber":"EP2"}}]}