{"type":"FeatureCollection","features":[{"type":"Feature","id":3040,"geometry":{"type":"LineString","coordinates":[[-102.69999999970014,6.9999999996004476],[-103.30000000029969,6.9999999996004476],[-103.89999999999992,6.9999999996004476],[-104.30000000009983,7.1000000002999286],[-104.99999999960022,7.2999999999001943],[-105.39999999970013,7.7000000000001592],[-105.69999999999987,8.4000000003998139],[-105.8999999996002,9.4000000002000093],[-106.00000000029968,10.300000000199987],[-106.00000000029968,11.200000000199964],[-106.29999999970011,12.600000000100067],[-105.79999999980004,13.40000000029994],[-105.50000000039961,14.000000000000114],[-105.1000000002997,14.49999999990024]]},"properties":{"objectid":3040,"stormtype":"DB","stormnum":17,"ss":0,"idp_source":"EP172026_lin","idp_filedate":1790726581000,"idp_ingestdate":1790726667000,"st_length(shape)":10.17923973983139,"binnumber":"EP2"}},{"type":"Feature","id":3041,"geometry":{"type":"LineString","coordinates":[[-105.1000000002997,14.49999999990024],[-104.7999999999999,15.099999999600414]]},"properties":{"objectid":3041,"stormtype":"TD","stormnum":17,"ss":0,"idp_source":"EP172026_lin","idp_filedate":1790726581000,"idp_ingestdate":1790726667000,"st_length(shape)":0.67082039311584041,"binnumber":"EP2"}},{"type":"Feature","id":3042,"geometry":{"type":"LineString","coordinates":[[-104.7999999999999,15.099999999600414],[-104.09999999960019,15.499999999700378],[-103.59999999970012,15.399999999900217],[-102.99999999999989,15.200000000299895]]},"properties":{"objectid":3042,"stormtype":"TS","stormnum":17,"ss":0,"idp_source":"EP172026_lin","idp_filedate":1790726581000,"idp_ingestdate":1790726667000,"st_length(shape)":1.9485832580714955,"binnumber":"EP2"}},{"type":"Feature","id":3043,"geometry":{"type":"LineString","coordinates":[[-102.99999999999989,15.200000000299895],[-102.50000000009982,15.099999999600414]]},"properties":{"objectid":3043,"stormtype":"HU","stormnum":17,"ss":1,"idp_source":"EP172026_lin","idp_filedate":1790726581000,"idp_ingestdate":1790726667000,"st_length(shape)":0.50990195139846783,"binnumber":"EP2"}},{"type":"Feature","id":3044,"geometry":{"type":"LineString","coordinates":[[-102.50000000009982,15.099999999600414],[-102.00000000019975,14.700000000399825]]},"properties":{"objectid":3044,"stormtype":"HU","stormnum":17,"ss":2,"idp_source":"EP172026_lin","idp_filedate":1790726581000,"idp_ingestdate":1790726667000,"st_length(shape)":0.64031242316586356,"binnumber":"EP2"}},{"type":"Feature","id":3045,"geometry":{"type":"LineString","coordinates":[[-102.00000000019975,14.700000000399825],[-101.60000000009984,14.599999999700344]]},"properties":{"objectid":3045,"stormtype":"HU","stormnum":17,"ss":4,"idp_source":"EP172026_lin","idp_filedate":1790726581000,"idp_ingestdate":1790726667000,"st_length(shape)":0.41231056282834011,"binnumber":"EP2"}},{"type":"Feature","id":3046,"geometry":{"type":"LineString","coordinates":[[-101.60000000009984,14.599999999700344],[-101.50000000029968,14.599999999700344],[-101.3999999996002,14.599999999700344],[-101.29999999980004,14.800000000199987],[-101.60000000009984,15.200000000299895]]},"properties":{"objectid":3046,"stormtype":"HU","stormnum":17,"ss":5,"idp_source":"EP172026_lin","idp_filedate":1790726581000,"idp_ingestdate":1790726667000,"st_length(shape)":0.92360679886695285,"binnumber":"EP2"}},{"type":"Feature","id":3047,"geometry":{"type":"LineString","coordinates":[[-101.60000000009984,15.200000000299895],[-102.09999999999991,15.499999999700378],[-102.29999999960017,15.800000000000125]]},"properties":{"objectid":3047,"stormtype":"HU","stormnum":17,"ss":4,"idp_source":"EP172026_lin","idp_filedate":1790726581000,"idp_ingestdate":1790726667000,"st_length(shape)":0.9436503166644622,"binnumber":"EP2"}},{"type":"Feature","id":3048,"geometry":{"type":"LineString","coordinates":[[-102.29999999960017,15.800000000000125],[-102.99999999999989,16.399999999700356],[-103.89999999999992,16.700000000000159]]},"properties":{"objectid":3048,"stormtype":"HU","stormnum":17,"ss":5,"idp_source":"EP172026_lin","idp_filedate":1790726581000,"idp_ingestdate":1790726667000,"st_length(shape)":1.8706377439830373,"binnumber":"EP2"}},{"type":"Feature","id":3049,"geometry":{"type":"LineString","coordinates":[[-103.89999999999992,16.700000000000159],[-104.89999999980006,16.899999999600425],[-106.10000000009984,17.100000000100067],[-107.00000000009982,17.100000000100067],[-107.99999999989996,17.100000000100067]]},"properties":{"objectid":3049,"stormtype":"HU","stormnum":17,"ss":4,"idp_source":"EP172026_lin","idp_filedate":1790726581000,"idp_ingestdate":1790726667000,"st_length(shape)":4.1363564086817846,"binnumber":"EP2"}},{"type":"Feature","id":3050,"geometry":{"type":"LineString","coordinates":[[-107.99999999989996,17.100000000100067],[-108.80000000009983,17.100000000100067],[-109.70000000009981,17.199999999900228],[-110.50000000029968,17.400000000399814],[-111.40000000029966,17.699999999800298]]},"properties":{"objectid":3050,"stormtype":"HU","stormnum":17,"ss":5,"idp_source":"EP172026_lin","idp_filedate":1790726581000,"idp_ingestdate":1790726667000,"st_length(shape)":3.4788429372910361,"binnumber":"EP2"}},{"type":"Feature","id":3051,"geometry":{"type":"LineString","coordinates":[[-111.40000000029966,17.699999999800298],[-112.19999999960021,18.300000000399848],[-112.89999999999992,18.99999999990024]]},"properties":{"objectid":3051,"stormtype":"HU","stormnum":17,"ss":4,"idp_source":"EP172026_lin","idp_filedate":1790726581000,"idp_ingestdate":1790726667000,"st_length(shape)":1.9899494933907016,"binnumber":"EP2"}},{"type":"Feature","id":3052,"geometry":{"type":"LineString","coordinates":[[-112.89999999999992,18.99999999990024],[-113.39999999989999,19.800000000100056],[-113.7999999999999,20.600000000299929],[-113.99999999960022,21.399999999600425],[-114.1000000002997,22.40000000029994],[-113.99999999960022,23.199999999600436],[-113.70000000019974,23.900000000000148],[-113.39999999989999,24.600000000399859],[-112.80000000019976,25.20000000010009],[-112.19999999960021,25.899999999600425]]},"properties":{"objectid":3052,"stormtype":"HU","stormnum":17,"ss":3,"idp_source":"EP172026_lin","idp_filedate":1790726581000,"idp_ingestdate":1790726667000,"st_length(shape)":7.7672969705232315,"binnumber":"EP2"}},{"type":"Feature","id":3053,"geometry":{"type":"LineString","coordinates":[[-112.19999999960021,25.899999999600425],[-111.59999999989998,26.90000000029994]]},"properties":{"objectid":3053,"stormtype":"HU","stormnum":17,"ss":2,"idp_source":"EP172026_lin","idp_filedate":1790726581000,"idp_ingestdate":1790726667000,"st_length(shape)":1.1661903794146593,"binnumber":"EP2"}},{"type":"Feature","id":3054,"geometry":{"type":"LineString","coordinates":[[-111.59999999989998,26.90000000029994],[-110.60000000009984,27.99999999990024]]},"properties":{"objectid":3054,"stormtype":"HU","stormnum":17,"ss":1,"idp_source":"EP172026_lin","idp_filedate":1790726581000,"idp_ingestdate":1790726667000,"st_length(shape)":1.4866068743016552,"binnumber":"EP2"}},{"type":"Feature","id":3055,"geometry":{"type":"LineString","coordinates":[[-111.59999999989998,26.90000000029994],[-110.60000000009984,27.99999999990024]]},"properties":{"objectid":3055,"stormtype":"HU","stormnum":17,"ss":1,"idp_source":"EP172026_lin","idp_filedate":1790726581000,"idp_ingestdate":1790726667000,"st_length(shape)":1.4866068743016552,"binnumber":"EP2"}}]}