{"type":"FeatureCollection","features":[{"type":"Feature","id":8190,"geometry":{"type":"Point","coordinates":[-102.69999999970014,6.9999999996004476]},"properties":{"objectid":8190,"stormname":"GENESIS025","stormtype":"DB","stormnum":17,"intensity":20,"basin":"ep","mslp":1010,"dtg":2026091712,"year":2026,"month":"09","day":17,"hhmm":"1200","lat":7,"lon":-103,"ss":0,"idp_source":"EP172026_pts","idp_filedate":1790532175000,"idp_ingestdate":1790532295000,"binnumber":"EP2"}},{"type":"Feature","id":8191,"geometry":{"type":"Point","coordinates":[-103.30000000029969,6.9999999996004476]},"properties":{"objectid":8191,"stormname":"GENESIS025","stormtype":"DB","stormnum":17,"intensity":20,"basin":"ep","mslp":1010,"dtg":2026091718,"year":2026,"month":"09","day":17,"hhmm":"1800","lat":7,"lon":-103,"ss":0,"idp_source":"EP172026_pts","idp_filedate":1790532175000,"idp_ingestdate":1790532295000,"binnumber":"EP2"}},{"type":"Feature","id":8192,"geometry":{"type":"Point","coordinates":[-103.89999999999992,6.9999999996004476]},"properties":{"objectid":8192,"stormname":"GENESIS025","stormtype":"DB","stormnum":17,"intensity":20,"basin":"ep","mslp":1010,"dtg":2026091800,"year":2026,"month":"09","day":18,"hhmm":"0000","lat":7,"lon":-104,"ss":0,"idp_source":"EP172026_pts","idp_filedate":1790532175000,"idp_ingestdate":1790532295000,"binnumber":"EP2"}},{"type":"Feature","id":8193,"geometry":{"type":"Point","coordinates":[-104.30000000009983,7.1000000002999286]},"properties":{"objectid":8193,"stormname":"GENESIS025","stormtype":"DB","stormnum":17,"intensity":20,"basin":"ep","mslp":1010,"dtg":2026091806,"year":2026,"month":"09","day":18,"hhmm":"0600","lat":7,"lon":-104,"ss":0,"idp_source":"EP172026_pts","idp_filedate":1790532175000,"idp_ingestdate":1790532295000,"binnumber":"EP2"}},{"type":"Feature","id":8194,"geometry":{"type":"Point","coordinates":[-104.99999999960022,7.2999999999001943]},"properties":{"objectid":8194,"stormname":"INVEST","stormtype":"DB","stormnum":17,"intensity":20,"basin":"ep","mslp":1010,"dtg":2026091812,"year":2026,"month":"09","day":18,"hhmm":"1200","lat":7,"lon":-105,"ss":0,"idp_source":"EP172026_pts","idp_filedate":1790532175000,"idp_ingestdate":1790532295000,"binnumber":"EP2"}},{"type":"Feature","id":8195,"geometry":{"type":"Point","coordinates":[-105.39999999970013,7.7000000000001592]},"properties":{"objectid":8195,"stormname":"INVEST","stormtype":"DB","stormnum":17,"intensity":20,"basin":"ep","mslp":1010,"dtg":2026091818,"year":2026,"month":"09","day":18,"hhmm":"1800","lat":8,"lon":-105,"ss":0,"idp_source":"EP172026_pts","idp_filedate":1790532175000,"idp_ingestdate":1790532295000,"binnumber":"EP2"}},{"type":"Feature","id":8196,"geometry":{"type":"Point","coordinates":[-105.69999999999987,8.4000000003998139]},"properties":{"objectid":8196,"stormname":"INVEST","stormtype":"DB","stormnum":17,"intensity":20,"basin":"ep","mslp":1009,"dtg":2026091900,"year":2026,"month":"09","day":19,"hhmm":"0000","lat":8,"lon":-106,"ss":0,"idp_source":"EP172026_pts","idp_filedate":1790532175000,"idp_ingestdate":1790532295000,"binnumber":"EP2"}},{"type":"Feature","id":8197,"geometry":{"type":"Point","coordinates":[-105.8999999996002,9.4000000002000093]},"properties":{"objectid":8197,"stormname":"INVEST","stormtype":"DB","stormnum":17,"intensity":20,"basin":"ep","mslp":1009,"dtg":2026091906,"year":2026,"month":"09","day":19,"hhmm":"0600","lat":9,"lon":-106,"ss":0,"idp_source":"EP172026_pts","idp_filedate":1790532175000,"idp_ingestdate":1790532295000,"binnumber":"EP2"}},{"type":"Feature","id":8198,"geometry":{"type":"Point","coordinates":[-106.00000000029968,10.300000000199987]},"properties":{"objectid":8198,"stormname":"INVEST","stormtype":"DB","stormnum":17,"intensity":25,"basin":"ep","mslp":1008,"dtg":2026091912,"year":2026,"month":"09","day":19,"hhmm":"1200","lat":10,"lon":-106,"ss":0,"idp_source":"EP172026_pts","idp_filedate":1790532175000,"idp_ingestdate":1790532295000,"binnumber":"EP2"}},{"type":"Feature","id":8199,"geometry":{"type":"Point","coordinates":[-106.00000000029968,11.200000000199964]},"properties":{"objectid":8199,"stormname":"INVEST","stormtype":"DB","stormnum":17,"intensity":25,"basin":"ep","mslp":1008,"dtg":2026091918,"year":2026,"month":"09","day":19,"hhmm":"1800","lat":11,"lon":-106,"ss":0,"idp_source":"EP172026_pts","idp_filedate":1790532175000,"idp_ingestdate":1790532295000,"binnumber":"EP2"}},{"type":"Feature","id":8200,"geometry":{"type":"Point","coordinates":[-106.29999999970011,12.600000000100067]},"properties":{"objectid":8200,"stormname":"INVEST","stormtype":"DB","stormnum":17,"intensity":25,"basin":"ep","mslp":1007,"dtg":2026092000,"year":2026,"month":"09","day":20,"hhmm":"0000","lat":13,"lon":-106,"ss":0,"idp_source":"EP172026_pts","idp_filedate":1790532175000,"idp_ingestdate":1790532295000,"binnumber":"EP2"}},{"type":"Feature","id":8201,"geometry":{"type":"Point","coordinates":[-105.79999999980004,13.40000000029994]},"properties":{"objectid":8201,"stormname":"INVEST","stormtype":"DB","stormnum":17,"intensity":30,"basin":"ep","mslp":1007,"dtg":2026092006,"year":2026,"month":"09","day":20,"hhmm":"0600","lat":13,"lon":-106,"ss":0,"idp_source":"EP172026_pts","idp_filedate":1790532175000,"idp_ingestdate":1790532295000,"binnumber":"EP2"}},{"type":"Feature","id":8202,"geometry":{"type":"Point","coordinates":[-105.50000000039961,14.000000000000114]},"properties":{"objectid":8202,"stormname":"INVEST","stormtype":"DB","stormnum":17,"intensity":30,"basin":"ep","mslp":1007,"dtg":2026092012,"year":2026,"month":"09","day":20,"hhmm":"1200","lat":14,"lon":-106,"ss":0,"idp_source":"EP172026_pts","idp_filedate":1790532175000,"idp_ingestdate":1790532295000,"binnumber":"EP2"}},{"type":"Feature","id":8203,"geometry":{"type":"Point","coordinates":[-105.1000000002997,14.49999999990024]},"properties":{"objectid":8203,"stormname":"SEVENTEEN","stormtype":"TD","stormnum":17,"intensity":30,"basin":"ep","mslp":1007,"dtg":2026092018,"year":2026,"month":"09","day":20,"hhmm":"1800","lat":14,"lon":-105,"ss":0,"idp_source":"EP172026_pts","idp_filedate":1790532175000,"idp_ingestdate":1790532295000,"binnumber":"EP2"}},{"type":"Feature","id":8204,"geometry":{"type":"Point","coordinates":[-104.7999999999999,15.099999999600414]},"properties":{"objectid":8204,"stormname":"POLO","stormtype":"TS","stormnum":17,"intensity":35,"basin":"ep","mslp":1004,"dtg":2026092100,"year":2026,"month":"09","day":21,"hhmm":"0000","lat":15,"lon":-105,"ss":0,"idp_source":"EP172026_pts","idp_filedate":1790532175000,"idp_ingestdate":1790532295000,"binnumber":"EP2"}},{"type":"Feature","id":8205,"geometry":{"type":"Point","coordinates":[-104.09999999960019,15.499999999700378]},"properties":{"objectid":8205,"stormname":"POLO","stormtype":"TS","stormnum":17,"intensity":40,"basin":"ep","mslp":1003,"dtg":2026092106,"year":2026,"month":"09","day":21,"hhmm":"0600","lat":16,"lon":-104,"ss":0,"idp_source":"EP172026_pts","idp_filedate":1790532175000,"idp_ingestdate":1790532295000,"binnumber":"EP2"}},{"type":"Feature","id":8206,"geometry":{"type":"Point","coordinates":[-103.59999999970012,15.399999999900217]},"properties":{"objectid":8206,"stormname":"POLO","stormtype":"TS","stormnum":17,"intensity":55,"basin":"ep","mslp":997,"dtg":2026092112,"year":2026,"month":"09","day":21,"hhmm":"1200","lat":15,"lon":-104,"ss":0,"idp_source":"EP172026_pts","idp_filedate":1790532175000,"idp_ingestdate":1790532295000,"binnumber":"EP2"}},{"type":"Feature","id":8207,"geometry":{"type":"Point","coordinates":[-102.99999999999989,15.200000000299895]},"properties":{"objectid":8207,"stormname":"POLO","stormtype":"HU","stormnum":17,"intensity":70,"basin":"ep","mslp":978,"dtg":2026092118,"year":2026,"month":"09","day":21,"hhmm":"1800","lat":15,"lon":-103,"ss":1,"idp_source":"EP172026_pts","idp_filedate":1790532175000,"idp_ingestdate":1790532295000,"binnumber":"EP2"}},{"type":"Feature","id":8208,"geometry":{"type":"Point","coordinates":[-102.50000000009982,15.099999999600414]},"properties":{"objectid":8208,"stormname":"POLO","stormtype":"HU","stormnum":17,"intensity":90,"basin":"ep","mslp":967,"dtg":2026092200,"year":2026,"month":"09","day":22,"hhmm":"0000","lat":15,"lon":-102,"ss":2,"idp_source":"EP172026_pts","idp_filedate":1790532175000,"idp_ingestdate":1790532295000,"binnumber":"EP2"}},{"type":"Feature","id":8209,"geometry":{"type":"Point","coordinates":[-102.00000000019975,14.700000000399825]},"properties":{"objectid":8209,"stormname":"POLO","stormtype":"HU","stormnum":17,"intensity":120,"basin":"ep","mslp":945,"dtg":2026092206,"year":2026,"month":"09","day":22,"hhmm":"0600","lat":15,"lon":-102,"ss":4,"idp_source":"EP172026_pts","idp_filedate":1790532175000,"idp_ingestdate":1790532295000,"binnumber":"EP2"}},{"type":"Feature","id":8210,"geometry":{"type":"Point","coordinates":[-101.60000000009984,14.599999999700344]},"properties":{"objectid":8210,"stormname":"POLO","stormtype":"HU","stormnum":17,"intensity":140,"basin":"ep","mslp":926,"dtg":2026092212,"year":2026,"month":"09","day":22,"hhmm":"1200","lat":15,"lon":-102,"ss":5,"idp_source":"EP172026_pts","idp_filedate":1790532175000,"idp_ingestdate":1790532295000,"binnumber":"EP2"}},{"type":"Feature","id":8211,"geometry":{"type":"Point","coordinates":[-101.50000000029968,14.599999999700344]},"properties":{"objectid":8211,"stormname":"POLO","stormtype":"HU","stormnum":17,"intensity":155,"basin":"ep","mslp":892,"dtg":2026092218,"year":2026,"month":"09","day":22,"hhmm":"1800","lat":15,"lon":-102,"ss":5,"idp_source":"EP172026_pts","idp_filedate":1790532175000,"idp_ingestdate":1790532295000,"binnumber":"EP2"}},{"type":"Feature","id":8212,"geometry":{"type":"Point","coordinates":[-101.3999999996002,14.599999999700344]},"properties":{"objectid":8212,"stormname":"POLO","stormtype":"HU","stormnum":17,"intensity":145,"basin":"ep","mslp":905,"dtg":2026092300,"year":2026,"month":"09","day":23,"hhmm":"0000","lat":15,"lon":-101,"ss":5,"idp_source":"EP172026_pts","idp_filedate":1790532175000,"idp_ingestdate":1790532295000,"binnumber":"EP2"}},{"type":"Feature","id":8213,"geometry":{"type":"Point","coordinates":[-101.29999999980004,14.800000000199987]},"properties":{"objectid":8213,"stormname":"POLO","stormtype":"HU","stormnum":17,"intensity":140,"basin":"ep","mslp":915,"dtg":2026092306,"year":2026,"month":"09","day":23,"hhmm":"0600","lat":15,"lon":-101,"ss":5,"idp_source":"EP172026_pts","idp_filedate":1790532175000,"idp_ingestdate":1790532295000,"binnumber":"EP2"}},{"type":"Feature","id":8214,"geometry":{"type":"Point","coordinates":[-101.60000000009984,15.200000000299895]},"properties":{"objectid":8214,"stormname":"POLO","stormtype":"HU","stormnum":17,"intensity":130,"basin":"ep","mslp":925,"dtg":2026092312,"year":2026,"month":"09","day":23,"hhmm":"1200","lat":15,"lon":-102,"ss":4,"idp_source":"EP172026_pts","idp_filedate":1790532175000,"idp_ingestdate":1790532295000,"binnumber":"EP2"}},{"type":"Feature","id":8215,"geometry":{"type":"Point","coordinates":[-102.09999999999991,15.499999999700378]},"properties":{"objectid":8215,"stormname":"POLO","stormtype":"HU","stormnum":17,"intensity":125,"basin":"ep","mslp":931,"dtg":2026092318,"year":2026,"month":"09","day":23,"hhmm":"1800","lat":16,"lon":-102,"ss":4,"idp_source":"EP172026_pts","idp_filedate":1790532175000,"idp_ingestdate":1790532295000,"binnumber":"EP2"}},{"type":"Feature","id":8216,"geometry":{"type":"Point","coordinates":[-102.29999999960017,15.800000000000125]},"properties":{"objectid":8216,"stormname":"POLO","stormtype":"HU","stormnum":17,"intensity":140,"basin":"ep","mslp":923,"dtg":2026092400,"year":2026,"month":"09","day":24,"hhmm":"0000","lat":16,"lon":-102,"ss":5,"idp_source":"EP172026_pts","idp_filedate":1790532175000,"idp_ingestdate":1790532295000,"binnumber":"EP2"}},{"type":"Feature","id":8217,"geometry":{"type":"Point","coordinates":[-102.99999999999989,16.399999999700356]},"properties":{"objectid":8217,"stormname":"POLO","stormtype":"HU","stormnum":17,"intensity":140,"basin":"ep","mslp":923,"dtg":2026092406,"year":2026,"month":"09","day":24,"hhmm":"0600","lat":16,"lon":-103,"ss":5,"idp_source":"EP172026_pts","idp_filedate":1790532175000,"idp_ingestdate":1790532295000,"binnumber":"EP2"}},{"type":"Feature","id":8218,"geometry":{"type":"Point","coordinates":[-103.89999999999992,16.700000000000159]},"properties":{"objectid":8218,"stormname":"POLO","stormtype":"HU","stormnum":17,"intensity":135,"basin":"ep","mslp":927,"dtg":2026092412,"year":2026,"month":"09","day":24,"hhmm":"1200","lat":17,"lon":-104,"ss":4,"idp_source":"EP172026_pts","idp_filedate":1790532175000,"idp_ingestdate":1790532295000,"binnumber":"EP2"}},{"type":"Feature","id":8219,"geometry":{"type":"Point","coordinates":[-104.89999999980006,16.899999999600425]},"properties":{"objectid":8219,"stormname":"POLO","stormtype":"HU","stormnum":17,"intensity":130,"basin":"ep","mslp":938,"dtg":2026092418,"year":2026,"month":"09","day":24,"hhmm":"1800","lat":17,"lon":-105,"ss":4,"idp_source":"EP172026_pts","idp_filedate":1790532175000,"idp_ingestdate":1790532295000,"binnumber":"EP2"}},{"type":"Feature","id":8220,"geometry":{"type":"Point","coordinates":[-106.10000000009984,17.100000000100067]},"properties":{"objectid":8220,"stormname":"POLO","stormtype":"HU","stormnum":17,"intensity":130,"basin":"ep","mslp":935,"dtg":2026092500,"year":2026,"month":"09","day":25,"hhmm":"0000","lat":17,"lon":-106,"ss":4,"idp_source":"EP172026_pts","idp_filedate":1790532175000,"idp_ingestdate":1790532295000,"binnumber":"EP2"}},{"type":"Feature","id":8221,"geometry":{"type":"Point","coordinates":[-107.00000000009982,17.100000000100067]},"properties":{"objectid":8221,"stormname":"POLO","stormtype":"HU","stormnum":17,"intensity":135,"basin":"ep","mslp":929,"dtg":2026092506,"year":2026,"month":"09","day":25,"hhmm":"0600","lat":17,"lon":-107,"ss":4,"idp_source":"EP172026_pts","idp_filedate":1790532175000,"idp_ingestdate":1790532295000,"binnumber":"EP2"}},{"type":"Feature","id":8222,"geometry":{"type":"Point","coordinates":[-107.99999999989996,17.100000000100067]},"properties":{"objectid":8222,"stormname":"POLO","stormtype":"HU","stormnum":17,"intensity":155,"basin":"ep","mslp":908,"dtg":2026092512,"year":2026,"month":"09","day":25,"hhmm":"1200","lat":17,"lon":-108,"ss":5,"idp_source":"EP172026_pts","idp_filedate":1790532175000,"idp_ingestdate":1790532295000,"binnumber":"EP2"}},{"type":"Feature","id":8223,"geometry":{"type":"Point","coordinates":[-108.80000000009983,17.100000000100067]},"properties":{"objectid":8223,"stormname":"POLO","stormtype":"HU","stormnum":17,"intensity":155,"basin":"ep","mslp":914,"dtg":2026092518,"year":2026,"month":"09","day":25,"hhmm":"1800","lat":17,"lon":-109,"ss":5,"idp_source":"EP172026_pts","idp_filedate":1790532175000,"idp_ingestdate":1790532295000,"binnumber":"EP2"}},{"type":"Feature","id":8224,"geometry":{"type":"Point","coordinates":[-109.70000000009981,17.199999999900228]},"properties":{"objectid":8224,"stormname":"POLO","stormtype":"HU","stormnum":17,"intensity":150,"basin":"ep","mslp":911,"dtg":2026092600,"year":2026,"month":"09","day":26,"hhmm":"0000","lat":17,"lon":-110,"ss":5,"idp_source":"EP172026_pts","idp_filedate":1790532175000,"idp_ingestdate":1790532295000,"binnumber":"EP2"}},{"type":"Feature","id":8225,"geometry":{"type":"Point","coordinates":[-110.50000000029968,17.400000000399814]},"properties":{"objectid":8225,"stormname":"POLO","stormtype":"HU","stormnum":17,"intensity":150,"basin":"ep","mslp":912,"dtg":2026092606,"year":2026,"month":"09","day":26,"hhmm":"0600","lat":17,"lon":-110,"ss":5,"idp_source":"EP172026_pts","idp_filedate":1790532175000,"idp_ingestdate":1790532295000,"binnumber":"EP2"}},{"type":"Feature","id":8226,"geometry":{"type":"Point","coordinates":[-111.40000000029966,17.699999999800298]},"properties":{"objectid":8226,"stormname":"POLO","stormtype":"HU","stormnum":17,"intensity":135,"basin":"ep","mslp":922,"dtg":2026092612,"year":2026,"month":"09","day":26,"hhmm":"1200","lat":18,"lon":-111,"ss":4,"idp_source":"EP172026_pts","idp_filedate":1790532175000,"idp_ingestdate":1790532295000,"binnumber":"EP2"}},{"type":"Feature","id":8227,"geometry":{"type":"Point","coordinates":[-112.19999999960021,18.300000000399848]},"properties":{"objectid":8227,"stormname":"POLO","stormtype":"HU","stormnum":17,"intensity":125,"basin":"ep","mslp":938,"dtg":2026092618,"year":2026,"month":"09","day":26,"hhmm":"1800","lat":18,"lon":-112,"ss":4,"idp_source":"EP172026_pts","idp_filedate":1790532175000,"idp_ingestdate":1790532295000,"binnumber":"EP2"}},{"type":"Feature","id":8228,"geometry":{"type":"Point","coordinates":[-112.89999999999992,18.99999999990024]},"properties":{"objectid":8228,"stormname":"POLO","stormtype":"HU","stormnum":17,"intensity":110,"basin":"ep","mslp":946,"dtg":2026092700,"year":2026,"month":"09","day":27,"hhmm":"0000","lat":19,"lon":-113,"ss":3,"idp_source":"EP172026_pts","idp_filedate":1790532175000,"idp_ingestdate":1790532295000,"binnumber":"EP2"}},{"type":"Feature","id":8229,"geometry":{"type":"Point","coordinates":[-113.39999999989999,19.800000000100056]},"properties":{"objectid":8229,"stormname":"POLO","stormtype":"HU","stormnum":17,"intensity":105,"basin":"ep","mslp":952,"dtg":2026092706,"year":2026,"month":"09","day":27,"hhmm":"0600","lat":20,"lon":-113,"ss":3,"idp_source":"EP172026_pts","idp_filedate":1790532175000,"idp_ingestdate":1790532295000,"binnumber":"EP2"}},{"type":"Feature","id":8230,"geometry":{"type":"Point","coordinates":[-113.70000000019974,20.799999999900194]},"properties":{"objectid":8230,"stormname":"POLO","stormtype":"HU","stormnum":17,"intensity":105,"basin":"ep","mslp":952,"dtg":2026092712,"year":2026,"month":"09","day":27,"hhmm":"1200","lat":21,"lon":-114,"ss":3,"idp_source":"EP172026_pts","idp_filedate":1790532175000,"idp_ingestdate":1790532295000,"binnumber":"EP2"}}]}