{"type":"FeatureCollection","features":[{"type":"Feature","id":293,"geometry":{"type":"LineString","coordinates":[[-110.6999999999,24.909999999600416],[-111.35000000039958,26.019999999900222],[-111.95999999989999,26.90000000029994],[-112.26000000019974,27.339999999600423],[-112.80000000019976,28.020000000399818]]},"properties":{"objectid":293,"stormname":"Polo","stormtype":"HU","basin":"EP","advdate":"1100 PM MST Sat Sep 26 2026","advisnum":"26A","fcstprd":120,"stormnum":17,"tcww":"HWA","idp_source":"ep172026-026A_ww_wwlin","idp_filedate":1790488954000,"idp_ingestdate":1790489015000,"st_length(shape)":3.757932774579138,"binnumber":"EP2"}},{"type":"Feature","id":294,"geometry":{"type":"LineString","coordinates":[[-114.33000000019973,27.840000000399868],[-115.05000000019976,27.850000000199998],[-113.56000000029968,26.690000000000168]]},"properties":{"objectid":294,"stormname":"Polo","stormtype":"HU","basin":"EP","advdate":"1100 PM MST Sat Sep 26 2026","advisnum":"26A","fcstprd":120,"stormnum":17,"tcww":"HWA","idp_source":"ep172026-026A_ww_wwlin","idp_filedate":1790488954000,"idp_ingestdate":1790489015000,"st_length(shape)":2.608375560387747,"binnumber":"EP2"}},{"type":"Feature","id":295,"geometry":{"type":"LineString","coordinates":[[-114.33000000019973,27.840000000399868],[-115.05000000019976,27.850000000199998],[-113.56000000029968,26.690000000000168]]},"properties":{"objectid":295,"stormname":"Polo","stormtype":"HU","basin":"EP","advdate":"1100 PM MST Sat Sep 26 2026","advisnum":"26A","fcstprd":120,"stormnum":17,"tcww":"TWR","idp_source":"ep172026-026A_ww_wwlin","idp_filedate":1790488954000,"idp_ingestdate":1790489015000,"st_length(shape)":2.608375560387747,"binnumber":"EP2"}},{"type":"Feature","id":296,"geometry":{"type":"LineString","coordinates":[[-113.56000000029968,26.690000000000168],[-112.13000000009981,25.790000000000134],[-112.26000000019974,24.750000000100044],[-111.8399999996002,24.499999999700378],[-111.13000000029967,24.09999999960047]]},"properties":{"objectid":296,"stormname":"Polo","stormtype":"HU","basin":"EP","advdate":"1100 PM MST Sat Sep 26 2026","advisnum":"26A","fcstprd":120,"stormnum":17,"tcww":"HWR","idp_source":"ep172026-026A_ww_wwlin","idp_filedate":1790488954000,"idp_ingestdate":1790489015000,"st_length(shape)":4.0414357263042842,"binnumber":"EP2"}}]}