{"type":"FeatureCollection","features":[{"type":"Feature","id":684,"geometry":{"type":"LineString","coordinates":[[-105.68000000039962,20.420000000299922],[-105.1400000003996,19.570000000199968]]},"properties":{"objectid":684,"stormname":"Rachel","stormtype":"TS","basin":"EP","advdate":"900 PM CST Mon Sep 28 2026","advisnum":"8","fcstprd":120,"stormnum":18,"tcww":"TWA","idp_source":"ep182026-008_ww_wwlin","idp_filedate":1790652483000,"idp_ingestdate":1790652508000,"st_length(shape)":1.0070253225068091,"binnumber":"EP3"}},{"type":"Feature","id":685,"geometry":{"type":"LineString","coordinates":[[-105.1400000003996,19.570000000199968],[-104.33000000039959,19.049999999800264],[-103.44999999999987,18.310000000199977]]},"properties":{"objectid":685,"stormname":"Rachel","stormtype":"TS","basin":"EP","advdate":"900 PM CST Mon Sep 28 2026","advisnum":"8","fcstprd":120,"stormnum":18,"tcww":"TWR","idp_source":"ep182026-008_ww_wwlin","idp_filedate":1790652483000,"idp_ingestdate":1790652508000,"st_length(shape)":2.1123312884756449,"binnumber":"EP3"}}]}