{"type":"FeatureCollection","features":[{"type":"Feature","id":330,"geometry":{"type":"LineString","coordinates":[[-102.90000000019973,14.49999999990024],[-104.30000000009983,15.200000000299895],[-105.79999999980004,16.500000000399837],[-107.00000000009982,17.90000000029994],[-107.80000000029969,18.900000000100079],[-108.49999999980008,19.499999999800309],[-109.10000000039958,19.899999999900217],[-110.10000000019977,20.399999999800286],[-111.40000000029966,20.899999999700356]]},"properties":{"objectid":330,"stormname":"Rachel","stormtype":"TS","basin":"EP","advdate":"900 PM CST Mon Sep 28 2026","advisnum":"8","fcstprd":120,"stormnum":18,"idp_source":"ep182026-008_5day_lin","idp_filedate":1790652483000,"idp_ingestdate":1790652503000,"st_length(shape)":10.828662164443404,"binnumber":"EP3"}}]}