{"type": "FeatureCollection", "features": [{"type": "Feature", "id": 4185, "geometry": {"type": "Point", "coordinates": [-119.50000000029968, 20.499999999600448]}, "properties": {"objectid": 4185, "stormname": "Hurricane Rachel", "stormtype": "HU", "dvlbl": "H", "basin": "EP", "advdate": "800 AM PDT Tue Oct 06 2026", "advisnum": "38", "fcstprd": 120, "gust": 90, "maxwind": 75, "mslp": 977, "ssnum": 1, "datelbl": "8:00 AM Tue", "tcdvlp": "Hurricane", "tcdir": 275, "tcspd": 7, "fldatelbl": "2026-10-06 5:00 AM Tue PDT", "lat": 20, "lon": -120, "stormnum": 18, "stormsrc": "Tropical Cyclone", "tau": 0, "timezone": "PDT", "validtime": "06/1200", "idp_source": "ep182026-038_5day_pts", "idp_filedate": 1791299575000, "idp_ingestdate": 1791299711000, "binnumber": "EP3", "MAXWIND": 75, "VALIDTIME": "06/1200"}}, {"type": "Feature", "id": 4186, "geometry": {"type": "Point", "coordinates": [-120.40000000029966, 20.60000000029993]}, "properties": {"objectid": 4186, "stormname": "Hurricane Rachel", "stormtype": "HU", "dvlbl": "H", "basin": "EP", "advdate": "800 AM PDT Tue Oct 06 2026", "advisnum": "38", "fcstprd": 120, "gust": 90, "maxwind": 75, "mslp": 9999, "ssnum": 1, "datelbl": "5:00 PM Tue", "tcdvlp": "Hurricane", "tcdir": 9999, "tcspd": 9999, "fldatelbl": "2026-10-06 5:00 PM Tue PDT", "lat": 21, "lon": -120, "stormnum": 18, "stormsrc": "Tropical Cyclone", "tau": 12, "timezone": "PDT", "validtime": "07/0000", "idp_source": "ep182026-038_5day_pts", "idp_filedate": 1791299575000, "idp_ingestdate": 1791299711000, "binnumber": "EP3", "MAXWIND": 75, "VALIDTIME": "07/0000"}}, {"type": "Feature", "id": 4187, "geometry": {"type": "Point", "coordinates": [-121.7000000003996, 21.000000000399837]}, "properties": {"objectid": 4187, "stormname": "Hurricane Rachel", "stormtype": "HU", "dvlbl": "H", "basin": "EP", "advdate": "800 AM PDT Tue Oct 06 2026", "advisnum": "38", "fcstprd": 120, "gust": 85, "maxwind": 70, "mslp": 9999, "ssnum": 1, "datelbl": "5:00 AM Wed", "tcdvlp": "Hurricane", "tcdir": 9999, "tcspd": 9999, "fldatelbl": "2026-10-07 5:00 AM Wed PDT", "lat": 21, "lon": -122, "stormnum": 18, "stormsrc": "Tropical Cyclone", "tau": 24, "timezone": "PDT", "validtime": "07/1200", "idp_source": "ep182026-038_5day_pts", "idp_filedate": 1791299575000, "idp_ingestdate": 1791299711000, "binnumber": "EP3", "MAXWIND": 70, "VALIDTIME": "07/1200"}}, {"type": "Feature", "id": 4188, "geometry": {"type": "Point", "coordinates": [-122.99999999960022, 21.500000000299906]}, "properties": {"objectid": 4188, "stormname": "Hurricane Rachel", "stormtype": "TS", "dvlbl": "S", "basin": "EP", "advdate": "800 AM PDT Tue Oct 06 2026", "advisnum": "38", "fcstprd": 120, "gust": 75, "maxwind": 60, "mslp": 9999, "ssnum": 0, "datelbl": "5:00 PM Wed", "tcdvlp": "Tropical Storm", "tcdir": 9999, "tcspd": 9999, "fldatelbl": "2026-10-07 5:00 PM Wed PDT", "lat": 22, "lon": -123, "stormnum": 18, "stormsrc": "Tropical Cyclone", "tau": 36, "timezone": "PDT", "validtime": "08/0000", "idp_source": "ep182026-038_5day_pts", "idp_filedate": 1791299575000, "idp_ingestdate": 1791299711000, "binnumber": "EP3", "MAXWIND": 60, "VALIDTIME": "08/0000"}}, {"type": "Feature", "id": 4189, "geometry": {"type": "Point", "coordinates": [-124.29999999970016, 22.000000000199975]}, "properties": {"objectid": 4189, "stormname": "Hurricane Rachel", "stormtype": "TS", "dvlbl": "S", "basin": "EP", "advdate": "800 AM PDT Tue Oct 06 2026", "advisnum": "38", "fcstprd": 120, "gust": 65, "maxwind": 55, "mslp": 9999, "ssnum": 0, "datelbl": "5:00 AM Thu", "tcdvlp": "Tropical Storm", "tcdir": 9999, "tcspd": 9999, "fldatelbl": "2026-10-08 5:00 AM Thu PDT", "lat": 22, "lon": -124, "stormnum": 18, "stormsrc": "Tropical Cyclone", "tau": 48, "timezone": "PDT", "validtime": "08/1200", "idp_source": "ep182026-038_5day_pts", "idp_filedate": 1791299575000, "idp_ingestdate": 1791299711000, "binnumber": "EP3", "MAXWIND": 55, "VALIDTIME": "08/1200"}}, {"type": "Feature", "id": 4190, "geometry": {"type": "Point", "coordinates": [-125.40000000019978, 22.40000000029994]}, "properties": {"objectid": 4190, "stormname": "Hurricane Rachel", "stormtype": "TS", "dvlbl": "S", "basin": "EP", "advdate": "800 AM PDT Tue Oct 06 2026", "advisnum": "38", "fcstprd": 120, "gust": 60, "maxwind": 50, "mslp": 9999, "ssnum": 0, "datelbl": "5:00 PM Thu", "tcdvlp": "Tropical Storm", "tcdir": 9999, "tcspd": 9999, "fldatelbl": "2026-10-08 5:00 PM Thu PDT", "lat": 22, "lon": -125, "stormnum": 18, "stormsrc": "Tropical Cyclone", "tau": 60, "timezone": "PDT", "validtime": "09/0000", "idp_source": "ep182026-038_5day_pts", "idp_filedate": 1791299575000, "idp_ingestdate": 1791299711000, "binnumber": "EP3", "MAXWIND": 50, "VALIDTIME": "09/0000"}}, {"type": "Feature", "id": 4191, "geometry": {"type": "Point", "coordinates": [-125.80000000029969, 22.800000000399848]}, "properties": {"objectid": 4191, "stormname": "Hurricane Rachel", "stormtype": "TS", "dvlbl": "S", "basin": "EP", "advdate": "800 AM PDT Tue Oct 06 2026", "advisnum": "38", "fcstprd": 120, "gust": 55, "maxwind": 45, "mslp": 9999, "ssnum": 0, "datelbl": "5:00 AM Fri", "tcdvlp": "Tropical Storm", "tcdir": 9999, "tcspd": 9999, "fldatelbl": "2026-10-09 5:00 AM Fri PDT", "lat": 23, "lon": -126, "stormnum": 18, "stormsrc": "Tropical Cyclone", "tau": 72, "timezone": "PDT", "validtime": "09/1200", "idp_source": "ep182026-038_5day_pts", "idp_filedate": 1791299575000, "idp_ingestdate": 1791299711000, "binnumber": "EP3", "MAXWIND": 45, "VALIDTIME": "09/1200"}}, {"type": "Feature", "id": 4192, "geometry": {"type": "Point", "coordinates": [-123.50000000039961, 24.200000000299895]}, "properties": {"objectid": 4192, "stormname": "Hurricane Rachel", "stormtype": "STS", "dvlbl": "S", "basin": "EP", "advdate": "800 AM PDT Tue Oct 06 2026", "advisnum": "38", "fcstprd": 120, "gust": 50, "maxwind": 40, "mslp": 9999, "ssnum": 0, "datelbl": "5:00 AM Sat", "tcdvlp": "Subtropical Storm", "tcdir": 9999, "tcspd": 9999, "fldatelbl": "2026-10-10 5:00 AM Sat PDT", "lat": 24, "lon": -124, "stormnum": 18, "stormsrc": "Post-Tropical Cyclone", "tau": 96, "timezone": "PDT", "validtime": "10/1200", "idp_source": "ep182026-038_5day_pts", "idp_filedate": 1791299575000, "idp_ingestdate": 1791299711000, "binnumber": "EP3", "MAXWIND": 40, "VALIDTIME": "10/1200"}}, {"type": "Feature", "id": 4193, "geometry": {"type": "Point", "coordinates": [-119.29999999980004, 27.699999999600436]}, "properties": {"objectid": 4193, "stormname": "Hurricane Rachel", "stormtype": "STS", "dvlbl": "S", "basin": "EP", "advdate": "800 AM PDT Tue Oct 06 2026", "advisnum": "38", "fcstprd": 120, "gust": 45, "maxwind": 35, "mslp": 9999, "ssnum": 0, "datelbl": "5:00 AM Sun", "tcdvlp": "Subtropical Storm", "tcdir": 9999, "tcspd": 9999, "fldatelbl": "2026-10-11 5:00 AM Sun PDT", "lat": 28, "lon": -119, "stormnum": 18, "stormsrc": "Post-Tropical Cyclone", "tau": 120, "timezone": "PDT", "validtime": "11/1200", "idp_source": "ep182026-038_5day_pts", "idp_filedate": 1791299575000, "idp_ingestdate": 1791299711000, "binnumber": "EP3", "MAXWIND": 35, "VALIDTIME": "11/1200"}}]}