{"type":"FeatureCollection","features":[{"type":"Feature","id":411,"geometry":{"type":"Polygon","coordinates":[[[-107.6623699999754,17.54433000032941],[-107.65370000035466,17.542579999667396],[-107.6246899998435,17.539940000230956],[-107.6143800001368,17.539650000347365],[-107.58168000033163,17.539949999792782],[-107.55968000023171,17.541509999786797],[-107.53836000001388,17.54433000032941],[-107.51822000025271,17.548529999759808],[-107.49944000025573,17.554080000291947],[-107.49115999973412,17.557980000276928],[-107.46613999976108,17.569489999563984],[-107.44402999998442,17.583920000407829],[-107.43723000026421,17.589280000271913],[-107.42397999987702,17.600399999560466],[-107.41133000017925,17.612100000414841],[-107.3874899997636,17.636969999765824],[-107.38748000020178,17.636969999765824],[-107.3763899995987,17.650229999714838],[-107.36111000002637,17.671480000301926],[-107.34824999963769,17.695179999657398],[-107.34124999968765,17.712530000259449],[-107.33568999959368,17.731350000302427],[-107.33151000018626,17.751539999671365],[-107.32878999975861,17.772989999588958],[-107.32751000008636,17.795310000056588],[-107.32751000008636,17.817940000430838],[-107.32878000019673,17.840269999560974],[-107.33044000030566,17.850600000190013],[-107.33561000040112,17.882000000299911],[-107.33853000015927,17.891260000149032],[-107.35078000029665,17.927730000239478],[-107.35458000016678,17.936120000437825],[-107.36226999956074,17.95279000025846],[-107.37024999973761,17.969170000195504],[-107.37841999968316,17.985360000363869],[-107.38651000043609,18.001640000186001],[-107.3905899997286,18.00973000003961],[-107.40277000023525,18.034110000176497],[-107.41084000006583,18.050389999998629],[-107.41892000035762,18.066680000281906],[-107.42301000011133,18.074770000135516],[-107.43508999960369,18.099239999926169],[-107.44286999955074,18.115820000093095],[-107.45055999984402,18.13248999991373],[-107.45786000013879,18.149560000194015],[-107.46477999999689,18.167010000011658],[-107.4682800004216,18.175690000093596],[-107.47859000012829,18.201920000108032],[-107.48550000042457,18.219369999925675],[-107.49281000028117,18.236429999744814],[-107.49669999980506,18.244719999828249],[-107.50827000006035,18.269679999732318],[-107.51235999981407,18.27778000004713],[-107.52454000032066,18.302149999722872],[-107.53290999959671,18.318150000122557],[-107.54147000044009,18.333939999831273],[-107.55042999994447,18.34935000000263],[-107.56434999975261,18.371969999915677],[-107.56902000017277,18.379480000002161],[-107.57836999967566,18.394489999713869],[-107.58761999996295,18.409610000001635],[-107.59667999958219,18.42492000005808],[-107.60553000030916,18.440419999883204],[-107.6143800001368,18.455919999708385],[-107.6234399997561,18.47122999976483],[-107.62811000017626,18.478739999851257],[-107.64211999963817,18.501259999649392],[-107.65662999967464,18.523299999795313],[-107.65672000022772,18.523199999680401],[-107.67162000026269,18.544849999827761],[-107.67677000033513,18.551869999800772],[-107.69225000013728,18.572929999719861],[-107.70286999975059,18.586679999782291],[-107.71347000024025,18.600429999844778],[-107.72388999962368,18.614369999675887],[-107.72905000015726,18.621389999648898],[-107.74452000039759,18.642449999567987],[-107.7496800000319,18.649470000440317],[-107.77051999969814,18.677359999664418],[-107.77061000025122,18.677260000448825],[-107.78114000021077,18.691109999726848],[-107.79688999987349,18.711879999762346],[-107.80721999960321,18.725919999708367],[-107.81238000013678,18.732939999681378],[-107.82794000003088,18.753900000384874],[-107.83340000000987,18.760629999574974],[-107.84975999992395,18.780819999843231],[-107.87233999979105,18.806949999742812],[-107.87799000043805,18.813479999602464],[-107.88343999995595,18.820209999691883],[-107.89415000012229,18.833859999639401],[-107.90455999994396,18.847800000369887],[-107.91486999965065,18.861849999877734],[-107.92528999993345,18.875789999708843],[-107.93598999963865,18.889439999656418],[-107.95293000021923,18.909039999696347],[-107.95876999973558,18.915370000225494],[-107.96481000038114,18.92151999964841],[-107.99488999987352,18.952330000429299],[-108.00705999991897,18.964519999598451],[-108.00705000035714,18.964519999598451],[-108.01922999996441,18.976709999666866],[-108.03139000044808,18.988899999735338],[-108.04355000003238,19.001080000241984],[-108.06175000026218,19.01941000017149],[-108.07967000017027,19.03804000044579],[-108.09124999998744,19.050810000281444],[-108.1024500002672,19.063970000115546],[-108.10769999955522,19.07090000043479],[-108.11830999960671,19.084649999597957],[-108.13905000005735,19.112630000274407],[-108.1443000002447,19.119550000132563],[-108.14976999978558,19.126280000221982],[-108.16620999979153,19.146370000375384],[-108.17778999960871,19.159140000210982],[-108.18966999977056,19.171620000162989],[-108.20173999970115,19.183910000346373],[-108.21390000018476,19.196100000414845],[-108.23212000043759,19.214430000344407],[-108.23824999983754,19.220470000090586],[-108.25039999986001,19.232660000159001],[-108.2687099997666,19.250889999973651],[-108.2869099999964,19.26923000036436],[-108.28690000043457,19.26923000036436],[-108.29906999958069,19.281409999971686],[-108.31736999992546,19.299650000247482],[-108.32943999985599,19.311940000430809],[-108.33557000015526,19.317980000176988],[-108.34774999976258,19.33017000024546],[-108.3720800002917,19.354550000382346],[-108.37206999983056,19.354550000382346],[-108.38425000033715,19.366729999989673],[-108.39642000038259,19.378920000058088],[-108.40857999996695,19.391110000126559],[-108.42075000001239,19.403300000194974],[-108.43292000005783,19.415490000263446],[-108.44507999964219,19.427680000331918],[-108.45724000012581,19.439870000400333],[-108.46941999973308,19.452050000007659],[-108.48158000021675,19.464240000076074],[-108.49373999980105,19.476430000144546],[-108.51204999970764,19.494659999959197],[-108.51809999991497,19.500799999820288],[-108.53618999956871,19.519229999864763],[-108.54202999998444,19.525569999955678],[-108.55935999966414,19.544779999997161],[-108.57025000003739,19.558240000175999],[-108.57552000024771,19.565160000034098],[-108.58067000032014,19.572180000007108],[-108.59625000023721,19.593139999811285],[-108.60666999962069,19.60709000010354],[-108.61737000022521,19.620740000051114],[-108.63430999990646,19.640340000091044],[-108.64015000032214,19.646680000182016],[-108.65807000023023,19.66529999999517],[-108.66408999995343,19.671439999856261],[-108.67626999956076,19.683629999924676],[-108.68845000006735,19.695819999993148],[-108.70058999962868,19.70801000006162],[-108.7188099998815,19.726339999991126],[-108.72494999974259,19.732379999737361],[-108.74312999994942,19.750720000128069],[-108.74926999981056,19.756759999874248],[-108.77360999990145,19.781140000011135],[-108.78577000038513,19.793330000079607],[-108.79794000043057,19.805520000148022],[-108.81615000022225,19.823839999616439],[-108.83444999966764,19.842079999892235],[-108.83444000010581,19.842079999892235],[-108.84661999971314,19.85426999996065],[-108.86481000038111,19.872599999890213],[-108.87093999978106,19.878639999636391],[-108.88320999994147,19.890740000051096],[-108.90841999968313,19.914229999614918],[-108.91483999986599,19.919989999938707],[-108.93519000031819,19.936169999645927],[-108.94911000012632,19.946609999951704],[-108.95611999963819,19.951769999585963],[-108.97012999999941,19.962109999776828],[-108.99065999975909,19.978099999715369],[-108.99738999984851,19.983559999694364],[-109.01023000021422,19.995069999880741],[-109.02911000032617,20.012710000366383],[-109.03535000030217,20.018659999559475],[-109.04167000037012,20.024510000436294],[-109.06756999955576,20.047329999679903],[-109.08810999977658,20.063319999618443],[-109.10914000011081,20.078829999904713],[-109.12314999957272,20.089159999634433],[-109.13707000028018,20.099590000378328],[-109.14397999967713,20.104859999689381],[-109.164519999898,20.120849999627922],[-109.17143000019428,20.126110000276412],[-109.17843999970614,20.131280000371873],[-109.20686999955075,20.151569999855724],[-109.21406999973061,20.15653999972136],[-109.23606999983053,20.171069999780798],[-109.25096000030368,20.180520000297918],[-109.26605000010733,20.189789999708864],[-109.2736400002857,20.19436999957594],[-109.29720000037963,20.20733999964142],[-109.31315999983406,20.21572000027794],[-109.32922000030266,20.224010000361375],[-109.34548000010182,20.23210999977681],[-109.35365000004737,20.236100000314877],[-109.37778999990849,20.248489999713854],[-109.39375000026223,20.256870000350375],[-109.40953000040912,20.265450000317401],[-109.41731000035611,20.269840000415854],[-109.43999000033813,20.283689999693877],[-109.45498999958869,20.29304999965791],[-109.47008000029166,20.302310000406351],[-109.47766000000888,20.306890000273427],[-109.49323999992595,20.315669999570957],[-109.51786999990048,20.327569999755838],[-109.53500999981156,20.334780000396847],[-109.55232999992944,20.341800000369858],[-109.56975999972411,20.348720000227956],[-109.58717999995696,20.355640000086055],[-109.60421999975307,20.362960000403859],[-109.62085999998891,20.370660000258965],[-109.6291399996112,20.374560000243946],[-109.65376000002391,20.386460000428826],[-109.6699199997081,20.394650000397348],[-109.68616999994543,20.402740000250958],[-109.70242000018277,20.410839999666393],[-109.71859000032816,20.419029999634915],[-109.73483999966618,20.427120000387845],[-109.7511000003646,20.435210000241455],[-109.76726000004885,20.443400000209976],[-109.77532999987949,20.447500000424839],[-109.79977000008535,20.459590000378341],[-109.81592000020777,20.467780000346863],[-109.82401000006138,20.47187000010058],[-109.84843000024421,20.483969999615908],[-109.86458999992846,20.49215999958443],[-109.87267999978206,20.496250000237467],[-109.8971100004261,20.508340000190969],[-109.91316999999543,20.516630000274461],[-109.92913999991094,20.525010000011605],[-109.94492000005783,20.533600000439833],[-109.9602799997221,20.542570000405362],[-109.96786999990047,20.547150000272438],[-109.99036000011381,20.56119000021846],[-109.99785999973909,20.565870000200505],[-110.0204399996062,20.579810000031614],[-110.02802999978456,20.584400000359892],[-110.05119000031817,20.597760000423818],[-110.05897999982705,20.60214000006107],[-110.07436999997543,20.611110000026599],[-110.09704999995745,20.624960000203998],[-110.11203999964619,20.634320000168032],[-110.12703000023424,20.643680000132065],[-110.14210999957675,20.652939999981129],[-110.15739000004839,20.662010000061571],[-110.16508000034162,20.666500000274937],[-110.18834999965264,20.679760000223951],[-110.19603999994592,20.684239999976171],[-110.21871999992794,20.698090000153513],[-110.23370999961668,20.707450000117547],[-110.24121000014128,20.712130000099592],[-110.25619999983002,20.721490000063568],[-110.27916999969563,20.735050000357376],[-110.28696000010382,20.739429999994627],[-110.30291999955824,20.747820000192974],[-110.32696999976559,20.760300000145037],[-110.34322000000287,20.768389999998647],[-110.35947999980203,20.776490000313402],[-110.37562999992446,20.784680000281924],[-110.39188000016179,20.792770000135533],[-110.40813999996095,20.800869999550969],[-110.42429999964514,20.809049999957665],[-110.43239000039813,20.813150000172527],[-110.45680999968164,20.82524000012603],[-110.47297999982703,20.833430000094552],[-110.48923000006437,20.841519999948162],[-110.50548999986353,20.849620000262917],[-110.52163999998589,20.857810000231439],[-110.52972000027768,20.861899999985155],[-110.53789999978505,20.865900000085048],[-110.57030999970664,20.882179999907237],[-110.57838999999842,20.886280000122042],[-110.59493999968112,20.89408000009206],[-110.61986000043856,20.905679999932204],[-110.63690000023473,20.912989999788806],[-110.67175000026219,20.926839999966148],[-110.68916000003389,20.933770000285449],[-110.70658999982851,20.940690000143547],[-110.72362999962468,20.94800000000015],[-110.73199000023823,20.951799999870218],[-110.75682000044259,20.963499999825274],[-110.77318000035666,20.971500000025117],[-110.78932999957971,20.979689999993639],[-110.79740999987149,20.983790000208501],[-110.80567999993195,20.987690000193481],[-110.83886999985054,21.003190000018606],[-110.85590999964666,21.010499999875208],[-110.87334000034065,21.017430000194508],[-110.89075999967417,21.024350000052607],[-110.89941000017126,21.027860000039084],[-110.92560999970163,21.038189999768804],[-110.94263999993598,21.045510000086551],[-110.95928999973358,21.053209999941657],[-110.96755999979405,21.057109999926695],[-110.9843000001448,21.064720000128034],[-111.00922000000293,21.076319999968177],[-111.02625999979904,21.08362999982478],[-111.0437800001468,21.090460000029111],[-111.06149000026318,21.097090000003618],[-111.07941000017126,21.103519999748357],[-111.09761000040112,21.109670000070594],[-111.1158099997316,21.115809999931685],[-111.13370999961671,21.122239999676367],[-111.15143999975606,21.128869999650931],[-111.16906000021874,21.13559999974035],[-111.20350999978655,21.149839999916196],[-111.22084000036563,21.156859999889207],[-111.22959999964019,21.160269999760828],[-111.25617999960718,21.17021999995319],[-111.26503999989598,21.173529999709842],[-111.2922799997221,21.182800000020109],[-111.31058999962869,21.188839999766344],[-111.32878999985849,21.194979999627435],[-111.34699000008834,21.201129999949671],[-111.36529000043305,21.20716999969585],[-111.3835899998785,21.213219999903231],[-111.3927499996127,21.216239999776292],[-111.41999999989997,21.225510000086558],[-111.43830999980656,21.231549999832794],[-111.45659999969013,21.237589999578972],[-111.47481000038113,21.243739999901209],[-111.49300000014978,21.2498799997623],[-111.51131000005637,21.25592999996968],[-111.52959999993993,21.261969999715859],[-111.5479000002847,21.268019999923183],[-111.56641000042106,21.273869999900739],[-111.58519000041809,21.279429999994647],[-111.60416999974558,21.284789999858731],[-111.62325000008735,21.290049999607959],[-111.64221000029119,21.295419999933188],[-111.65165999990899,21.298149999922714],[-111.6791199999879,21.307220000003156],[-111.69662999987452,21.314039999746342],[-111.71358000001692,21.321449999717856],[-111.73032000036761,21.329059999919195],[-111.74695999970413,21.336759999774301],[-111.76361000040112,21.344459999629407],[-111.78065000019723,21.351770000385329],[-111.79807000043007,21.35869999980531],[-111.8154899997636,21.365619999663409],[-111.83291999955821,21.372540000420827],[-111.85043000034415,21.379369999725839],[-111.86776000002391,21.386389999698849],[-111.87633000042911,21.389999999800295],[-111.90222000005286,21.400629999874752],[-111.91974999996245,21.407449999617938],[-111.93717000019524,21.414379999937182],[-111.95459000042808,21.421299999795281],[-111.97210999987652,21.428120000437787],[-111.98943999955623,21.435140000410854],[-112.00658000036663,21.44235999971437],[-112.02389999958524,21.44937999968738],[-112.04141000037112,21.456209999891712],[-112.05884999972761,21.46312999974981],[-112.07626000039858,21.470049999607909],[-112.08501999967314,21.47346000037885],[-112.11111000042609,21.483899999785308],[-112.12825000033718,21.491110000426318],[-112.14558000001688,21.498130000399328],[-112.1631900000184,21.504859999589428],[-112.18090999969661,21.511489999563992],[-112.19882000004287,21.517929999769819],[-112.21702999983455,21.52406999963091],[-112.22617000044505,21.527090000403348],[-112.25314000041061,21.536649999697886],[-112.27084000006585,21.543279999672393],[-112.28847000009034,21.550009999761812],[-112.32291999965815,21.564240000375833],[-112.34025999979906,21.5712600003489],[-112.35788000026173,21.577990000438319],[-112.37557999991697,21.584620000412826],[-112.39349999982505,21.591059999719334],[-112.41170999961668,21.597199999580482],[-112.43000999996144,21.603240000225981],[-112.43914999967262,21.606269999660924],[-112.46641000042109,21.615530000409308],[-112.48470000030466,21.621579999717369],[-112.49386000003886,21.62459999959043],[-112.52083000000442,21.634159999784288],[-112.52967999983201,21.637470000440317],[-112.55615000012233,21.647510000286445],[-112.57347999980203,21.654530000259456],[-112.59061000015129,21.661749999562971],[-112.59917999965717,21.665359999664418],[-112.62554999983251,21.675499999625401],[-112.64327999997192,21.682129999599965],[-112.66119000031819,21.688560000243967],[-112.67940000010981,21.694709999666884],[-112.69768999999343,21.700750000312382],[-112.71589999978505,21.70689000017353],[-112.72494999984252,21.710010000161503],[-112.75240000035961,21.719080000241945],[-112.76154000007085,21.722109999676888],[-112.78888999957371,21.731270000310417],[-112.80710000026471,21.737419999733333],[-112.8253999997101,21.743460000378832],[-112.8436100004011,21.74960000023998],[-112.86151000028622,21.756040000445807],[-112.87036000011381,21.75935000020246],[-112.89685000042709,21.769399999610414],[-112.91416999964565,21.776419999583482],[-112.93129999999491,21.783630000224491],[-112.94864000013581,21.790650000197502],[-112.96625000013728,21.797380000286921],[-112.97511000042607,21.800699999605456],[-113.0018800001618,21.810449999567993],[-113.02006999993046,21.816590000328404],[-113.03837999983705,21.822630000074582],[-113.05658000006684,21.828780000396819],[-113.0747800002967,21.834920000257966],[-113.09309000020323,21.840969999565971],[-113.11129000043309,21.847110000326381],[-113.12919999987997,21.853540000071064],[-113.14690999999641,21.860170000045628],[-113.15575999982406,21.863490000263425],[-113.18184999967764,21.873920000108058],[-113.19898999958872,21.881140000310893],[-113.20755999999392,21.884750000412339],[-113.23393000016927,21.89489000037338],[-113.25164999984753,21.901520000347887],[-113.26956000019374,21.907959999654395],[-113.28776999998541,21.914100000414805],[-113.30597000021527,21.920240000275953],[-113.31502999983451,21.923360000263926],[-113.34160000023974,21.933299999995143],[-113.35921000024121,21.940030000084562],[-113.36797000041508,21.943450000417329],[-113.39365999980907,21.954270000260465],[-113.41099999994992,21.961290000233475],[-113.42850999983654,21.968109999976662],[-113.44593999963121,21.975040000295905],[-113.463359999864,21.981960000154004],[-113.48078999965867,21.988880000012159],[-113.49783000035416,21.996200000329907],[-113.51446999969062,22.003900000185013],[-113.53100999981154,22.011700000155031],[-113.54736000016379,22.019700000354874],[-113.56353000030919,22.027890000323396],[-113.57979000010835,22.035980000177005],[-113.59602999988448,22.044079999592441],[-113.61220000002987,22.052259999999137],[-113.62845999982903,22.060360000313892],[-113.64471000006637,22.068450000167502],[-113.67711999998789,22.084729999989634],[-113.69337000022523,22.092830000304389],[-113.69337000022523,22.092819999843243],[-113.70952999990948,22.101020000272911],[-113.74205000040712,22.11719999998013],[-113.75821000009131,22.125389999948652],[-113.77446000032865,22.133490000263464],[-113.79072999968963,22.141580000117074],[-113.79070999966666,22.141580000117074],[-113.82313999961121,22.157859999939205],[-113.83938999984849,22.165960000253961],[-113.85555000043206,22.174150000222483],[-113.87179999977008,22.182240000076092],[-113.88805999956924,22.190329999929702],[-113.9042200001528,22.198519999898224],[-113.92047000039008,22.206620000212979],[-113.93673000018924,22.214710000066589],[-113.95288000031167,22.222900000035111],[-113.96914999967265,22.231000000349866],[-113.96914000011083,22.231000000349866],[-114.00155999959424,22.247280000171997],[-114.01780999983151,22.255370000025607],[-114.03406999963067,22.263470000340362],[-114.03406999963067,22.263459999879217],[-114.0664900000134,22.279750000162494],[-114.07465999995895,22.283739999801298],[-114.09889999993493,22.296029999984626],[-114.11515000017226,22.304119999838235],[-114.13140999997142,22.312220000153047],[-114.16383000035415,22.328499999975179],[-114.18007999969211,22.336589999828789],[-114.19624000027568,22.344779999797311],[-114.22873999985103,22.360969999965675],[-114.23682999970464,22.365070000180481],[-114.2611600002337,22.377249999787807],[-114.27742000003286,22.385350000102562],[-114.29357999971711,22.393540000071084],[-114.30984000041559,22.401629999924694],[-114.32610000021475,22.409719999778304],[-114.35851000013628,22.426010000061581],[-114.37476000037361,22.43409999991519],[-114.38283999976608,22.438189999668907],[-114.40717999985702,22.450379999737322],[-114.42341999963315,22.458480000052077],[-114.43958999977855,22.466670000020599],[-114.44767000007033,22.470759999774316],[-114.47211000027619,22.482860000189021],[-114.48826999996044,22.491039999696397],[-114.50452000019777,22.499140000011153],[-114.52077000043505,22.507229999864762],[-114.5369300001193,22.515419999833284],[-114.55318000035663,22.523509999686894],[-114.56944000015579,22.531610000001649],[-114.58559999984004,22.539799999970171],[-114.60185000007732,22.547889999823781],[-114.61812000033763,22.55597999967739],[-114.63426999956073,22.564169999645912],[-114.63428000002187,22.564169999645912],[-114.66677999959722,22.580359999814277],[-114.68284999962771,22.588649999897711],[-114.69082999980458,22.59283999976634],[-114.69880999998139,22.597029999634913],[-114.7299600002537,22.614590000028613],[-114.7450399995962,22.623849999877734],[-114.75254999968263,22.628529999859722],[-114.76003999974608,22.633209999841768],[-114.79010999967664,22.651829999654922],[-114.80549999982503,22.660799999620451],[-114.82125999994895,22.669379999587477],[-114.83722000030269,22.677769999785824],[-114.85329000033317,22.686059999869258],[-114.88580000036961,22.702239999576477],[-114.89387999976208,22.706339999791282],[-114.9182100002912,22.718529999859754],[-114.93445999962921,22.726619999713364],[-114.95062000021272,22.734809999681886],[-114.96688000001188,22.742900000434815],[-114.98313999981104,22.750999999850251],[-114.99930000039461,22.759189999818773],[-115.01554999973263,22.767279999672382],[-115.03181000043111,22.775370000425312],[-115.03179999996991,22.775379999987138],[-115.0479700001153,22.783560000393834],[-115.06422000035263,22.791659999809269],[-115.09663999983604,22.807939999631401],[-115.11289000007338,22.81603000038433],[-115.12914999987248,22.824129999799766],[-115.14530999955673,22.832319999768288],[-115.16165000034715,22.840310000406362],[-115.16994000043059,22.844210000391342],[-115.17820999959173,22.84811000037638],[-115.21188999962368,22.863129999649914],[-115.22932000031767,22.870050000407332],[-115.24673000008931,22.876979999827256],[-115.28168000023174,22.890720000327917],[-115.29900999991145,22.897740000300928],[-115.31614999982253,22.904959999604444],[-115.33346999994046,22.911979999577454],[-115.35109000040308,22.918709999666874],[-115.36879999962019,22.925339999641437],[-115.38670999996646,22.931770000285439],[-115.40491999975808,22.937919999708356],[-115.42322000010284,22.943960000353854],[-115.44142000033264,22.950100000215002],[-115.45961999966318,22.956249999637919],[-115.47792000000788,22.962290000283417],[-115.49622000035265,22.968339999591421],[-115.51441999968313,22.974480000351889],[-115.53263000037413,22.980629999774806],[-115.55092000025769,22.986670000420304],[-115.56007000043007,22.989690000293422],[-115.58752999960967,22.998760000373863],[-115.6061100002762,23.004510000236451],[-115.6251899997186,23.009780000446824],[-115.64464999959773,23.014650000197491],[-115.6645200003976,23.019140000410857],[-115.68476999983551,23.023239999726343],[-115.70510999982656,23.027230000264467],[-115.72536000016379,23.031329999579953],[-115.7456099996017,23.035420000232989],[-115.76585999993893,23.039520000447794],[-115.78609999981506,23.043610000201511],[-115.80643999980606,23.047610000301404],[-115.8267900002582,23.051610000401354],[-115.84703000013428,23.055700000155014],[-115.86737999968716,23.059700000254963],[-115.87759999974008,23.061650000247482],[-115.90914999957272,23.066620000113062],[-115.93095000034214,23.069160000333909],[-115.95334000044056,23.071110000326371],[-115.97590999984652,23.072860000089065],[-115.99831000040609,23.07481999964341],[-116.02011000027619,23.077350000302431],[-116.04123000026419,23.080570000405316],[-116.06194999979255,23.084179999607443],[-116.08269999980507,23.087789999708889],[-116.10383000025422,23.091000000249949],[-116.12571999977808,23.093440000355884],[-116.14851000033616,23.095000000349899],[-116.17197000031518,23.095879999562499],[-116.1959000003846,23.096269999560946],[-116.22014000036063,23.096369999675858],[-116.24446999999043,23.096369999675858],[-116.26881000008132,23.096369999675858],[-116.29313999971112,23.096369999675858],[-116.31747999980206,23.096369999675858],[-116.341819999893,23.096369999675858],[-116.36617000044509,23.096369999675858],[-116.39048999961369,23.096369999675858],[-116.41472999958972,23.096269999560946],[-116.43869000014331,23.095879999562499],[-116.45026999996043,23.09529000023349],[-116.47333000037912,23.094029999684892],[-116.50681000018125,23.091000000249949],[-116.52793999973113,23.087780000147006],[-116.5486600001588,23.084179999607443],[-116.56939999971013,23.080570000405316],[-116.59053000015928,23.077350000302431],[-116.61231999956823,23.07481999964341],[-116.6347200001278,23.072860000089065],[-116.65729000043308,23.071110000326371],[-116.67967000007036,23.069160000333909],[-116.6903800002367,23.067699999555487],[-116.72260999995143,23.063409999571945],[-116.74325000028716,23.059700000254963],[-116.76359999984004,23.055709999716839],[-116.78383999971612,23.051610000401354],[-116.80417999970712,23.047610000301404],[-116.82453000015931,23.043610000201511],[-116.84466999992048,23.039420000332882],[-116.86461999991297,23.035030000234485],[-116.88438000013679,23.030450000367352],[-116.9039600001538,23.025670000270452],[-116.9234299995947,23.020799999620408],[-116.94289999993498,23.015920000307915],[-116.96235999981405,23.011049999657871],[-116.98183000015428,23.006170000345378],[-117.00129999959523,23.001299999695391],[-117.02066000025872,22.996320000267929],[-117.03983999981602,22.99115999973435],[-117.05882000004289,22.985790000308384],[-117.07760999960169,22.980239999776302],[-117.09611000017628,22.974380000236977],[-117.11440000005985,22.968339999591421],[-117.13270999996644,22.962290000283417],[-117.15089999973509,22.956150000422326],[-117.16881000008135,22.949710000216498],[-117.18654000022076,22.943080000241935],[-117.19530000039458,22.93967000037037],[-117.21271999972811,22.932749999612952],[-117.23861000025124,22.922120000437815],[-117.25593999993094,22.915099999565484],[-117.27346999984053,22.908279999822298],[-117.29087999961217,22.901350000402317],[-117.30829999984502,22.894429999644899],[-117.31697000036513,22.890919999658422],[-117.33411000027621,22.88370000035485],[-117.35940999967164,22.872489999613947],[-117.37596000025371,22.864689999643929],[-117.39232000016779,22.856690000343406],[-117.40847000029021,22.848500000374884],[-117.42471999962817,22.840409999621954],[-117.44098000032665,22.832310000206462],[-117.4571400000109,22.824129999799766],[-117.47339999981006,22.81603000038433],[-117.48965000004739,22.807939999631401],[-117.50580999973158,22.799749999662879],[-117.52207000043006,22.791659999809269],[-117.53831000020625,22.783560000393834],[-117.55448000035165,22.775370000425312],[-117.57072999968966,22.767279999672382],[-117.58699000038814,22.759189999818773],[-117.60304999995742,22.750899999735338],[-117.61901999987299,22.742519999998137],[-117.63480000001988,22.733929999569966],[-117.65015999968415,22.724959999604437],[-117.66525000038712,22.715699999755316],[-117.68015000042209,22.70623999967637],[-117.70214999962269,22.691720000078078],[-117.70944000035564,22.686839999866265],[-117.72404000004587,22.677089999903728],[-117.73865000019725,22.667339999941191],[-117.76784999957772,22.647829999554972],[-117.78235000005236,22.637989999938668],[-117.796659999859,22.627939999631394],[-117.81077999989697,22.617710000016643],[-117.83160000043955,22.602009999961695],[-117.83842000018279,22.596639999636409],[-117.85213999976111,22.586009999561952],[-117.86607000003039,22.575579999717377],[-117.88008000039162,22.565249999987657],[-117.90112000028768,22.549739999701387],[-117.91493000041908,22.539209999741843],[-117.92165000004735,22.533749999762847],[-117.93478999985854,22.522539999921207],[-117.94753999967116,22.510940000081064],[-117.96001000006135,22.49903999989624],[-117.97226000019873,22.486949999942681],[-117.99046000042858,22.468620000013118],[-117.99660000028967,22.462569999805794],[-118.01499999985003,22.444440000106056],[-118.02131999991798,22.438590000128556],[-118.0340699997306,22.426979999827267],[-118.04721000044105,22.415769999985628],[-118.06074999981257,22.404950000142549],[-118.07437000017529,22.394219999953179],[-118.08781000033116,22.383299999995131],[-118.10706999998041,22.366039999946167],[-118.11291999995791,22.359699999855252],[-118.12985999963917,22.340099999815266],[-118.13520999994142,22.333280000072079],[-118.15671999992799,22.306069999830754],[-118.16792000020774,22.292909999996652],[-118.17950000002486,22.280140000160998],[-118.19138000018677,22.267660000208991],[-118.2034500001173,22.255370000025607],[-118.2156200001628,22.243179999957192],[-118.2277799997471,22.23098999988872],[-118.23984999967763,22.218710000166539],[-118.26330999965666,22.193449999917675],[-118.26906000041856,22.187020000172993],[-118.28520999964167,22.166640000136056],[-118.29047000029021,22.159709999816755],[-118.30556000009386,22.138259999899219],[-118.31537999968714,22.123740000300927],[-118.32025000033713,22.116419999983179],[-118.32998999983852,22.101800000269918],[-118.34470000010481,22.079960000353879],[-118.35471999992797,22.06562000006312],[-118.35978000034663,22.05849999997514],[-118.37009999961521,22.044460000029119],[-118.37534999980255,22.03754000017102],[-118.39646999979055,22.009939999931191],[-118.40660000018977,21.995710000216491],[-118.4115599995942,21.988490000013655],[-118.42109999976509,21.97367000007057],[-118.43464000003587,21.950660000159019],[-118.43903000013432,21.942860000189],[-118.44798000007683,21.927459999579469],[-118.46179999977011,21.904739999551452],[-118.47113999971111,21.889720000277919],[-118.48047999965218,21.874700000105065],[-118.48515000007234,21.867199999580464],[-118.5028699997506,21.83619000036839],[-118.50306999998043,21.836380000137012],[-118.5114400001558,21.820390000198472],[-118.51979999987003,21.804400000259932],[-118.52798000027667,21.788219999653393],[-118.54346000007882,21.754969999665889],[-118.54734999960272,21.746679999582454],[-118.55464000033567,21.72961000020149],[-118.56154999973262,21.712160000383847],[-118.56848000005186,21.694709999666884],[-118.57539000034814,21.677250000287415],[-118.58219999963018,21.65970000035486],[-118.58921000004136,21.64234999975281],[-118.59982000009285,21.616409999621908],[-118.60341999973309,21.607829999654882],[-118.61014999982257,21.590179999607415],[-118.6167599997741,21.572430000344355],[-118.62317999995696,21.554490000413352],[-118.62629999994493,21.545429999894736],[-118.6353500000024,21.517929999769819],[-118.6414899998635,21.499690000393343],[-118.64760999970161,21.481459999679373],[-118.653659999909,21.46312999974981],[-118.65969999965517,21.444799999820304],[-118.66572999983953,21.426469999890742],[-118.67155999979406,21.407939999731354],[-118.67711000032614,21.389119999688376],[-118.67984000031566,21.37965999960943],[-118.68762000026271,21.350899999835292],[-118.69257999966715,21.331489999563985],[-118.69735000020228,21.311899999985144],[-118.70193000006935,21.292099999715333],[-118.7063099997066,21.2721099996769],[-118.71049000001341,21.251929999869731],[-118.71447999965216,21.231549999832794],[-118.71847999975211,21.2111699997958],[-118.72255999994394,21.190889999873718],[-118.72656000004389,21.170509999836781],[-118.73025000023722,21.149839999916196],[-118.73347000034016,21.128679999882252],[-118.73598999963866,21.106839999966155],[-118.73795000009233,21.084409999821787],[-118.73969999985502,21.061789999908683],[-118.74164999984754,21.039359999764315],[-118.74417000004536,21.017519999848275],[-118.7473900001483,20.996359999814274],[-118.75098000022672,20.975589999778833],[-118.75459000032816,20.954819999743336],[-118.7577999999699,20.933670000170537],[-118.76022999961469,20.911730000139528],[-118.76180000006985,20.888909999996656],[-118.7626600001588,20.865409999971689],[-118.76305000015731,20.841419999833249],[-118.76315000027222,20.81715000027242],[-118.76305000015731,20.792870000250446],[-118.7626600001588,20.768880000112063],[-118.76180000006985,20.745380000087096],[-118.76022000005287,20.722559999944167],[-118.75876000017377,20.711840000216],[-118.75459000032816,20.679470000340359],[-118.75098000022672,20.658700000304918],[-118.7473900001483,20.637930000269421],[-118.7459300002692,20.627200000080052],[-118.74164999984754,20.59493000031938],[-118.73969999985502,20.572500000175012],[-118.73795000009233,20.549880000261965],[-118.73600999966169,20.52745000011754],[-118.73454000022076,20.516730000389373],[-118.73025999979905,20.484450000167499],[-118.72656000004389,20.46378000024697],[-118.72255999994394,20.443400000209976],[-118.71847999975211,20.423120000287895],[-118.71447999965216,20.402740000250958],[-118.71049000001341,20.382360000213964],[-118.7063099997066,20.362180000406852],[-118.70193000006935,20.342190000368362],[-118.69735000020228,20.322399999660377],[-118.69259999969012,20.302799999620447],[-118.68762000026271,20.28339000024846],[-118.68245999972913,20.264189999768803],[-118.67709999986499,20.245170000395319],[-118.67155000023223,20.226350000352397],[-118.66853000035911,20.217189999718869],[-118.6596799996322,20.189499999825273],[-118.65363999988597,20.171160000333884],[-118.64760999970161,20.152830000404322],[-118.64146999984052,20.134599999690352],[-118.6353500000024,20.116369999875758],[-118.62929999979508,20.098030000384369],[-118.62326000004884,20.079699999555487],[-118.61714000021072,20.061469999740837],[-118.61100999991146,20.043239999926186],[-118.6079900000384,20.034069999730832],[-118.59883000030419,20.006669999720827],[-118.59241000012133,19.988729999789825],[-118.58578999970865,19.970979999627446],[-118.57898000042661,19.95342999969489],[-118.57168999969366,19.936369999875751],[-118.5640000002997,19.91968999959397],[-118.55230999990647,19.894829999804813],[-118.54822000015281,19.886739999951203],[-118.54413000039909,19.878639999636391],[-118.53198000037662,19.85426999996065],[-118.51981000033118,19.829889999823763],[-118.51571999967814,19.821799999970153],[-118.50762999982453,19.805520000148022],[-118.49955999999389,19.789229999864745],[-118.49537999968715,19.781229999664902],[-118.48291999975811,19.757149999872752],[-118.47435000025223,19.741349999702891],[-118.46538999984853,19.725949999992622],[-118.45615000002238,19.710829999704856],[-118.45136999992548,19.703419999733342],[-118.44182999975459,19.688599999790313],[-118.42733999974109,19.666570000105537],[-118.42246999999043,19.659249999787789],[-118.40787000030019,19.637309999756837],[-118.40299999965015,19.629999999900235],[-118.38839999995992,19.608059999869226],[-118.37864999999744,19.593440000156022],[-118.3689299996197,19.578809999981672],[-118.35919999968013,19.564190000268411],[-118.34946999974062,19.549560000094061],[-118.33973000023923,19.534929999919711],[-118.324939999881,19.513190000118527],[-118.3198699999005,19.506070000030604],[-118.30964999984752,19.49192999996967],[-118.30439000009835,19.485010000111572],[-118.28862000041261,19.464240000076074],[-118.27801999992295,19.450490000013644],[-118.26759000007837,19.436550000182478],[-118.25728000037162,19.422510000236457],[-118.24696000020373,19.408470000290436],[-118.24171000001638,19.401539999971135],[-118.22582999975458,19.380870000050606],[-118.21465000039711,19.367710000216505],[-118.2030600001188,19.354929999919705],[-118.17911999958824,19.33017000024546],[-118.17911000002641,19.33017000024546],[-118.16695000044206,19.317980000176988],[-118.15478999995844,19.305790000108573],[-118.14261000035117,19.293600000040101],[-118.11827000026022,19.26923000036436],[-118.10610000021472,19.257040000295945],[-118.10007000003037,19.250889999973651],[-118.09393000016928,19.244850000227473],[-118.08176999968566,19.232660000159001],[-118.06961000010131,19.220470000090586],[-118.05742999959472,19.20828999958394],[-118.04527000001042,19.196100000414845],[-118.02706999978057,19.177760000024136],[-118.01481000008135,19.165670000070577],[-118.00877000033518,19.159530000209486],[-117.9966099998515,19.147340000141014],[-117.97187999976211,19.123359999564457],[-117.96555999969416,19.117509999586957],[-117.94597999967715,19.100540000320905],[-117.93236000021375,19.089819999693361],[-117.91844000040561,19.079380000286903],[-117.9114200004326,19.074210000191499],[-117.90441999958324,19.069049999657921],[-117.87647999985199,19.048279999622423],[-117.86958000001687,19.043010000311426],[-117.85593999963118,19.032280000122057],[-117.83511000042608,19.016589999628934],[-117.8281000000149,19.011420000432793],[-117.81408999965367,19.001080000241984],[-117.79306000021876,18.985580000416803],[-117.77914000041062,18.975149999672908],[-117.76541000037111,18.964519999598451],[-117.75168999989347,18.953890000423314],[-117.73777999964716,18.943450000117537],[-117.7236599996092,18.933219999603466],[-117.71654999998242,18.928149999622917],[-117.69485000022723,18.913329999679888],[-117.68754999993246,18.908450000367338],[-117.67273999955125,18.898899999735363],[-117.65017000014529,18.884950000342371],[-117.64257999996693,18.880369999575976],[-117.62700000004986,18.871599999840271],[-117.60304999995742,18.859019999773295],[-117.58708000004185,18.850629999574949],[-117.57111999968816,18.842249999837748],[-117.55535999956425,18.833660000308896],[-117.539979999877,18.824690000343367],[-117.53238999969864,18.820109999576971],[-117.5174000000099,18.810749999612938],[-117.49490999979656,18.796709999666916],[-117.47981999999291,18.787449999817795],[-117.47222999981454,18.782860000388837],[-117.4485699996057,18.769990000438327],[-117.43230999980653,18.761899999685397],[-117.41576999968566,18.754099999715379],[-117.39874000035064,18.746780000296894],[-117.3813200001178,18.739860000438796],[-117.37255999994397,18.736449999667911],[-117.34647000009033,18.726019999823279],[-117.32894999974258,18.719189999618948],[-117.31162000006287,18.71216999964588],[-117.29448999971362,18.70495999990419],[-117.27716000003386,18.697939999931179],[-117.25963000012433,18.691109999726848],[-117.24220999989149,18.68418999986875],[-117.23354999983252,18.680679999882216],[-117.20727000021026,18.670439999806263],[-117.18993999963118,18.663419999833252],[-117.1813700001253,18.659809999731863],[-117.15549000006337,18.649179999657406],[-117.14672999988949,18.645769999785784],[-117.12004999980758,18.635919999708335],[-117.10184999957772,18.629779999847244],[-117.08316000013383,18.624119999638424],[-117.06417999990697,18.618759999774284],[-117.04500000034966,18.613589999678879],[-117.02563000012429,18.6086199998133],[-117.00615999978407,18.60373999960143],[-116.986699999905,18.598869999850763],[-116.96722999956472,18.593989999638893],[-116.95749999962521,18.591559999994161],[-116.92828999978354,18.584239999676356],[-116.90882999990447,18.579369999925689],[-116.88935999956425,18.574489999713876],[-116.86989000012329,18.569619999963152],[-116.85041999978307,18.564739999751339],[-116.84068000028168,18.562299999645404],[-116.81139000034813,18.555089999903714],[-116.7915300000094,18.550599999690348],[-116.77117999955726,18.546599999590455],[-116.7502500002372,18.543189999718834],[-116.7287400002507,18.540359999614452],[-116.70682999980454,18.537929999969663],[-116.68494000028068,18.535489999863728],[-116.66341999983302,18.532659999759346],[-116.64239999995993,18.529350000002637],[-116.62166999997044,18.525739999901191],[-116.60093999998094,18.522129999799802],[-116.57981000043105,18.518909999696859],[-116.55791000044604,18.516480000052127],[-116.535139999911,18.514920000058112],[-116.51167000037015,18.514039999946192],[-116.48772999983953,18.513649999947688],[-116.4634899998635,18.513549999832776],[-116.43916000023376,18.513549999832776],[-116.41482000014281,18.513549999832776],[-116.39048000005187,18.513549999832776],[-116.36615000042207,18.513549999832776],[-116.34181000033118,18.513549999832776],[-116.31747999980206,18.513549999832776],[-116.29313999971112,18.513549999832776],[-116.26881000008132,18.513549999832776],[-116.24446999999043,18.513549999832776],[-116.22012999989948,18.513549999832776],[-116.19580000026968,18.513549999832776],[-116.1714600001788,18.513549999832776],[-116.14712999964968,18.513549999832776],[-116.12280000001988,18.513549999832776],[-116.09845999992893,18.513549999832776],[-116.07413000029919,18.513549999832776],[-116.04979000020825,18.513549999832776],[-116.02555999979404,18.513649999947688],[-116.01369000009333,18.51393999983128],[-115.97814999972263,18.514920000058112],[-115.9553699996257,18.516480000052127],[-115.93348000010184,18.518909999696859],[-115.91234999965269,18.522129999799802],[-115.89161999966313,18.525739999901191],[-115.87088000011181,18.529350000002637],[-115.84976000012381,18.532559999644434],[-115.8278600001388,18.534999999750312],[-115.80508000004187,18.536559999744327],[-115.78162000006284,18.537439999856247],[-115.7576699999704,18.53782999985475],[-115.73343999955625,18.537929999969663],[-115.70910999992645,18.537929999969663],[-115.68476999983551,18.537929999969663],[-115.66044000020577,18.537929999969663],[-115.63608999965368,18.537929999969663],[-115.61186000013879,18.53801999962343],[-115.59999000043808,18.538310000406341],[-115.56445000006738,18.539289999733853],[-115.54166999997045,18.540849999727868],[-115.51978000044659,18.543289999833746],[-115.49865999955927,18.546509999936688],[-115.47792000000788,18.550109999576932],[-115.45717999955724,18.553719999678378],[-115.43607000003038,18.556939999781321],[-115.41415999958423,18.559379999887199],[-115.39138000038662,18.560939999881214],[-115.36792000040759,18.561819999993133],[-115.34397000031515,18.562200000429812],[-115.319739999901,18.562299999645404],[-115.2954100002712,18.562299999645404],[-115.27107000018026,18.562299999645404],[-115.24673999965114,18.562299999645404],[-115.22239999956025,18.562299999645404],[-115.19817000004537,18.562399999760316],[-115.17421999995292,18.56278999975882],[-115.1507599999739,18.56366999987074],[-115.12797999987697,18.565229999864755],[-115.10609000035316,18.56766999997069],[-115.08495999990396,18.57087999961243],[-115.06422000035263,18.574489999713876],[-115.04349000036314,18.578099999815265],[-115.02237000037513,18.581319999918207],[-115.00047000039012,18.583760000024142],[-114.97767999983205,18.5853200000181],[-114.95421999985302,18.586189999668875],[-114.93026999976058,18.586579999667379],[-114.9060400002457,18.586679999782291],[-114.88170999971663,18.586679999782291],[-114.85738000008683,18.586679999782291],[-114.83314999967263,18.586779999897203],[-114.80919000001842,18.587169999895707],[-114.78573999960122,18.588050000007627],[-114.76294999994246,18.589610000001642],[-114.74104999995745,18.592039999646431],[-114.71992000040757,18.595259999749317],[-114.6991999999799,18.598869999850763],[-114.6784699999904,18.602470000390326],[-114.65732999997942,18.605689999593949],[-114.63542000043259,18.608129999699884],[-114.61266000035863,18.609689999693899],[-114.58920000037961,18.610569999805762],[-114.57713000044907,18.610669999920674],[-114.54101999987301,18.611059999919178],[-114.51677000033516,18.611149999572945],[-114.49282999980454,18.611550000032594],[-114.48124999998743,18.612129999799777],[-114.44660000018979,18.613979999677383],[-114.42470000020472,18.616419999783318],[-114.40358000021672,18.619639999886203],[-114.38283999976608,18.62324999998765],[-114.36210999977658,18.626849999627893],[-114.34098999978858,18.630069999730836],[-114.31908000024174,18.63250999983677],[-114.29630999970664,18.634069999830785],[-114.28443000044405,18.634359999714377],[-114.24889999963517,18.635339999941209],[-114.22465999965914,18.635429999594919],[-114.2003300000294,18.635429999594919],[-114.17609000005336,18.635529999709831],[-114.1521300003991,18.635919999708335],[-114.14054999968266,18.636509999936663],[-114.10591000034617,18.63835999981427],[-114.08399999989996,18.640799999920205],[-114.06287999991196,18.644009999561945],[-114.04214000036063,18.647619999663391],[-114.02141000037113,18.651229999764837],[-114.00029000038313,18.654449999867722],[-113.97837999993698,18.656880000411832],[-113.9668000001198,18.65746999974084],[-113.93215999988399,18.659319999618447],[-113.90820000022973,18.65970999961695],[-113.88396999981552,18.659809999731863],[-113.85962999972463,18.659809999731863],[-113.83530000009483,18.659809999731863],[-113.81096000000389,18.659809999731863],[-113.78672999958974,18.659909999846775],[-113.77485999988897,18.660199999730366],[-113.73932000041759,18.661170000395316],[-113.71654000032066,18.662730000389331],[-113.69464999989748,18.665169999595946],[-113.67352000034765,18.668389999698888],[-113.65279000035815,18.671999999800278],[-113.64237999963717,18.673749999562972],[-113.61092000035762,18.678820000442784],[-113.59972999963969,18.679799999770296],[-113.56624999983751,18.682819999643414],[-113.55436999967566,18.683110000426325],[-113.5188399997661,18.684089999753837],[-113.49461000025121,18.68418999986875],[-113.47027999972209,18.68418999986875],[-113.44593999963121,18.68418999986875],[-113.42171000011632,18.684280000421836],[-113.40982999995441,18.684579999867253],[-113.37430000004485,18.68554999963294],[-113.35151999994793,18.687109999626898],[-113.32961999996292,18.689549999732833],[-113.30849000041309,18.692769999835775],[-113.28776999998541,18.696370000375339],[-113.26703000043409,18.699979999577465],[-113.24589999998494,18.703199999680407],[-113.22400999956176,18.705639999786285],[-113.21242000018276,18.706219999553468],[-113.17775999992398,18.708070000330395],[-113.15382000029268,18.708469999890724],[-113.14165999980906,18.708469999890724],[-113.10524999978759,18.708560000443811],[-113.09317000029517,18.708659999659403],[-113.05707000018026,18.709049999657907],[-113.03361000020124,18.709929999769827],[-113.01083000010431,18.711489999763842],[-112.98893999968112,18.71392999986972],[-112.96781999969312,18.717140000410836],[-112.9470800001418,18.720749999612906],[-112.92633000012933,18.724359999714352],[-112.90519999968012,18.727579999817294],[-112.88331999971814,18.730010000361347],[-112.86053000005938,18.731579999917187],[-112.83707000008036,18.732449999567962],[-112.82500000014977,18.732549999682874],[-112.80105999961921,18.732939999681378],[-112.76505000005739,18.733429999794794],[-112.74159000007836,18.734309999906714],[-112.71880999998143,18.735869999900729],[-112.69690999999642,18.738300000444781],[-112.67578000044659,18.741519999648403],[-112.65503999999589,18.74512999974985],[-112.63431999956822,18.748739999851239],[-112.61319000001839,18.751950000392355],[-112.59129000003338,18.75438999959897],[-112.56850000037463,18.755949999592929],[-112.54506000041857,18.756829999704848],[-112.53308000014181,18.757020000372847],[-112.49734000044054,18.757800000369855],[-112.4738900000234,18.758679999582455],[-112.45112999994944,18.76023999957647],[-112.42920999994146,18.762679999682405],[-112.40810000041461,18.76589999978529],[-112.38735999996391,18.769500000324911],[-112.36662000041258,18.7731100004263],[-112.34550000042458,18.776329999629922],[-112.33430000014482,18.777309999856755],[-112.30093000001938,18.780420000282902],[-112.27784999957771,18.781690000393326],[-112.26636999987551,18.782379999837246],[-112.23209999961517,18.784619999713357],[-112.21021000009131,18.787059999819292],[-112.18909000010331,18.790270000360351],[-112.16834999965266,18.793879999562478],[-112.14763000012431,18.797489999663867],[-112.12649999967516,18.800709999766809],[-112.11530000029467,18.801680000431816],[-112.0818100000314,18.804700000304933],[-112.06994000033063,18.804999999750351],[-112.03439999995993,18.8059700004153],[-112.01017000044504,18.806069999630893],[-111.98583999991598,18.806069999630893],[-111.96149999982504,18.806069999630893],[-111.93717000019524,18.806069999630893],[-111.91283000010435,18.806069999630893],[-111.88849999957523,18.806069999630893],[-111.86416000038361,18.806069999630893],[-111.83982000029266,18.806069999630893],[-111.8154899997636,18.806069999630893],[-111.7911600001338,18.806069999630893],[-111.76682000004286,18.806069999630893],[-111.74247999995197,18.806069999630893],[-111.71815000032217,18.806069999630893],[-111.69381000023122,18.806069999630893],[-111.66947000014028,18.806069999630893],[-111.64513999961122,18.806069999630893],[-111.62080000041959,18.806069999630893],[-111.59646999989047,18.806069999630893],[-111.57214000026073,18.806069999630893],[-111.54780999973161,18.806069999630893],[-111.52348000010181,18.806069999630893],[-111.49913000044904,18.806069999630893],[-111.47481000038113,18.806069999630893],[-111.45045999982904,18.806069999630893],[-111.42611999973809,18.806069999630893],[-111.40179000010835,18.806069999630893],[-111.37745999957923,18.806069999630893],[-111.35312999994943,18.806069999630893],[-111.32878000029666,18.806069999630893],[-111.30446000022874,18.806069999630893],[-111.28010999967665,18.806069999630893],[-111.25578000004685,18.806069999630893],[-111.23145000041711,18.806069999630893],[-111.20711000032617,18.806069999630893],[-111.18277999979705,18.806069999630893],[-111.15845000016725,18.806069999630893],[-111.13411000007636,18.806069999630893],[-111.10978000044656,18.806069999630893],[-111.08542999989447,18.806069999630893],[-111.06120000037964,18.8059700004153],[-111.03725999984903,18.805580000416853],[-111.01379000030818,18.804700000304933],[-110.99101000021125,18.803149999872744],[-110.96911999978806,18.800700000204984],[-110.94799999980006,18.797489999663867],[-110.92726000024874,18.793879999562478],[-110.90653999982106,18.790270000360351],[-110.88541000027118,18.787050000257466],[-110.86351000028617,18.784619999713357],[-110.84071999972809,18.783059999719342],[-110.8172799997721,18.782179999607422],[-110.79330999965669,18.781789999608918],[-110.7690800001418,18.781690000393326],[-110.74474999961268,18.781690000393326],[-110.72041000042111,18.781690000393326],[-110.69607999989199,18.781690000393326],[-110.67173999980105,18.781690000393326],[-110.64741999973313,18.781690000393326],[-110.62307000008036,18.781690000393326],[-110.59883000010433,18.781599999840239],[-110.57488999957371,18.78120000027991],[-110.55142999959469,18.780329999729815],[-110.52865999995896,18.778769999735857],[-110.50675999997395,18.776329999629922],[-110.48563999998589,18.7731100004263],[-110.46490000043457,18.769500000324911],[-110.4441500004221,18.76589999978529],[-110.4230300004341,18.762679999682405],[-110.40114000001091,18.76023999957647],[-110.37835000035216,18.758679999582455],[-110.35489000037313,18.757800000369855],[-110.33096000030366,18.757410000371351],[-110.30672000032763,18.757319999818264],[-110.28238999979857,18.757319999818264],[-110.25814000026071,18.757219999703352],[-110.23421000019124,18.756829999704848],[-110.21073999975107,18.755949999592929],[-110.18795999965414,18.75438999959897],[-110.16605999966913,18.751950000392355],[-110.14493999968113,18.748739999851239],[-110.12420999969163,18.74512999974985],[-110.10347000014031,18.741519999648403],[-110.0823500001523,18.738300000444781],[-110.06043999970615,18.735869999900729],[-110.03767000007036,18.734309999906714],[-110.01429999974511,18.733329999679881],[-109.99075000011231,18.732549999682874],[-109.96737999978706,18.731579999917187],[-109.94461000015127,18.730010000361347],[-109.92271000016626,18.727579999817294],[-109.90157999971711,18.724359999714352],[-109.88086000018876,18.720749999612906],[-109.86011000017629,18.717140000410836],[-109.83897999972709,18.71392999986972],[-109.81709000020322,18.711489999763842],[-109.79439999976006,18.709829999654914],[-109.77134000024074,18.708560000443811],[-109.74825999979907,18.707290000333387],[-109.72559999984003,18.705639999786285],[-109.70369999985502,18.703199999680407],[-109.68257000030519,18.699979999577465],[-109.66184999987752,18.696370000375339],[-109.64111000032614,18.692769999835775],[-109.63069000004339,18.691009999611936],[-109.59807000033015,18.687109999626898],[-109.57541000037111,18.685450000417347],[-109.55232999992944,18.68418999986875],[-109.52927000041012,18.682919999758326],[-109.50668000008181,18.681160000433806],[-109.48517000009531,18.67833999989125],[-109.46491999975808,18.674239999676388],[-109.44574000020077,18.669069999580984],[-109.42755000043206,18.662929999719836],[-109.41869000014327,18.659610000401358],[-109.39258999982854,18.649179999657406],[-109.38382999965467,18.645769999785784],[-109.36631999976805,18.638939999581453],[-109.34022999991447,18.628509999736821],[-109.3228000001198,18.621589999878722],[-109.30576000032369,18.614269999560975],[-109.28912000008785,18.606569999705869],[-109.27257999996692,18.59876999973585],[-109.26430999990646,18.594869999750813],[-109.24006999993048,18.582579999567486],[-109.22381999969315,18.574489999713876],[-109.20755999989399,18.566399999860266],[-109.19148999986351,18.558109999776832],[-109.17551999994794,18.549719999578485],[-109.15975999982402,18.54113999961146],[-109.14438000013678,18.53216999964593],[-109.12929000033313,18.522909999796809],[-109.12178999980853,18.518229999814764],[-109.09931000005633,18.504189999868743],[-109.08420999979154,18.494930000019622],[-109.0688300001043,18.485960000054092],[-109.05306999998044,18.477380000087066],[-109.04508999980357,18.473179999757349],[-109.02913000034914,18.464800000020148],[-109.00518999981853,18.452219999953172],[-108.98940999967164,18.443639999986146],[-108.98942000013278,18.443639999986146],[-108.96645000026723,18.430079999692396],[-108.95145999967917,18.420719999728362],[-108.92897000036515,18.406679999782284],[-108.91387999966219,18.397419999933163],[-108.89849999997494,18.38844999996769],[-108.89070999956675,18.384059999869237],[-108.86676999993546,18.371479999802261],[-108.85080999958171,18.363100000065117],[-108.84281999984302,18.358910000196488],[-108.81906000041857,18.346129999899688],[-108.81127999957221,18.341739999801291],[-108.79610000011479,18.332580000067082],[-108.77360999990145,18.318540000121061],[-108.75862000021272,18.309180000157028],[-108.75111999968811,18.304500000174983],[-108.72824999993747,18.29083999976632],[-108.72055999964419,18.286360000014156],[-108.69729999989499,18.273100000065085],[-108.68200999986152,18.264029999984643],[-108.66692000005787,18.254759999674377],[-108.65942000043259,18.250090000153534],[-108.64463999963618,18.240529999959676],[-108.62273999965117,18.225910000246472],[-108.60811999993797,18.216160000283935],[-108.60083000010434,18.211280000072065],[-108.57883000000442,18.196750000012628],[-108.56392999996945,18.187289999933682],[-108.55643999990599,18.182609999951694],[-108.53357000015529,18.16896000000412],[-108.51809999991497,18.160090000153502],[-108.51029999994495,18.155700000055106],[-108.48733000007934,18.1421500002225],[-108.47224000027569,18.132879999912234],[-108.46473999975109,18.128199999930189],[-108.44226999956072,18.114159999984167],[-108.42717999975707,18.104900000135046],[-108.41190000018474,18.095830000054605],[-108.39642000038259,18.086960000203987],[-108.38093999968112,18.07809000035337],[-108.36566000010885,18.069020000272928],[-108.3505700003052,18.059749999962662],[-108.32098000002691,18.040640000036092],[-108.31367000017025,18.035770000285424],[-108.29216999974557,18.020750000112571],[-108.27814000026069,18.010409999921706],[-108.27124000042556,18.005150000172534],[-108.26451000033614,17.999690000193482],[-108.2447700001353,17.982920000257934],[-108.23171999997794,17.971610000301439],[-108.21866999982052,17.960300000344887],[-108.20524999968762,17.949380000386839],[-108.18439999956024,17.93368000033189],[-108.1773999996102,17.928510000236486],[-108.16337999968715,17.91817000004562],[-108.14284999992748,17.90218000010708],[-108.136119999838,17.896720000128028],[-108.12308999970361,17.885410000171532],[-108.1035200001478,17.868449999567986],[-108.09699999985003,17.862790000258428],[-108.08355999969416,17.851870000300437],[-108.06974000000088,17.841340000340892],[-108.05572999963965,17.831000000150027],[-108.03480000031965,17.815400000209991],[-108.02117999995693,17.804679999582447],[-108.01444999986751,17.799219999603451],[-108.00161000040112,17.787710000316395],[-107.98281999994293,17.769960000154015],[-107.97054999978258,17.757870000200512],[-107.95827999962216,17.745780000246953],[-107.9330699998805,17.722280000221986],[-107.91991999960823,17.711070000380346],[-107.9132100004411,17.70561000040135],[-107.89938999984849,17.695080000441806],[-107.8783699999754,17.679570000155536],[-107.87135999956422,17.674409999621901],[-107.86445999972909,17.669140000310904],[-107.8375899998785,17.647300000394864],[-107.82453999972114,17.635990000438312],[-107.81802000032263,17.630330000229492],[-107.8049799997271,17.61902000027294],[-107.7842499997376,17.603229999664904],[-107.76973999970113,17.593379999587455],[-107.76244000030567,17.588600000389818],[-107.74744999971762,17.579630000424345],[-107.73215999968414,17.571439999556446],[-107.71717999955723,17.563639999586428],[-107.70228999998341,17.556619999613417],[-107.67891999965815,17.548429999644895],[-107.6623699999754,17.54433000032941]]]},"properties":{"objectid":411,"stormname":"Rachel","stormtype":"HU","basin":"EP","advdate":"500 AM MST Wed Sep 30 2026","advisnum":"13A","fcstprd":120,"stormnum":18,"idp_source":"ep182026-013A_5day_pgn","idp_filedate":1790769772000,"idp_ingestdate":1790769858000,"st_area(shape)":32.822074879274112,"st_perimeter(shape)":27.739972098525023,"binnumber":"EP3"}}]}