{"type":"FeatureCollection","features":[{"type":"Feature","id":19372,"geometry":{"type":"Point","coordinates":[-92.60000000009984,9.199999999700367]},"properties":{"objectid":19372,"stormname":"GENESIS028","stormtype":"DB","stormnum":18,"intensity":20,"basin":"ep","mslp":1010,"dtg":2026092500,"year":2026,"month":"09","day":25,"hhmm":"0000","lat":9,"lon":-93,"ss":0,"idp_source":"EP182026_pts","idp_filedate":1791082965000,"idp_ingestdate":1791083028000,"binnumber":"EP3"}},{"type":"Feature","id":19373,"geometry":{"type":"Point","coordinates":[-93.599999999899978,10.200000000399825]},"properties":{"objectid":19373,"stormname":"GENESIS028","stormtype":"DB","stormnum":18,"intensity":20,"basin":"ep","mslp":1010,"dtg":2026092506,"year":2026,"month":"09","day":25,"hhmm":"0600","lat":10,"lon":-94,"ss":0,"idp_source":"EP182026_pts","idp_filedate":1791082965000,"idp_ingestdate":1791083028000,"binnumber":"EP3"}},{"type":"Feature","id":19374,"geometry":{"type":"Point","coordinates":[-94.599999999700117,11.200000000199964]},"properties":{"objectid":19374,"stormname":"GENESIS028","stormtype":"DB","stormnum":18,"intensity":20,"basin":"ep","mslp":1010,"dtg":2026092512,"year":2026,"month":"09","day":25,"hhmm":"1200","lat":11,"lon":-95,"ss":0,"idp_source":"EP182026_pts","idp_filedate":1791082965000,"idp_ingestdate":1791083028000,"binnumber":"EP3"}},{"type":"Feature","id":19375,"geometry":{"type":"Point","coordinates":[-95.600000000399575,11.200000000199964]},"properties":{"objectid":19375,"stormname":"GENESIS028","stormtype":"DB","stormnum":18,"intensity":20,"basin":"ep","mslp":1009,"dtg":2026092518,"year":2026,"month":"09","day":25,"hhmm":"1800","lat":11,"lon":-96,"ss":0,"idp_source":"EP182026_pts","idp_filedate":1791082965000,"idp_ingestdate":1791083028000,"binnumber":"EP3"}},{"type":"Feature","id":19376,"geometry":{"type":"Point","coordinates":[-96.100000000299644,11.300000000000125]},"properties":{"objectid":19376,"stormname":"INVEST","stormtype":"DB","stormnum":18,"intensity":25,"basin":"ep","mslp":1008,"dtg":2026092600,"year":2026,"month":"09","day":26,"hhmm":"0000","lat":11,"lon":-96,"ss":0,"idp_source":"EP182026_pts","idp_filedate":1791082965000,"idp_ingestdate":1791083028000,"binnumber":"EP3"}},{"type":"Feature","id":19377,"geometry":{"type":"Point","coordinates":[-96.699999999999875,11.399999999800286]},"properties":{"objectid":19377,"stormname":"INVEST","stormtype":"DB","stormnum":18,"intensity":25,"basin":"ep","mslp":1008,"dtg":2026092606,"year":2026,"month":"09","day":26,"hhmm":"0600","lat":11,"lon":-97,"ss":0,"idp_source":"EP182026_pts","idp_filedate":1791082965000,"idp_ingestdate":1791083028000,"binnumber":"EP3"}},{"type":"Feature","id":19378,"geometry":{"type":"Point","coordinates":[-97.299999999700105,11.70000000010009]},"properties":{"objectid":19378,"stormname":"INVEST","stormtype":"DB","stormnum":18,"intensity":25,"basin":"ep","mslp":1008,"dtg":2026092612,"year":2026,"month":"09","day":26,"hhmm":"1200","lat":12,"lon":-97,"ss":0,"idp_source":"EP182026_pts","idp_filedate":1791082965000,"idp_ingestdate":1791083028000,"binnumber":"EP3"}},{"type":"Feature","id":19379,"geometry":{"type":"Point","coordinates":[-97.599999999999909,11.899999999700356]},"properties":{"objectid":19379,"stormname":"INVEST","stormtype":"DB","stormnum":18,"intensity":25,"basin":"ep","mslp":1008,"dtg":2026092618,"year":2026,"month":"09","day":26,"hhmm":"1800","lat":12,"lon":-98,"ss":0,"idp_source":"EP182026_pts","idp_filedate":1791082965000,"idp_ingestdate":1791083028000,"binnumber":"EP3"}},{"type":"Feature","id":19380,"geometry":{"type":"Point","coordinates":[-97.900000000299656,12.200000000000159]},"properties":{"objectid":19380,"stormname":"INVEST","stormtype":"DB","stormnum":18,"intensity":25,"basin":"ep","mslp":1008,"dtg":2026092700,"year":2026,"month":"09","day":27,"hhmm":"0000","lat":12,"lon":-98,"ss":0,"idp_source":"EP182026_pts","idp_filedate":1791082965000,"idp_ingestdate":1791083028000,"binnumber":"EP3"}},{"type":"Feature","id":19381,"geometry":{"type":"Point","coordinates":[-98.099999999899978,12.399999999600425]},"properties":{"objectid":19381,"stormname":"EIGHTEEN","stormtype":"TD","stormnum":18,"intensity":30,"basin":"ep","mslp":1008,"dtg":2026092706,"year":2026,"month":"09","day":27,"hhmm":"0600","lat":12,"lon":-98,"ss":0,"idp_source":"EP182026_pts","idp_filedate":1791082965000,"idp_ingestdate":1791083028000,"binnumber":"EP3"}},{"type":"Feature","id":19382,"geometry":{"type":"Point","coordinates":[-98.400000000199725,12.600000000100067]},"properties":{"objectid":19382,"stormname":"EIGHTEEN","stormtype":"TD","stormnum":18,"intensity":30,"basin":"ep","mslp":1006,"dtg":2026092712,"year":2026,"month":"09","day":27,"hhmm":"1200","lat":13,"lon":-98,"ss":0,"idp_source":"EP182026_pts","idp_filedate":1791082965000,"idp_ingestdate":1791083028000,"binnumber":"EP3"}},{"type":"Feature","id":19383,"geometry":{"type":"Point","coordinates":[-98.900000000099851,12.699999999900228]},"properties":{"objectid":19383,"stormname":"RACHEL","stormtype":"TS","stormnum":18,"intensity":35,"basin":"ep","mslp":1005,"dtg":2026092718,"year":2026,"month":"09","day":27,"hhmm":"1800","lat":13,"lon":-99,"ss":0,"idp_source":"EP182026_pts","idp_filedate":1791082965000,"idp_ingestdate":1791083028000,"binnumber":"EP3"}},{"type":"Feature","id":19384,"geometry":{"type":"Point","coordinates":[-99.499999999800025,12.79999999970039]},"properties":{"objectid":19384,"stormname":"RACHEL","stormtype":"TS","stormnum":18,"intensity":35,"basin":"ep","mslp":1003,"dtg":2026092800,"year":2026,"month":"09","day":28,"hhmm":"0000","lat":13,"lon":-100,"ss":0,"idp_source":"EP182026_pts","idp_filedate":1791082965000,"idp_ingestdate":1791083028000,"binnumber":"EP3"}},{"type":"Feature","id":19385,"geometry":{"type":"Point","coordinates":[-100.20000000019974,13.100000000000136]},"properties":{"objectid":19385,"stormname":"RACHEL","stormtype":"TS","stormnum":18,"intensity":40,"basin":"ep","mslp":1001,"dtg":2026092806,"year":2026,"month":"09","day":28,"hhmm":"0600","lat":13,"lon":-100,"ss":0,"idp_source":"EP182026_pts","idp_filedate":1791082965000,"idp_ingestdate":1791083028000,"binnumber":"EP3"}},{"type":"Feature","id":19386,"geometry":{"type":"Point","coordinates":[-100.79999999989997,13.599999999900206]},"properties":{"objectid":19386,"stormname":"RACHEL","stormtype":"TS","stormnum":18,"intensity":45,"basin":"ep","mslp":999,"dtg":2026092812,"year":2026,"month":"09","day":28,"hhmm":"1200","lat":14,"lon":-101,"ss":0,"idp_source":"EP182026_pts","idp_filedate":1791082965000,"idp_ingestdate":1791083028000,"binnumber":"EP3"}},{"type":"Feature","id":19387,"geometry":{"type":"Point","coordinates":[-101.60000000009984,13.900000000200009]},"properties":{"objectid":19387,"stormname":"RACHEL","stormtype":"TS","stormnum":18,"intensity":45,"basin":"ep","mslp":999,"dtg":2026092818,"year":2026,"month":"09","day":28,"hhmm":"1800","lat":14,"lon":-102,"ss":0,"idp_source":"EP182026_pts","idp_filedate":1791082965000,"idp_ingestdate":1791083028000,"binnumber":"EP3"}},{"type":"Feature","id":19388,"geometry":{"type":"Point","coordinates":[-102.69999999970014,14.199999999600436]},"properties":{"objectid":19388,"stormname":"RACHEL","stormtype":"TS","stormnum":18,"intensity":50,"basin":"ep","mslp":997,"dtg":2026092900,"year":2026,"month":"09","day":29,"hhmm":"0000","lat":14,"lon":-103,"ss":0,"idp_source":"EP182026_pts","idp_filedate":1791082965000,"idp_ingestdate":1791083028000,"binnumber":"EP3"}},{"type":"Feature","id":19389,"geometry":{"type":"Point","coordinates":[-103.80000000019976,14.49999999990024]},"properties":{"objectid":19389,"stormname":"RACHEL","stormtype":"TS","stormnum":18,"intensity":50,"basin":"ep","mslp":992,"dtg":2026092906,"year":2026,"month":"09","day":29,"hhmm":"0600","lat":14,"lon":-104,"ss":0,"idp_source":"EP182026_pts","idp_filedate":1791082965000,"idp_ingestdate":1791083028000,"binnumber":"EP3"}},{"type":"Feature","id":19390,"geometry":{"type":"Point","coordinates":[-104.39999999989999,15.099999999600414]},"properties":{"objectid":19390,"stormname":"RACHEL","stormtype":"TS","stormnum":18,"intensity":55,"basin":"ep","mslp":993,"dtg":2026092912,"year":2026,"month":"09","day":29,"hhmm":"1200","lat":15,"lon":-104,"ss":0,"idp_source":"EP182026_pts","idp_filedate":1791082965000,"idp_ingestdate":1791083028000,"binnumber":"EP3"}},{"type":"Feature","id":19391,"geometry":{"type":"Point","coordinates":[-105.39999999970013,15.800000000000125]},"properties":{"objectid":19391,"stormname":"RACHEL","stormtype":"TS","stormnum":18,"intensity":60,"basin":"ep","mslp":989,"dtg":2026092918,"year":2026,"month":"09","day":29,"hhmm":"1800","lat":16,"lon":-105,"ss":0,"idp_source":"EP182026_pts","idp_filedate":1791082965000,"idp_ingestdate":1791083028000,"binnumber":"EP3"}},{"type":"Feature","id":19392,"geometry":{"type":"Point","coordinates":[-106.29999999970011,16.600000000199998]},"properties":{"objectid":19392,"stormname":"RACHEL","stormtype":"TS","stormnum":18,"intensity":60,"basin":"ep","mslp":989,"dtg":2026093000,"year":2026,"month":"09","day":30,"hhmm":"0000","lat":17,"lon":-106,"ss":0,"idp_source":"EP182026_pts","idp_filedate":1791082965000,"idp_ingestdate":1791083028000,"binnumber":"EP3"}},{"type":"Feature","id":19393,"geometry":{"type":"Point","coordinates":[-106.90000000029966,17.29999999970039]},"properties":{"objectid":19393,"stormname":"RACHEL","stormtype":"HU","stormnum":18,"intensity":70,"basin":"ep","mslp":979,"dtg":2026093006,"year":2026,"month":"09","day":30,"hhmm":"0600","lat":17,"lon":-107,"ss":1,"idp_source":"EP182026_pts","idp_filedate":1791082965000,"idp_ingestdate":1791083028000,"binnumber":"EP3"}},{"type":"Feature","id":19394,"geometry":{"type":"Point","coordinates":[-107.49999999999989,17.799999999600459]},"properties":{"objectid":19394,"stormname":"RACHEL","stormtype":"HU","stormnum":18,"intensity":75,"basin":"ep","mslp":979,"dtg":2026093012,"year":2026,"month":"09","day":30,"hhmm":"1200","lat":18,"lon":-108,"ss":1,"idp_source":"EP182026_pts","idp_filedate":1791082965000,"idp_ingestdate":1791083028000,"binnumber":"EP3"}},{"type":"Feature","id":19395,"geometry":{"type":"Point","coordinates":[-107.80000000029969,18.400000000200009]},"properties":{"objectid":19395,"stormname":"RACHEL","stormtype":"HU","stormnum":18,"intensity":75,"basin":"ep","mslp":978,"dtg":2026093018,"year":2026,"month":"09","day":30,"hhmm":"1800","lat":18,"lon":-108,"ss":1,"idp_source":"EP182026_pts","idp_filedate":1791082965000,"idp_ingestdate":1791083028000,"binnumber":"EP3"}},{"type":"Feature","id":19396,"geometry":{"type":"Point","coordinates":[-108.30000000019976,18.99999999990024]},"properties":{"objectid":19396,"stormname":"RACHEL","stormtype":"HU","stormnum":18,"intensity":75,"basin":"ep","mslp":978,"dtg":2026100100,"year":2026,"month":"10","day":1,"hhmm":"0000","lat":19,"lon":-108,"ss":1,"idp_source":"EP182026_pts","idp_filedate":1791082965000,"idp_ingestdate":1791083028000,"binnumber":"EP3"}},{"type":"Feature","id":19397,"geometry":{"type":"Point","coordinates":[-108.80000000009983,19.200000000399825]},"properties":{"objectid":19397,"stormname":"RACHEL","stormtype":"HU","stormnum":18,"intensity":80,"basin":"ep","mslp":975,"dtg":2026100106,"year":2026,"month":"10","day":1,"hhmm":"0600","lat":19,"lon":-109,"ss":1,"idp_source":"EP182026_pts","idp_filedate":1791082965000,"idp_ingestdate":1791083028000,"binnumber":"EP3"}},{"type":"Feature","id":19398,"geometry":{"type":"Point","coordinates":[-109.20000000019974,19.400000000000148]},"properties":{"objectid":19398,"stormname":"RACHEL","stormtype":"HU","stormnum":18,"intensity":90,"basin":"ep","mslp":964,"dtg":2026100112,"year":2026,"month":"10","day":1,"hhmm":"1200","lat":19,"lon":-109,"ss":2,"idp_source":"EP182026_pts","idp_filedate":1791082965000,"idp_ingestdate":1791083028000,"binnumber":"EP3"}},{"type":"Feature","id":19399,"geometry":{"type":"Point","coordinates":[-109.39999999980006,19.400000000000148]},"properties":{"objectid":19399,"stormname":"RACHEL","stormtype":"HU","stormnum":18,"intensity":100,"basin":"ep","mslp":955,"dtg":2026100118,"year":2026,"month":"10","day":1,"hhmm":"1800","lat":19,"lon":-109,"ss":3,"idp_source":"EP182026_pts","idp_filedate":1791082965000,"idp_ingestdate":1791083028000,"binnumber":"EP3"}},{"type":"Feature","id":19400,"geometry":{"type":"Point","coordinates":[-109.6000000002997,19.400000000000148]},"properties":{"objectid":19400,"stormname":"RACHEL","stormtype":"HU","stormnum":18,"intensity":105,"basin":"ep","mslp":950,"dtg":2026100200,"year":2026,"month":"10","day":2,"hhmm":"0000","lat":19,"lon":-110,"ss":3,"idp_source":"EP182026_pts","idp_filedate":1791082965000,"idp_ingestdate":1791083028000,"binnumber":"EP3"}},{"type":"Feature","id":19401,"geometry":{"type":"Point","coordinates":[-110.10000000019977,19.400000000000148]},"properties":{"objectid":19401,"stormname":"RACHEL","stormtype":"HU","stormnum":18,"intensity":105,"basin":"ep","mslp":950,"dtg":2026100206,"year":2026,"month":"10","day":2,"hhmm":"0600","lat":19,"lon":-110,"ss":3,"idp_source":"EP182026_pts","idp_filedate":1791082965000,"idp_ingestdate":1791083028000,"binnumber":"EP3"}},{"type":"Feature","id":19402,"geometry":{"type":"Point","coordinates":[-110.60000000009984,19.300000000199987]},"properties":{"objectid":19402,"stormname":"RACHEL","stormtype":"HU","stormnum":18,"intensity":95,"basin":"ep","mslp":959,"dtg":2026100212,"year":2026,"month":"10","day":2,"hhmm":"1200","lat":19,"lon":-111,"ss":2,"idp_source":"EP182026_pts","idp_filedate":1791082965000,"idp_ingestdate":1791083028000,"binnumber":"EP3"}},{"type":"Feature","id":19403,"geometry":{"type":"Point","coordinates":[-110.90000000039959,19.300000000199987]},"properties":{"objectid":19403,"stormname":"RACHEL","stormtype":"HU","stormnum":18,"intensity":90,"basin":"ep","mslp":963,"dtg":2026100218,"year":2026,"month":"10","day":2,"hhmm":"1800","lat":19,"lon":-111,"ss":2,"idp_source":"EP182026_pts","idp_filedate":1791082965000,"idp_ingestdate":1791083028000,"binnumber":"EP3"}},{"type":"Feature","id":19404,"geometry":{"type":"Point","coordinates":[-111.29999999960023,19.300000000199987]},"properties":{"objectid":19404,"stormname":"RACHEL","stormtype":"HU","stormnum":18,"intensity":90,"basin":"ep","mslp":963,"dtg":2026100300,"year":2026,"month":"10","day":3,"hhmm":"0000","lat":19,"lon":-111,"ss":2,"idp_source":"EP182026_pts","idp_filedate":1791082965000,"idp_ingestdate":1791083028000,"binnumber":"EP3"}},{"type":"Feature","id":19405,"geometry":{"type":"Point","coordinates":[-111.59999999989998,19.300000000199987]},"properties":{"objectid":19405,"stormname":"RACHEL","stormtype":"HU","stormnum":18,"intensity":85,"basin":"ep","mslp":968,"dtg":2026100306,"year":2026,"month":"10","day":3,"hhmm":"0600","lat":19,"lon":-112,"ss":2,"idp_source":"EP182026_pts","idp_filedate":1791082965000,"idp_ingestdate":1791083028000,"binnumber":"EP3"}},{"type":"Feature","id":19406,"geometry":{"type":"Point","coordinates":[-111.90000000019973,19.499999999800309]},"properties":{"objectid":19406,"stormname":"RACHEL","stormtype":"HU","stormnum":18,"intensity":75,"basin":"ep","mslp":973,"dtg":2026100312,"year":2026,"month":"10","day":3,"hhmm":"1200","lat":20,"lon":-112,"ss":1,"idp_source":"EP182026_pts","idp_filedate":1791082965000,"idp_ingestdate":1791083028000,"binnumber":"EP3"}},{"type":"Feature","id":19407,"geometry":{"type":"Point","coordinates":[-112.30000000029969,19.700000000299895]},"properties":{"objectid":19407,"stormname":"RACHEL","stormtype":"HU","stormnum":18,"intensity":70,"basin":"ep","mslp":977,"dtg":2026100318,"year":2026,"month":"10","day":3,"hhmm":"1800","lat":20,"lon":-112,"ss":1,"idp_source":"EP182026_pts","idp_filedate":1791082965000,"idp_ingestdate":1791083028000,"binnumber":"EP3"}},{"type":"Feature","id":19408,"geometry":{"type":"Point","coordinates":[-112.59999999970012,19.899999999900217]},"properties":{"objectid":19408,"stormname":"RACHEL","stormtype":"HU","stormnum":18,"intensity":75,"basin":"ep","mslp":973,"dtg":2026100400,"year":2026,"month":"10","day":4,"hhmm":"0000","lat":20,"lon":-113,"ss":1,"idp_source":"EP182026_pts","idp_filedate":1791082965000,"idp_ingestdate":1791083028000,"binnumber":"EP3"}}]}