{"type":"FeatureCollection","features":[{"type":"Feature","id":2645,"geometry":{"type":"LineString","coordinates":[[-92.60000000009984,9.199999999700367],[-93.599999999899978,10.200000000399825],[-94.599999999700117,11.200000000199964],[-95.600000000399575,11.200000000199964],[-96.100000000299644,11.300000000000125],[-96.699999999999875,11.399999999800286],[-97.299999999700105,11.70000000010009],[-97.599999999999909,11.899999999700356],[-97.900000000299656,12.200000000000159],[-98.099999999899978,12.399999999600425]]},"properties":{"objectid":2645,"stormtype":"DB","stormnum":18,"ss":0,"idp_source":"EP182026_lin","idp_filedate":1790672553000,"idp_ingestdate":1790672768000,"st_length(shape)":6.6850876311748779,"binnumber":"EP3"}},{"type":"Feature","id":2646,"geometry":{"type":"LineString","coordinates":[[-98.099999999899978,12.399999999600425],[-98.400000000199725,12.600000000100067],[-98.900000000099851,12.699999999900228]]},"properties":{"objectid":2646,"stormtype":"TD","stormnum":18,"ss":0,"idp_source":"EP182026_lin","idp_filedate":1790672553000,"idp_ingestdate":1790672768000,"st_length(shape)":0.87045707929510741,"binnumber":"EP3"}},{"type":"Feature","id":2647,"geometry":{"type":"LineString","coordinates":[[-98.900000000099851,12.699999999900228],[-99.499999999800025,12.79999999970039],[-100.20000000019974,13.100000000000136],[-100.79999999989997,13.599999999900206],[-101.60000000009984,13.900000000200009],[-102.69999999970014,14.199999999600436],[-103.80000000019976,14.49999999990024]]},"properties":{"objectid":2647,"stormtype":"TD","stormnum":18,"ss":0,"idp_source":"EP182026_lin","idp_filedate":1790672553000,"idp_ingestdate":1790672768000,"st_length(shape)":5.2856297561094507,"binnumber":"EP3"}}]}