{"type":"FeatureCollection","features":[{"type":"Feature","id":414,"geometry":{"type":"LineString","coordinates":[[-128.3999999996002,14.300000000299917],[-126.70000000029967,14.700000000399825],[-124.69999999980007,14.900000000000148],[-122.89999999980006,14.999999999800309]]},"properties":{"objectid":414,"stormname":"Nineteen-E","stormtype":"TD","basin":"EP","advdate":"800 AM PDT Wed Sep 30 2026","advisnum":"5","fcstprd":120,"stormnum":19,"idp_source":"ep192026-005_5day_lin","idp_filedate":1790780548000,"idp_ingestdate":1790780623000,"st_length(shape)":5.5591756814017526,"binnumber":"EP4"}}]}