{"type":"FeatureCollection","features":[{"type":"Feature","id":3149,"geometry":{"type":"LineString","coordinates":[[-139.89999999999992,10.999999999700378],[-138.99999999999989,11.100000000399859],[-138.19999999980007,11.200000000199964],[-137.60000000009984,11.70000000010009],[-137.50000000029968,13.000000000199975],[-136.70000000009986,13.000000000199975],[-135.59999999960019,13.40000000029994],[-134.90000000009985,13.800000000399848],[-133.90000000029971,14.400000000100079],[-132.69999999999993,14.400000000100079]]},"properties":{"objectid":3149,"stormtype":"DB","stormnum":19,"ss":0,"idp_source":"EP192026_lin","idp_filedate":1790758983000,"idp_ingestdate":1790759211000,"st_length(shape)":8.9395158824799434,"binnumber":"EP4"}},{"type":"Feature","id":3150,"geometry":{"type":"LineString","coordinates":[[-132.69999999999993,14.400000000100079],[-132.1000000002997,14.49999999990024]]},"properties":{"objectid":3150,"stormtype":"LO","stormnum":19,"ss":0,"idp_source":"EP192026_lin","idp_filedate":1790758983000,"idp_ingestdate":1790759211000,"st_length(shape)":0.60827625270127794,"binnumber":"EP4"}},{"type":"Feature","id":3151,"geometry":{"type":"LineString","coordinates":[[-132.1000000002997,14.49999999990024],[-131.20000000029967,14.300000000299917],[-130.59999999970012,13.900000000200009],[-129.80000000039962,13.800000000399848]]},"properties":{"objectid":3151,"stormtype":"LO","stormnum":19,"ss":0,"idp_source":"EP192026_lin","idp_filedate":1790758983000,"idp_ingestdate":1790759211000,"st_length(shape)":2.4492904754006584,"binnumber":"EP4"}}]}