{"type":"FeatureCollection","features":[{"type":"Feature","id":15405,"geometry":{"type":"Point","coordinates":[-139.89999999999992,10.999999999700378]},"properties":{"objectid":15405,"stormname":"GENESIS029","stormtype":"DB","stormnum":19,"intensity":20,"basin":"ep","mslp":1008,"dtg":2026092700,"year":2026,"month":"09","hhmm":"0000","day":27,"lat":11,"lon":-140,"ss":0,"idp_source":"EP192026_pts","idp_filedate":1790845358000,"idp_ingestdate":1790845473000,"binnumber":"EP4"}},{"type":"Feature","id":15406,"geometry":{"type":"Point","coordinates":[-138.99999999999989,11.100000000399859]},"properties":{"objectid":15406,"stormname":"GENESIS029","stormtype":"DB","stormnum":19,"intensity":25,"basin":"ep","mslp":1008,"dtg":2026092706,"year":2026,"month":"09","hhmm":"0600","day":27,"lat":11,"lon":-139,"ss":0,"idp_source":"EP192026_pts","idp_filedate":1790845358000,"idp_ingestdate":1790845473000,"binnumber":"EP4"}},{"type":"Feature","id":15407,"geometry":{"type":"Point","coordinates":[-138.19999999980007,11.200000000199964]},"properties":{"objectid":15407,"stormname":"GENESIS029","stormtype":"DB","stormnum":19,"intensity":25,"basin":"ep","mslp":1006,"dtg":2026092712,"year":2026,"month":"09","hhmm":"1200","day":27,"lat":11,"lon":-138,"ss":0,"idp_source":"EP192026_pts","idp_filedate":1790845358000,"idp_ingestdate":1790845473000,"binnumber":"EP4"}},{"type":"Feature","id":15408,"geometry":{"type":"Point","coordinates":[-137.60000000009984,11.70000000010009]},"properties":{"objectid":15408,"stormname":"GENESIS029","stormtype":"DB","stormnum":19,"intensity":30,"basin":"ep","mslp":1005,"dtg":2026092718,"year":2026,"month":"09","hhmm":"1800","day":27,"lat":12,"lon":-138,"ss":0,"idp_source":"EP192026_pts","idp_filedate":1790845358000,"idp_ingestdate":1790845473000,"binnumber":"EP4"}},{"type":"Feature","id":15409,"geometry":{"type":"Point","coordinates":[-137.50000000029968,13.000000000199975]},"properties":{"objectid":15409,"stormname":"INVEST","stormtype":"DB","stormnum":19,"intensity":30,"basin":"ep","mslp":1004,"dtg":2026092800,"year":2026,"month":"09","hhmm":"0000","day":28,"lat":13,"lon":-138,"ss":0,"idp_source":"EP192026_pts","idp_filedate":1790845358000,"idp_ingestdate":1790845473000,"binnumber":"EP4"}},{"type":"Feature","id":15410,"geometry":{"type":"Point","coordinates":[-136.70000000009986,13.000000000199975]},"properties":{"objectid":15410,"stormname":"INVEST","stormtype":"DB","stormnum":19,"intensity":30,"basin":"ep","mslp":1005,"dtg":2026092806,"year":2026,"month":"09","hhmm":"0600","day":28,"lat":13,"lon":-137,"ss":0,"idp_source":"EP192026_pts","idp_filedate":1790845358000,"idp_ingestdate":1790845473000,"binnumber":"EP4"}},{"type":"Feature","id":15411,"geometry":{"type":"Point","coordinates":[-135.59999999960019,13.40000000029994]},"properties":{"objectid":15411,"stormname":"INVEST","stormtype":"DB","stormnum":19,"intensity":30,"basin":"ep","mslp":1005,"dtg":2026092812,"year":2026,"month":"09","hhmm":"1200","day":28,"lat":13,"lon":-136,"ss":0,"idp_source":"EP192026_pts","idp_filedate":1790845358000,"idp_ingestdate":1790845473000,"binnumber":"EP4"}},{"type":"Feature","id":15412,"geometry":{"type":"Point","coordinates":[-134.90000000009985,13.800000000399848]},"properties":{"objectid":15412,"stormname":"INVEST","stormtype":"DB","stormnum":19,"intensity":30,"basin":"ep","mslp":1005,"dtg":2026092818,"year":2026,"month":"09","hhmm":"1800","day":28,"lat":14,"lon":-135,"ss":0,"idp_source":"EP192026_pts","idp_filedate":1790845358000,"idp_ingestdate":1790845473000,"binnumber":"EP4"}},{"type":"Feature","id":15413,"geometry":{"type":"Point","coordinates":[-133.90000000029971,14.400000000100079]},"properties":{"objectid":15413,"stormname":"INVEST","stormtype":"DB","stormnum":19,"intensity":30,"basin":"ep","mslp":1005,"dtg":2026092900,"year":2026,"month":"09","hhmm":"0000","day":29,"lat":14,"lon":-134,"ss":0,"idp_source":"EP192026_pts","idp_filedate":1790845358000,"idp_ingestdate":1790845473000,"binnumber":"EP4"}},{"type":"Feature","id":15414,"geometry":{"type":"Point","coordinates":[-132.69999999999993,14.400000000100079]},"properties":{"objectid":15414,"stormname":"INVEST","stormtype":"LO","stormnum":19,"intensity":30,"basin":"ep","mslp":1005,"dtg":2026092906,"year":2026,"month":"09","hhmm":"0600","day":29,"lat":14,"lon":-133,"ss":0,"idp_source":"EP192026_pts","idp_filedate":1790845358000,"idp_ingestdate":1790845473000,"binnumber":"EP4"}},{"type":"Feature","id":15415,"geometry":{"type":"Point","coordinates":[-132.1000000002997,14.49999999990024]},"properties":{"objectid":15415,"stormname":"NINETEEN","stormtype":"TD","stormnum":19,"intensity":30,"basin":"ep","mslp":1004,"dtg":2026092912,"year":2026,"month":"09","hhmm":"1200","day":29,"lat":14,"lon":-132,"ss":0,"idp_source":"EP192026_pts","idp_filedate":1790845358000,"idp_ingestdate":1790845473000,"binnumber":"EP4"}},{"type":"Feature","id":15416,"geometry":{"type":"Point","coordinates":[-131.20000000029967,14.300000000299917]},"properties":{"objectid":15416,"stormname":"NINETEEN","stormtype":"TD","stormnum":19,"intensity":30,"basin":"ep","mslp":1005,"dtg":2026092918,"year":2026,"month":"09","hhmm":"1800","day":29,"lat":14,"lon":-131,"ss":0,"idp_source":"EP192026_pts","idp_filedate":1790845358000,"idp_ingestdate":1790845473000,"binnumber":"EP4"}},{"type":"Feature","id":15417,"geometry":{"type":"Point","coordinates":[-130.59999999970012,14.000000000000114]},"properties":{"objectid":15417,"stormname":"NINETEEN","stormtype":"TD","stormnum":19,"intensity":25,"basin":"ep","mslp":1006,"dtg":2026093000,"year":2026,"month":"09","hhmm":"0000","day":30,"lat":14,"lon":-131,"ss":0,"idp_source":"EP192026_pts","idp_filedate":1790845358000,"idp_ingestdate":1790845473000,"binnumber":"EP4"}},{"type":"Feature","id":15418,"geometry":{"type":"Point","coordinates":[-129.80000000039962,14.000000000000114]},"properties":{"objectid":15418,"stormname":"NINETEEN","stormtype":"TD","stormnum":19,"intensity":25,"basin":"ep","mslp":1006,"dtg":2026093006,"year":2026,"month":"09","hhmm":"0600","day":30,"lat":14,"lon":-130,"ss":0,"idp_source":"EP192026_pts","idp_filedate":1790845358000,"idp_ingestdate":1790845473000,"binnumber":"EP4"}},{"type":"Feature","id":15419,"geometry":{"type":"Point","coordinates":[-128.79999999970016,14.199999999600436]},"properties":{"objectid":15419,"stormname":"NINETEEN","stormtype":"TD","stormnum":19,"intensity":25,"basin":"ep","mslp":1005,"dtg":2026093012,"year":2026,"month":"09","hhmm":"1200","day":30,"lat":14,"lon":-129,"ss":0,"idp_source":"EP192026_pts","idp_filedate":1790845358000,"idp_ingestdate":1790845473000,"binnumber":"EP4"}},{"type":"Feature","id":15420,"geometry":{"type":"Point","coordinates":[-127.6000000002997,14.800000000199987]},"properties":{"objectid":15420,"stormname":"NINETEEN","stormtype":"TD","stormnum":19,"intensity":25,"basin":"ep","mslp":1005,"dtg":2026093018,"year":2026,"month":"09","hhmm":"1800","day":30,"lat":15,"lon":-128,"ss":0,"idp_source":"EP192026_pts","idp_filedate":1790845358000,"idp_ingestdate":1790845473000,"binnumber":"EP4"}},{"type":"Feature","id":15421,"geometry":{"type":"Point","coordinates":[-126.49999999980008,15.099999999600414]},"properties":{"objectid":15421,"stormname":"NINETEEN","stormtype":"TD","stormnum":19,"intensity":25,"basin":"ep","mslp":1006,"dtg":2026100100,"year":2026,"month":"10","hhmm":"0000","day":1,"lat":15,"lon":-126,"ss":0,"idp_source":"EP192026_pts","idp_filedate":1790845358000,"idp_ingestdate":1790845473000,"binnumber":"EP4"}},{"type":"Feature","id":15422,"geometry":{"type":"Point","coordinates":[-125.19999999970014,15.300000000100056]},"properties":{"objectid":15422,"stormname":"NINETEEN","stormtype":"TD","stormnum":19,"intensity":25,"basin":"ep","mslp":1006,"dtg":2026100106,"year":2026,"month":"10","hhmm":"0600","day":1,"lat":15,"lon":-125,"ss":0,"idp_source":"EP192026_pts","idp_filedate":1790845358000,"idp_ingestdate":1790845473000,"binnumber":"EP4"}}]}