{"type": "FeatureCollection", "features": [{"type": "Feature", "id": 3178, "geometry": {"type": "Point", "coordinates": [-129.40000000029966, 13.599999999900206]}, "properties": {"objectid": 3178, "stormname": "Tropical Depression Nineteen-E", "stormtype": "TD", "dvlbl": "D", "basin": "EP", "advdate": "200 AM PDT Wed Sep 30 2026", "advisnum": "4", "fcstprd": 120, "gust": 35, "maxwind": 25, "mslp": 1006, "ssnum": 0, "datelbl": "2:00 AM Wed", "tcdir": 110, "tcdvlp": "Tropical Depression", "tcspd": 8, "fldatelbl": "2026-09-29 11:00 PM Tue PDT", "lat": 14, "lon": -129, "stormnum": 19, "stormsrc": "Tropical Cyclone", "tau": 0, "timezone": "PDT", "validtime": "30/0600", "idp_source": "ep192026-004_5day_pts", "idp_filedate": 1790758982000, "idp_ingestdate": 1790759192000, "binnumber": "EP4", "MAXWIND": 25, "VALIDTIME": "30/0600"}}, {"type": "Feature", "id": 3179, "geometry": {"type": "Point", "coordinates": [-127.79999999989997, 14.099999999800275]}, "properties": {"objectid": 3179, "stormname": "Tropical Depression Nineteen-E", "stormtype": "TD", "dvlbl": "D", "basin": "EP", "advdate": "200 AM PDT Wed Sep 30 2026", "advisnum": "4", "fcstprd": 120, "gust": 35, "maxwind": 25, "mslp": 9999, "ssnum": 0, "datelbl": "11:00 AM Wed", "tcdir": 9999, "tcdvlp": "Tropical Depression", "tcspd": 9999, "fldatelbl": "2026-09-30 11:00 AM Wed PDT", "lat": 14, "lon": -128, "stormnum": 19, "stormsrc": "Tropical Cyclone", "tau": 12, "timezone": "PDT", "validtime": "30/1800", "idp_source": "ep192026-004_5day_pts", "idp_filedate": 1790758982000, "idp_ingestdate": 1790759192000, "binnumber": "EP4", "MAXWIND": 25, "VALIDTIME": "30/1800"}}, {"type": "Feature", "id": 3180, "geometry": {"type": "Point", "coordinates": [-125.90000000009985, 14.49999999990024]}, "properties": {"objectid": 3180, "stormname": "Tropical Depression Nineteen-E", "stormtype": "TD", "dvlbl": "D", "basin": "EP", "advdate": "200 AM PDT Wed Sep 30 2026", "advisnum": "4", "fcstprd": 120, "gust": 35, "maxwind": 25, "mslp": 9999, "ssnum": 0, "datelbl": "11:00 PM Wed", "tcdir": 9999, "tcdvlp": "Tropical Depression", "tcspd": 9999, "fldatelbl": "2026-09-30 11:00 PM Wed PDT", "lat": 14, "lon": -126, "stormnum": 19, "stormsrc": "Tropical Cyclone", "tau": 24, "timezone": "PDT", "validtime": "01/0600", "idp_source": "ep192026-004_5day_pts", "idp_filedate": 1790758982000, "idp_ingestdate": 1790759192000, "binnumber": "EP4", "MAXWIND": 25, "VALIDTIME": "01/0600"}}, {"type": "Feature", "id": 3181, "geometry": {"type": "Point", "coordinates": [-124.1999999999, 14.700000000399825]}, "properties": {"objectid": 3181, "stormname": "Tropical Depression Nineteen-E", "stormtype": "STD", "dvlbl": "D", "basin": "EP", "advdate": "200 AM PDT Wed Sep 30 2026", "advisnum": "4", "fcstprd": 120, "gust": 35, "maxwind": 25, "mslp": 9999, "ssnum": 0, "datelbl": "11:00 AM Thu", "tcdir": 9999, "tcdvlp": "Subtropical Depression", "tcspd": 9999, "fldatelbl": "2026-10-01 11:00 AM Thu PDT", "lat": 15, "lon": -124, "stormnum": 19, "stormsrc": "Post-Tropical Cyclone", "tau": 36, "timezone": "PDT", "validtime": "01/1800", "idp_source": "ep192026-004_5day_pts", "idp_filedate": 1790758982000, "idp_ingestdate": 1790759192000, "binnumber": "EP4", "MAXWIND": 25, "VALIDTIME": "01/1800"}}, {"type": "Feature", "id": 3182, "geometry": {"type": "Point", "coordinates": [-122.60000000039963, 14.700000000399825]}, "properties": {"objectid": 3182, "stormname": "Tropical Depression Nineteen-E", "stormtype": "STD", "dvlbl": "D", "basin": "EP", "advdate": "200 AM PDT Wed Sep 30 2026", "advisnum": "4", "fcstprd": 120, "gust": 35, "maxwind": 25, "mslp": 9999, "ssnum": 0, "datelbl": "11:00 PM Thu", "tcdir": 9999, "tcdvlp": "Subtropical Depression", "tcspd": 9999, "fldatelbl": "2026-10-01 11:00 PM Thu PDT", "lat": 15, "lon": -123, "stormnum": 19, "stormsrc": "Post-Tropical Cyclone", "tau": 48, "timezone": "PDT", "validtime": "02/0600", "idp_source": "ep192026-004_5day_pts", "idp_filedate": 1790758982000, "idp_ingestdate": 1790759192000, "binnumber": "EP4", "MAXWIND": 25, "VALIDTIME": "02/0600"}}]}