{"type":"FeatureCollection","features":[{"type":"Feature","id":414,"geometry":{"type":"Polygon","coordinates":[[[-128.4422500000374,14.034440000006157],[-128.42679000025822,14.03259000012855],[-128.41039999986003,14.031999999900222],[-128.39319000031816,14.03259000012855],[-128.3756400003856,14.034359999914216],[-128.35799000033813,14.037049999857743],[-128.34026999976061,14.040160000283947],[-128.32244999996743,14.043360000363862],[-128.30457000010534,14.046480000351892],[-128.28640999992149,14.049340000041127],[-128.27725000018728,14.05067999978229],[-128.24995000029219,14.05488999967389],[-128.2320700004301,14.05800999966192],[-128.2142499997376,14.061200000180008],[-128.19636999987551,14.064320000168038],[-128.17822000015281,14.067179999857274],[-128.16880999968163,14.068269999760844],[-128.14074999981256,14.071719999678407],[-128.12186000013878,14.073820000292926],[-128.1033000003946,14.076269999960687],[-128.08514000021074,14.079129999649922],[-128.06724999988751,14.082240000076069],[-128.04943999965616,14.085440000156041],[-128.0315399997711,14.088549999682868],[-128.01339999961021,14.091410000271424],[-127.99508999970362,14.094100000214951],[-127.97693999998091,14.096970000365388],[-127.95904999965768,14.100079999892216],[-127.94124000032565,14.103279999972187],[-127.92343000009436,14.106480000052102],[-127.90553000020924,14.10958999957893],[-127.88739999961018,14.112450000167485],[-127.86908999970365,14.115140000111069],[-127.85093999998094,14.117999999800304],[-127.83304999965765,14.121119999788277],[-127.81524000032567,14.124319999868248],[-127.79741999963318,14.127510000386337],[-127.77953000020926,14.130630000374367],[-127.76139000004838,14.133490000063603],[-127.74306999968064,14.13618000000713],[-127.72493000041908,14.139039999696365],[-127.70704000009584,14.14215000012257],[-127.68922000030267,14.145350000202484],[-127.6714199996332,14.148550000282398],[-127.65351999974808,14.151659999809283],[-127.62623000031419,14.155869999700883],[-127.61706999968067,14.157219999903191],[-127.60807999969217,14.158730000289438],[-127.58102000007284,14.163190000018631],[-127.56322000030269,14.166390000098545],[-127.54541000007134,14.169590000178516],[-127.52753000020925,14.172699999705344],[-127.50937999958722,14.175560000293899],[-127.49106999968063,14.178250000237483],[-127.47291999995792,14.181109999926719],[-127.45502000007286,14.184229999914692],[-127.43720999984151,14.187429999994663],[-127.41939999961022,14.190619999613432],[-127.4014999997251,14.193739999601462],[-127.38337000002537,14.196600000190017],[-127.36506999968066,14.199290000133544],[-127.33792999996945,14.203669999770796],[-127.32902999963466,14.205269999810753],[-127.31120999984154,14.208460000328898],[-127.29330000039459,14.211580000316872],[-127.28415000022227,14.212920000058091],[-127.25659999959021,14.216880000112042],[-127.24710999992647,14.217889999923671],[-127.21880000021974,14.221090000003642],[-127.20023999957624,14.223530000109577],[-127.18208999985353,14.226389999798812],[-127.16420000042956,14.229500000224959],[-127.14629999964518,14.232609999751844],[-127.12808000029167,14.235390000248458],[-127.10926999981058,14.237579999617424],[-127.08993999963121,14.239259999749322],[-127.07045000016728,14.240779999697338],[-127.05113000044906,14.242459999829293],[-127.03229999994494,14.244650000097579],[-127.01407999969211,14.247420000133047],[-126.9961900002682,14.250540000121021],[-126.97829000038314,14.253649999647905],[-126.96007000013032,14.256430000144519],[-126.94125000008734,14.258620000412805],[-126.92193000036912,14.260299999645383],[-126.90244000000592,14.26181000003163],[-126.88312999984953,14.263499999725354],[-126.86430000024473,14.265680000431814],[-126.8460799999919,14.268460000029108],[-126.81927000021022,14.27316999959595],[-126.81028999978355,14.274690000443286],[-126.79205000040713,14.277459999579435],[-126.77315999983404,14.279569999755836],[-126.75349000016331,14.280910000396318],[-126.72301000021127,14.281920000208004],[-126.71258999992847,14.282009999861771],[-126.70208999955372,14.282009999861771],[-126.67067000032017,14.282089999953655],[-126.64966999957073,14.282089999953655],[-126.62874999981256,14.282179999607422],[-126.61850000017478,14.282430000344391],[-126.58784000001589,14.283270000410312],[-126.56819000036813,14.284619999713357],[-126.54929000023321,14.286720000327875],[-126.53106999998045,14.28949999992517],[-126.50426000019877,14.294210000391331],[-126.49527000021027,14.295719999878258],[-126.47704000039562,14.298500000374872],[-126.45814999982252,14.300600000090071],[-126.4384800001518,14.301950000292436],[-126.41822999981457,14.302710000266416],[-126.39757000035513,14.303049999757832],[-126.37666000015878,14.303129999849773],[-126.35566999987049,14.303129999849773],[-126.33465999955922,14.303129999849773],[-126.3136599997091,14.303129999849773],[-126.29265999985904,14.303129999849773],[-126.2716500004471,14.303129999849773],[-126.25064999969766,14.303129999849773],[-126.22964999984754,14.303129999849773],[-126.20864000043559,14.303129999849773],[-126.18763999968616,14.303129999849773],[-126.16663999983604,14.303129999849773],[-126.14565000044706,14.303129999849773],[-126.12462999967465,14.303129999849773],[-126.10364000028568,14.303129999849773],[-126.08264000043556,14.303129999849773],[-126.06165000014732,14.303129999849773],[-126.04065000029721,14.303129999849773],[-126.01963999998594,14.303129999849773],[-125.99862999967468,14.303129999849773],[-125.9776400002857,14.303129999849773],[-125.95662999997444,14.303129999849773],[-125.93563000012432,14.303129999849773],[-125.9146300002742,14.303129999849773],[-125.89363000042408,14.303129999849773],[-125.87262999967464,14.303129999849773],[-125.85164000028567,14.303129999849773],[-125.83062999997441,14.303129999849773],[-125.80963000012429,14.303129999849773],[-125.78863999983605,14.303129999849773],[-125.76761999996296,14.303129999849773],[-125.74662000011284,14.303129999849773],[-125.72562000026272,14.303129999849773],[-125.70460999995146,14.303129999849773],[-125.68361999966316,14.303129999849773],[-125.66261000025122,14.303129999849773],[-125.64161999996293,14.303129999849773],[-125.62060999965166,14.303129999849773],[-125.59960999980154,14.303129999849773],[-125.57860999995142,14.303129999849773],[-125.55761999966319,14.303129999849773],[-125.53661999981307,14.303129999849773],[-125.51561000040113,14.303129999849773],[-125.49460999965169,14.303129999849773],[-125.47360999980157,14.303129999849773],[-125.45260000038962,14.303129999849773],[-125.43159999964018,14.303129999849773],[-125.41059999979007,14.303129999849773],[-125.38959999993995,14.303129999849773],[-125.36860999965165,14.303129999849773],[-125.34760999980153,14.303129999849773],[-125.32660000038959,14.303129999849773],[-125.30559999964021,14.303129999849773],[-125.28461000025123,14.303129999849773],[-125.26359999993997,14.303129999849773],[-125.24258999962871,14.303129999849773],[-125.22160000023973,14.303129999849773],[-125.20058000036664,14.303129999849773],[-125.17959000007835,14.303129999849773],[-125.16908000014178,14.303129999849773],[-125.13800999996141,14.302710000266416],[-125.11775000006236,14.301950000292436],[-125.09810999997643,14.300600000090071],[-125.07920000027968,14.298500000374872],[-125.06096999956571,14.295719999878258],[-125.05199000003836,14.294210000391331],[-125.02518999981856,14.28949999992517],[-125.01619999983006,14.287979999977154],[-124.98805000030717,14.284619999713357],[-124.96839999976009,14.283270000410312],[-124.94815000032219,14.282510000436332],[-124.92748999996343,14.282179999607422],[-124.90657000020525,14.282089999953655],[-124.88557000035513,14.282089999953655],[-124.86458000006684,14.282089999953655],[-124.84358000021672,14.282089999953655],[-124.82256999990545,14.282089999953655],[-124.80157000005539,14.282089999953655],[-124.7805799997671,14.282089999953655],[-124.75957000035515,14.282089999953655],[-124.73856000004389,14.282089999953655],[-124.7175699997556,14.282089999953655],[-124.69656000034365,14.282089999953655],[-124.67555999959421,14.282089999953655],[-124.65455999974409,14.282089999953655],[-124.63355999989398,14.282089999953655],[-124.61254999958271,14.282089999953655],[-124.59154999973259,14.282089999953655],[-124.57056000034368,14.282089999953655],[-124.54955999959424,14.282089999953655],[-124.52855999974412,14.282089999953655],[-124.50755000033217,14.282089999953655],[-124.48654999958273,14.282089999953655],[-124.46554999973262,14.282089999953655],[-124.44454000032067,14.282089999953655],[-124.42355000003238,14.282089999953655],[-124.40253999972111,14.282089999953655],[-124.38163000042408,14.282009999861771],[-124.37121999970316,14.281929999769829],[-124.3507200004276,14.281419999633442],[-124.32107999964217,14.279569999755836],[-124.30216000038359,14.277459999579435],[-124.28394000013083,14.274690000443286],[-124.27495000014233,14.27316999959595],[-124.24814000036065,14.268460000029108],[-124.23915999993397,14.266940000081092],[-124.22066999982053,14.264419999883216],[-124.19135999986401,14.262229999614931],[-124.1711100004261,14.26148000010204],[-124.15043999960619,14.261139999711361],[-124.12953000030916,14.261050000057594],[-124.1085199999979,14.261050000057594],[-124.08752000014778,14.261050000057594],[-124.06652999985954,14.261050000057594],[-124.04553000000942,14.261050000057594],[-124.02453999972113,14.261050000057594],[-124.00351999984804,14.261050000057594],[-123.98251999999792,14.261050000057594],[-123.9615200001478,14.261050000057594],[-123.94060000038962,14.260969999965653],[-123.91994000003086,14.260629999574974],[-123.90969000039308,14.260379999737324],[-123.88968999989351,14.259369999925696],[-123.86113000034914,14.256430000144519],[-123.84291000009631,14.253649999647905],[-123.82501999977308,14.250540000121021],[-123.80713000034916,14.247420000133047],[-123.78889000007337,14.244650000097579],[-123.76998999993845,14.242539999921178],[-123.75034000029069,14.241200000180015],[-123.73008999995346,14.240440000205979],[-123.7094299995947,14.2400999998153],[-123.6885000002747,14.240019999723359],[-123.66750000042458,14.240019999723359],[-123.64649999967514,14.240019999723359],[-123.62549999982502,14.240019999723359],[-123.60449000041308,14.240019999723359],[-123.58350000012479,14.240019999723359],[-123.56258000036661,14.239930000069592],[-123.55216999964568,14.23984999997765],[-123.52166999967068,14.238840000166022],[-123.50200999956172,14.237489999963657],[-123.48311000032618,14.235390000248458],[-123.46487000005038,14.232609999751844],[-123.45588999962371,14.231100000264917],[-123.42909000030318,14.226389999798812],[-123.41087000005035,14.223610000201461],[-123.39196999991549,14.221509999586942],[-123.38230000004489,14.220659999959196],[-123.35206999993045,14.219400000309918],[-123.33140999957175,14.219059999919182],[-123.31048999981357,14.218979999827241],[-123.28948999996345,14.218979999827241],[-123.26849000011333,14.218979999827241],[-123.24747999980207,14.218979999827241],[-123.22647999995195,14.218979999827241],[-123.20548000010183,14.218979999827241],[-123.18456000034365,14.218899999735356],[-123.17414999962267,14.218810000081589],[-123.14364999964766,14.21780000026996],[-123.12399000043808,14.216459999629421],[-123.11433000012931,14.215619999563444],[-123.0868700000504,14.211580000316872],[-123.06897000016528,14.208460000328898],[-123.05109000030319,14.205349999902694],[-123.04208999985354,14.203829999954678],[-123.01394999989247,14.200469999690881],[-122.99428999978358,14.199120000387836],[-122.97404000034567,14.1983600004138],[-122.96378999980857,14.198109999676888],[-122.93246000022873,14.197939999931179],[-122.91153999957123,14.198029999584946],[-122.89088000011185,14.198369999975682],[-122.87064000023571,14.199120000387836],[-122.85098000012681,14.200469999690881],[-122.84174000030066,14.201730000239479],[-122.81385999973912,14.205349999902694],[-122.80504000039559,14.207030000034592],[-122.77849000001339,14.211999999900229],[-122.76100999971163,14.215529999909734],[-122.74345000021725,14.218979999827241],[-122.7259000002847,14.222429999744804],[-122.7085099996367,14.226050000307396],[-122.69994000013082,14.227989999838769],[-122.67422999981454,14.233790000208501],[-122.65743999985602,14.238000000100044],[-122.64928000037162,14.240349999652892],[-122.63299999965017,14.245069999680879],[-122.60912999964967,14.252730000389363],[-122.59401000026122,14.258620000412805],[-122.5793899996487,14.265010000111545],[-122.56503000023423,14.27166000010908],[-122.55805999986899,14.275190000118528],[-122.53697000036516,14.285630000424305],[-122.52295000044205,14.292610000351374],[-122.50892999961968,14.299599999840268],[-122.49504999985754,14.306750000412308],[-122.48127999977208,14.313989999738851],[-122.46766999987051,14.32139000014854],[-122.45438999989847,14.329130000049588],[-122.4349000004346,14.341159999934177],[-122.42850999983654,14.345289999733836],[-122.41582999965465,14.35361999986327],[-122.40330999965664,14.362119999738354],[-122.39096999986549,14.370779999797264],[-122.37885999988902,14.379709999716852],[-122.36711000032614,14.388960000004147],[-122.35576999988547,14.398640000335888],[-122.34476000027371,14.408649999697843],[-122.32871999982802,14.424139999961142],[-122.32342999959474,14.429350000102545],[-122.31293000011931,14.439869999600944],[-122.30242999974462,14.450389999998663],[-122.29193000026919,14.460910000396325],[-122.28150999998644,14.471509999986665],[-122.26623000041411,14.487749999762798],[-122.26125999964916,14.493309999856763],[-122.24236000041361,14.516450000367342],[-122.23781999969316,14.522419999583462],[-122.22480999958174,14.540929999719822],[-122.2121100002762,14.559780000246974],[-122.20388000026173,14.572570000105543],[-122.19581999999292,14.585529999709877],[-122.18791000034616,14.598659999959182],[-122.18414000006084,14.605390000048601],[-122.1731400000109,14.625919999808275],[-122.16591000024624,14.639720000377849],[-122.15885999978906,14.653689999793812],[-122.15214000016078,14.667999999600454],[-122.14541999963319,14.68229999984527],[-122.13886999975057,14.69678000029694],[-122.13280999998142,14.711749999962649],[-122.12423999957622,14.734730000289403],[-122.1187000004046,14.750210000091556],[-122.1160200000229,14.758030000084602],[-122.11080000031967,14.77385999983926],[-122.10561000020124,14.789669999570947],[-122.10038999959869,14.805489999763836],[-122.09568999959373,14.821820000093055],[-122.09147999970213,14.838650000097573],[-122.08662000041261,14.865319999718338],[-122.08443999970615,14.884170000245433],[-122.08307999994196,14.903870000400332],[-122.08233999999089,14.924139999861268],[-122.08199999960021,14.944840000265913],[-122.08192000040759,14.955279999672371],[-122.08192000040759,14.986830000404325],[-122.08192000040759,15.007870000300386],[-122.08192000040759,15.028910000196504],[-122.08199999960021,15.049860000438798],[-122.08233999999089,15.07055999994418],[-122.0830900004031,15.090839999866262],[-122.08443999970615,15.110529999559958],[-122.08652999985952,15.12946999974082],[-122.08939000044808,15.14764000038582],[-122.09122999986448,15.156310000006613],[-122.09871000036611,15.190899999735336],[-122.10081000008137,15.199309999956654],[-122.10300000034965,15.207640000086087],[-122.10737000042508,15.224300000344897],[-122.11191000024621,15.240800000419824],[-122.11667999988202,15.257040000196014],[-122.12433999969113,15.280930000219485],[-122.13280999998142,15.30398999973886],[-122.13584000031568,15.311479999802316],[-122.14214999992248,15.326199999630433],[-122.14886999955075,15.340510000336394],[-122.155839999916,15.354559999844241],[-122.1631499997726,15.368280000321874],[-122.1748200001428,15.388139999761336],[-122.17490999979657,15.388050000107569],[-122.18699999975007,15.407489999963673],[-122.1953299998795,15.420199999730357],[-122.20809000015328,15.438959999704366],[-122.21246000022876,15.445110000026602],[-122.22135999966417,15.457220000003133],[-122.23530999995643,15.47480999998163],[-122.24025999979904,15.48035999961445],[-122.25025999959922,15.491390000148499],[-122.27091999995793,15.512759999974151],[-122.27613000009933,15.518059999769321],[-122.28142000033267,15.523280000371869],[-122.29712999994945,15.539099999665382],[-122.31293000011931,15.55483999976633],[-122.31814000026071,15.560139999561443],[-122.32342999959474,15.565360000163992],[-122.33912999964969,15.581169999895735],[-122.34971999967814,15.591610000201513],[-122.3603099997066,15.602040000046088],[-122.36576999968565,15.607090000003609],[-122.38230999980658,15.62207000013052],[-122.39390999964667,15.631490000163524],[-122.40584000031566,15.640580000266937],[-122.42431999996791,15.6536300004243],[-122.43053000035911,15.657920000407842],[-122.44313000044906,15.66632999972984],[-122.46235999961419,15.678619999913224],[-122.46883000030419,15.682660000059116],[-122.48195000009235,15.690569999705872],[-122.50237000017529,15.701669999870717],[-122.50933999964116,15.705210000341367],[-122.52345000011729,15.712110000176494],[-122.5378899996237,15.718669999620943],[-122.5604900004131,15.727589999978647],[-122.56813000019923,15.730449999667883],[-122.59122999976461,15.738870000350403],[-122.59904000019577,15.74156000029393],[-122.61484999992746,15.746779999997159],[-122.63063000007435,15.751999999700388],[-122.6544899996137,15.759649999947669],[-122.67069999980504,15.764450000067598],[-122.67886000018876,15.766799999620446],[-122.69532000021775,15.771349999902725],[-122.72034999975261,15.777830000154495],[-122.73723999982604,15.781950000392328],[-122.75437999973713,15.785819999893192],[-122.76301999977306,15.787669999770799],[-122.79008000029171,15.792130000399311],[-122.80898000042657,15.794239999676392],[-122.8186300002742,15.795079999742313],[-122.84886999995047,15.796340000290911],[-122.85911999958824,15.79659000012856],[-122.89045999962917,15.796759999874212],[-122.91146000037861,15.796759999874212],[-122.93236999967564,15.796679999782327],[-122.9530300000344,15.796340000290911],[-122.96304000029568,15.79583999971635],[-122.99295000004236,15.794239999676392],[-123.0118599997391,15.792130000399311],[-123.02084000016578,15.790620000013121],[-123.04797000031516,15.786240000375869],[-123.06577999964719,15.783040000295898],[-123.08368000043157,15.779929999869751],[-123.10181999969313,15.777070000180515],[-123.1201200000379,15.774380000236988],[-123.13828000022176,15.771519999648376],[-123.15616000008384,15.768399999660403],[-123.17397999987702,15.765210000041634],[-123.18296999986552,15.763690000093561],[-123.21001000036114,15.759230000364369],[-123.22857999966715,15.756790000258434],[-123.24747999980207,15.754689999643915],[-123.26639000039813,15.752580000366891],[-123.27553999967114,15.751239999726351],[-123.3030900003032,15.747279999672401],[-123.32097999972711,15.744170000145516],[-123.33878999995846,15.740970000065602],[-123.35668999984352,15.737859999639397],[-123.37483000000441,15.734999999950162],[-123.393139999911,15.732300000444809],[-123.41128999963371,15.729439999856254],[-123.42917999995694,15.726330000329369],[-123.44699000018829,15.723130000249455],[-123.46489000007335,15.720019999823251],[-123.48303000023424,15.717160000134015],[-123.50160000043957,15.714720000028137],[-123.52049000011334,15.712609999851736],[-123.53939999981003,15.710510000136537],[-123.55795999955427,15.708070000030602],[-123.5761100001763,15.705210000341367],[-123.59399000003839,15.70209999991522],[-123.61180000026968,15.698899999835248],[-123.6297000001548,15.695779999847275],[-123.64784000031568,15.69292000015804],[-123.66615999978404,15.690230000214456],[-123.68429999994493,15.687369999625901],[-123.70219000026822,15.684260000099073],[-123.7111099997266,15.682660000059116],[-123.73790000038463,15.677940000031128],[-123.75605000010734,15.675080000341893],[-123.77460999985152,15.672640000235958],[-123.79350000042461,15.67053999962144],[-123.8124100001213,15.668439999906184],[-123.83096999986549,15.665999999800306],[-123.8491199995882,15.663140000111071],[-123.86700999991149,15.660020000123041],[-123.88482000014278,15.656820000043126],[-123.90270999956675,15.653709999616922],[-123.92086000018878,15.650849999927686],[-123.93917000009532,15.648159999984159],[-123.95731999981803,15.645300000294924],[-123.97519999968017,15.642180000306894],[-123.99302999993444,15.638980000226979],[-124.01092999981955,15.635869999800775],[-124.02906999998044,15.63301000011154],[-124.04762000016279,15.630570000005662],[-124.06652000029766,15.628470000290406],[-124.0854299999944,15.626360000114062],[-124.10398999973859,15.623920000008127],[-124.12212999989947,15.621060000318892],[-124.14002999978459,15.617949999892744],[-124.14893000011932,15.61634999985273],[-124.17571999987803,15.611640000285945],[-124.19386999960074,15.60877999969739],[-124.21218000040659,15.60608000019198],[-124.2303300001293,15.603219999603425],[-124.23924000002592,15.601619999563468],[-124.26604000024571,15.596909999996626],[-124.28384000001591,15.593709999916712],[-124.30173999990097,15.590600000389827],[-124.31988000006186,15.587739999801272],[-124.33818999996845,15.585040000295919],[-124.35633999969116,15.582179999707364],[-124.37421999955325,15.579070000180479],[-124.39204000024574,15.575870000100565],[-124.40093999968116,15.574270000060608],[-124.42775000036215,15.569559999594446],[-124.44588000006183,15.566699999905211],[-124.46420000042957,15.564009999961684],[-124.48235000015228,15.561150000272448],[-124.50023999957625,15.558030000284418],[-124.51804999980754,15.55483999976633],[-124.53586000003889,15.551639999686358],[-124.56274000035063,15.547010000211458],[-124.57188999962369,15.54566000000915],[-124.59020999999143,15.542970000065566],[-124.59919999997993,15.541459999679375],[-124.62625000003737,15.536990000388357],[-124.64406000026872,15.533799999870212],[-124.6618699996007,15.530599999790297],[-124.67975000036216,15.527490000263413],[-124.69790000008487,15.524629999674858],[-124.71620999999141,15.521930000169505],[-124.73435999971412,15.51906999958095],[-124.75225000003741,15.515960000054122],[-124.77006999983053,15.512759999974151],[-124.78786999960073,15.509559999894236],[-124.80577000038511,15.506450000367352],[-124.81491000009635,15.505100000164987],[-124.84221999955327,15.500899999835269],[-124.86037000017529,15.498040000146034],[-124.86926999961071,15.496440000106077],[-124.89598000017679,15.491639999986148],[-124.91353999967117,15.488190000068585],[-124.9222700002602,15.486420000282919],[-124.94858000036663,15.481199999680371],[-124.96613000029919,15.477760000223952],[-124.97486999955072,15.475990000438287],[-125.00117000009533,15.470769999835738],[-125.01888999977359,15.467489999663883],[-125.03678999965865,15.464380000137055],[-125.05492000025771,15.46152000044782],[-125.06408999955374,15.460170000245455],[-125.09137999988701,15.455960000353855],[-125.10927000021024,15.452849999927707],[-125.12700000034965,15.449569999755795],[-125.14455999984403,15.446119999838288],[-125.16202999968465,15.442580000266958],[-125.17959000007835,15.439130000349394],[-125.1971400000109,15.43568000043183],[-125.20588999972364,15.433920000207991],[-125.23217000024522,15.428699999605442],[-125.24990999994645,15.425420000332906],[-125.26778999980854,15.422300000344876],[-125.28594000043057,15.419439999756321],[-125.30423999987602,15.416749999812794],[-125.32238999959873,15.413890000123558],[-125.33128999993346,15.412290000083601],[-125.36683000030416,15.405809999831774],[-125.37555999999392,15.404040000046109],[-125.39304000029568,15.400510000036604],[-125.41059999979007,15.397060000119041],[-125.43690000033467,15.391840000415812],[-125.44563000002438,15.390069999730827],[-125.46319000041808,15.386619999813263],[-125.48091000009634,15.383339999641407],[-125.4988099999814,15.38023000011458],[-125.51695000014229,15.377370000425344],[-125.53526000004888,15.374670000020615],[-125.54425000003738,15.373159999634424],[-125.57130000009482,15.368699999905232],[-125.58903999979606,15.365419999733319],[-125.60658000016679,15.361969999815756],[-125.61532999987952,15.36020000003009],[-125.6416100004011,15.354980000326918],[-125.65916999989548,15.351530000409355],[-125.66791000004639,15.349770000185515],[-125.6942000001298,15.344549999582966],[-125.71193000026921,15.341270000310431],[-125.72983000015427,15.338150000322401],[-125.747959999854,15.335289999733845],[-125.75711999958821,15.333949999992626],[-125.78442000038262,15.329740000101083],[-125.80232000026768,15.326629999674878],[-125.81113999961121,15.324939999981154],[-125.84633000002941,15.318129999799794],[-125.85505999971912,15.316360000014129],[-125.86389000042311,15.31467999988223],[-125.8901799996072,15.309460000179001],[-125.89891000019628,15.307690000393336],[-125.91640000005987,15.304160000383831],[-125.94261000005139,15.298859999689398],[-125.95133999974109,15.297089999903733],[-125.9776400002857,15.291870000200504],[-125.99519000021826,15.28842000028294],[-126.00393999993094,15.286660000059101],[-126.02138999974858,15.28311999958845],[-126.04761000020125,15.27781999979328],[-126.06508000004186,15.27428000022195],[-126.08262999997442,15.270839999866212],[-126.10019000036812,15.267389999948705],[-126.11766000020873,15.263850000377374],[-126.13513000004934,15.260320000367869],[-126.14387999976208,15.258549999682884],[-126.16134999960269,15.25501999967338],[-126.18763999968616,15.249799999970151],[-126.20520000007986,15.246350000052587],[-126.21384999967768,15.24450000017498],[-126.23980999983155,15.238940000081072],[-126.24828999968366,15.236919999558495],[-126.26525999984904,15.232880000311923],[-126.29054000012081,15.226660000358891],[-126.30743999975607,15.222529999659912],[-126.32447999955224,15.218580000067107],[-126.33313999961121,15.2167300001895],[-126.35909000020325,15.211170000095592],[-126.36792000000793,15.209489999963694],[-126.39421000009133,15.20427999982229],[-126.40285999968916,15.202420000382858],[-126.42017000024521,15.198719999728326],[-126.44587999966217,15.192909999796768],[-126.46274999971263,15.188789999558992],[-126.47955999969412,15.184579999667392],[-126.48796000035367,15.182479999952193],[-126.51317000009533,15.176170000345394],[-126.52158000031665,15.174060000168993],[-126.54677000003539,15.167749999662874],[-126.55518000025671,15.165649999947675],[-126.5803699999754,15.159340000340876],[-126.59717000039512,15.155130000449276],[-126.61396999991547,15.150919999658413],[-126.62238000013679,15.148819999943157],[-126.63915999963416,15.144610000051614],[-126.6643700002752,15.138300000444815],[-126.68116999979554,15.134100000115041],[-126.69797000021526,15.129890000223497],[-126.70636000041361,15.127780000047096],[-126.73157000015527,15.121470000440297],[-126.74836999967567,15.11727000011058],[-126.75677000033517,15.115159999934178],[-126.78198000007683,15.108850000327379],[-126.79037000027517,15.106749999712861],[-126.80718999981855,15.102539999821261],[-126.82397000021524,15.098329999929717],[-126.84078999975861,15.094120000038117],[-126.86598000037662,15.087810000431318],[-126.87438999969862,15.0857099998168],[-126.89117000009531,15.0814999999252],[-126.91637999983703,15.075190000318401],[-126.9331800002567,15.0709800004268],[-126.94158999957875,15.068879999812282],[-126.96678000019676,15.062570000205483],[-126.97511000032614,15.060379999937197],[-127.00005000020724,15.053819999593429],[-127.01643000014428,15.049190000118529],[-127.0326499998975,15.044389999998657],[-127.04061999961323,15.041869999800781],[-127.06474000035064,15.034459999829267],[-127.08094999964266,15.029670000170483],[-127.09732000001787,15.02503999979632],[-127.1138600001388,15.020580000067071],[-127.12217999980703,15.018389999798785],[-127.14705999961922,15.011739999801307],[-127.16343999955626,15.007110000326406],[-127.17966000020874,15.002319999768304],[-127.18754999983253,14.999709999916718],[-127.20351000018627,14.994659999959197],[-127.21929999989499,14.989440000255968],[-127.23510999962667,14.984230000114565],[-127.25870999976661,14.976319999568489],[-127.27440999982156,14.971010000211493],[-127.2980999996152,14.963190000218447],[-127.32169999975508,14.955279999672371],[-127.32959000027819,14.952669999820785],[-127.34531000035616,14.947370000025614],[-127.36900000014981,14.93953999957148],[-127.38470000020476,14.93423999977631],[-127.39258999982854,14.931629999924724],[-127.41620000042957,14.92372000027791],[-127.43199000013828,14.918510000136507],[-127.44771000021626,14.913210000341394],[-127.46341999983304,14.907900000085078],[-127.47131000035614,14.905290000233435],[-127.49500999971161,14.897470000240446],[-127.51072000022776,14.892170000445276],[-127.52642999984454,14.886869999750843],[-127.53432000036764,14.8842599998992],[-127.55801000016129,14.876430000344385],[-127.57371999977806,14.871129999649895],[-127.58941999983301,14.865829999854725],[-127.60522000000293,14.860610000151496],[-127.62102000017279,14.855390000448324],[-127.63672000022774,14.850089999753834],[-127.65244000030566,14.844789999958664],[-127.66823000001438,14.839570000255435],[-127.67611999963816,14.836969999965675],[-127.6997199997781,14.829060000318918],[-127.71543999985602,14.823759999624428],[-127.73122999956473,14.8185399999212],[-127.7390399999959,14.815840000415847],[-127.76239999986001,14.807680000032121],[-127.77768000033166,14.801959999754331],[-127.80044000040562,14.793210000041597],[-127.80028000022173,14.793040000295889],[-127.8152200003027,14.78697999962742],[-127.83757000035513,14.777810000331385],[-127.85278000029666,14.772000000399828],[-127.86807000033014,14.766280000122038],[-127.87589000032318,14.76359000017851],[-127.89923000016427,14.755429999794785],[-127.91501999987298,14.750210000091556],[-127.93073999995096,14.744910000296443],[-127.95434999965266,14.73699999975031],[-127.96224000017577,14.734389999898724],[-127.97012999979955,14.731780000047081],[-127.99374000040063,14.723870000400325],[-128.00945999957924,14.718569999705835],[-128.02523999972613,14.713350000002663],[-128.03305000015729,14.710660000059079],[-128.04861000005138,14.705189999618938],[-128.07170000005488,14.69678000029694],[-128.08690999999641,14.690970000365382],[-128.10924999958775,14.681800000170028],[-128.11664000043561,14.678680000181998],[-128.13161000010132,14.672620000412849],[-128.14678999955873,14.666820000043117],[-128.16207999959221,14.661099999765327],[-128.16989000002337,14.658400000259917],[-128.19324000032566,14.650239999876248],[-128.21695000014228,14.642419999883202],[-128.22475999967418,14.639720000377849],[-128.2483700002752,14.631809999831773],[-128.25625999989899,14.629210000441333],[-128.26415999998392,14.62659999969037],[-128.28774999966265,14.618690000043614],[-128.31136000026373,14.610780000396858],[-128.31136999982556,14.610780000396858],[-128.33507000008035,14.602949999942666],[-128.3507700001353,14.597650000147553],[-128.35865999975908,14.59504000029591],[-128.38225999989896,14.587129999749834],[-128.39015000042207,14.584519999898191],[-128.40588000006187,14.579220000103078],[-128.4294699997406,14.571309999556945],[-128.43738000028668,14.568699999705359],[-128.46880000041961,14.558100000115076],[-128.47644000020574,14.55524000042584],[-128.49163999968613,14.549429999594963],[-128.5138199999929,14.540089999653901],[-128.52071999982803,14.536469999990629],[-128.53415000042207,14.528899999835289],[-128.54690999979658,14.520649999797797],[-128.55901999977306,14.511730000339355],[-128.57042999984452,14.502139999661381],[-128.58144999991748,14.492130000299426],[-128.59749000036311,14.476640000036127],[-128.60269000004337,14.471340000240957],[-128.62262000001289,14.449210000441326],[-128.63612000023772,14.431199999980151],[-128.64745999977907,14.411009999711837],[-128.65402000012284,14.396530000159544],[-128.65714000011081,14.389129999749855],[-128.6623199997681,14.373309999556966],[-128.66662999977456,14.356730000289417],[-128.67116000003386,14.330389999698866],[-128.67257999986703,14.312300000045127],[-128.67257999986703,14.303470000240452],[-128.67116000003386,14.275870000000623],[-128.66964999964767,14.267370000125538],[-128.66637000037514,14.249949999892692],[-128.66215999958422,14.233119999888231],[-128.65484999972762,14.208879999912199],[-128.64913999991097,14.193569999855754],[-128.64300999961171,14.178669999820784],[-128.63940000040958,14.171769999985656],[-128.62857000010536,14.151069999580955],[-128.61069000024321,14.126920000158009],[-128.6057400004006,14.121369999625927],[-128.60028000042161,14.116319999668406],[-128.57717999995697,14.097389999948689],[-128.56480000011982,14.088720000327896],[-128.55850000007484,14.084510000436296],[-128.55203000028422,14.080470000290404],[-128.52556999955573,14.065069999680873],[-128.51895000004237,14.061459999579483],[-128.49828000012184,14.051860000238946],[-128.49163999968613,14.048829999904683],[-128.46365000034717,14.039659999709329],[-128.44931000005636,14.036129999699881],[-128.4422500000374,14.034440000006157]]]},"properties":{"objectid":414,"stormname":"Nineteen-E","stormtype":"TD","basin":"EP","advdate":"800 AM PDT Wed Sep 30 2026","advisnum":"5","fcstprd":120,"stormnum":19,"idp_source":"ep192026-005_5day_pgn","idp_filedate":1790780548000,"idp_ingestdate":1790780627000,"st_area(shape)":6.9892077355256346,"st_perimeter(shape)":14.574325899924506,"binnumber":"EP4"}}]}