{"type":"FeatureCollection","features":[{"type":"Feature","id":646,"geometry":{"type":"Polygon","coordinates":[[[-104.75977000008533,15.938529999559989],[-104.74043000034413,15.934860000288893],[-104.708299999845,15.932850000227461],[-104.68561999986298,15.933750000362352],[-104.66283000020422,15.936529999959646],[-104.64048999971362,15.941100000264953],[-104.61891000009632,15.947110000426335],[-104.59846000042859,15.954460000328879],[-104.57911999978808,15.962920000158022],[-104.56056000004389,15.972159999984171],[-104.54288000041157,15.982299999945155],[-104.52630999980653,15.993540000270912],[-104.50364000028571,16.012579999667366],[-104.49051999959818,16.027280000371832],[-104.47873999955124,16.043319999918197],[-104.46805999986901,16.060470000290422],[-104.4585100001363,16.07872999968987],[-104.44560000013979,16.107569999555949],[-104.4416000000399,16.117479999702368],[-104.43236999977557,16.149779999947157],[-104.4300400002457,16.160690000343379],[-104.42592999956975,16.196100000115052],[-104.42581000033113,16.207679999932168],[-104.42760000013982,16.244319999768322],[-104.43082999980453,16.268040000046085],[-104.43482999990448,16.291649999747847],[-104.43893000011929,16.315359999564464],[-104.44071999992798,16.327500000025111],[-104.44593999963121,16.364030000184528],[-104.44872000012782,16.389079999742307],[-104.45151000018626,16.414130000199464],[-104.4547300002892,16.438740000151029],[-104.4585100001363,16.462799999920207],[-104.46251000023625,16.486400000060087],[-104.46438999969865,16.498209999691881],[-104.46750999968663,16.52160000004011],[-104.46984999967765,16.556109999676892],[-104.46883999986602,16.579390000348383],[-104.46616999994546,16.602549999982671],[-104.46251000023625,16.625820000193016],[-104.46040000005985,16.637629999824753],[-104.45483000040412,16.673600000239958],[-104.45194999979253,16.698540000121056],[-104.44972000037762,16.724150000322368],[-104.44771999987802,16.749979999877212],[-104.44550000002488,16.775599999640406],[-104.44260999985153,16.800540000420824],[-104.43895000014231,16.824709999866741],[-104.43482999990448,16.848419999683358],[-104.43271999972808,16.860230000214472],[-104.42694000028069,16.896199999730356],[-104.42370999971661,16.920809999681865],[-104.42093000011931,16.945860000139021],[-104.4181499996227,16.970920000158003],[-104.41493000041908,16.995530000109568],[-104.41315000017227,17.00766000010907],[-104.40703999989597,17.043299999695364],[-104.40291999965814,17.067019999973184],[-104.39925999994892,17.091179999857275],[-104.39636000021375,17.116119999738316],[-104.39414999992243,17.14174000040083],[-104.392139999861,17.167569999955674],[-104.38992000000792,17.193180000157042],[-104.38702999983451,17.218129999599967],[-104.38536000016376,17.230379999737352],[-104.37924000032564,17.26600999976182],[-104.37512999964969,17.289730000039583],[-104.37146000037859,17.313889999923674],[-104.36869000034312,17.338949999942656],[-104.36678999995843,17.364890000073558],[-104.3653500001023,17.391280000271934],[-104.36391000024622,17.417680000032135],[-104.36200999986153,17.443620000163037],[-104.35923999982606,17.468680000182019],[-104.35558000011679,17.49284000006611],[-104.35145999987901,17.516560000343873],[-104.34733999964118,17.540279999722372],[-104.34367000037014,17.564439999606464],[-104.34090000033467,17.589499999625446],[-104.33899999994992,17.615439999756347],[-104.3375499996327,17.641840000415812],[-104.33610999977657,17.668229999714868],[-104.33421999985302,17.694169999845769],[-104.33144000025572,17.719229999864751],[-104.32777000008531,17.743389999748842],[-104.32578000004685,17.755309999956694],[-104.31954999963267,17.790830000304425],[-104.31588999992346,17.814990000188516],[-104.31309999986502,17.840050000207498],[-104.31133000007935,17.866109999576963],[-104.31020999969161,17.892829999704873],[-104.30932999957975,17.919779999647403],[-104.30821000009132,17.946510000236458],[-104.30642999984451,17.972560000044098],[-104.30365999980904,17.99762000006308],[-104.30199000013829,18.009870000200465],[-104.29587000030017,18.04550000022499],[-104.29175999962416,18.069219999603433],[-104.28809000035312,18.09338999994867],[-104.28532000031765,18.118440000405826],[-104.28352000004787,18.144499999775292],[-104.28253000025921,18.171340000041084],[-104.28208999975357,18.198729999589943],[-104.28187000040009,18.226349999852744],[-104.2814299998945,18.253740000300922],[-104.2804299996447,18.28057000010557],[-104.278639999836,18.306630000374355],[-104.27586000023871,18.331690000393337],[-104.27219999963017,18.355850000277428],[-104.26808000029166,18.379569999655871],[-104.26396000005388,18.403289999933691],[-104.26030000034461,18.427449999817782],[-104.257519999848,18.452509999836764],[-104.25573999960119,18.478570000105549],[-104.25472999978956,18.505399999910196],[-104.25429000018329,18.532790000358375],[-104.25417999960717,18.560520000297913],[-104.25417999960717,18.588359999914189],[-104.25417999960717,18.616200000429842],[-104.25417999960717,18.644040000046118],[-104.25417999960717,18.671879999662394],[-104.25417999960717,18.69972000017799],[-104.25417999960717,18.727559999794323],[-104.25417999960717,18.755400000309919],[-104.25417999960717,18.783239999926195],[-104.25417999960717,18.811080000441791],[-104.25417999960717,18.838909999596922],[-104.25417999960717,18.866750000112575],[-104.25417999960717,18.894589999728851],[-104.25429000018329,18.922319999668389],[-104.25472999978956,18.949710000116568],[-104.25573999960119,18.97655000038236],[-104.25751000028617,19.002609999751826],[-104.26028999988347,19.027660000208982],[-104.26396000005388,19.051829999654899],[-104.26808000029166,19.075549999932718],[-104.27219000006835,19.099259999749336],[-104.27586000023871,19.123430000094572],[-104.278639999836,19.148479999652409],[-104.28040999962167,19.174539999921194],[-104.28142000033267,19.201380000186987],[-104.28187000040009,19.228769999735846],[-104.28198000007683,19.256499999675384],[-104.28198000007683,19.28434000019098],[-104.28198000007683,19.312179999807313],[-104.28198000007683,19.340020000322909],[-104.28198000007683,19.367859999939185],[-104.28198000007683,19.395689999993635],[-104.28198000007683,19.423529999609912],[-104.28198000007683,19.451370000125564],[-104.28198000007683,19.47920999974184],[-104.28198000007683,19.507050000257436],[-104.28198000007683,19.534889999873712],[-104.28208999975357,19.562619999813307],[-104.28253000025921,19.590010000261429],[-104.2835299996097,19.616849999627902],[-104.28532000031765,19.642909999896744],[-104.28809000035312,19.667960000353901],[-104.29175999962416,19.692129999799818],[-104.29587000030017,19.715839999616435],[-104.29786999990046,19.727759999824286],[-104.30365000024722,19.763730000239434],[-104.30642999984451,19.788779999797271],[-104.30821000009132,19.814840000066113],[-104.30921000034112,19.84166999987076],[-104.30964999994745,19.869069999880708],[-104.30977000008534,19.896799999820303],[-104.30977000008534,19.924640000335899],[-104.30977000008534,19.952470000390349],[-104.30977000008534,19.980310000006625],[-104.30977000008534,20.008149999622901],[-104.30977000008534,20.035990000138554],[-104.30977000008534,20.06382999975483],[-104.30977000008534,20.091670000270426],[-104.30977000008534,20.119509999886702],[-104.30977000008534,20.147350000402355],[-104.30977000008534,20.175190000018631],[-104.30977000008534,20.203029999634907],[-104.30977000008534,20.230870000150503],[-104.30977000008534,20.258709999766836],[-104.30977000008534,20.286539999821287],[-104.30977000008534,20.314380000336882],[-104.30977000008534,20.342219999953159],[-104.30977000008534,20.370059999569492],[-104.30977000008534,20.397900000085087],[-104.30977000008534,20.425739999701364],[-104.30977000008534,20.453580000216959],[-104.30977000008534,20.481419999833292],[-104.30977000008534,20.509249999887743],[-104.30977000008534,20.537090000403339],[-104.30977000008534,20.564930000019615],[-104.30977000008534,20.592769999635891],[-104.30977000008534,20.620610000151544],[-104.30977000008534,20.64844999976782],[-104.30977000008534,20.676290000283416],[-104.30977000008534,20.704129999899692],[-104.30977000008534,20.731970000415345],[-104.30977000008534,20.759810000031621],[-104.30977000008534,20.787649999647897],[-104.30977000008534,20.815490000163493],[-104.30977000008534,20.843320000218],[-104.30977000008534,20.871159999834276],[-104.30977000008534,20.899000000349872],[-104.30977000008534,20.926839999966148],[-104.30977000008534,20.954679999582481],[-104.30977000008534,20.982520000098077],[-104.30977000008534,21.010359999714353],[-104.30977000008534,21.038200000229949],[-104.30977000008534,21.066039999846282],[-104.30977000008534,21.093880000361878],[-104.30977000008534,21.121710000416329],[-104.30977000008534,21.149550000032605],[-104.30977000008534,21.177389999648881],[-104.30977000008534,21.205230000164534],[-104.30977000008534,21.23306999978081],[-104.30977000008534,21.260910000296406],[-104.30977000008534,21.288749999912682],[-104.30977000008534,21.316590000428334],[-104.30977000008534,21.344430000044611],[-104.30977000008534,21.372260000099061],[-104.30977000008534,21.400099999715337],[-104.30977000008534,21.42794000023099],[-104.30987999976207,21.455670000170528],[-104.31032000026772,21.48305999971933],[-104.31133000007935,21.50989999998518],[-104.31309999986502,21.535960000253965],[-104.31588999992346,21.561009999811802],[-104.31954999963267,21.585180000157038],[-104.32366000030868,21.608900000434801],[-104.32777000008531,21.632619999813301],[-104.33144000025572,21.656779999697392],[-104.33421000029119,21.681839999716374],[-104.33600000009983,21.707890000423333],[-104.33700999991146,21.734729999789806],[-104.33745000041711,21.762120000237985],[-104.3375499996327,21.789850000177523],[-104.3375499996327,21.817689999793799],[-104.3375499996327,21.845530000309395],[-104.3375499996327,21.873369999925671],[-104.3375499996327,21.901210000441324],[-104.3375499996327,21.9290500000576],[-104.3375499996327,21.956880000112051],[-104.3375499996327,21.984719999728327],[-104.3375499996327,22.01256000024398],[-104.3375499996327,22.040399999860256],[-104.3375499996327,22.068240000375852],[-104.3375499996327,22.096079999992128],[-104.3375499996327,22.123919999608461],[-104.3375499996327,22.151760000124057],[-104.3375499996327,22.179599999740333],[-104.3375499996327,22.207440000255929],[-104.3375499996327,22.235279999872262],[-104.3375499996327,22.263109999926712],[-104.3375499996327,22.290950000442308],[-104.33766000020876,22.318680000381846],[-104.33809999981503,22.346069999930705],[-104.33910999962666,22.372910000196498],[-104.34088999987353,22.398969999565963],[-104.34367000037014,22.42402000002312],[-104.34566999997043,22.435940000230971],[-104.35145999987901,22.471900000184974],[-104.35556000009382,22.495619999563473],[-104.35923999982606,22.51978999990871],[-104.36200999986153,22.544840000365866],[-104.36377999964719,22.570899999735332],[-104.36479000035814,22.597740000001124],[-104.36535999966418,22.625019999873246],[-104.36590999984651,22.65229999974531],[-104.36691000009631,22.679140000011159],[-104.36869999990495,22.705200000279945],[-104.37146999994047,22.730249999837781],[-104.37514000011083,22.754420000183018],[-104.37924000032564,22.778139999561461],[-104.38335999966415,22.80185999983928],[-104.38702000027268,22.826019999723371],[-104.38979999986998,22.851070000180528],[-104.39158999967862,22.877130000449313],[-104.39258999992848,22.903969999815786],[-104.39303000043407,22.931360000263965],[-104.3931400001108,22.959090000203503],[-104.3931400001108,22.986929999819779],[-104.3931400001108,23.014770000335375],[-104.3931400001108,23.042609999951651],[-104.3931400001108,23.070449999567984],[-104.3931400001108,23.098279999622434],[-104.3931400001108,23.12612000013803],[-104.3931400001108,23.153959999754306],[-104.3931400001108,23.181800000269959],[-104.3931400001108,23.209639999886235],[-104.3931400001108,23.237480000401831],[-104.3931400001108,23.265320000018107],[-104.3931400001108,23.29315999963444],[-104.3931400001108,23.321000000150036],[-104.3931400001108,23.348830000204487],[-104.3931400001108,23.376669999820763],[-104.3931400001108,23.404510000336415],[-104.3931400001108,23.432349999952692],[-104.3931400001108,23.460189999568968],[-104.3931400001108,23.488030000084564],[-104.39324999978754,23.515760000024102],[-104.39369000029319,23.543149999572961],[-104.39470000010482,23.569989999838754],[-104.39646999989048,23.596050000107539],[-104.39925999994892,23.621099999665375],[-104.40291999965814,23.645270000010612],[-104.40703999989597,23.668979999827286],[-104.40904000039558,23.680900000035138],[-104.41481000028119,23.716869999550966],[-104.41758999987849,23.741920000008122],[-104.4193700001253,23.767980000276907],[-104.42037999993693,23.794819999643437],[-104.42082000044257,23.822210000091559],[-104.42093000011931,23.849940000031097],[-104.42093000011931,23.87777999964743],[-104.42093000011931,23.90560999970188],[-104.42093000011931,23.933450000217476],[-104.42093000011931,23.961289999833753],[-104.42103999979605,23.989019999773291],[-104.4214800003017,24.01641000022147],[-104.42249000011333,24.043249999587943],[-104.42425999989899,24.069309999856728],[-104.42704000039561,24.094360000313884],[-104.43072000012779,24.118529999759801],[-104.43482999990448,24.14225000003762],[-104.43893000011929,24.165970000315383],[-104.44260999985153,24.190130000199474],[-104.44539000034814,24.215190000218456],[-104.44716000013381,24.241240000026096],[-104.44816999994543,24.268080000291945],[-104.44862000001291,24.295469999840748],[-104.44872999968965,24.323199999780286],[-104.44872999968965,24.351040000295939],[-104.44872999968965,24.378879999912215],[-104.44872999968965,24.406720000427811],[-104.44872999968965,24.434560000044087],[-104.44872999968965,24.46239999966042],[-104.44872999968965,24.490240000176016],[-104.44872999968965,24.518070000230466],[-104.4488400002657,24.545800000170004],[-104.44927999987198,24.573189999718863],[-104.45028000012184,24.600029999984656],[-104.4513999996102,24.612830000304427],[-104.45483999996594,24.651139999811278],[-104.45683999956623,24.663060000019129],[-104.46261999991299,24.699030000434334],[-104.46674000015076,24.722749999812777],[-104.47039999986004,24.746909999696868],[-104.47329000003339,24.771849999577967],[-104.47550999988647,24.79747000024048],[-104.47751999994796,24.823299999795324],[-104.47973999980104,24.848909999996636],[-104.48264000043559,24.87386000033888],[-104.48642000028269,24.897909999646913],[-104.49096999966565,24.921179999857259],[-104.49607999969214,24.943899999885218],[-104.50151999964817,24.966280000421818],[-104.50719000031819,24.988439999806303],[-104.51308999990346,25.010379999837255],[-104.51920000017975,25.032090000053586],[-104.52552999980952,25.053589999578946],[-104.52897999972708,25.064049999907695],[-104.53909000010333,25.095679999832271],[-104.54598999993846,25.116610000051594],[-104.55288999977358,25.137549999832743],[-104.5598800001618,25.158370000375385],[-104.56688999967366,25.179199999580476],[-104.57377999994696,25.200129999799799],[-104.580779999897,25.220950000342384],[-104.58812000023772,25.241440000056116],[-104.59567999993197,25.261710000416315],[-104.60347000034017,25.281750000062573],[-104.61179999957022,25.301240000425821],[-104.62069999990496,25.320170000145538],[-104.62537000032518,25.329409999971688],[-104.64458999992843,25.36582999955499],[-104.64982000009286,25.374520000098073],[-104.6603799996372,25.391769999685891],[-104.6710499997576,25.408920000058117],[-104.681719999878,25.426070000430343],[-104.69228999988349,25.44332999957993],[-104.7026199996132,25.460820000342892],[-104.71275000001242,25.478519999998127],[-104.7229599996042,25.496109999976682],[-104.7336299997246,25.513260000348907],[-104.73930000039462,25.521499999925197],[-104.75632000016776,25.546230000014646],[-104.76833000002938,25.562039999746332],[-104.78044000000591,25.577739999801281],[-104.79232999972959,25.593660000109082],[-104.80410999977659,25.60969999965539],[-104.81590000028467,25.62572999963993],[-104.82779999957023,25.64166000040882],[-104.84002999968465,25.657249999887711],[-104.85280999998139,25.672279999622447],[-104.86604000034566,25.686869999750854],[-104.87959999974009,25.701120000387846],[-104.90028000012182,25.722169999845732],[-104.90728999963369,25.72906999968086],[-104.92117999985703,25.742990000388374],[-104.9350799996422,25.756910000196513],[-104.94896999986548,25.770830000004651],[-104.96986999960069,25.791649999647916],[-104.97677000033514,25.798669999620927],[-104.99065999965916,25.812590000328385],[-105.01144999971763,25.833519999648388],[-105.01846000012881,25.840429999944661],[-105.03235000035215,25.854349999752856],[-105.04623999967612,25.868269999560994],[-105.06025999959923,25.882070000130568],[-105.08169999995494,25.902339999591447],[-105.09637000017528,25.915480000301898],[-105.10402999998439,25.921709999816755],[-105.13561999986302,25.945769999585934],[-105.14372000017778,25.95156000039384],[-105.16018999976859,25.96291999995816],[-105.17685999958923,25.974049999707859],[-105.18520000017975,25.979620000262969],[-105.21853999982102,26.001890000223455],[-105.2268800004116,26.007459999879245],[-105.23522999966468,26.013030000434298],[-105.25188999992343,26.024169999745823],[-105.26867999988201,26.035189999818783],[-105.29425000003738,26.051339999941206],[-105.31157999971714,26.06180999983178],[-105.32914999967267,26.072040000345908],[-105.34695000034213,26.082069999730834],[-105.37329000003336,26.097439999856249],[-105.39085000042706,26.107679999932202],[-105.42653000005936,26.127609999901722],[-105.43564999974757,26.132399999560448],[-105.46411000007635,26.145649999947693],[-105.48346000027868,26.154120000237981],[-105.50302999983455,26.162359999814271],[-105.52236000001392,26.170819999643413],[-105.54136999982552,26.179619999863235],[-105.55082999990447,26.184070000030601],[-105.56995000029218,26.192759999674365],[-105.58883999996596,26.201669999570981],[-105.60796999991544,26.210349999652919],[-105.63785999963915,26.222160000183976],[-105.65810000041461,26.229730000339373],[-105.67855000008234,26.237080000241974],[-105.6888900002732,26.240639999836276],[-105.72023999987601,26.251000000050112],[-105.73068000018179,26.254449999967676],[-105.76181999999289,26.265030000434308],[-105.78271000016628,26.271930000269435],[-105.7931699995957,26.275380000186999],[-105.81405999976909,26.282289999583952],[-105.84574999976257,26.292310000306429],[-105.8675299996097,26.298319999568491],[-105.88976999998539,26.303890000123545],[-105.91244999996741,26.309009999711861],[-105.93555999999393,26.31368999969385],[-105.9587999997201,26.318259999999157],[-105.98192000020777,26.322930000419319],[-106.00515000037211,26.32749999982525],[-106.02872000002787,26.331729999739821],[-106.05283999986602,26.335410000371382],[-106.07773999970112,26.338299999645415],[-106.10332000031764,26.340529999959699],[-106.12910000026471,26.342529999559986],[-106.15467999998191,26.344759999874213],[-106.17957000025518,26.347659999609448],[-106.20369999965516,26.351329999779807],[-106.22737999988698,26.35545000001764],[-106.25104999965765,26.359570000255474],[-106.27517999995695,26.363249999987659],[-106.3001900003681,26.366029999584953],[-106.3262000001298,26.367809999831763],[-106.35298999988851,26.368810000081567],[-106.38034000029069,26.36926000014904],[-106.40801999972314,26.369369999825778],[-106.43570000005485,26.36926000014904],[-106.46304999955771,26.368810000081567],[-106.48984000021574,26.367809999831763],[-106.51584000041561,26.366029999584953],[-106.54086000038859,26.363240000425833],[-106.56498999978857,26.359570000255474],[-106.58865999955924,26.35545000001764],[-106.61233999979106,26.351329999779807],[-106.63634999995242,26.347540000370884],[-106.66091999985798,26.344309999806796],[-106.6859300002692,26.341530000209502],[-106.71093999978109,26.338749999712832],[-106.7355200001478,26.33552000004812],[-106.75951999984801,26.331729999739821],[-106.78309999996492,26.32749999982525],[-106.80633999969115,26.322930000419319],[-106.82944999971761,26.318259999999157],[-106.85267999988201,26.31368999969385],[-106.87591999960819,26.309120000287919],[-106.89893000041911,26.304329999729873],[-106.92170999961667,26.299319999818294],[-106.94427000036012,26.29408999965392],[-106.96662999997443,26.288640000136013],[-106.98875000021224,26.282959999904222],[-107.01065000019724,26.277049999857752],[-107.03232999992946,26.270930000019632],[-107.05367000017026,26.264469999790776],[-107.07446999979055,26.257460000278911],[-107.0845800001668,26.253669999970668],[-107.11493000041906,26.242310000406349],[-107.13472000022773,26.234290000183478],[-107.14449999977506,26.230169999945701],[-107.17407000003038,26.2180399999462],[-107.19408000009184,26.210239999976181],[-107.21397999957725,26.202339999891251],[-107.23387000040009,26.194430000244438],[-107.25378000034664,26.186519999698362],[-107.27322000020274,26.178170000445334],[-107.29223999957622,26.169370000225456],[-107.31113000014926,26.160469999890722],[-107.32981999959321,26.151330000179485],[-107.34826000009883,26.141979999777334],[-107.36683999986599,26.132739999951184],[-107.38539000004835,26.123489999663889],[-107.40373000043905,26.114029999584943],[-107.42196999981553,26.104450000267434],[-107.43996999981556,26.094649999797809],[-107.45753000020926,26.084409999721856],[-107.47477000023525,26.073830000154544],[-107.49178000044657,26.063030000334379],[-107.50855999994394,26.051999999800273],[-107.52524000022572,26.040870000050631],[-107.54191999960818,26.029729999839788],[-107.55859000032814,26.018600000090089],[-107.57526000014877,26.007459999879245],[-107.59192999996941,25.996330000129547],[-107.61672999968965,25.979400000010116],[-107.62485000002738,25.973610000101587],[-107.64085000042706,25.961799999570474],[-107.65641999988298,25.949550000332408],[-107.67154000017075,25.936859999689375],[-107.68642999974458,25.92394000013104],[-107.70132000021772,25.911019999673385],[-107.71645000006737,25.898329999929672],[-107.73200999996141,25.886079999792287],[-107.74791000024624,25.874170000045581],[-107.7639099997466,25.862360000413844],[-107.77979999957023,25.850449999767818],[-107.79536000036364,25.838199999630433],[-107.81037999963718,25.825389999748836],[-107.83916999989549,25.798559999944189],[-107.84618000030667,25.791649999647916],[-107.85995000039213,25.77762000016304],[-107.87330999955674,25.763150000172516],[-107.88641000022125,25.748439999906225],[-107.89885999968914,25.733080000241955],[-107.9167599995742,25.709250000287398],[-107.92855999964416,25.69320999984177],[-107.93444999966766,25.685200000080101],[-107.95266999992049,25.661700000055077],[-107.96535000010232,25.646559999744341],[-107.97179999986997,25.639100000165001],[-107.98470000030466,25.624169999645915],[-107.99757999981705,25.609249999587973],[-108.01604000034564,25.585980000276948],[-108.02782000039258,25.569939999831263],[-108.03926999961072,25.553570000355364],[-108.04494000028069,25.545329999879755],[-108.06150999998641,25.52016999974586],[-108.06696000040358,25.511700000354892],[-108.07762000006284,25.494560000443812],[-108.09319000041808,25.468389999598969],[-108.09830000044457,25.459590000278411],[-108.10830999980652,25.441769999585972],[-108.123639999886,25.415380000286916],[-108.12876000037363,25.40658999962892],[-108.14399999989996,25.380080000191981],[-108.14898999978857,25.371170000295422],[-108.16300000014979,25.343440000355884],[-108.17178000034664,25.324400000060109],[-108.18024000017579,25.305029999834744],[-108.1884599997291,25.285429999794815],[-108.1969000004346,25.266050000007624],[-108.20569000019327,25.24700999971185],[-108.21447999995195,25.227970000315395],[-108.22324999968765,25.20893000001962],[-108.2320299998845,25.18988000016202],[-108.24036999957571,25.170400000259974],[-108.24815000042207,25.150350000152514],[-108.25560000043959,25.129970000115577],[-108.26260000038963,25.109149999572992],[-108.2690599997191,25.087770000185515],[-108.27516000043357,25.066059999969184],[-108.28104999955775,25.044119999938175],[-108.28670999976657,25.021959999654428],[-108.29218000020677,24.999580000017147],[-108.2972900002332,24.976859999989131],[-108.3019599997541,24.9537000003549],[-108.30618000010685,24.930089999753818],[-108.30997000041509,24.906040000445785],[-108.31352000044757,24.88176000042381],[-108.31730999985649,24.857710000216457],[-108.32141000007135,24.833989999938694],[-108.32563999998592,24.810380000236989],[-108.32974000020073,24.78665999995917],[-108.33339999990994,24.762500000075079],[-108.33618999996844,24.737449999617922],[-108.33797000021525,24.711390000248457],[-108.33896999956573,24.684549999982664],[-108.33941999963315,24.657160000433805],[-108.33951999974812,24.629429999594947],[-108.33951999974812,24.601589999978671],[-108.33951999974812,24.573750000362395],[-108.33941999963315,24.5460200004228],[-108.33896999956573,24.518629999974678],[-108.33797000021525,24.491789999708885],[-108.33620000042959,24.465739999901189],[-108.33339999990994,24.440679999882207],[-108.32974000020073,24.416519999998116],[-108.3275099998865,24.404829999604942],[-108.32317999985702,24.381329999579975],[-108.31628999958372,24.346469999990632],[-108.31174000020076,24.323199999780286],[-108.30940000020973,24.31161999996317],[-108.30240000025969,24.276870000050621],[-108.29739000034812,24.254049999907693],[-108.29218000020677,24.231439999556471],[-108.28672999978954,24.209059999919191],[-108.2810600000189,24.186899999635443],[-108.27516000043357,24.164959999604434],[-108.26903999969613,24.143250000287424],[-108.26271000006636,24.121760000323889],[-108.25604999960768,24.100600000289944],[-108.24914999977256,24.079670000070564],[-108.24226000039863,24.058730000289415],[-108.23871000036615,24.048370000075579],[-108.22792000010782,24.017420000033098],[-108.22414000026072,24.007280000072114],[-108.20856999990548,23.967190000318396],[-108.20423999987599,23.957619999663393],[-108.19545000011732,23.938580000266938],[-108.18656999980556,23.919640000086076],[-108.17743999965614,23.900940000180981],[-108.16811999973811,23.882450000067593],[-108.16355999989401,23.873099999665385],[-108.14966000010884,23.845260000049109],[-108.14020999959172,23.826890000073604],[-108.13065000029718,23.808620000212954],[-108.12086999985053,23.79058000016704],[-108.11064000023572,23.772990000188486],[-108.10007999979206,23.755730000139522],[-108.08929999999492,23.738690000343411],[-108.07829000038311,23.721880000361864],[-108.06717000019523,23.705169999595967],[-108.05605999956924,23.688470000190478],[-108.04494999984252,23.671769999885726],[-108.03382999965464,23.655060000019148],[-108.02271000036615,23.638359999714339],[-108.0115999997401,23.621660000308907],[-108.00049000001337,23.604950000442329],[-107.98936000026373,23.588250000137521],[-107.97824000007586,23.571549999832769],[-107.96713000034913,23.554839999966191],[-107.95589000002337,23.53825000023744],[-107.94443999990597,23.521879999862222],[-107.93277000043508,23.505740000201001],[-107.92087999981203,23.489810000331374],[-107.9087699998355,23.474110000276426],[-107.8966500002972,23.458410000221477],[-107.88475000011232,23.44248000035185],[-107.87309000020326,23.42633999979131],[-107.86162999962471,23.409970000315411],[-107.8503999997601,23.393379999687397],[-107.83929000003337,23.376669999820763],[-107.8281699998455,23.359970000415331],[-107.81704999965768,23.343270000110579],[-107.80593999993096,23.326560000243944],[-107.79483000020423,23.309859999939192],[-107.78371000001641,23.29315999963444],[-107.77258000026671,23.276449999767806],[-107.76146999964067,23.259750000362374],[-107.75037000037514,23.243050000057622],[-107.73923999972612,23.226349999752813],[-107.72812000043757,23.209639999886235],[-107.71700999981152,23.192939999581483],[-107.70588999962371,23.176229999714849],[-107.69475999987401,23.159530000309417],[-107.68365000014728,23.142820000442782],[-107.67254999998244,23.12612000013803],[-107.66142000023274,23.109419999833278],[-107.65030000004487,23.092720000427846],[-107.63919000031814,23.076009999661892],[-107.62807999969215,23.05931000025646],[-107.61696000040359,23.042609999951651],[-107.60582999975458,23.025900000085073],[-107.60028000012181,23.017549999932669],[-107.58359999984003,22.992489999913687],[-107.57249000011331,22.975789999608935],[-107.56136999992543,22.959090000203503],[-107.55024999973762,22.942380000336868],[-107.53914000001089,22.925680000032116],[-107.52801999982302,22.908979999727364],[-107.51691000009635,22.89226999986073],[-107.50578000034665,22.875569999555978],[-107.4946699997206,22.858870000150546],[-107.48343999985599,22.842280000421795],[-107.47198000017676,22.825910000046633],[-107.4544300002442,22.80173999970134],[-107.44842999964465,22.793839999616409],[-107.43631000010635,22.778139999561461],[-107.42418999966867,22.762440000405832],[-107.41229999994493,22.746509999636942],[-107.40062000001291,22.730369999975665],[-107.38918000035665,22.713990000038621],[-107.37794000003089,22.697400000309926],[-107.36683999986599,22.680700000005118],[-107.36127000021025,22.67234999985277],[-107.34460000038962,22.647289999833788],[-107.33348000020175,22.630590000428299],[-107.3223699995757,22.613879999662402],[-107.3112500002872,22.597180000256969],[-107.30013000009933,22.580479999952161],[-107.2890200003726,22.563770000085583],[-107.27788999972358,22.547069999780831],[-107.26677999999691,22.530370000375342],[-107.25565999980904,22.513659999609445],[-107.24455000008231,22.496960000204012],[-107.2334299998945,22.480259999899204],[-107.22232000016777,22.463550000032626],[-107.2111999999799,22.446849999727874],[-107.20009000025323,22.430150000322385],[-107.18895999960421,22.413439999556488],[-107.17786000033863,22.396740000151055],[-107.16672999968966,22.380039999846247],[-107.15561999996294,22.363329999979669],[-107.14449999977506,22.34662999967486],[-107.13337999958719,22.329930000269428],[-107.1278200003926,22.321580000117081],[-107.11114999967265,22.296520000098042],[-107.10003999994592,22.27981999979329],[-107.08903000033416,22.263000000249974],[-107.07834999975256,22.245849999877748],[-107.06812999969964,22.228259999899194],[-107.05845999982904,22.210110000176485],[-107.04956999995545,22.191179999557448],[-107.04556000029368,22.181270000310406],[-107.03333999974109,22.151760000124057],[-107.02543999965616,22.131819999693391],[-107.01767000017026,22.111780000047133],[-107.00966000040859,22.091959999754351],[-107.00143000039412,22.072359999714365],[-106.99343000019428,22.052540000320903],[-106.98563999978609,22.032499999775325],[-106.9777500001623,22.01256000024398],[-106.9698599996392,21.99263000027446],[-106.96195999955421,21.972700000304883],[-106.95363000032415,21.953209999941691],[-106.94483999966616,21.934169999645917],[-106.93606000036863,21.915130000249462],[-106.92728000017178,21.896080000391862],[-106.91849999997493,21.877040000096088],[-106.91016999984549,21.857549999732839],[-106.90238000033662,21.837510000086581],[-106.89481999974311,21.817239999726326],[-106.88750000032468,21.796750000012651],[-106.88405000040711,21.786289999683902],[-106.87346999994043,21.755100000264918],[-106.86614999962268,21.734620000113068],[-106.8585800003666,21.714349999752812],[-106.85091000009635,21.694189999968671],[-106.84290999989651,21.674369999675889],[-106.83878999965867,21.664570000105584],[-106.83079999991998,21.644749999812802],[-106.81901000031115,21.614800000020125],[-106.81522999956474,21.604660000059084],[-106.80411999983801,21.574039999946194],[-106.80066999992044,21.56357000005562],[-106.79354999983252,21.542860000089092],[-106.78277999959721,21.511910000046612],[-106.77899000018829,21.501770000085571],[-106.76754000007082,21.471479999902215],[-106.75953999987098,21.451659999609433],[-106.7554199996332,21.441860000039128],[-106.74330999965667,21.412240000175984],[-106.73952000024769,21.402109999776826],[-106.72807000013029,21.37181999959347],[-106.72450999963667,21.361460000278953],[-106.71372999983953,21.330510000236472],[-106.7068300000044,21.309569999555947],[-106.70327999997193,21.29921000024143],[-106.69283000010432,21.267919999808271],[-106.68938000018676,21.257460000378842],[-106.67904999955772,21.226060000268944],[-106.67548999996342,21.215700000055108],[-106.66859000012829,21.194760000273959],[-106.66159000017825,21.173939999731317],[-106.65126000044859,21.14253999962142],[-106.64769000039308,21.132180000306903],[-106.63723999962616,21.100889999873743],[-106.6338000001698,21.090419999983169],[-106.62345999997893,21.059019999873215],[-106.61990000038463,21.048659999659378],[-106.61301999967316,21.027730000339375],[-106.60599999970015,21.006900000234964],[-106.59566999997043,20.975500000125066],[-106.59211999993795,20.965150000372375],[-106.5816599996092,20.933859999939159],[-106.57822000015278,20.923390000048585],[-106.57132999987948,20.902450000267436],[-106.56098999968862,20.871050000157538],[-106.5577600000239,20.860360000014111],[-106.55119999968014,20.839090000303429],[-106.54187000020028,20.806689999943671],[-106.53598000017678,20.784749999912719],[-106.53309000000343,20.773729999839759],[-106.52430999980658,20.740760000174021],[-106.52118999981855,20.729960000353856],[-106.51186000033863,20.697559999994155],[-106.50529000043309,20.676290000283416],[-106.49873000008932,20.655019999673414],[-106.49238999999841,20.633529999709879],[-106.48627999972211,20.611809999931666],[-106.48038999969862,20.589880000361859],[-106.47471999992797,20.567720000078054],[-106.46915999983401,20.545450000117569],[-106.46361000020124,20.523169999695881],[-106.45805000010733,20.500899999735338],[-106.45528000007187,20.48976999998564],[-106.44682000024272,20.456470000390368],[-106.44093000021923,20.434539999921185],[-106.43481000038111,20.412820000143029],[-106.43159000027822,20.402129999999659],[-106.42513999961119,20.380749999712862],[-106.41536000006386,20.348789999858752],[-106.40901999997294,20.327299999895217],[-106.40290999969665,20.305580000117061],[-106.39701999967315,20.283649999647878],[-106.3913499999025,20.26149000026345],[-106.38578999980854,20.239220000302907],[-106.38022999971463,20.216950000342365],[-106.37468000008187,20.194680000381879],[-106.36913000044905,20.172399999960192],[-106.36355999989399,20.150129999999649],[-106.35799999980003,20.127860000039107],[-106.35245000016727,20.105590000078564],[-106.34687999961221,20.083320000118078],[-106.34132000041757,20.061050000157536],[-106.33566000020875,20.038889999873732],[-106.3297599997241,20.01694999984278],[-106.32365000034713,19.995239999626449],[-106.32043000024424,19.984550000382342],[-106.31076000037365,19.952470000390349],[-106.30418999956873,19.931210000241435],[-106.29785000037714,19.909709999816755],[-106.29174999966267,19.887999999600424],[-106.28585999963917,19.866059999569472],[-106.28018000030664,19.843900000184988],[-106.27462999977456,19.821630000224445],[-106.26906999968065,19.79936000026396],[-106.26350000002486,19.777090000303417],[-106.2579500003921,19.754820000342875],[-106.25516999989549,19.743680000132031],[-106.24683000020423,19.710280000421847],[-106.24127999967214,19.688000000000159],[-106.23573000003938,19.665730000039616],[-106.23016000038359,19.643460000079074],[-106.22460000028968,19.621190000118531],[-106.21904000019578,19.598920000158046],[-106.21348999966364,19.576650000197503],[-106.20792999956973,19.554380000236961],[-106.20237999993697,19.532110000276418],[-106.19681000028118,19.50982999985473],[-106.19125000018727,19.487559999894245],[-106.18569999965518,19.465289999933702],[-106.18012999999939,19.44301999997316],[-106.17458000036663,19.420750000012617],[-106.16890999969661,19.39858999972887],[-106.16301000011134,19.376649999697861],[-106.15691000029619,19.35494000038085],[-106.15055999974408,19.333450000417315],[-106.14400999986151,19.312179999807313],[-106.13743999995592,19.290910000096574],[-106.131099999865,19.269420000133039],[-106.12500000004985,19.247700000354882],[-106.11911000002641,19.225769999885699],[-106.11342999979456,19.203609999601952],[-106.1078800001618,19.181330000079583],[-106.10232999962966,19.159060000119041],[-106.09953000000939,19.147930000369342],[-106.09119999988002,19.114520000198013],[-106.0856500002472,19.09225000023747],[-106.08009000015329,19.069980000276928],[-106.07453000005938,19.047710000316386],[-106.06896999996542,19.0254400003559],[-106.06340999987151,19.003159999934212],[-106.05784999977755,18.98088999997367],[-106.05228999968364,18.958620000013127],[-106.04674000005087,18.936350000052585],[-106.04117999995691,18.914080000092042],[-106.03561000030118,18.891810000131557],[-106.03005999976909,18.869540000171014],[-106.02451000013627,18.847270000210472],[-106.01895000004237,18.824989999788784],[-106.01615999998393,18.813860000039085],[-106.00782000029267,18.780449999867756],[-106.00226999976059,18.758179999907213],[-105.99670999966668,18.735909999946671],[-105.99116000003386,18.713639999986128],[-105.98559999993995,18.691370000025643],[-105.98003000028416,18.6691000000651],[-105.97724999978755,18.657959999854256],[-105.96891999965817,18.62454999968287],[-105.9633599995642,18.602279999722327],[-105.95780000036962,18.580009999761842],[-105.95224000027571,18.557739999801299],[-105.94668999974357,18.535469999840757],[-105.94391000014627,18.524329999629913],[-105.9355800000169,18.490920000357846],[-105.93001000036111,18.468650000397361],[-105.9244500002672,18.446380000436818],[-105.91889000017329,18.424109999576956],[-105.91610999967662,18.412979999827257],[-105.90778000044656,18.379569999655871],[-105.90222000035266,18.357299999695385],[-105.89666000025869,18.335029999734843],[-105.89098999958873,18.312870000350358],[-105.88509999956523,18.290930000319406],[-105.87897999972711,18.269220000103076],[-105.87575999962417,18.258529999959649],[-105.86608999975357,18.226460000428801],[-105.85953000030918,18.205180000256973],[-105.85319999978009,18.183690000293439],[-105.84707999994197,18.161980000077108],[-105.84118000035664,18.140040000046099],[-105.83552000014777,18.117890000223497],[-105.82996000005386,18.095609999801809],[-105.82439999995995,18.073339999841266],[-105.81885000032713,18.051069999880724],[-105.81327999977208,18.028799999920182],[-105.80771999967817,18.006529999959696],[-105.80217000004535,17.984259999999153],[-105.79939000044806,17.97311999978831],[-105.79104999985753,17.939720000078069],[-105.78548999976357,17.917439999656381],[-105.77981999999292,17.895280000271953],[-105.77394000043057,17.87334999980277],[-105.76781999969313,17.851630000024613],[-105.76459999959019,17.840939999881243],[-105.75490999969662,17.808870000350396],[-105.75168999959368,17.798180000206969],[-105.74201999972308,17.766109999776802],[-105.73591999990799,17.744399999560471],[-105.73002000032267,17.722460000428839],[-105.72434999965265,17.700300000145035],[-105.71880000001988,17.678030000184492],[-105.71323999992597,17.65576000022395],[-105.70767000027018,17.633479999802262],[-105.7021199997381,17.611209999841776],[-105.6964499999674,17.589049999557972],[-105.6905700004051,17.567119999988165],[-105.68444999966766,17.545400000210009],[-105.67812000003789,17.523910000246474],[-105.67153999967115,17.502639999636415],[-105.66498999978859,17.481369999925676],[-105.65864999969762,17.459879999962141],[-105.65564999984753,17.448969999565975],[-105.646639999836,17.416229999714858],[-105.64086999995044,17.394180000007111],[-105.63497999992694,17.372239999976159],[-105.62886000008882,17.350529999759829],[-105.61929000033314,17.318349999652924],[-105.61586000043854,17.307879999762292],[-105.61240999962166,17.297409999871718],[-105.60207000033017,17.26600999976182],[-105.59518000005687,17.245080000441817],[-105.58818000010683,17.224250000337406],[-105.58116999969565,17.203429999794821],[-105.57428000032166,17.182490000013615],[-105.56739000004836,17.161559999794292],[-105.56039000009832,17.140740000151027],[-105.55337999968714,17.119910000046616],[-105.54649000031316,17.098979999827293],[-105.53960000003985,17.078040000046087],[-105.53270000020473,17.057109999826764],[-105.52603000018428,17.03594999979282],[-105.51969999965519,17.014459999829285],[-105.51669000024322,17.003539999871236],[-105.50768000023174,16.970809999581945],[-105.50191000034613,16.948759999874255],[-105.49602000032263,16.926819999843246],[-105.48991000004639,16.905109999626916],[-105.48356999995542,16.883610000101555],[-105.47689999993497,16.862450000067611],[-105.47000000009984,16.841519999848231],[-105.46657000020525,16.831049999957656],[-105.4561099998765,16.799760000423817],[-105.44877999999693,16.779269999810765],[-105.44120999984153,16.759009999911711],[-105.4335300000094,16.73885000012757],[-105.4255400002707,16.719029999834788],[-105.41731000025624,16.699429999794802],[-105.40931000005634,16.67961000040134],[-105.40153000010935,16.659560000293936],[-105.39363000002436,16.639630000324416],[-105.38574000040057,16.619700000354896],[-105.37784999987747,16.599770000385377],[-105.36951000018627,16.580280000022128],[-105.36072999998942,16.561239999726354],[-105.35184000011583,16.542310000006637],[-105.3380500000074,16.514350000252421],[-105.33337999958724,16.505110000426328],[-105.32415999978406,16.48652000019797],[-105.31493000041911,16.467920000407844],[-105.30558999957873,16.449439999856224],[-105.29636999977555,16.430840000066098],[-105.2871400004106,16.412240000275915],[-105.27768999989348,16.39387000030041],[-105.26334999960272,16.366479999852231],[-105.25823000001441,16.35767999963241],[-105.24222999961466,16.331950000192478],[-105.23655999984402,16.323720000178014],[-105.22498999958873,16.307460000378853],[-105.20687000035014,16.283849999777829],[-105.19487000005034,16.268040000046085],[-105.1889800000269,16.260019999823271],[-105.17130000039458,16.235960000054092],[-105.16541000037114,16.227950000292424],[-105.15351000018626,16.212020000422797],[-105.14117000039511,16.196539999721324],[-105.12804999970763,16.181850000377381],[-105.09949000016326,16.154789999858735],[-105.09192999956974,16.148440000205994],[-105.07613999986103,16.136410000321405],[-105.05990999964666,16.124829999604913],[-105.04346000007882,16.113470000040593],[-105.02677999979704,16.102340000290894],[-105.01010999997641,16.09120000008005],[-104.98519999968016,16.07439000009856],[-104.97696999966564,16.068709999866712],[-104.96074999991248,16.057130000049597],[-104.94473999995091,16.045320000417803],[-104.92895999980402,16.033300000095039],[-104.91339000034816,16.021049999957654],[-104.89738000038659,16.009240000325917],[-104.88092000035761,15.997890000323423],[-104.855479999902,15.981849999877738],[-104.84702999963469,15.976730000289422],[-104.82079000005837,15.962920000158022],[-104.81245000036711,15.958460000428829],[-104.78653999982106,15.947110000426335],[-104.777979999877,15.943770000185509],[-104.75977000008533,15.938529999559989]]]},"properties":{"objectid":646,"stormname":"Simon","stormtype":"HU","basin":"EP","advdate":"300 PM CST Fri Oct 09 2026","advisnum":"10","fcstprd":120,"stormnum":20,"idp_source":"ep202026-010_5day_pgn","idp_filedate":1791579767000,"idp_ingestdate":1791579929000,"st_area(shape)":24.479426841749465,"st_perimeter(shape)":24.294752669743261,"binnumber":"EP5"}}]}