{"type":"FeatureCollection","features":[{"type":"Feature","id":5842,"geometry":{"type":"LineString","coordinates":[[-91.49999999960022,11.799999999900194],[-92.60000000009984,11.899999999700356],[-93.800000000399621,12.000000000399837],[-94.89999999999992,12.000000000399837],[-95.799999999999898,12.200000000000159],[-96.399999999700128,12.399999999600425],[-97.000000000299679,12.399999999600425],[-97.69999999980007,12.600000000100067],[-98.19999999970014,12.79999999970039],[-98.699999999600209,13.000000000199975],[-99.39999999999992,13.900000000200009],[-99.999999999700151,14.49999999990024],[-100.6000000002997,14.900000000000148]]},"properties":{"objectid":5842,"stormtype":"DB","stormnum":20,"ss":0,"idp_source":"EP202026_lin","idp_filedate":1791666526000,"idp_ingestdate":1791666566000,"st_length(shape)":10.077963305754485,"binnumber":"EP5"}},{"type":"Feature","id":5843,"geometry":{"type":"LineString","coordinates":[[-100.6000000002997,14.900000000000148],[-101.29999999980004,15.200000000299895]]},"properties":{"objectid":5843,"stormtype":"TD","stormnum":20,"ss":0,"idp_source":"EP202026_lin","idp_filedate":1791666526000,"idp_ingestdate":1791666566000,"st_length(shape)":0.76157731024520225,"binnumber":"EP5"}},{"type":"Feature","id":5844,"geometry":{"type":"LineString","coordinates":[[-101.29999999980004,15.200000000299895],[-102.09999999999991,15.300000000100056],[-102.69999999970014,15.399999999900217],[-103.30000000029969,15.399999999900217],[-103.80000000019976,15.399999999900217],[-104.20000000029967,15.499999999700378]]},"properties":{"objectid":5844,"stormtype":"TS","stormnum":20,"ss":0,"idp_source":"EP202026_lin","idp_filedate":1791666526000,"idp_ingestdate":1791666566000,"st_length(shape)":2.9268125908145182,"binnumber":"EP5"}},{"type":"Feature","id":5845,"geometry":{"type":"LineString","coordinates":[[-104.20000000029967,15.499999999700378],[-104.39999999989999,15.700000000199964],[-104.49999999970015,15.800000000000125],[-104.60000000039958,15.999999999600448]]},"properties":{"objectid":5845,"stormtype":"HU","stormnum":20,"ss":1,"idp_source":"EP202026_lin","idp_filedate":1791666526000,"idp_ingestdate":1791666566000,"st_length(shape)":0.64787086620524814,"binnumber":"EP5"}},{"type":"Feature","id":5846,"geometry":{"type":"LineString","coordinates":[[-104.60000000039958,15.999999999600448],[-104.60000000039958,16.600000000199998]]},"properties":{"objectid":5846,"stormtype":"HU","stormnum":20,"ss":2,"idp_source":"EP202026_lin","idp_filedate":1791666526000,"idp_ingestdate":1791666566000,"st_length(shape)":0.60000000059955028,"binnumber":"EP5"}},{"type":"Feature","id":5847,"geometry":{"type":"LineString","coordinates":[[-104.60000000039958,16.600000000199998],[-104.70000000019974,17.000000000299906]]},"properties":{"objectid":5847,"stormtype":"HU","stormnum":20,"ss":3,"idp_source":"EP202026_lin","idp_filedate":1791666526000,"idp_ingestdate":1791666566000,"st_length(shape)":0.41231056261022303,"binnumber":"EP5"}},{"type":"Feature","id":5848,"geometry":{"type":"LineString","coordinates":[[-104.70000000019974,17.000000000299906],[-104.7999999999999,17.29999999970039],[-104.7999999999999,17.400000000399814]]},"properties":{"objectid":5848,"stormtype":"HU","stormnum":20,"ss":3,"idp_source":"EP202026_lin","idp_filedate":1791666526000,"idp_ingestdate":1791666566000,"st_length(shape)":0.41622776608431655,"binnumber":"EP5"}}]}