{"type":"FeatureCollection","features":[{"type":"Feature","id":24933,"geometry":{"type":"Point","coordinates":[-91.49999999960022,11.799999999900194]},"properties":{"objectid":24933,"stormname":"GENESIS030","stormtype":"DB","stormnum":20,"intensity":15,"basin":"ep","mslp":0,"dtg":2026100412,"year":2026,"month":"10","day":4,"hhmm":"1200","lat":12,"lon":-92,"idp_source":"EP202026_pts","ss":0,"idp_filedate":1791590551000,"idp_ingestdate":1791590724000,"binnumber":"EP5"}},{"type":"Feature","id":24934,"geometry":{"type":"Point","coordinates":[-92.60000000009984,11.899999999700356]},"properties":{"objectid":24934,"stormname":"GENESIS030","stormtype":"DB","stormnum":20,"intensity":15,"basin":"ep","mslp":0,"dtg":2026100418,"year":2026,"month":"10","day":4,"hhmm":"1800","lat":12,"lon":-93,"idp_source":"EP202026_pts","ss":0,"idp_filedate":1791590551000,"idp_ingestdate":1791590724000,"binnumber":"EP5"}},{"type":"Feature","id":24935,"geometry":{"type":"Point","coordinates":[-93.800000000399621,12.000000000399837]},"properties":{"objectid":24935,"stormname":"GENESIS030","stormtype":"DB","stormnum":20,"intensity":15,"basin":"ep","mslp":0,"dtg":2026100500,"year":2026,"month":"10","day":5,"hhmm":"0000","lat":12,"lon":-94,"idp_source":"EP202026_pts","ss":0,"idp_filedate":1791590551000,"idp_ingestdate":1791590724000,"binnumber":"EP5"}},{"type":"Feature","id":24936,"geometry":{"type":"Point","coordinates":[-94.89999999999992,12.000000000399837]},"properties":{"objectid":24936,"stormname":"GENESIS030","stormtype":"DB","stormnum":20,"intensity":15,"basin":"ep","mslp":0,"dtg":2026100506,"year":2026,"month":"10","day":5,"hhmm":"0600","lat":12,"lon":-95,"idp_source":"EP202026_pts","ss":0,"idp_filedate":1791590551000,"idp_ingestdate":1791590724000,"binnumber":"EP5"}},{"type":"Feature","id":24937,"geometry":{"type":"Point","coordinates":[-95.799999999999898,12.200000000000159]},"properties":{"objectid":24937,"stormname":"INVEST","stormtype":"DB","stormnum":20,"intensity":25,"basin":"ep","mslp":1009,"dtg":2026100512,"year":2026,"month":"10","day":5,"hhmm":"1200","lat":12,"lon":-96,"idp_source":"EP202026_pts","ss":0,"idp_filedate":1791590551000,"idp_ingestdate":1791590724000,"binnumber":"EP5"}},{"type":"Feature","id":24938,"geometry":{"type":"Point","coordinates":[-96.399999999700128,12.399999999600425]},"properties":{"objectid":24938,"stormname":"INVEST","stormtype":"DB","stormnum":20,"intensity":25,"basin":"ep","mslp":1009,"dtg":2026100518,"year":2026,"month":"10","day":5,"hhmm":"1800","lat":12,"lon":-96,"idp_source":"EP202026_pts","ss":0,"idp_filedate":1791590551000,"idp_ingestdate":1791590724000,"binnumber":"EP5"}},{"type":"Feature","id":24939,"geometry":{"type":"Point","coordinates":[-97.000000000299679,12.399999999600425]},"properties":{"objectid":24939,"stormname":"INVEST","stormtype":"DB","stormnum":20,"intensity":25,"basin":"ep","mslp":1009,"dtg":2026100600,"year":2026,"month":"10","day":6,"hhmm":"0000","lat":12,"lon":-97,"idp_source":"EP202026_pts","ss":0,"idp_filedate":1791590551000,"idp_ingestdate":1791590724000,"binnumber":"EP5"}},{"type":"Feature","id":24940,"geometry":{"type":"Point","coordinates":[-97.69999999980007,12.600000000100067]},"properties":{"objectid":24940,"stormname":"INVEST","stormtype":"DB","stormnum":20,"intensity":25,"basin":"ep","mslp":1009,"dtg":2026100606,"year":2026,"month":"10","day":6,"hhmm":"0600","lat":13,"lon":-98,"idp_source":"EP202026_pts","ss":0,"idp_filedate":1791590551000,"idp_ingestdate":1791590724000,"binnumber":"EP5"}},{"type":"Feature","id":24941,"geometry":{"type":"Point","coordinates":[-98.19999999970014,12.79999999970039]},"properties":{"objectid":24941,"stormname":"INVEST","stormtype":"DB","stormnum":20,"intensity":25,"basin":"ep","mslp":1008,"dtg":2026100612,"year":2026,"month":"10","day":6,"hhmm":"1200","lat":13,"lon":-98,"idp_source":"EP202026_pts","ss":0,"idp_filedate":1791590551000,"idp_ingestdate":1791590724000,"binnumber":"EP5"}},{"type":"Feature","id":24942,"geometry":{"type":"Point","coordinates":[-98.699999999600209,13.000000000199975]},"properties":{"objectid":24942,"stormname":"INVEST","stormtype":"DB","stormnum":20,"intensity":25,"basin":"ep","mslp":1007,"dtg":2026100618,"year":2026,"month":"10","day":6,"hhmm":"1800","lat":13,"lon":-99,"idp_source":"EP202026_pts","ss":0,"idp_filedate":1791590551000,"idp_ingestdate":1791590724000,"binnumber":"EP5"}},{"type":"Feature","id":24943,"geometry":{"type":"Point","coordinates":[-99.39999999999992,13.900000000200009]},"properties":{"objectid":24943,"stormname":"INVEST","stormtype":"DB","stormnum":20,"intensity":25,"basin":"ep","mslp":1006,"dtg":2026100700,"year":2026,"month":"10","day":7,"hhmm":"0000","lat":14,"lon":-99,"idp_source":"EP202026_pts","ss":0,"idp_filedate":1791590551000,"idp_ingestdate":1791590724000,"binnumber":"EP5"}},{"type":"Feature","id":24944,"geometry":{"type":"Point","coordinates":[-99.999999999700151,14.49999999990024]},"properties":{"objectid":24944,"stormname":"INVEST","stormtype":"DB","stormnum":20,"intensity":25,"basin":"ep","mslp":1006,"dtg":2026100706,"year":2026,"month":"10","day":7,"hhmm":"0600","lat":14,"lon":-100,"idp_source":"EP202026_pts","ss":0,"idp_filedate":1791590551000,"idp_ingestdate":1791590724000,"binnumber":"EP5"}},{"type":"Feature","id":24945,"geometry":{"type":"Point","coordinates":[-100.6000000002997,14.900000000000148]},"properties":{"objectid":24945,"stormname":"TWENTY","stormtype":"TD","stormnum":20,"intensity":30,"basin":"ep","mslp":1006,"dtg":2026100712,"year":2026,"month":"10","day":7,"hhmm":"1200","lat":15,"lon":-101,"idp_source":"EP202026_pts","ss":0,"idp_filedate":1791590551000,"idp_ingestdate":1791590724000,"binnumber":"EP5"}},{"type":"Feature","id":24946,"geometry":{"type":"Point","coordinates":[-101.29999999980004,15.200000000299895]},"properties":{"objectid":24946,"stormname":"SIMON","stormtype":"TS","stormnum":20,"intensity":35,"basin":"ep","mslp":1004,"dtg":2026100718,"year":2026,"month":"10","day":7,"hhmm":"1800","lat":15,"lon":-101,"idp_source":"EP202026_pts","ss":0,"idp_filedate":1791590551000,"idp_ingestdate":1791590724000,"binnumber":"EP5"}},{"type":"Feature","id":24947,"geometry":{"type":"Point","coordinates":[-102.09999999999991,15.300000000100056]},"properties":{"objectid":24947,"stormname":"SIMON","stormtype":"TS","stormnum":20,"intensity":40,"basin":"ep","mslp":1002,"dtg":2026100800,"year":2026,"month":"10","day":8,"hhmm":"0000","lat":15,"lon":-102,"idp_source":"EP202026_pts","ss":0,"idp_filedate":1791590551000,"idp_ingestdate":1791590724000,"binnumber":"EP5"}},{"type":"Feature","id":24948,"geometry":{"type":"Point","coordinates":[-102.69999999970014,15.399999999900217]},"properties":{"objectid":24948,"stormname":"SIMON","stormtype":"TS","stormnum":20,"intensity":45,"basin":"ep","mslp":1000,"dtg":2026100806,"year":2026,"month":"10","day":8,"hhmm":"0600","lat":15,"lon":-103,"idp_source":"EP202026_pts","ss":0,"idp_filedate":1791590551000,"idp_ingestdate":1791590724000,"binnumber":"EP5"}},{"type":"Feature","id":24949,"geometry":{"type":"Point","coordinates":[-103.30000000029969,15.399999999900217]},"properties":{"objectid":24949,"stormname":"SIMON","stormtype":"TS","stormnum":20,"intensity":55,"basin":"ep","mslp":995,"dtg":2026100812,"year":2026,"month":"10","day":8,"hhmm":"1200","lat":15,"lon":-103,"idp_source":"EP202026_pts","ss":0,"idp_filedate":1791590551000,"idp_ingestdate":1791590724000,"binnumber":"EP5"}},{"type":"Feature","id":24950,"geometry":{"type":"Point","coordinates":[-103.80000000019976,15.399999999900217]},"properties":{"objectid":24950,"stormname":"SIMON","stormtype":"TS","stormnum":20,"intensity":60,"basin":"ep","mslp":992,"dtg":2026100818,"year":2026,"month":"10","day":8,"hhmm":"1800","lat":15,"lon":-104,"idp_source":"EP202026_pts","ss":0,"idp_filedate":1791590551000,"idp_ingestdate":1791590724000,"binnumber":"EP5"}},{"type":"Feature","id":24951,"geometry":{"type":"Point","coordinates":[-104.20000000029967,15.499999999700378]},"properties":{"objectid":24951,"stormname":"SIMON","stormtype":"HU","stormnum":20,"intensity":65,"basin":"ep","mslp":985,"dtg":2026100900,"year":2026,"month":"10","day":9,"hhmm":"0000","lat":16,"lon":-104,"idp_source":"EP202026_pts","ss":1,"idp_filedate":1791590551000,"idp_ingestdate":1791590724000,"binnumber":"EP5"}},{"type":"Feature","id":24952,"geometry":{"type":"Point","coordinates":[-104.39999999989999,15.700000000199964]},"properties":{"objectid":24952,"stormname":"SIMON","stormtype":"HU","stormnum":20,"intensity":80,"basin":"ep","mslp":978,"dtg":2026100906,"year":2026,"month":"10","day":9,"hhmm":"0600","lat":16,"lon":-104,"idp_source":"EP202026_pts","ss":1,"idp_filedate":1791590551000,"idp_ingestdate":1791590724000,"binnumber":"EP5"}},{"type":"Feature","id":24953,"geometry":{"type":"Point","coordinates":[-104.60000000039958,15.899999999800286]},"properties":{"objectid":24953,"stormname":"SIMON","stormtype":"HU","stormnum":20,"intensity":80,"basin":"ep","mslp":976,"dtg":2026100912,"year":2026,"month":"10","day":9,"hhmm":"1200","lat":16,"lon":-105,"idp_source":"EP202026_pts","ss":1,"idp_filedate":1791590551000,"idp_ingestdate":1791590724000,"binnumber":"EP5"}},{"type":"Feature","id":24954,"geometry":{"type":"Point","coordinates":[-104.70000000019974,15.999999999600448]},"properties":{"objectid":24954,"stormname":"SIMON","stormtype":"HU","stormnum":20,"intensity":90,"basin":"ep","mslp":966,"dtg":2026100918,"year":2026,"month":"10","day":9,"hhmm":"1800","lat":16,"lon":-105,"idp_source":"EP202026_pts","ss":2,"idp_filedate":1791590551000,"idp_ingestdate":1791590724000,"binnumber":"EP5"}}]}