{"type":"FeatureCollection","features":[{"type":"Feature","id":646,"geometry":{"type":"LineString","coordinates":[[-104.70000000019974,16.20000000010009],[-104.89999999980006,16.600000000199998],[-104.99999999960022,17.500000000199975],[-105.1000000002997,18.599999999800275],[-105.29999999989997,19.999999999700378],[-105.50000000039961,21.399999999600425],[-105.79999999980004,22.800000000399848],[-106.40000000039959,24.600000000399859]]},"properties":{"objectid":646,"stormname":"Simon","stormtype":"HU","basin":"EP","advdate":"300 PM CST Fri Oct 09 2026","advisnum":"10","fcstprd":120,"stormnum":20,"idp_source":"ep202026-010_5day_lin","idp_filedate":1791579767000,"idp_ingestdate":1791579917000,"st_length(shape)":8.6148640384230202,"binnumber":"EP5"}}]}