{"type": "FeatureCollection", "features": [{"type": "Feature", "id": 5217, "geometry": {"type": "Point", "coordinates": [-104.60000000039958, 16.799999999800264]}, "properties": {"objectid": 5217, "stormname": "Hurricane Simon", "stormtype": "MH", "dvlbl": "M", "basin": "EP", "advdate": "900 PM CST Fri Oct 09 2026", "advisnum": "11", "fcstprd": 120, "gust": 130, "maxwind": 105, "mslp": 952, "ssnum": 3, "datelbl": "9:00 PM Fri", "tcdvlp": "Major Hurricane", "tcdir": 360, "tcspd": 6, "fldatelbl": "2026-10-09 6:00 PM Fri CST", "lat": 17, "lon": -105, "stormnum": 20, "stormsrc": "Tropical Cyclone", "tau": 0, "timezone": "CST", "validtime": "10/0000", "idp_source": "ep202026-011_5day_pts", "idp_filedate": 1791601731000, "idp_ingestdate": 1791601978000, "binnumber": "EP5", "MAXWIND": 105, "VALIDTIME": "10/0000"}}, {"type": "Feature", "id": 5218, "geometry": {"type": "Point", "coordinates": [-104.70000000019974, 17.400000000399814]}, "properties": {"objectid": 5218, "stormname": "Hurricane Simon", "stormtype": "MH", "dvlbl": "M", "basin": "EP", "advdate": "900 PM CST Fri Oct 09 2026", "advisnum": "11", "fcstprd": 120, "gust": 145, "maxwind": 120, "mslp": 9999, "ssnum": 4, "datelbl": "6:00 AM Sat", "tcdvlp": "Major Hurricane", "tcdir": 9999, "tcspd": 9999, "fldatelbl": "2026-10-10 6:00 AM Sat CST", "lat": 17, "lon": -105, "stormnum": 20, "stormsrc": "Tropical Cyclone", "tau": 12, "timezone": "CST", "validtime": "10/1200", "idp_source": "ep202026-011_5day_pts", "idp_filedate": 1791601731000, "idp_ingestdate": 1791601978000, "binnumber": "EP5", "MAXWIND": 120, "VALIDTIME": "10/1200"}}, {"type": "Feature", "id": 5219, "geometry": {"type": "Point", "coordinates": [-104.89999999980006, 18.199999999700367]}, "properties": {"objectid": 5219, "stormname": "Hurricane Simon", "stormtype": "MH", "dvlbl": "M", "basin": "EP", "advdate": "900 PM CST Fri Oct 09 2026", "advisnum": "11", "fcstprd": 120, "gust": 165, "maxwind": 135, "mslp": 9999, "ssnum": 4, "datelbl": "6:00 PM Sat", "tcdvlp": "Major Hurricane", "tcdir": 9999, "tcspd": 9999, "fldatelbl": "2026-10-10 6:00 PM Sat CST", "lat": 18, "lon": -105, "stormnum": 20, "stormsrc": "Tropical Cyclone", "tau": 24, "timezone": "CST", "validtime": "11/0000", "idp_source": "ep202026-011_5day_pts", "idp_filedate": 1791601731000, "idp_ingestdate": 1791601978000, "binnumber": "EP5", "MAXWIND": 135, "VALIDTIME": "11/0000"}}, {"type": "Feature", "id": 5220, "geometry": {"type": "Point", "coordinates": [-104.99999999960022, 19.599999999600414]}, "properties": {"objectid": 5220, "stormname": "Hurricane Simon", "stormtype": "MH", "dvlbl": "M", "basin": "EP", "advdate": "900 PM CST Fri Oct 09 2026", "advisnum": "11", "fcstprd": 120, "gust": 145, "maxwind": 120, "mslp": 9999, "ssnum": 4, "datelbl": "6:00 AM Sun", "tcdvlp": "Major Hurricane", "tcdir": 9999, "tcspd": 9999, "fldatelbl": "2026-10-11 6:00 AM Sun CST", "lat": 20, "lon": -105, "stormnum": 20, "stormsrc": "Tropical Cyclone", "tau": 36, "timezone": "CST", "validtime": "11/1200", "idp_source": "ep202026-011_5day_pts", "idp_filedate": 1791601731000, "idp_ingestdate": 1791601978000, "binnumber": "EP5", "MAXWIND": 120, "VALIDTIME": "11/1200"}}, {"type": "Feature", "id": 5221, "geometry": {"type": "Point", "coordinates": [-105.1000000002997, 21.000000000399837]}, "properties": {"objectid": 5221, "stormname": "Hurricane Simon", "stormtype": "HU", "dvlbl": "H", "basin": "EP", "advdate": "900 PM CST Fri Oct 09 2026", "advisnum": "11", "fcstprd": 120, "gust": 85, "maxwind": 70, "mslp": 9999, "ssnum": 1, "datelbl": "6:00 PM Sun", "tcdvlp": "Hurricane", "tcdir": 9999, "tcspd": 9999, "fldatelbl": "2026-10-11 6:00 PM Sun CST", "lat": 21, "lon": -105, "stormnum": 20, "stormsrc": "Tropical Cyclone", "tau": 48, "timezone": "CST", "validtime": "12/0000", "idp_source": "ep202026-011_5day_pts", "idp_filedate": 1791601731000, "idp_ingestdate": 1791601978000, "binnumber": "EP5", "MAXWIND": 70, "VALIDTIME": "12/0000"}}, {"type": "Feature", "id": 5222, "geometry": {"type": "Point", "coordinates": [-105.39999999970013, 22.40000000029994]}, "properties": {"objectid": 5222, "stormname": "Hurricane Simon", "stormtype": "STD", "dvlbl": "D", "basin": "EP", "advdate": "900 PM CST Fri Oct 09 2026", "advisnum": "11", "fcstprd": 120, "gust": 40, "maxwind": 30, "mslp": 9999, "ssnum": 0, "datelbl": "6:00 AM Mon", "tcdvlp": "Subtropical Depression", "tcdir": 9999, "tcspd": 9999, "fldatelbl": "2026-10-12 6:00 AM Mon CST", "lat": 22, "lon": -105, "stormnum": 20, "stormsrc": "Post-Tropical Cyclone", "tau": 60, "timezone": "CST", "validtime": "12/1200", "idp_source": "ep202026-011_5day_pts", "idp_filedate": 1791601731000, "idp_ingestdate": 1791601978000, "binnumber": "EP5", "MAXWIND": 30, "VALIDTIME": "12/1200"}}]}