{"type":"FeatureCollection","features":[{"type":"Feature","id":1191,"geometry":{"type":"LineString","coordinates":[[-103.44999999999987,18.310000000199977],[-102.15999999970012,17.919999999900199]]},"properties":{"objectid":1191,"stormname":"Simon","stormtype":"HU","basin":"EP","advdate":"900 PM CST Fri Oct 09 2026","stormnum":20,"fcstprd":120,"advisnum":"11","tcww":"TWA","idp_source":"ep202026-011_ww_wwlin","idp_filedate":1791601731000,"idp_ingestdate":1791601971000,"st_length(shape)":1.3476646470866547,"binnumber":"EP5"}},{"type":"Feature","id":1192,"geometry":{"type":"LineString","coordinates":[[-105.69000000019975,22.389999999600434],[-105.2699999996002,21.519999999900222],[-105.51000000019974,20.769999999600429]]},"properties":{"objectid":1192,"stormname":"Simon","stormtype":"HU","basin":"EP","advdate":"900 PM CST Fri Oct 09 2026","stormnum":20,"fcstprd":120,"advisnum":"11","tcww":"HWA","idp_source":"ep202026-011_ww_wwlin","idp_filedate":1791601731000,"idp_ingestdate":1791601971000,"st_length(shape)":1.7535388166496086,"binnumber":"EP5"}},{"type":"Feature","id":1193,"geometry":{"type":"LineString","coordinates":[[-106.20999999970013,21.280000000200005],[-106.47999999970011,21.510000000100092],[-106.59000000019978,21.630000000399832],[-106.7099999996002,21.79999999970039]]},"properties":{"objectid":1193,"stormname":"Simon","stormtype":"HU","basin":"EP","advdate":"900 PM CST Fri Oct 09 2026","stormnum":20,"fcstprd":120,"advisnum":"11","tcww":"HWA","idp_source":"ep202026-011_ww_wwlin","idp_filedate":1791601731000,"idp_ingestdate":1791601971000,"st_length(shape)":0.72555768302380774,"binnumber":"EP5"}},{"type":"Feature","id":1194,"geometry":{"type":"LineString","coordinates":[[-105.51000000019974,20.769999999600429],[-105.68000000039962,20.420000000299922],[-105.1400000003996,19.570000000199968],[-104.33000000039959,19.049999999800264],[-103.44999999999987,18.310000000199977]]},"properties":{"objectid":1194,"stormname":"Simon","stormtype":"HU","basin":"EP","advdate":"900 PM CST Fri Oct 09 2026","stormnum":20,"fcstprd":120,"advisnum":"11","tcww":"HWR","idp_source":"ep202026-011_ww_wwlin","idp_filedate":1791601731000,"idp_ingestdate":1791601971000,"st_length(shape)":3.5084581396074568,"binnumber":"EP5"}}]}