{"type": "FeatureCollection", "name": "AL092026 full track", "features": [{"type": "Feature", "properties": {"kind": "best_track_line", "storm": "AL092026", "name": "Isaias", "from": "2026-10-04T18:00Z", "to": "2026-10-09T06:00Z"}, "geometry": {"type": "LineString", "coordinates": [[-96.5, 22.0], [-96.5, 22.0], [-96.5, 22.0], [-96.5, 22.0], [-96.3, 22.2], [-96.1, 22.3], [-96.0, 22.2], [-96.0, 22.0], [-95.7, 21.9], [-95.3, 21.7], [-94.6, 21.9], [-93.9, 22.2], [-93.3, 22.5], [-92.3, 22.7], [-91.5, 23.1], [-90.6, 23.4], [-89.8, 23.9], [-89.0, 24.8], [-88.4, 25.8]]}}, {"type": "Feature", "properties": {"kind": "best_track_point", "time_utc": "2026-10-04T18:00Z", "lat": 22.0, "lon": -96.5, "vmax_kt": 15, "mslp_mb": null, "type": "DB", "type_name": "disturbance", "leg_km": 0, "speed_kt": "", "first": true, "latest": false}, "geometry": {"type": "Point", "coordinates": [-96.5, 22.0]}}, {"type": "Feature", "properties": {"kind": "best_track_point", "time_utc": "2026-10-05T00:00Z", "lat": 22.0, "lon": -96.5, "vmax_kt": 20, "mslp_mb": null, "type": "DB", "type_name": "disturbance", "leg_km": 0, "speed_kt": 0.0, "first": false, "latest": false}, "geometry": {"type": "Point", "coordinates": [-96.5, 22.0]}}, {"type": "Feature", "properties": {"kind": "best_track_point", "time_utc": "2026-10-05T06:00Z", "lat": 22.0, "lon": -96.5, "vmax_kt": 25, "mslp_mb": null, "type": "DB", "type_name": "disturbance", "leg_km": 0, "speed_kt": 0.0, "first": false, "latest": false}, "geometry": {"type": "Point", "coordinates": [-96.5, 22.0]}}, {"type": "Feature", "properties": {"kind": "best_track_point", "time_utc": "2026-10-05T12:00Z", "lat": 22.0, "lon": -96.5, "vmax_kt": 25, "mslp_mb": 1010, "type": "DB", "type_name": "disturbance", "leg_km": 0, "speed_kt": 0.0, "first": false, "latest": false}, "geometry": {"type": "Point", "coordinates": [-96.5, 22.0]}}, {"type": "Feature", "properties": {"kind": "best_track_point", "time_utc": "2026-10-05T18:00Z", "lat": 22.2, "lon": -96.3, "vmax_kt": 25, "mslp_mb": 1010, "type": "DB", "type_name": "disturbance", "leg_km": 30, "speed_kt": 2.7, "first": false, "latest": false}, "geometry": {"type": "Point", "coordinates": [-96.3, 22.2]}}, {"type": "Feature", "properties": {"kind": "best_track_point", "time_utc": "2026-10-06T00:00Z", "lat": 22.3, "lon": -96.1, "vmax_kt": 25, "mslp_mb": 1009, "type": "DB", "type_name": "disturbance", "leg_km": 23, "speed_kt": 2.1, "first": false, "latest": false}, "geometry": {"type": "Point", "coordinates": [-96.1, 22.3]}}, {"type": "Feature", "properties": {"kind": "best_track_point", "time_utc": "2026-10-06T06:00Z", "lat": 22.2, "lon": -96.0, "vmax_kt": 25, "mslp_mb": 1009, "type": "DB", "type_name": "disturbance", "leg_km": 15, "speed_kt": 1.4, "first": false, "latest": false}, "geometry": {"type": "Point", "coordinates": [-96.0, 22.2]}}, {"type": "Feature", "properties": {"kind": "best_track_point", "time_utc": "2026-10-06T12:00Z", "lat": 22.0, "lon": -96.0, "vmax_kt": 25, "mslp_mb": 1008, "type": "DB", "type_name": "disturbance", "leg_km": 22, "speed_kt": 2.0, "first": false, "latest": false}, "geometry": {"type": "Point", "coordinates": [-96.0, 22.0]}}, {"type": "Feature", "properties": {"kind": "best_track_point", "time_utc": "2026-10-06T18:00Z", "lat": 21.9, "lon": -95.7, "vmax_kt": 30, "mslp_mb": 1007, "type": "TD", "type_name": "tropical depression", "leg_km": 33, "speed_kt": 3.0, "first": false, "latest": false}, "geometry": {"type": "Point", "coordinates": [-95.7, 21.9]}}, {"type": "Feature", "properties": {"kind": "best_track_point", "time_utc": "2026-10-07T00:00Z", "lat": 21.7, "lon": -95.3, "vmax_kt": 30, "mslp_mb": 1006, "type": "TD", "type_name": "tropical depression", "leg_km": 47, "speed_kt": 4.2, "first": false, "latest": false}, "geometry": {"type": "Point", "coordinates": [-95.3, 21.7]}}, {"type": "Feature", "properties": {"kind": "best_track_point", "time_utc": "2026-10-07T06:00Z", "lat": 21.9, "lon": -94.6, "vmax_kt": 35, "mslp_mb": 1004, "type": "TS", "type_name": "tropical storm", "leg_km": 76, "speed_kt": 6.8, "first": false, "latest": false}, "geometry": {"type": "Point", "coordinates": [-94.6, 21.9]}}, {"type": "Feature", "properties": {"kind": "best_track_point", "time_utc": "2026-10-07T12:00Z", "lat": 22.2, "lon": -93.9, "vmax_kt": 40, "mslp_mb": 1002, "type": "TS", "type_name": "tropical storm", "leg_km": 79, "speed_kt": 7.2, "first": false, "latest": false}, "geometry": {"type": "Point", "coordinates": [-93.9, 22.2]}}, {"type": "Feature", "properties": {"kind": "best_track_point", "time_utc": "2026-10-07T18:00Z", "lat": 22.5, "lon": -93.3, "vmax_kt": 50, "mslp_mb": 995, "type": "TS", "type_name": "tropical storm", "leg_km": 70, "speed_kt": 6.3, "first": false, "latest": false}, "geometry": {"type": "Point", "coordinates": [-93.3, 22.5]}}, {"type": "Feature", "properties": {"kind": "best_track_point", "time_utc": "2026-10-08T00:00Z", "lat": 22.7, "lon": -92.3, "vmax_kt": 60, "mslp_mb": 988, "type": "TS", "type_name": "tropical storm", "leg_km": 105, "speed_kt": 9.5, "first": false, "latest": false}, "geometry": {"type": "Point", "coordinates": [-92.3, 22.7]}}, {"type": "Feature", "properties": {"kind": "best_track_point", "time_utc": "2026-10-08T06:00Z", "lat": 23.1, "lon": -91.5, "vmax_kt": 70, "mslp_mb": 981, "type": "HU", "type_name": "hurricane", "leg_km": 93, "speed_kt": 8.4, "first": false, "latest": false}, "geometry": {"type": "Point", "coordinates": [-91.5, 23.1]}}, {"type": "Feature", "properties": {"kind": "best_track_point", "time_utc": "2026-10-08T12:00Z", "lat": 23.4, "lon": -90.6, "vmax_kt": 75, "mslp_mb": 977, "type": "HU", "type_name": "hurricane", "leg_km": 98, "speed_kt": 8.8, "first": false, "latest": false}, "geometry": {"type": "Point", "coordinates": [-90.6, 23.4]}}, {"type": "Feature", "properties": {"kind": "best_track_point", "time_utc": "2026-10-08T18:00Z", "lat": 23.9, "lon": -89.8, "vmax_kt": 80, "mslp_mb": 975, "type": "HU", "type_name": "hurricane", "leg_km": 99, "speed_kt": 8.9, "first": false, "latest": false}, "geometry": {"type": "Point", "coordinates": [-89.8, 23.9]}}, {"type": "Feature", "properties": {"kind": "best_track_point", "time_utc": "2026-10-09T00:00Z", "lat": 24.8, "lon": -89.0, "vmax_kt": 85, "mslp_mb": 974, "type": "HU", "type_name": "hurricane", "leg_km": 129, "speed_kt": 11.6, "first": false, "latest": false}, "geometry": {"type": "Point", "coordinates": [-89.0, 24.8]}}, {"type": "Feature", "properties": {"kind": "best_track_point", "time_utc": "2026-10-09T06:00Z", "lat": 25.8, "lon": -88.4, "vmax_kt": 90, "mslp_mb": 970, "type": "HU", "type_name": "hurricane", "leg_km": 127, "speed_kt": 11.4, "first": false, "latest": true}, "geometry": {"type": "Point", "coordinates": [-88.4, 25.8]}}, {"type": "Feature", "properties": {"kind": "aircraft_fix", "time_utc": "2026-10-07 12:33Z", "min_slp_mb": "1004", "max_fl_wind_kt": "32", "eye": "NA", "mission": "AF304 0209A ISAIAS"}, "geometry": {"type": "Point", "coordinates": [-93.97, 22.4]}}, {"type": "Feature", "properties": {"kind": "aircraft_fix", "time_utc": "2026-10-07 13:43Z", "min_slp_mb": "1002", "max_fl_wind_kt": "36", "eye": "NA", "mission": "AF304 0209A ISAIAS"}, "geometry": {"type": "Point", "coordinates": [-93.91, 22.51]}}, {"type": "Feature", "properties": {"kind": "aircraft_fix", "time_utc": "2026-10-07 14:56Z", "min_slp_mb": "1002", "max_fl_wind_kt": "46", "eye": "NA", "mission": "AF304 0209A ISAIAS"}, "geometry": {"type": "Point", "coordinates": [-93.73, 22.5]}}, {"type": "Feature", "properties": {"kind": "aircraft_fix", "time_utc": "2026-10-07 16:47Z", "min_slp_mb": "997", "max_fl_wind_kt": "46", "eye": "NA", "mission": "NOAA3 0309A ISAIAS"}, "geometry": {"type": "Point", "coordinates": [-93.52, 22.47]}}, {"type": "Feature", "properties": {"kind": "aircraft_fix", "time_utc": "2026-10-07 17:57Z", "min_slp_mb": "997", "max_fl_wind_kt": "33", "eye": "NA", "mission": "NOAA3 0309A ISAIAS"}, "geometry": {"type": "Point", "coordinates": [-93.28, 22.51]}}, {"type": "Feature", "properties": {"kind": "aircraft_fix", "time_utc": "2026-10-07 19:06Z", "min_slp_mb": "996", "max_fl_wind_kt": "61", "eye": "NA", "mission": "NOAA3 0309A ISAIAS"}, "geometry": {"type": "Point", "coordinates": [-93.09, 22.58]}}, {"type": "Feature", "properties": {"kind": "aircraft_fix", "time_utc": "2026-10-07 23:58Z", "min_slp_mb": "988", "max_fl_wind_kt": "48", "eye": "NA", "mission": "AF301 0509A ISAIAS"}, "geometry": {"type": "Point", "coordinates": [-92.27, 22.73]}}, {"type": "Feature", "properties": {"kind": "aircraft_fix", "time_utc": "2026-10-08 01:13Z", "min_slp_mb": "989", "max_fl_wind_kt": "50", "eye": "OPEN SW C7", "mission": "AF301 0509A ISAIAS"}, "geometry": {"type": "Point", "coordinates": [-92.07, 22.82]}}, {"type": "Feature", "properties": {"kind": "aircraft_fix", "time_utc": "2026-10-08 02:48Z", "min_slp_mb": "982", "max_fl_wind_kt": "57", "eye": "NA", "mission": "AF301 0509A ISAIAS"}, "geometry": {"type": "Point", "coordinates": [-91.87, 22.91]}}, {"type": "Feature", "properties": {"kind": "aircraft_fix", "time_utc": "2026-10-08 04:34Z", "min_slp_mb": "985", "max_fl_wind_kt": "70", "eye": "NA", "mission": "AF301 0509A ISAIAS"}, "geometry": {"type": "Point", "coordinates": [-91.71, 23.07]}}, {"type": "Feature", "properties": {"kind": "aircraft_fix", "time_utc": "2026-10-08 05:07Z", "min_slp_mb": "983", "max_fl_wind_kt": "63", "eye": "OPEN SE C30", "mission": "NOAA2 0609A ISAIAS"}, "geometry": {"type": "Point", "coordinates": [-91.68, 23.05]}}, {"type": "Feature", "properties": {"kind": "aircraft_fix", "time_utc": "2026-10-08 06:24Z", "min_slp_mb": "984", "max_fl_wind_kt": "58", "eye": "OPEN SE E01/31/18", "mission": "NOAA2 0609A ISAIAS"}, "geometry": {"type": "Point", "coordinates": [-91.59, 23.13]}}, {"type": "Feature", "properties": {"kind": "aircraft_fix", "time_utc": "2026-10-08 07:29Z", "min_slp_mb": "983", "max_fl_wind_kt": "52", "eye": "OPEN SE C17", "mission": "NOAA2 0609A ISAIAS"}, "geometry": {"type": "Point", "coordinates": [-91.4, 23.18]}}, {"type": "Feature", "properties": {"kind": "aircraft_fix", "time_utc": "2026-10-08 11:56Z", "min_slp_mb": "978", "max_fl_wind_kt": "78", "eye": "CLOSED C15", "mission": "AF305 0709A ISAIAS"}, "geometry": {"type": "Point", "coordinates": [-90.58, 23.4]}}, {"type": "Feature", "properties": {"kind": "aircraft_fix", "time_utc": "2026-10-08 13:38Z", "min_slp_mb": "979", "max_fl_wind_kt": "62", "eye": "OPEN SW C12", "mission": "AF305 0709A ISAIAS"}, "geometry": {"type": "Point", "coordinates": [-90.36, 23.58]}}, {"type": "Feature", "properties": {"kind": "aircraft_fix", "time_utc": "2026-10-08 15:09Z", "min_slp_mb": "976", "max_fl_wind_kt": "74", "eye": "OPEN SW C30", "mission": "AF305 0709A ISAIAS"}, "geometry": {"type": "Point", "coordinates": [-90.21, 23.66]}}, {"type": "Feature", "properties": {"kind": "aircraft_fix", "time_utc": "2026-10-08 16:03Z", "min_slp_mb": "976", "max_fl_wind_kt": "75", "eye": "NA", "mission": "NOAA3 0809A ISAIAS"}, "geometry": {"type": "Point", "coordinates": [-90.11, 23.67]}}, {"type": "Feature", "properties": {"kind": "aircraft_fix", "time_utc": "2026-10-08 16:39Z", "min_slp_mb": "976", "max_fl_wind_kt": "69", "eye": "OPEN S-SW C26", "mission": "AF305 0709A ISAIAS"}, "geometry": {"type": "Point", "coordinates": [-90.08, 23.74]}}, {"type": "Feature", "properties": {"kind": "aircraft_fix", "time_utc": "2026-10-08 17:17Z", "min_slp_mb": "978", "max_fl_wind_kt": "57", "eye": "NA", "mission": "NOAA3 0809A ISAIAS"}, "geometry": {"type": "Point", "coordinates": [-89.9, 23.85]}}, {"type": "Feature", "properties": {"kind": "aircraft_fix", "time_utc": "2026-10-08 18:24Z", "min_slp_mb": "976", "max_fl_wind_kt": "71", "eye": "CLOSED C35", "mission": "NOAA3 0809A ISAIAS"}, "geometry": {"type": "Point", "coordinates": [-89.76, 23.95]}}, {"type": "Feature", "properties": {"kind": "aircraft_fix", "time_utc": "2026-10-09 04:35Z", "min_slp_mb": "973", "max_fl_wind_kt": "78", "eye": "CLOSED C20", "mission": "NOAA3 1109A ISAIAS"}, "geometry": {"type": "Point", "coordinates": [-88.55, 25.6]}}, {"type": "Feature", "properties": {"kind": "aircraft_fix", "time_utc": "2026-10-09 04:53Z", "min_slp_mb": "973", "max_fl_wind_kt": "94", "eye": "OPEN SE C30", "mission": "AF307 1009A ISAIAS"}, "geometry": {"type": "Point", "coordinates": [-88.53, 25.68]}}, {"type": "Feature", "properties": {"kind": "aircraft_fix", "time_utc": "2026-10-09 05:35Z", "min_slp_mb": "972", "max_fl_wind_kt": "85", "eye": "CLOSED C23", "mission": "NOAA3 1109A ISAIAS"}, "geometry": {"type": "Point", "coordinates": [-88.47, 25.72]}}, {"type": "Feature", "properties": {"kind": "aircraft_fix", "time_utc": "2026-10-09 06:25Z", "min_slp_mb": "970", "max_fl_wind_kt": "73", "eye": "CLOSED C25", "mission": "AF307 1009A ISAIAS"}, "geometry": {"type": "Point", "coordinates": [-88.37, 25.85]}}, {"type": "Feature", "properties": {"kind": "forecast_line", "advisory_file": "adv011_points.geojson"}, "geometry": {"type": "LineString", "coordinates": [[-88.0, 26.4], [-87.3, 28.4], [-87.1, 31.0], [-87.5, 33.5], [-86.7, 35.5], [-83.1, 38.2]]}}, {"type": "Feature", "properties": {"kind": "forecast_point", "tau_h": 0, "valid": "09/0600", "maxwind_kt": 95}, "geometry": {"type": "Point", "coordinates": [-88.0, 26.4]}}, {"type": "Feature", "properties": {"kind": "forecast_point", "tau_h": 12, "valid": "09/1800", "maxwind_kt": 105}, "geometry": {"type": "Point", "coordinates": [-87.3, 28.4]}}, {"type": "Feature", "properties": {"kind": "forecast_point", "tau_h": 24, "valid": "10/0600", "maxwind_kt": 65}, "geometry": {"type": "Point", "coordinates": [-87.1, 31.0]}}, {"type": "Feature", "properties": {"kind": "forecast_point", "tau_h": 36, "valid": "10/1800", "maxwind_kt": 35}, "geometry": {"type": "Point", "coordinates": [-87.5, 33.5]}}, {"type": "Feature", "properties": {"kind": "forecast_point", "tau_h": 48, "valid": "11/0600", "maxwind_kt": 25}, "geometry": {"type": "Point", "coordinates": [-86.7, 35.5]}}, {"type": "Feature", "properties": {"kind": "forecast_point", "tau_h": 60, "valid": "11/1800", "maxwind_kt": 15}, "geometry": {"type": "Point", "coordinates": [-83.1, 38.2]}}]}