{"type":"FeatureCollection","features":[{"type":"Feature","id":561,"geometry":{"type":"Polygon","coordinates":[[[-91.960190000068337,22.641979999577472],[-91.93648000025172,22.638689999843734],[-91.91103999979606,22.637650000447309],[-91.898060000168755,22.638170000145521],[-91.856769999935466,22.641319999718348],[-91.829380000386607,22.645649999747832],[-91.802219999753106,22.651040000096089],[-91.775479999602169,22.657079999842267],[-91.749139999910938,22.66350999958695],[-91.722920000357647,22.670080000391863],[-91.69657000020527,22.676510000136545],[-91.669959999754099,22.682690000043635],[-91.643080000341627,22.688600000090048],[-91.615950000192242,22.694240000275954],[-91.588550000182238,22.699629999724834],[-91.561139999711088,22.705009999611946],[-91.533870000300169,22.710529999659911],[-91.506609999551756,22.716040000146052],[-91.479349999702606,22.721560000194017],[-91.452080000291687,22.727069999780781],[-91.424680000281683,22.732460000129038],[-91.397280000271678,22.737840000016149],[-91.370009999961439,22.743349999602913],[-91.342739999651144,22.748869999650879],[-91.315470000240225,22.754389999698844],[-91.288210000391075,22.759900000184984],[-91.260799999919982,22.765289999633922],[-91.233410000371123,22.770670000420353],[-91.206269999760593,22.776320000168027],[-91.179399999909947,22.782230000214497],[-91.152790000358152,22.788399999660385],[-91.126429999744573,22.794830000304387],[-91.100339999890991,22.80152999990969],[-91.074519999897973,22.808489999813787],[-91.048969999765575,22.815710000016622],[-91.023670000370146,22.823200000080078],[-90.998760000073844,22.831069999680892],[-90.974110000076337,22.839210000041589],[-90.94946000007883,22.847359999964169],[-90.924819999643148,22.855500000324923],[-90.900300000244727,22.86377000038533],[-90.875779999946928,22.872050000007619],[-90.851140000410567,22.880190000368373],[-90.826629999674651,22.888460000428836],[-90.802509999836502,22.897130000049629],[-90.778639999836003,22.906059999969159],[-90.754909999996414,22.915119999588455],[-90.731579999717098,22.924579999667401],[-90.708509999736577,22.934289999583939],[-90.685180000356638,22.943749999662884],[-90.661580000216759,22.95293999988121],[-90.638109999776589,22.962259999799301],[-90.614649999797564,22.97159000017848],[-90.591189999818539,22.980910000096571],[-90.568239999975901,22.990760000174021],[-90.545820000292679,23.001129999949683],[-90.523539999870991,23.011639999886199],[-90.501510000186272,23.022410000121567],[-90.479750000362117,23.033439999756297],[-90.457859999938933,23.044339999691374],[-90.435959999953923,23.055239999626451],[-90.403320000217718,23.071779999747321],[-90.39230999970664,23.077170000095578],[-90.37040999972163,23.088070000030598],[-90.34866000035862,23.099099999665384],[-90.326769999935436,23.109999999600461],[-90.304869999950427,23.120900000434801],[-90.283110000126328,23.131930000069588],[-90.261219999703144,23.142830000004665],[-90.239319999718134,23.153720000377859],[-90.217559999893979,23.164759999574471],[-90.195670000370114,23.175660000408811],[-90.173770000385105,23.186549999882743],[-90.152020000122832,23.197589999978675],[-90.130129999699648,23.208480000351869],[-90.108229999714638,23.219380000286947],[-90.086469999890483,23.230420000382878],[-90.064580000366618,23.241309999856753],[-90.042689999943434,23.252209999791773],[-90.020919999658133,23.263240000325879],[-89.999030000134269,23.274140000260957],[-89.977139999711142,23.285040000195977],[-89.955379999886986,23.296069999830763],[-89.933490000363122,23.30696999976584],[-89.911590000378112,23.317869999700861],[-89.889829999654637,23.328900000234967],[-89.867940000130773,23.339800000169987],[-89.846040000145763,23.350700000105064],[-89.824399999560228,23.361860000338879],[-89.802909999596693,23.373159999834286],[-89.781679999931953,23.384710000066605],[-89.760969999965425,23.396800000020107],[-89.740649999997402,23.409270000410345],[-89.720459999729087,23.421880000062117],[-89.700270000360149,23.434480000152007],[-89.679950000392125,23.44696000010407],[-89.659359999664161,23.459170000195513],[-89.638510000436042,23.471119999988161],[-89.617669999870486,23.48306999978081],[-89.597089999603668,23.495290000333398],[-89.576769999635644,23.507759999824259],[-89.556589999828532,23.520370000375351],[-89.536389999998391,23.532969999565978],[-89.505849999977386,23.551619999863249],[-89.495500000224752,23.557659999609427],[-89.474659999659139,23.569610000301395],[-89.453810000431076,23.581560000094044],[-89.433230000164258,23.593770000185486],[-89.412899999735089,23.60625000013755],[-89.392849999627686,23.618990000388351],[-89.37305999981902,23.631990000038627],[-89.353390000148295,23.645120000287932],[-89.333719999578193,23.658249999637917],[-89.314060000368613,23.671379999887222],[-89.294400000259714,23.684510000136527],[-89.274729999689612,23.697649999947657],[-89.255200000179741,23.710909999896728],[-89.235930000069345,23.724430000144537],[-89.216920000257687,23.738220000252966],[-89.188869999950441,23.759369999825765],[-89.179690000193261,23.7665900000286],[-89.151900000184753,23.787990000338368],[-89.142460000128779,23.794950000242466],[-89.123459999879003,23.808740000350895],[-89.10418999976855,23.822270000160529],[-89.08466000025868,23.835530000109543],[-89.064989999688635,23.848660000358848],[-89.035480000401606,23.868359999614427],[-89.025789999608719,23.875060000119049],[-89.006520000397586,23.888580000366858],[-88.987640000285694,23.902500000174996],[-88.960249999837515,23.924300000045093],[-88.933879999662167,23.947149999772819],[-88.925100000364637,23.954770000435303],[-88.907539999970936,23.970000000399864],[-88.88945000031714,23.984709999766835],[-88.870829999604666,23.998889999873711],[-88.861390000448068,24.005849999777809],[-88.842519999897945,24.019769999585947],[-88.814460000028873,24.04090999959692],[-88.805420000432548,24.048269999960667],[-88.770550000382116,24.078990000188526],[-88.762020000022858,24.086870000250428],[-88.745499999924959,24.103159999634443],[-88.728990000288206,24.119440000355894],[-88.7127200000279,24.135990000038589],[-88.69621000039109,24.152269999860721],[-88.67994999969261,24.168820000442793],[-88.663440000055857,24.185100000264924],[-88.647180000256697,24.201640000385851],[-88.630660000158798,24.217929999769808],[-88.614409999921463,24.234469999890734],[-88.597889999823508,24.250760000174012],[-88.581630000024404,24.267309999856764],[-88.565120000387594,24.283589999678895],[-88.548870000150259,24.300129999799765],[-88.532359999614187,24.316420000083099],[-88.5160900002532,24.332960000203968],[-88.499579999717128,24.349249999587926],[-88.483310000356141,24.365789999708852],[-88.466799999820012,24.382079999992129],[-88.450549999582734,24.398620000113056],[-88.434039999945924,24.414910000396333],[-88.417769999685618,24.431449999617939],[-88.401260000048865,24.447730000339391],[-88.384989999788559,24.464280000022143],[-88.368480000151806,24.480559999844274],[-88.352220000352645,24.497110000426346],[-88.33597000011531,24.513660000109041],[-88.320239999576188,24.530730000389326],[-88.304759999774092,24.548060000069086],[-88.290079999991917,24.566180000206998],[-88.275919999907956,24.584829999604949],[-88.262020000122789,24.603740000201014],[-88.24814000036065,24.622649999897703],[-88.233980000276688,24.641300000194974],[-88.219310000056339,24.659420000332887],[-88.203839999816012,24.676750000012646],[-88.188099999715121,24.693820000292931],[-88.172100000214755,24.710630000274421],[-88.156380000136778,24.727710000116531],[-88.140909999896451,24.74503999979629],[-88.126210000091305,24.763159999934203],[-88.1120500000074,24.781810000231474],[-88.098159999784059,24.800719999928219],[-88.084269999560718,24.819629999624908],[-88.070110000376133,24.838279999922179],[-88.055429999694638,24.856400000060091],[-88.04021000019128,24.873999999600471],[-88.025009999811516,24.891589999578969],[-88.009810000331129,24.909190000018611],[-87.995120000087809,24.927310000156524],[-87.974009999661632,24.955410000071595],[-87.967069999780563,24.96487000015054],[-87.953169999995396,24.983779999847229],[-87.9392900002332,25.002690000443295],[-87.92511999968815,25.02133000027942],[-87.91070000020477,25.039720000277953],[-87.896540000120808,25.058360000114078],[-87.882640000335641,25.077280000271912],[-87.868999999949949,25.096450000267453],[-87.855639999885966,25.115879999662411],[-87.842529999659632,25.135579999817253],[-87.829420000332618,25.155279999972151],[-87.809749999762573,25.184830000204499],[-87.803210000341153,25.194680000281949],[-87.790089999653674,25.214369999975645],[-87.770430000444037,25.243920000207993],[-87.763870000100326,25.253770000285442],[-87.74408000029166,25.283180000356879],[-87.737399999810066,25.292899999835242],[-87.723760000323637,25.312069999830783],[-87.709850000077324,25.330980000426848],[-87.695689999993419,25.349629999824799],[-87.681289999633691,25.368010000261449],[-87.667389999848524,25.386919999958195],[-87.647589999578713,25.416339999591457],[-87.641170000295176,25.426320000267935],[-87.622959999604177,25.457310000356358],[-87.617049999557707,25.467820000292932],[-87.598830000204259,25.498810000381354],[-87.59267000032014,25.509049999557988],[-87.573650000047337,25.539250000087577],[-87.567240000325626,25.549229999864735],[-87.554119999638147,25.568930000019634],[-87.534469999990392,25.598480000251925],[-87.527909999646681,25.608330000329374],[-87.508360000113782,25.637999999800286],[-87.501950000392128,25.64799000003859],[-87.483199999979888,25.678449999967654],[-87.471139999611182,25.699199999980181],[-87.465240000025858,25.709709999916697],[-87.45395999965416,25.731239999926174],[-87.437060000018903,25.763549999732845],[-87.431419999832997,25.774310000406331],[-87.420140000360618,25.795849999977634],[-87.40834000029065,25.816860000288898],[-87.389719999578233,25.847460000378874],[-87.383439999556231,25.857569999855741],[-87.370860000388575,25.877789999708853],[-87.358269999860511,25.898009999561964],[-87.34595000009233,25.918500000175015],[-87.328520000297658,25.950279999822271],[-87.322880000111809,25.961039999596437],[-87.30609000015329,25.993480000002137],[-87.300590000128295,26.004379999937214],[-87.284330000329135,26.037340000041127],[-87.273319999818057,26.059139999911224],[-87.262439999905951,26.08107000038035],[-87.257060000018896,26.092100000015137],[-87.240539999920941,26.124799999820254],[-87.235039999895946,26.135699999755332],[-87.224289999683606,26.157759999924224],[-87.207760000023882,26.190459999729342],[-87.202259999998887,26.201359999664419],[-87.186009999761552,26.234319999768331],[-87.175000000149794,26.256119999638429],[-87.169489999663654,26.267019999573449],[-87.158740000350633,26.289079999742341],[-87.147740000300644,26.310879999612439],[-87.136729999789566,26.332680000381856],[-87.120469999990405,26.365639999586449],[-87.114960000403585,26.376540000420846],[-87.098570000005395,26.409369999925673],[-87.093190000118284,26.420399999560459],[-87.082179999607206,26.442200000329876],[-87.065799999670162,26.47502999983476],[-87.060419999783051,26.486060000368866],[-87.043899999685152,26.518760000173984],[-87.038399999660157,26.529660000109061],[-87.022139999860997,26.562620000212974],[-87.011119999788036,26.584420000083071],[-87.000380000036841,26.606480000251963],[-86.989890000123296,26.628799999820274],[-86.984650000397096,26.639969999615914],[-86.969699999854981,26.674239999876249],[-86.964990000288196,26.685919999808277],[-86.951100000064855,26.721250000387329],[-86.94178999970859,26.744750000412353],[-86.937189999818543,26.756569999605915],[-86.922639999736077,26.791240000325899],[-86.912280000421561,26.813700000055121],[-86.90192999976955,26.83615000022246],[-86.896819999743116,26.847449999717867],[-86.881230000264225,26.881060000119078],[-86.876109999776588,26.892359999614428],[-86.866669999720614,26.915729999939686],[-86.852769999935447,26.951059999619417],[-86.843459999579238,26.974559999644384],[-86.834290000283204,26.998199999830263],[-86.824839999766084,27.021579999717346],[-86.819990000038388,27.033129999949665],[-86.805709999816543,27.068060000069067],[-86.796530000059363,27.091700000254946],[-86.787219999703098,27.115200000279913],[-86.777919999808034,27.138709999866762],[-86.768740000050855,27.162350000052584],[-86.759290000433055,27.185720000377842],[-86.754450000267184,27.197280000171986],[-86.740159999584193,27.232210000291445],[-86.730990000288159,27.255849999577947],[-86.726390000398112,27.267669999670886],[-86.712369999575742,27.302860000089083],[-86.707789999708609,27.314669999720877],[-86.693749999762588,27.349869999700843],[-86.688900000034891,27.361430000394364],[-86.674610000251221,27.396350000052621],[-86.665569999755576,27.420130000399354],[-86.656650000297191,27.44402999998465],[-86.647990000238224,27.468189999868741],[-86.639740000200732,27.492739999751336],[-86.63161000030118,27.517429999794786],[-86.623349999802542,27.541990000138526],[-86.61509999976505,27.566540000021121],[-86.606960000303673,27.59123000006457],[-86.598830000404064,27.615920000108076],[-86.590580000366629,27.640479999552497],[-86.582319999867991,27.665030000334411],[-86.574200000429585,27.689720000377861],[-86.566060000068831,27.71441000042131],[-86.557799999570193,27.738960000303905],[-86.549550000432077,27.763519999748326],[-86.545490000263214,27.775870000000623],[-86.533300000194743,27.812899999835281],[-86.525039999696105,27.837460000179021],[-86.516769999635642,27.862010000061616],[-86.512710000366098,27.874360000313914],[-86.500529999859509,27.911379999687369],[-86.4923999999599,27.936069999730819],[-86.484530000359143,27.961029999634945],[-86.477069999880484,27.986369999975636],[-86.473399999710125,27.999110000226494],[-86.462909999796523,28.037849999777791],[-86.456090000053337,28.063849999977663],[-86.449130000149296,28.089719999578449],[-86.441929999969432,28.115320000217991],[-86.434450000367121,28.140670000120565],[-86.426709999566697,28.165750000162518],[-86.418980000126794,28.190830000204471],[-86.415180000256726,28.203439999856244],[-86.40430000034462,28.241779999847267],[-86.397350000002405,28.267650000347373],[-86.390530000259218,28.293660000109071],[-86.383579999916947,28.319520000148032],[-86.376370000175257,28.3451300003494],[-86.368900000134772,28.370480000251973],[-86.361160000233724,28.395560000293926],[-86.353420000332619,28.420640000335879],[-86.345959999854017,28.445979999777308],[-86.338750000112327,28.471589999978676],[-86.331799999770055,28.497459999579462],[-86.325109999726578,28.523590000378363],[-86.318559999844013,28.549860000438798],[-86.312000000399621,28.576120000038088],[-86.305449999617679,28.602379999637435],[-86.298899999735113,28.62864999969787],[-86.292340000290665,28.65491000019648],[-86.285779999946953,28.681180000256973],[-86.279239999626157,28.707439999856263],[-86.27266999972062,28.733700000354872],[-86.266130000299142,28.759970000415308],[-86.262850000127287,28.773099999765293],[-86.253149999772575,28.812629999774799],[-86.246989999888456,28.839280000271913],[-86.241090000303188,28.866199999730327],[-86.235450000117282,28.893389999948681],[-86.230070000230228,28.920830000004628],[-86.224690000343116,28.9482799996224],[-86.219190000318179,28.975589999978638],[-86.213690000293184,29.002909999896701],[-86.208179999807044,29.030220000252939],[-86.202670000220223,29.057529999709857],[-86.197299999894994,29.084980000226949],[-86.191920000007883,29.112420000282953],[-86.186419999982888,29.139740000201016],[-86.18091999995795,29.167049999657877],[-86.17541000037113,29.19436999957594],[-86.16989999988499,29.221679999932178],[-86.164519999997879,29.249130000449327],[-86.159140000110824,29.276569999605954],[-86.153640000085829,29.303890000423337],[-86.148269999760601,29.331329999579964],[-86.14315999973411,29.359040000395851],[-86.138310000006413,29.387009999711836],[-86.133839999816018,29.415369999925701],[-86.129649999947446,29.444000000000131],[-86.125199999780079,29.472360000213996],[-86.120350000052383,29.500339999991127],[-86.115360000163776,29.52817999960746],[-86.110379999836994,29.556020000123056],[-86.105530000109297,29.58399000033836],[-86.101070000380105,29.612349999652906],[-86.096879999612213,29.640979999727335],[-86.092419999882964,29.669350000402346],[-86.087570000155267,29.697319999718331],[-86.082589999828542,29.725149999772839],[-86.077740000100846,29.753130000449289],[-86.073410000071362,29.781620000362864],[-86.070000000199741,29.811039999996126],[-86.067379999886953,29.841239999626453],[-86.065030000334161,29.871710000016606],[-86.062410000021373,29.901909999646932],[-86.058989999688606,29.931319999718369],[-86.054670000120325,29.959820000093089],[-86.049809999931426,29.987790000308394],[-86.047320000217724,30.001710000116532],[-86.040630000174247,30.044259999999156],[-86.037350000002391,30.073799999770301],[-86.035259999849018,30.104529999559986],[-86.033949999692652,30.136049999807767],[-86.03291000029617,30.1678300003544],[-86.031600000139804,30.199340000141035],[-86.029500000424548,30.23006999993072],[-86.026209999791547,30.259620000163011],[-86.021899999785035,30.288110000076585],[-86.017039999596193,30.316089999853773],[-86.012180000306671,30.344060000069078],[-86.007859999839013,30.372549999982652],[-86.004579999667158,30.402100000215],[-86.002490000413104,30.432830000004628],[-86.001300000394622,30.464470000390349],[-86.000779999797032,30.49678000019702],[-86.000659999659149,30.529480000002138],[-86.000659999659149,30.562310000406342],[-86.000659999659149,30.595139999911225],[-86.000659999659149,30.627970000315429],[-86.000659999659149,30.660799999820256],[-86.000659999659149,30.693630000224459],[-86.000659999659149,30.726459999729343],[-86.00052999995944,30.759160000433837],[-86.00001000026117,30.791459999779306],[-85.99882999980457,30.823109999726853],[-85.996719999628169,30.853840000415858],[-85.993440000355633,30.883380000187003],[-85.989119999887976,30.911879999662403],[-85.984259999699134,30.939849999877708],[-85.979409999971438,30.96782000009307],[-85.975079999941954,30.99631999956847],[-85.971799999770042,31.025860000238936],[-85.969709999616668,31.056590000028621],[-85.968530000059332,31.088239999976167],[-85.967999999899973,31.120540000220956],[-85.96787999976209,31.15324000002613],[-85.96787999976209,31.186070000430334],[-85.96787999976209,31.218899999935218],[-85.96787999976209,31.251730000339364],[-85.96787999976209,31.284559999844248],[-85.96787999976209,31.300970000265465],[-85.96787999976209,31.350219999753335],[-85.96787999976209,31.383050000157539],[-85.96787999976209,31.415879999662423],[-85.96787999976209,31.448710000066569],[-85.96787999976209,31.481539999571453],[-85.96787999976209,31.514369999975656],[-85.96787999976209,31.54720000037986],[-85.96787999976209,31.580029999884744],[-85.96787999976209,31.612849999827802],[-85.96787999976209,31.645689999793774],[-85.96787999976209,31.678520000197977],[-85.96787999976209,31.711349999702861],[-85.96787999976209,31.744169999645919],[-85.96787999976209,31.777000000050123],[-85.96787999976209,31.809829999555006],[-85.96787999976209,31.842659999959153],[-85.96787999976209,31.875490000363357],[-85.96787999976209,31.90831999986824],[-85.96787999976209,31.941150000272444],[-85.96787999976209,31.973979999777328],[-85.96787999976209,32.006810000181531],[-85.96787999976209,32.039639999686358],[-85.96787999976209,32.072470000090561],[-85.96787999976209,32.105299999595445],[-85.96787999976209,32.138129999999649],[-85.96787999976209,32.170960000403852],[-85.96787999976209,32.203789999908736],[-85.96787999976209,32.236620000312882],[-85.96787999976209,32.269449999817766],[-85.96787999976209,32.30228000022197],[-85.96787999976209,32.335109999726853],[-85.96787999976209,32.367940000131057],[-85.96787999976209,32.400760000074115],[-85.96787999976209,32.433589999578942],[-85.96787999976209,32.466419999983145],[-85.96787999976209,32.499250000387349],[-85.96787999976209,32.532079999892233],[-85.96787999976209,32.564910000296436],[-85.96787999976209,32.59773999980132],[-85.96787999976209,32.630570000205466],[-85.96787999976209,32.66339999971035],[-85.96787999976209,32.696230000114554],[-85.96787999976209,32.729059999619437],[-85.96787999976209,32.761890000023641],[-85.96787999976209,32.794720000427844],[-85.96787999976209,32.827549999932671],[-85.96787999976209,32.860380000336875],[-85.96787999976209,32.893209999841758],[-85.96787999976209,32.926040000245962],[-85.96787999976209,32.958869999750846],[-85.96787999976209,32.991700000155049],[-85.968019999922944,33.024390000398341],[-85.968539999621157,33.056700000205012],[-85.96972999963964,33.088350000152502],[-85.97181999979307,33.119079999942187],[-85.975099999964925,33.148619999713333],[-85.979420000432583,33.177120000088053],[-85.984270000160279,33.205090000303414],[-85.98911000032615,33.233059999619456],[-85.993440000355633,33.261550000432294],[-85.996719999628169,33.291099999765322],[-85.998820000242688,33.321829999555007],[-85.999990000238199,33.353480000401817],[-86.000520000397614,33.385779999747342],[-86.000659999659149,33.41847999955246],[-86.000659999659149,33.451309999956663],[-86.000659999659149,33.484140000360867],[-86.000659999659149,33.516969999865751],[-86.000659999659149,33.549800000269954],[-86.000659999659149,33.582629999774838],[-86.000659999659149,33.615460000178985],[-86.000659999659149,33.648289999683868],[-86.000659999659149,33.681120000088072],[-86.000659999659149,33.713949999592955],[-86.000659999659149,33.746779999997159],[-86.000659999659149,33.779610000401362],[-86.000659999659149,33.812439999906189],[-86.000790000258178,33.845130000149538],[-86.001320000417593,33.877439999956152],[-86.00249999997493,33.909089999903699],[-86.004590000128303,33.939810000131558],[-86.007870000300159,33.969360000363849],[-86.010230000314152,33.983409999871753],[-86.017039999596193,34.025830000054611],[-86.021890000223209,34.053789999808771],[-86.026209999791547,34.082290000183491],[-86.029500000424548,34.111840000415839],[-86.031589999678658,34.142570000205467],[-86.032770000135315,34.174220000153014],[-86.033289999833528,34.206520000397859],[-86.033429999994382,34.239220000202977],[-86.033429999994382,34.27204999970786],[-86.033429999994382,34.304880000112064],[-86.033429999994382,34.337709999616948],[-86.033429999994382,34.370540000021151],[-86.033429999994382,34.403370000425298],[-86.033429999994382,34.436199999930182],[-86.033429999994382,34.469030000334385],[-86.033570000155294,34.501719999678414],[-86.034100000314652,34.534030000384348],[-86.035279999871989,34.565680000331895],[-86.037370000025362,34.59641000012158],[-86.040650000197274,34.625949999892725],[-86.044969999765556,34.654450000267445],[-86.049820000392572,34.682419999583487],[-86.052180000406565,34.696469999990654],[-86.058989999688606,34.738890000173512],[-86.062269999860519,34.76844000040586],[-86.064369999575717,34.799159999734343],[-86.065539999571229,34.83080999968189],[-86.066069999730587,34.863109999926678],[-86.066209999891498,34.895809999731853],[-86.066209999891498,34.928640000136056],[-86.066209999891498,34.96146999964094],[-86.066209999891498,34.994300000045087],[-86.066209999891498,35.02713000044929],[-86.066209999891498,35.059959999954174],[-86.066209999891498,35.092790000358377],[-86.066350000052353,35.125490000163495],[-86.066869999750566,35.15779000040834],[-86.068050000207222,35.189440000355887],[-86.070140000360595,35.220170000145515],[-86.073430000094334,35.249720000377863],[-86.075779999647182,35.263760000323884],[-86.080369999975403,35.292000000399867],[-86.088100000314682,35.333500000424806],[-86.09360000033962,35.360809999881724],[-86.096219999753089,35.374599999990153],[-86.104480000251726,35.415569999855734],[-86.110519999997905,35.442359999614439],[-86.117069999880471,35.468620000113049],[-86.124279999622161,35.494230000314417],[-86.132410000421089,35.518909999896721],[-86.14118999971862,35.542949999642929],[-86.150359999913974,35.56658999982875],[-86.160189999968395,35.589570000155504],[-86.170559999744114,35.612029999884726],[-86.18104999965766,35.634350000352356],[-86.191790000308174,35.656409999621928],[-86.197299999894994,35.667309999557006],[-86.213679999832038,35.700139999961152],[-86.224559999744088,35.722070000430335],[-86.235710000416077,35.743739999701347],[-86.24698000032663,35.765269999710881],[-86.258509999636658,35.786540000320883],[-86.270579999567246,35.807299999895235],[-86.283040000395602,35.82763999988623],[-86.295759999724112,35.847739999601458],[-86.308729999789534,35.867570000355386],[-86.321980000176779,35.887130000349373],[-86.342289999683658,35.916019999823277],[-86.349240000025873,35.925479999902223],[-86.363270000410068,35.944259999899202],[-86.377549999732594,35.962770000035619],[-86.391840000415584,35.98128999973386],[-86.40586999990046,36.000060000169015],[-86.426709999566697,36.028429999944706],[-86.440610000251183,36.047339999641395],[-86.447690000293164,36.056659999559486],[-86.462249999937455,36.074919999858253],[-86.485700000354655,36.100650000197504],[-86.502490000313173,36.116680000181987],[-86.520319999668118,36.131649999847752],[-86.538929999919446,36.145829999954685],[-86.557799999570193,36.159749999762823],[-86.576690000143287,36.173669999570961],[-86.595300000394616,36.187849999677894],[-86.604339999990884,36.195210000041641],[-86.630960000003881,36.217789999908689],[-86.639740000200732,36.225409999671911],[-86.657299999695113,36.24065000009756],[-86.684180000006904,36.26296999966587],[-86.693490000363113,36.270060000168996],[-86.721940000230745,36.290810000181523],[-86.741329999579705,36.304199999830246],[-86.761000000149807,36.317330000079608],[-86.780930000119326,36.330200000030118],[-86.801120000387584,36.34280999968189],[-86.821570000055374,36.355159999934187],[-86.842280000021901,36.367229999864776],[-86.863259999848992,36.379049999957658],[-86.883960000253694,36.391139999911218],[-86.904429999944455,36.40347999970237],[-86.934709999666666,36.422390000298435],[-86.944800000019882,36.428699999905234],[-86.975739999601217,36.446949999742856],[-86.986219999952937,36.4528500002275],[-87.007979999777092,36.463879999862229],[-87.030790000358138,36.47387000010059],[-87.054130000199223,36.483319999718333],[-87.077470000040364,36.492770000235453],[-87.112859999789066,36.506569999905707],[-87.124659999858977,36.511160000233986],[-87.159269999610672,36.525739999901248],[-87.182599999889987,36.535190000418311],[-87.194399999959899,36.539790000308415],[-87.230330000329161,36.553050000257429],[-87.242389999798547,36.557380000286912],[-87.280009999861477,36.568940000081056],[-87.292719999628162,36.572619999813298],[-87.318409999921471,36.579710000316425],[-87.344379999637169,36.586530000059611],[-87.383699999855025,36.596389999698886],[-87.409920000307636,36.602950000042597],[-87.436130000299158,36.609519999948191],[-87.462360000313652,36.616080000291902],[-87.47546000007884,36.619359999564495],[-87.514919999558231,36.629079999942178],[-87.541659999709111,36.635119999688357],[-87.555170000395094,36.638020000322911],[-87.582960000403602,36.642999999750316],[-87.626219999753062,36.648909999796786],[-87.640909999996381,36.650620000412857],[-87.685209999641643,36.655479999702379],[-87.714189999668633,36.659290000033593],[-87.7425099998365,36.663749999762842],[-87.770419999982892,36.668609999951684],[-87.798339999691109,36.673470000140526],[-87.826800000019887,36.677800000170009],[-87.841220000402586,36.679770000185499],[-87.886970000365125,36.683189999618946],[-87.918560000243701,36.684370000075603],[-87.950809999981402,36.684889999773816],[-87.983460000178752,36.685020000372845],[-88.016240000075811,36.685020000372845],[-88.04887000025019,36.684889999773816],[-88.081119999987891,36.684370000075603],[-88.09673000038913,36.68357999961745],[-88.127790000108291,36.6818800003619],[-88.172880000211762,36.677800000170009],[-88.186909999696638,36.675440000156016],[-88.229260000248701,36.668609999951684],[-88.257170000395092,36.663749999762842],[-88.285489999663639,36.659290000033593],[-88.300170000345133,36.657580000316898],[-88.343959999854007,36.652200000429843],[-88.373459999579211,36.648909999796786],[-88.402430000044376,36.645100000364891],[-88.430619999613214,36.640510000036613],[-88.458010000061336,36.635119999688357],[-88.484759999774042,36.629090000403323],[-88.511109999926475,36.622650000197496],[-88.537319999917941,36.616080000291902],[-88.563549999932434,36.609519999948191],[-88.589770000385101,36.602950000042597],[-88.615980000376624,36.59638000013706],[-88.642210000391117,36.589819999793292],[-88.668289999783553,36.583120000187989],[-88.694109999776572,36.576160000283949],[-88.719679999931941,36.568940000081056],[-88.744860000088806,36.561320000317892],[-88.769369999925459,36.553050000257429],[-88.793360000063842,36.544250000037607],[-88.817089999903487,36.535190000418311],[-88.840420000182746,36.525730000339365],[-88.863490000163267,36.516009999961682],[-88.886830000004409,36.506560000343882],[-88.922230000214256,36.492770000235453],[-88.933899999685138,36.488050000207465],[-88.957229999964397,36.478590000128577],[-88.980299999944918,36.468880000211982],[-89.013469999840538,36.4528500002275],[-89.023959999754084,36.446949999742856],[-89.054889999773593,36.428690000343408],[-89.064989999688635,36.422390000298435],[-89.095270000310165,36.40347999970237],[-89.105479999901945,36.397310000256425],[-89.136429999944426,36.379060000418804],[-89.146910000296145,36.373150000372391],[-89.178119999738101,36.355150000372362],[-89.188339999791026,36.348980000027098],[-89.20865999975905,36.336509999636917],[-89.228720000327655,36.323770000285435],[-89.258349999752568,36.304199999830246],[-89.277760000023875,36.290810000181523],[-89.296889999973416,36.277149999772803],[-89.31550999978657,36.26296999966587],[-89.34237999963716,36.24065000009756],[-89.35115999983401,36.233030000334395],[-89.368720000227711,36.217800000369891],[-89.386279999722092,36.202559999944185],[-89.404370000275208,36.187849999677894],[-89.422999999650187,36.173669999570961],[-89.441879999762079,36.159749999762823],[-89.460759999873972,36.145829999954685],[-89.479359999664155,36.131649999847752],[-89.497200000379621,36.116680000181987],[-89.513979999876994,36.100650000197504],[-89.52998000027668,36.08384999977784],[-89.544909999896447,36.065989999938665],[-89.559069999980409,36.047339999641395],[-89.572969999765576,36.028429999944706],[-89.586869999550743,36.00952000024796],[-89.601029999634648,35.990869999950689],[-89.615710000316142,35.972749999812777],[-89.630909999796529,35.955150000272454],[-89.646130000199264,35.9375600002939],[-89.668549999882487,35.910769999635932],[-89.675759999624177,35.901580000316926],[-89.689379999986897,35.882410000321386],[-89.708249999637644,35.852069999630942],[-89.719920000007903,35.830929999619912],[-89.731209999941427,35.809390000048609],[-89.742359999714097,35.787730000339366],[-89.753219999603175,35.765799999870239],[-89.764109999976426,35.743870000300433],[-89.775119999588185,35.722070000430335],[-89.786000000399611,35.700139999961152],[-89.79688000031166,35.678210000391346],[-89.807889999923475,35.656409999621928],[-89.818640000135815,35.634350000352356],[-89.823879999862015,35.623179999657395],[-89.839479999802052,35.589570000155504],[-89.849320000317675,35.56658999982875],[-89.858500000074855,35.542949999642929],[-89.867280000271705,35.518920000357866],[-89.875410000171257,35.494230000314417],[-89.882619999912947,35.468620000113049],[-89.889180000256715,35.442359999614439],[-89.895210000441068,35.415569999855734],[-89.900720000027889,35.388249999937671],[-89.906079999891972,35.360809999881724],[-89.911590000378112,35.333500000424806],[-89.914349999952435,35.319840000016143],[-89.921949999692629,35.278210000291438],[-89.926270000160287,35.249709999916718],[-89.929550000332142,35.220170000145515],[-89.931659999609167,35.189440000355887],[-89.932829999604678,35.15779000040834],[-89.933359999764093,35.125490000163495],[-89.933350000202267,35.092929999619912],[-89.932820000042852,35.060619999813298],[-89.931639999586196,35.028969999865751],[-89.929550000332142,34.998240000076066],[-89.926270000160287,34.968700000304921],[-89.921810000431094,34.94032999962991],[-89.918929999819511,34.926810000281421],[-89.910420000382601,34.886099999815258],[-89.903989999738599,34.859700000055113],[-89.897439999856033,34.833439999556504],[-89.890880000411585,34.807170000395331],[-89.884320000067873,34.780909999896721],[-89.881050000357106,34.767779999647416],[-89.874369999875512,34.741649999747835],[-89.864009999661675,34.702779999597453],[-89.856400000359599,34.677569999855734],[-89.852200000029882,34.665350000202466],[-89.839490000263197,34.628849999627903],[-89.830170000345163,34.60534000004111],[-89.820869999550723,34.581829999554998],[-89.811829999954455,34.55805999966941],[-89.807370000225205,34.546109999876762],[-89.794250000437046,34.510000000199966],[-89.790190000268183,34.497660000408814],[-89.777739999900973,34.460880000411862],[-89.773280000171781,34.448940000180983],[-89.760180000406592,34.412820000043098],[-89.751139999910947,34.389050000157511],[-89.74169999985503,34.365679999832253],[-89.731989999938435,34.342569999805789],[-89.72254999988246,34.319189999918706],[-89.713510000286192,34.295429999594944],[-89.70458999992843,34.271520000447822],[-89.700409999621684,34.259310000356379],[-89.687690000293173,34.222809999781816],[-89.679429999794536,34.198250000337396],[-89.670780000196771,34.174089999553985],[-89.66185999983901,34.150180000406863],[-89.652809999781539,34.126420000083101],[-89.643369999725621,34.103040000196017],[-89.633670000270172,34.079930000169497],[-89.62423999977608,34.056559999844239],[-89.615049999557755,34.032919999658418],[-89.605740000100809,34.009410000071568],[-89.596440000205746,33.985910000046601],[-89.587260000448566,33.962269999860723],[-89.577820000392592,33.938900000434842],[-89.568120000037879,33.915790000408322],[-89.55869000044305,33.892409999621918],[-89.54964000038558,33.868639999736331],[-89.540729999589701,33.84474999971286],[-89.532070000430053,33.820580000266943],[-89.523820000392618,33.796019999923203],[-89.515559999893981,33.771470000040608],[-89.506899999835014,33.747310000156517],[-89.497989999938454,33.723400000110075],[-89.488939999880984,33.699630000224488],[-89.479510000286155,33.67625999989923],[-89.469800000369617,33.653140000310884],[-89.460369999875468,33.629780000446829],[-89.451319999818054,33.606000000100096],[-89.442400000359612,33.582110000076568],[-89.433749999862528,33.557950000192477],[-89.42549000026321,33.533389999848737],[-89.417240000225718,33.508830000404316],[-89.408580000166751,33.48466000005908],[-89.399670000270191,33.460759999574464],[-89.390620000212721,33.437000000150022],[-89.381180000156803,33.413620000262938],[-89.371479999802034,33.390510000236475],[-89.362050000207262,33.367130000349391],[-89.353000000149791,33.343370000025629],[-89.344079999792029,33.319470000440333],[-89.335430000194265,33.295309999656922],[-89.327169999695627,33.270750000212502],[-89.318919999658135,33.246189999868761],[-89.314459999928943,33.234240000076113],[-89.301349999702609,33.198130000399317],[-89.292299999645138,33.17435999961441],[-89.278009999861524,33.139430000394327],[-89.273160000133771,33.127880000162008],[-89.263720000077853,33.104500000274925],[-89.254679999582208,33.080730000389337],[-89.245769999685649,33.056829999904721],[-89.237109999626682,33.03267000002063],[-89.228850000027364,33.008120000138035],[-89.220720000127812,32.983430000094586],[-89.212459999629175,32.958869999750846],[-89.208400000359632,32.946529999959694],[-89.196079999692131,32.909629999824801],[-89.192020000422588,32.897279999572447],[-89.179690000193261,32.860380000336875],[-89.171429999694624,32.835819999993134],[-89.167359999963935,32.823480000201982],[-89.155169999895463,32.786450000367381],[-89.146910000296145,32.761890000023641],[-89.13866000025871,32.737340000141046],[-89.130530000359101,32.712650000097597],[-89.122389999998404,32.68796000005409],[-89.118200000129775,32.675740000400822],[-89.110079999792049,32.651050000357372],[-89.097760000023868,32.61415000022248],[-89.089639999686142,32.589469999740857],[-89.081380000086824,32.564910000296436],[-89.073099999565216,32.540360000413841],[-89.064989999688635,32.515670000370392],[-89.056870000250228,32.490980000326886],[-89.04874000035062,32.466290000283436],[-89.04086000028866,32.441350000402338],[-89.037199999680126,32.428599999690391],[-89.026179999607166,32.390399999860222],[-89.019239999726096,32.36451999979829],[-89.015959999554241,32.351390000448305],[-89.005999999800054,32.312130000299419],[-88.999440000355605,32.285869999800809],[-88.99288999957372,32.259599999740317],[-88.986330000129271,32.233340000141027],[-88.97976999978556,32.207070000080591],[-88.973219999902994,32.180809999581982],[-88.966659999559226,32.154549999982635],[-88.963389999848516,32.14141999973333],[-88.953550000232212,32.102020000322909],[-88.950149999922473,32.089019999773313],[-88.93990999984652,32.050019999923222],[-88.932709999666656,32.024409999721854],[-88.925230000064346,31.999070000280426],[-88.917510000186269,31.973979999777328],[-88.90989999998493,31.948770000035609],[-88.902819999942949,31.923030000134531],[-88.896270000060326,31.896769999635922],[-88.890239999875973,31.869979999877216],[-88.884739999851035,31.842659999959153],[-88.879350000402098,31.815219999903206],[-88.873719999778075,31.788040000146054],[-88.867829999754576,31.761110000226495],[-88.861660000308689,31.734459999729324],[-88.855240000125775,31.70805999996918],[-88.848679999782064,31.68180000036989],[-88.842129999899498,31.655530000309398],[-88.83556999955573,31.629269999810788],[-88.829019999673164,31.603010000211498],[-88.822460000228716,31.576740000151005],[-88.815899999885005,31.550479999652396],[-88.809359999564208,31.524220000053106],[-88.802800000119817,31.49794999999267],[-88.799510000386078,31.484819999743365],[-88.789689999893483,31.445420000332888],[-88.783130000449034,31.419159999834278],[-88.776579999667149,31.392900000234988],[-88.770020000222701,31.366630000174496],[-88.763470000340135,31.340369999675886],[-88.756909999996424,31.314110000076596],[-88.750349999652656,31.287840000016104],[-88.743930000369119,31.261449999817785],[-88.737780000046882,31.234789999758846],[-88.731870000000413,31.207870000300431],[-88.729119999987915,31.194209999891712],[-88.720860000388598,31.15324000002613],[-88.715479999602223,31.125799999970184],[-88.709840000315637,31.098609999751829],[-88.703950000292195,31.071690000293415],[-88.697779999946931,31.045030000234476],[-88.691359999764074,31.0186400000361],[-88.684809999881509,30.99238000043681],[-88.678389999698595,30.965979999777289],[-88.672229999814533,30.939330000179496],[-88.666319999768064,30.912400000259936],[-88.660679999582214,30.885219999603464],[-88.655310000156305,30.85778000044678],[-88.64993999983102,30.830329999929688],[-88.644419999783054,30.803019999573451],[-88.639050000357145,30.775569999955678],[-88.633940000330654,30.747860000039111],[-88.629100000164783,30.719889999823749],[-88.624640000435591,30.691529999609941],[-88.620449999667642,30.662900000434831],[-88.615980000376624,30.63452999975982],[-88.611129999749608,30.606560000443835],[-88.606150000322145,30.578719999928182],[-88.60116999999542,30.550880000311906],[-88.596320000267667,30.522910000096545],[-88.5918700001003,30.494549999882736],[-88.587669999770583,30.465919999808307],[-88.585309999756589,30.451870000300403],[-88.578349999852492,30.409590000278456],[-88.573370000425086,30.381749999762803],[-88.568390000098304,30.353910000146527],[-88.563549999932434,30.325939999931222],[-88.559090000203241,30.297570000155531],[-88.554889999873467,30.268949999642928],[-88.552540000320676,30.254889999673878],[-88.545580000416578,30.212609999651932],[-88.540600000089853,30.184770000035599],[-88.535739999900954,30.156799999820294],[-88.531420000332673,30.128300000344893],[-88.528140000160761,30.098759999674371],[-88.525920000307678,30.068159999584452],[-88.524220000152809,30.03703999979632],[-88.522510000436057,30.005920000008132],[-88.520280000121829,29.975319999918213],[-88.517010000411062,29.945769999685865],[-88.512680000381636,29.917270000210465],[-88.507829999754563,29.889309999556986],[-88.502980000026866,29.861329999779798],[-88.498659999559209,29.832839999866223],[-88.495380000286673,29.803289999633932],[-88.493270000110329,29.772559999844248],[-88.492100000114817,29.740909999896701],[-88.491569999955402,29.708609999651912],[-88.491440000255693,29.675909999846738],[-88.491440000255693,29.643080000341911],[-88.491440000255693,29.610249999937707],[-88.491440000255693,29.577420000432824],[-88.491440000255693,29.54459000002862],[-88.491440000255693,29.511759999624417],[-88.491440000255693,29.478930000119533],[-88.491440000255693,29.446099999715386],[-88.491440000255693,29.413270000210503],[-88.491440000255693,29.380439999806299],[-88.491440000255693,29.347610000301415],[-88.491440000255693,29.314790000358357],[-88.491440000255693,29.281959999954154],[-88.491440000255693,29.249130000449327],[-88.491440000255693,29.216300000045123],[-88.491440000255693,29.18346999964092],[-88.491440000255693,29.150640000136036],[-88.491440000255693,29.117809999731833],[-88.491440000255693,29.084980000226949],[-88.491440000255693,29.052149999822802],[-88.491440000255693,29.019320000317919],[-88.491440000255693,28.986489999913715],[-88.491440000255693,28.953660000408831],[-88.491440000255693,28.920830000004628],[-88.491580000416604,28.88813000019951],[-88.492100000114817,28.855829999954665],[-88.4932900001333,28.824180000007118],[-88.495380000286673,28.79345000021749],[-88.498659999559209,28.763910000446288],[-88.502980000026866,28.735410000071568],[-88.507829999754563,28.707439999856263],[-88.51030999990644,28.693520000048125],[-88.516999999949917,28.650970000165501],[-88.520280000121829,28.621430000394355],[-88.522379999837028,28.590690000143525],[-88.523549999832539,28.559049999757804],[-88.524220000152809,28.526869999650899],[-88.524880000011876,28.494700000005139],[-88.526059999569213,28.463050000057592],[-88.528149999722586,28.43232999982979],[-88.531429999894499,28.402779999597442],[-88.5357500003621,28.374280000122042],[-88.538119999937919,28.360229999714875],[-88.545449999817549,28.318339999691375],[-88.549899999984916,28.289980000376886],[-88.553699999854985,28.260960000303896],[-88.556989999588723,28.231410000071605],[-88.560260000198753,28.201859999839257],[-88.564069999630647,28.172839999766325],[-88.568530000259216,28.144479999552459],[-88.573379999986912,28.116499999775328],[-88.578220000152783,28.088529999559967],[-88.582670000320149,28.060170000245478],[-88.5864799997521,28.031150000172488],[-88.589770000385101,28.001599999940197],[-88.593040000095812,27.972060000168995],[-88.596850000427082,27.943040000096062],[-88.598950000142281,27.928719999828274],[-88.606159999883971,27.886700000105066],[-88.611129999749608,27.85885999958947],[-88.615980000376624,27.830890000273428],[-88.620440000105816,27.802519999598474],[-88.624629999974388,27.773899999985133],[-88.629089999703638,27.745530000209499],[-88.633949999892479,27.717559999994137],[-88.638930000219204,27.689720000377861],[-88.643909999646667,27.661879999862265],[-88.648760000273683,27.633909999646903],[-88.653210000441049,27.605550000332414],[-88.657409999871504,27.576920000257928],[-88.661869999600697,27.54856000004412],[-88.66422999961469,27.53450000007507],[-88.672360000413562,27.49339999961046],[-88.678389999698595,27.466609999851755],[-88.684809999881509,27.44021999965338],[-88.69137000022522,27.413949999592944],[-88.697790000408077,27.387560000293945],[-88.703950000292195,27.360900000234949],[-88.709840000315637,27.333979999877215],[-88.715479999602223,27.306800000120063],[-88.720860000388598,27.279349999602914],[-88.726240000275709,27.251910000446287],[-88.728990000288206,27.238250000037624],[-88.737760000023854,27.197799999870256],[-88.743930000369119,27.171150000272462],[-88.750349999652656,27.144749999612941],[-88.756909999996424,27.118490000013651],[-88.763459999878989,27.092219999953159],[-88.770020000222701,27.065960000353869],[-88.773289999933468,27.052830000104564],[-88.783130000449034,27.013440000255969],[-88.789819999593192,26.987299999895242],[-88.796769999935464,26.961430000294399],[-88.800299999944912,26.948560000343889],[-88.811449999717581,26.91047999975234],[-88.819320000217715,26.885530000309416],[-88.823380000386578,26.873180000057118],[-88.835559999993905,26.83615000022246],[-88.843700000354602,26.811460000179011],[-88.85195999995392,26.786910000296416],[-88.860209999991412,26.762349999952676],[-88.868339999890964,26.737659999909226],[-88.876469999790572,26.71296999986572],[-88.884730000289153,26.688419999983182],[-88.892989999888471,26.663859999639442],[-88.901110000226254,26.639180000057081],[-88.909240000125806,26.614490000013632],[-88.917499999725123,26.589929999669891],[-88.925749999762559,26.565379999787297],[-88.933879999662167,26.540689999743847],[-88.942140000160748,26.516130000299427],[-88.95078999975857,26.491970000415336],[-88.959710000116331,26.468069999930719],[-88.9687499997126,26.444300000045132],[-88.973340000040878,26.432479999952193],[-88.983049999957416,26.409369999925673],[-88.997339999741087,26.37443999980627],[-89.006520000397586,26.350799999620449],[-89.015820000292649,26.327290000033599],[-89.025129999749595,26.303790000008632],[-89.029720000077816,26.291969999915693],[-89.044270000160282,26.257300000095086],[-89.054630000374118,26.234840000365864],[-89.059870000100318,26.223680000132049],[-89.070099999715126,26.201100000264944],[-89.080580000066846,26.178770000235488],[-89.090809999681653,26.156190000368383],[-89.104829999604704,26.12099000038836],[-89.114139999960912,26.097490000363393],[-89.123439999856032,26.073979999877224],[-89.132750000212241,26.050479999852257],[-89.142580000266719,26.027500000424823],[-89.147690000293153,26.016200000030096],[-89.158189999768581,25.993879999562466],[-89.174190000168267,25.960660000059079],[-89.179690000193261,25.949749999662913],[-89.19069999980502,25.927960000253961],[-89.206950000042355,25.894989999688903],[-89.217970000115315,25.873189999818806],[-89.22347000014031,25.862300000344874],[-89.239729999939414,25.829329999779816],[-89.245240000425554,25.818440000305884],[-89.256250000037369,25.796640000435787],[-89.267000000249709,25.774580000266951],[-89.283520000347607,25.741879999562457],[-89.294400000259714,25.71994999999265],[-89.305280000171763,25.698020000422844],[-89.310789999758583,25.687119999588447],[-89.322059999669136,25.665580000017144],[-89.339230000064333,25.633540000071093],[-89.345129999649657,25.623039999696346],[-89.357439999856012,25.602549999982671],[-89.37633000042905,25.572219999753315],[-89.388920000057851,25.551990000338378],[-89.395209999641679,25.541879999962191],[-89.40753000030918,25.521390000248459],[-89.42549000026321,25.490139999861242],[-89.431389999848534,25.479629999924725],[-89.44345000021724,25.458890000373344],[-89.455769999985421,25.43839999976035],[-89.46835000005234,25.418179999907238],[-89.487239999726114,25.387840000116057],[-89.493530000209262,25.377729999739813],[-89.511880000161796,25.346870000250476],[-89.52380000036959,25.325989999638921],[-89.52971000041606,25.315490000163493],[-89.54794000023071,25.28450000007507],[-89.5603899996986,25.264140000061104],[-89.566680000181748,25.25402999968486],[-89.579519999648141,25.234070000130544],[-89.592640000335621,25.214369999975645],[-89.605740000100809,25.194669999820803],[-89.618850000327143,25.17498000012705],[-89.638519999997925,25.145429999894702],[-89.645069999880491,25.135579999817253],[-89.66472999998939,25.106029999584962],[-89.671290000333158,25.096180000406832],[-89.690960000003884,25.066639999736367],[-89.697509999886506,25.056789999658918],[-89.710620000112783,25.037090000403339],[-89.730289999783565,25.007549999732817],[-89.736839999666131,24.997699999655424],[-89.756499999775087,24.968150000322396],[-89.769619999563247,24.948450000167497],[-89.782720000227698,24.928750000012656],[-89.789279999672146,24.918910000396352],[-89.802650000197275,24.899469999640928],[-89.816280000121822,24.880299999645388],[-89.830449999767552,24.861650000247437],[-89.845140000010872,24.843530000109581],[-89.860340000390579,24.825929999669881],[-89.875530000309141,24.808339999691384],[-89.890749999812556,24.790740000151004],[-89.90542999959473,24.772620000013148],[-89.919589999678635,24.753969999715878],[-89.933479999901976,24.735060000019132],[-89.947370000125318,24.716150000322386],[-89.961530000209223,24.697500000025116],[-89.976219999553223,24.679379999887203],[-89.991680000231725,24.662039999746355],[-90.007420000332672,24.64497000036539],[-90.023669999670631,24.628430000244464],[-90.039930000369111,24.611879999662392],[-90.056440000005864,24.59559999984026],[-90.07271000026617,24.579050000157508],[-90.08921999990298,24.562770000335377],[-90.105479999702141,24.546219999753305],[-90.121990000238213,24.529939999931173],[-90.1382599995992,24.513399999810304],[-90.154770000135272,24.497110000426346],[-90.171020000372607,24.48057000030542],[-90.187550000032388,24.464280000022143],[-90.203800000269666,24.447739999901216],[-90.220309999906476,24.431449999617939],[-90.236560000143811,24.414910000396333],[-90.25308000024171,24.398620000113056],[-90.26934000004087,24.382079999992129],[-90.285860000138769,24.365800000169997],[-90.302119999937929,24.349249999587926],[-90.318629999574739,24.332969999765794],[-90.334890000273163,24.316420000083099],[-90.351410000371118,24.300129999799765],[-90.367670000170278,24.283589999678895],[-90.384190000268177,24.267309999856764],[-90.400439999606192,24.250760000174012],[-90.416959999704147,24.234469999890734],[-90.433209999941425,24.217929999769808],[-90.449719999578235,24.201640000385851],[-90.465989999838541,24.185100000264924],[-90.482500000374614,24.168820000442793],[-90.498760000173775,24.152269999860721],[-90.515269999810528,24.135990000038589],[-90.531540000070834,24.119440000355894],[-90.548049999707644,24.103159999634443],[-90.573089999703598,24.078990000188526],[-90.581620000062856,24.071110000126566],[-90.598920000157761,24.055619999863268],[-90.607959999754087,24.048260000398841],[-90.626320000167766,24.03381999999317],[-90.645069999680629,24.019769999585947],[-90.663940000230696,24.005849999777809],[-90.682689999743616,23.991800000269961],[-90.701050000157295,23.977350000302408],[-90.727389999848526,23.954510000136565],[-90.752690000143275,23.930600000090067],[-90.760949999742593,23.922459999729369],[-90.785590000178274,23.897909999846775],[-90.793720000077826,23.889630000224486],[-90.810229999714636,23.873350000402354],[-90.835280000171792,23.849189999618943],[-90.85244999966767,23.833560000094053],[-90.879200000279695,23.811100000364888],[-90.897809999631647,23.796920000257956],[-90.916689999743596,23.782999999550498],[-90.926129999799571,23.7760399996464],[-90.954189999668642,23.754899999635427],[-90.981060000418609,23.732580000067117],[-90.989839999716139,23.724960000303895],[-91.007409999671665,23.709719999878246],[-91.024979999627192,23.694489999913685],[-91.043059999719105,23.67979000010854],[-91.061669999970434,23.665600000439838],[-91.071239999726117,23.658779999797275],[-91.090520000297658,23.645249999987641],[-91.110049999807529,23.631990000038627],[-91.139539999970907,23.612289999883728],[-91.149379999587211,23.605719999978135],[-91.16903999969611,23.59258999972883],[-91.198540000320634,23.572900000035133],[-91.208370000375112,23.56633000012954],[-91.228169999745603,23.553329999579944],[-91.248230000314152,23.540590000228462],[-91.268550000282175,23.528110000276456],[-91.289260000248703,23.516029999884722],[-91.310500000374589,23.504479999652403],[-91.331990000338124,23.493180000156997],[-91.353489999863484,23.481890000223473],[-91.37499999984999,23.470600000289949],[-91.396239999975933,23.459039999596428],[-91.417079999642169,23.447089999803779],[-91.437789999608697,23.435010000311422],[-91.458630000174253,23.423059999619454],[-91.479870000300195,23.411510000286398],[-91.501770000285205,23.400599999890233],[-91.524189999968428,23.39023000011457],[-91.546990000088329,23.380250000337412],[-91.570069999630675,23.370529999959672],[-91.592869999750576,23.360550000182513],[-91.615299999895001,23.350180000406851],[-91.637569999855486,23.339669999570958],[-91.659600000439582,23.328900000234967],[-91.68136000026368,23.317869999700861],[-91.703249999787545,23.30696999976584],[-91.736020000122778,23.290560000243943],[-91.746900000034884,23.285040000195977],[-91.768800000019894,23.274140000260957],[-91.790700000004904,23.263240000325879],[-91.812450000267177,23.252209999791773],[-91.834350000252186,23.241309999856753],[-91.856230000214225,23.230420000382878],[-91.87799000003838,23.219380000286947],[-91.89989000002339,23.208480000351869],[-91.921780000446574,23.197589999978675],[-91.943420000132789,23.186420000182977],[-91.96491999965815,23.175130000249453],[-91.996640000135812,23.157669999970665],[-92.006869999750563,23.151490000063575],[-92.027049999557732,23.138889999973685],[-92.046720000127777,23.125759999724323],[-92.075040000295701,23.104880000012145],[-92.100729999689634,23.081370000425295],[-92.108859999589185,23.073100000364889],[-92.130890000173281,23.045910000146534],[-92.143720000077849,23.025949999692898],[-92.155259999849022,23.004679999982159],[-92.165479999901947,22.982360000413848],[-92.173740000400585,22.958849999927679],[-92.179639999985909,22.934289999583939],[-92.182920000157765,22.909210000441306],[-92.182920000157765,22.883999999800267],[-92.179519999848026,22.859050000357399],[-92.173219999803052,22.834880000012106],[-92.164309999906493,22.812030000284437],[-92.153169999695649,22.790629999974669],[-92.140439999905993,22.770539999821267],[-92.126419999982886,22.751759999824287],[-92.111080000341644,22.734289999983673],[-92.094819999643164,22.717879999562456],[-92.077790000308141,22.70251000033636],[-92.050640000135786,22.681769999885717],[-92.03204000034566,22.669690000393359],[-92.002800000019874,22.654980000127068],[-91.992969999965396,22.650779999797294],[-91.960190000068337,22.641979999577472]]]},"properties":{"objectid":561,"stormname":"Isaias","stormtype":"TS","basin":"AL","advdate":"1000 PM CDT Wed Oct 07 2026","advisnum":"6","fcstprd":120,"stormnum":9,"idp_source":"al092026-006_5day_pgn","idp_filedate":1791430091000,"idp_ingestdate":1791430161000,"st_area(shape)":35.113511374105819,"st_perimeter(shape)":35.069402707561572,"binnumber":"AT4"}}]}