{"type":"FeatureCollection","features":[{"type":"Feature","id":5142,"geometry":{"type":"LineString","coordinates":[[-96.500000000399609,22.000000000199975],[-96.299999999899967,22.199999999800298],[-96.100000000299644,22.299999999600459],[-95.99999999960022,22.199999999800298],[-95.99999999960022,22.000000000199975],[-95.700000000199736,21.900000000399814]]},"properties":{"objectid":5142,"stormtype":"DB","stormnum":9,"ss":0,"idp_source":"AL092026_lin","idp_filedate":1791516480000,"idp_ingestdate":1791516566000,"st_length(shape)":1.1640986314242154,"binnumber":"AT4"}},{"type":"Feature","id":5143,"geometry":{"type":"LineString","coordinates":[[-95.700000000199736,21.900000000399814],[-95.300000000099828,21.699999999900228],[-94.599999999700117,21.900000000399814]]},"properties":{"objectid":5143,"stormtype":"TD","stormnum":9,"ss":0,"idp_source":"AL092026_lin","idp_filedate":1791516480000,"idp_ingestdate":1791516566000,"st_length(shape)":1.1752245852623704,"binnumber":"AT4"}},{"type":"Feature","id":5144,"geometry":{"type":"LineString","coordinates":[[-94.599999999700117,21.900000000399814],[-93.900000000199725,22.199999999800298],[-93.299999999600175,22.500000000100044],[-92.299999999800036,22.699999999700367],[-91.49999999960022,23.099999999800275]]},"properties":{"objectid":5144,"stormtype":"TS","stormnum":9,"ss":0,"idp_source":"AL092026_lin","idp_filedate":1791516480000,"idp_ingestdate":1791516566000,"st_length(shape)":3.3466287974787696,"binnumber":"AT4"}},{"type":"Feature","id":5145,"geometry":{"type":"LineString","coordinates":[[-91.49999999960022,23.099999999800275],[-90.599999999600186,23.400000000100079],[-89.80000000029969,23.900000000000148]]},"properties":{"objectid":5145,"stormtype":"HU","stormnum":9,"ss":1,"idp_source":"AL092026_lin","idp_filedate":1791516480000,"idp_ingestdate":1791516566000,"st_length(shape)":1.8920814107048716,"binnumber":"AT4"}},{"type":"Feature","id":5146,"geometry":{"type":"LineString","coordinates":[[-89.80000000029969,23.900000000000148],[-88.799999999600175,24.800000000000125]]},"properties":{"objectid":5146,"stormtype":"HU","stormnum":9,"ss":1,"idp_source":"AL092026_lin","idp_filedate":1791516480000,"idp_ingestdate":1791516566000,"st_length(shape)":1.3453624052273014,"binnumber":"AT4"}}]}