{"type":"FeatureCollection","features":[{"type":"Feature","id":564,"geometry":{"type":"Polygon","coordinates":[[[-91.785859999839033,22.853940000330908],[-91.761829999654651,22.85017000004558],[-91.735440000355652,22.847959999754323],[-91.706730000189282,22.846780000196986],[-91.676319999867985,22.846259999599454],[-91.64475000001238,22.846129999899745],[-91.612509999836504,22.846129999899745],[-91.580030000284182,22.846129999899745],[-91.547540000270715,22.846129999899745],[-91.515059999819016,22.846129999899745],[-91.482569999805548,22.846129999899745],[-91.450099999815052,22.846129999899745],[-91.417609999801527,22.846129999899745],[-91.38511999978806,22.846129999899745],[-91.35262000021271,22.846129999899745],[-91.320150000222213,22.846129999899745],[-91.287669999770571,22.846129999899745],[-91.255170000195278,22.846129999899745],[-91.222809999881463,22.846259999599454],[-91.190859999589179,22.846780000196986],[-91.159539999571223,22.847959999754323],[-91.129119999688157,22.850040000345871],[-91.099889999823517,22.85329000003361],[-91.07170000025468,22.857589999578977],[-91.044019999922966,22.862400000159994],[-91.016459999729079,22.867350000002659],[-90.988780000296686,22.872170000145559],[-90.960720000427557,22.876589999828752],[-90.932389999798545,22.88075999967441],[-90.904459999629182,22.885309999956689],[-90.877299999895001,22.890649999797802],[-90.850920000157771,22.896769999635922],[-90.825320000417605,22.903670000370369],[-90.800510000236216,22.911350000202503],[-90.776079999592184,22.919420000033142],[-90.751629999824502,22.927489999863724],[-90.727340000240702,22.935690000293448],[-90.70343000019426,22.944279999822299],[-90.679780000446556,22.953129999649889],[-90.656269999960443,22.962110000076564],[-90.633130000349126,22.971490000063568],[-90.61025999969911,22.981119999888222],[-90.587129999649676,22.9904900003134],[-90.563740000200767,22.999600000439784],[-90.540479999552247,23.008840000265934],[-90.517230000264192,23.01808999965391],[-90.493969999615672,23.027319999918177],[-90.471220000002916,23.037089999903742],[-90.449010000111286,23.047370000025637],[-90.426909999896452,23.057790000308387],[-90.405080000441558,23.068460000428843],[-90.383510000386082,23.07938999994866],[-90.361680000031868,23.090069999630941],[-90.339579999817033,23.100480000351865],[-90.317369999925461,23.110759999574441],[-90.294629999874473,23.120519999998123],[-90.271359999664128,23.129759999824273],[-90.24811000037613,23.139010000111568],[-90.22484999972761,23.148249999937661],[-90.20158999997841,23.157489999763811],[-90.178849999927479,23.167250000187494],[-90.156629999574704,23.177539999871215],[-90.134539999821015,23.187949999692876],[-90.112710000366121,23.198619999813275],[-90.091260000448585,23.209690000393323],[-90.069949999792527,23.220880000211992],[-90.04890000033464,23.232330000329398],[-90.028369999675647,23.244309999706843],[-89.99823000011429,23.262919999958172],[-89.988219999853015,23.26917000039532],[-89.968209999791554,23.281670000370355],[-89.948070000030384,23.294030000184478],[-89.92754000027071,23.306009999561979],[-89.906480000351621,23.317459999679386],[-89.885180000156765,23.3286599999592],[-89.863739999801055,23.339720000078103],[-89.84204000004587,23.350519999898211],[-89.820329999829539,23.361330000179521],[-89.798890000373092,23.372390000298424],[-89.777590000178236,23.383589999678861],[-89.756530000259204,23.395039999796268],[-89.736010000061356,23.407020000073089],[-89.715850000277214,23.419379999887212],[-89.695849999777579,23.431879999862247],[-89.675839999716118,23.444370000275455],[-89.655699999954948,23.456739999651404],[-89.635299999894983,23.468849999627935],[-89.614629999974397,23.480689999743845],[-89.59398000007684,23.492540000320901],[-89.573559999993904,23.504639999836286],[-89.55342999979456,23.517010000111554],[-89.533550000332127,23.529630000224472],[-89.51393000026917,23.54252000019801],[-89.494430000344153,23.555530000309432],[-89.47495000044205,23.568549999982679],[-89.455449999617713,23.581569999655926],[-89.435960000153784,23.594590000228493],[-89.416469999790536,23.607600000339858],[-89.396980000326664,23.620620000013105],[-89.377489999963416,23.633630000124526],[-89.357990000038342,23.646649999797773],[-89.33849999967515,23.65967000037034],[-89.319019999773047,23.672679999582442],[-89.29951999984803,23.685700000155009],[-89.280030000384102,23.698719999828256],[-89.260540000020853,23.711729999939678],[-89.241049999657662,23.724749999612925],[-89.221560000193733,23.737770000185492],[-89.202069999830542,23.750780000296913],[-89.182569999905468,23.763799999970161],[-89.163090000003422,23.776819999643408],[-89.143590000078348,23.789829999754829],[-89.124099999715099,23.802850000327396],[-89.104739999950937,23.815999999700352],[-89.085630000024366,23.829399999810278],[-89.066800000419562,23.843069999780823],[-89.038990000388083,23.864029999584943],[-89.020799999720111,23.87834999985273],[-89.002329999629694,23.89240999982178],[-88.992980000126806,23.899300000095081],[-88.974269999760565,23.913099999765336],[-88.955569999855527,23.926900000334911],[-88.918789999858518,23.955140000410836],[-88.901250000387108,23.970110000076602],[-88.892670000420082,23.977789999908737],[-88.884220000152766,23.9856000003399],[-88.850700000304641,24.01709999966539],[-88.842250000037382,24.024910000096554],[-88.825099999665156,24.040269999760824],[-88.807170000195242,24.054850000327406],[-88.788720000127796,24.068910000296398],[-88.77000000019973,24.082709999966653],[-88.751300000294691,24.096500000075082],[-88.732830000204217,24.110560000044131],[-88.714910000296186,24.125139999711337],[-88.697750000362134,24.140500000274926],[-88.680860000288703,24.156120000237991],[-88.664489999913485,24.172259999899211],[-88.648120000437586,24.188399999560488],[-88.631999999899961,24.204800000419823],[-88.615630000424062,24.2209400000811],[-88.599520000347638,24.237340000041115],[-88.58314999997242,24.253479999702392],[-88.567030000334171,24.269879999662407],[-88.550659999958953,24.28602999978483],[-88.534549999882472,24.302429999744845],[-88.518169999945428,24.318570000305385],[-88.502059999869005,24.334970000265457],[-88.485690000393106,24.351109999926678],[-88.469580000316682,24.367509999886749],[-88.453209999941464,24.38365000044729],[-88.437099999864984,24.400050000407361],[-88.420980000226734,24.416450000367377],[-88.405389999848524,24.433370000025604],[-88.390059999769051,24.450549999982627],[-88.375500000124816,24.468520000397859],[-88.354580000366639,24.496369999575961],[-88.347690000093337,24.50574000000114],[-88.333920000007879,24.524490000413323],[-88.319889999623683,24.542970000065566],[-88.305329999979392,24.560930000019653],[-88.28999000033815,24.578120000437821],[-88.27439999995994,24.595040000096049],[-88.258289999883459,24.61144000005612],[-88.24217000024521,24.627840000016135],[-88.226069999730612,24.644239999976151],[-88.21046000022875,24.661159999634435],[-88.195139999711103,24.678339999591458],[-88.180589999628694,24.696310000006633],[-88.166549999682616,24.714789999658876],[-88.152779999597215,24.733529999609914],[-88.139010000411076,24.752280000022097],[-88.124969999565735,24.770759999674397],[-88.110409999921444,24.788719999628427],[-88.095340000140766,24.806170000345389],[-88.080270000360144,24.823609999701887],[-88.065190000118321,24.841049999957647],[-88.050640000035855,24.859009999911734],[-88.029720000277678,24.886869999550981],[-88.022830000004376,24.89623999997616],[-88.002180000106819,24.924350000352376],[-87.995289999833517,24.933730000339381],[-87.981249999887496,24.952209999991624],[-87.966949999642679,24.970430000244448],[-87.952929999719629,24.988920000357894],[-87.939150000072345,25.007660000308931],[-87.918489999713586,25.035780000246973],[-87.904719999628185,25.054520000198011],[-87.897830000254203,25.06388999972387],[-87.87665000019723,25.091489999963642],[-87.869510000086336,25.100600000090083],[-87.855470000140315,25.119079999742326],[-87.834929999919439,25.147330000279453],[-87.828179999807048,25.156830000404341],[-87.81493000031918,25.176090000053591],[-87.801929999769584,25.195619999563462],[-87.782440000305655,25.224910000396335],[-87.769439999756059,25.24443000034438],[-87.762940000380581,25.254200000329888],[-87.749950000292188,25.273720000277933],[-87.730450000367114,25.303010000211486],[-87.723970000115287,25.312769999735849],[-87.710969999565748,25.332289999683894],[-87.697969999915472,25.351820000093085],[-87.678479999552223,25.381110000026638],[-87.671980000176745,25.390869999551001],[-87.652500000274699,25.420160000383873],[-87.639499999725103,25.439680000331919],[-87.633000000349625,25.449439999856224],[-87.620010000261175,25.468970000265415],[-87.607009999711636,25.48849000021346],[-87.594019999623185,25.508010000161505],[-87.581019999972909,25.527539999671376],[-87.568020000322633,25.547070000080566],[-87.555039999796065,25.566590000028611],[-87.542040000145789,25.586120000437802],[-87.529310000356134,25.605899999785322],[-87.510729999689602,25.636100000314912],[-87.504620000312684,25.646249999837778],[-87.48681999964316,25.677230000364375],[-87.480960000103835,25.687640000185979],[-87.469010000311187,25.708209999991652],[-87.456800000219744,25.72852000039785],[-87.444329999829506,25.748560000044108],[-87.4318499998775,25.768610000151511],[-87.413270000110288,25.798809999781781],[-87.401320000317639,25.819370000025629],[-87.395459999878994,25.829790000308435],[-87.378709999966418,25.861810000231458],[-87.373120000287656,25.872480000351857],[-87.36194000003087,25.893830000154537],[-87.350759999774084,25.915179999957161],[-87.339070000280174,25.935999999600426],[-87.326860000188731,25.956310000006624],[-87.314380000236724,25.976349999652882],[-87.301909999846487,25.996399999760342],[-87.283330000079332,26.026600000289932],[-87.277219999803037,26.036749999812798],[-87.265519999848038,26.057579999917209],[-87.254350000052341,26.078920000158007],[-87.237720000277704,26.111069999780796],[-87.232249999837506,26.121880000062106],[-87.216139999761083,26.154550000282427],[-87.20523000026418,26.176160000383845],[-87.199770000285184,26.18696000020401],[-87.189120000187756,26.208829999704847],[-87.178200000229708,26.230430000244439],[-87.161959999554256,26.262980000326877],[-87.151170000195236,26.284709999666916],[-87.145710000216241,26.295519999948169],[-87.134799999820018,26.317119999588442],[-87.118680000181769,26.349800000269965],[-87.107769999785546,26.371399999910238],[-87.10230999980655,26.382210000191492],[-87.091920000007917,26.404339999991123],[-87.081530000209227,26.426460000228985],[-87.066710000266198,26.460439999706352],[-87.062030000284153,26.472020000422845],[-87.048249999737607,26.507040000196014],[-87.039029999934428,26.530330000429331],[-87.029799999670161,26.553630000224473],[-87.025130000149261,26.565219999603414],[-87.009800000069845,26.5986699998208],[-86.999390000248184,26.620799999620431],[-86.994189999668663,26.631870000200479],[-86.98328000017176,26.653469999840752],[-86.967040000395571,26.686010000361364],[-86.961719999678166,26.696950000342383],[-86.945339999741066,26.729360000263966],[-86.93987999976207,26.740160000084074],[-86.924290000283179,26.773350000002665],[-86.919100000164747,26.784419999683394],[-86.904280000221718,26.818389999598935],[-86.89504999995745,26.841690000293397],[-86.885819999693126,26.864990000088596],[-86.876599999890004,26.888289999883739],[-86.867500000224709,26.91172000027791],[-86.858149999822501,26.934890000373343],[-86.853340000140804,26.946350000052576],[-86.839169999595697,26.980970000265415],[-86.834629999774563,26.992679999782297],[-86.82085000012728,27.027699999555466],[-86.811630000324158,27.051000000249928],[-86.802540000220745,27.074429999744837],[-86.793169999795566,27.09759999984027],[-86.783559999993884,27.120509999636909],[-86.77420000002985,27.143670000170516],[-86.765109999926437,27.167099999665368],[-86.755870000100344,27.190409999921712],[-86.746659999858991,27.213700000155029],[-86.737560000193753,27.237129999649881],[-86.72820000022972,27.260299999745314],[-86.723400000109791,27.271760000323923],[-86.709229999564741,27.306379999637443],[-86.700259999599211,27.329939999731323],[-86.691420000232711,27.353630000424346],[-86.682860000288656,27.37757999961741],[-86.674670000320134,27.401919999708355],[-86.666610000051378,27.426399999960154],[-86.658420000082856,27.450740000051098],[-86.65023999967616,27.475080000142043],[-86.642180000306666,27.499549999932697],[-86.6381499997226,27.511780000047111],[-86.625939999631157,27.548359999814295],[-86.617749999662635,27.57269999990524],[-86.609699999855025,27.597169999695893],[-86.601639999586212,27.621640000385867],[-86.593460000078835,27.645979999577435],[-86.585270000110313,27.670319999668379],[-86.581240000425566,27.682560000243939],[-86.569149999572744,27.719269999710889],[-86.560970000065367,27.743609999801777],[-86.552780000096845,27.767949999892721],[-86.544719999828033,27.792419999683375],[-86.536670000020365,27.816890000373348],[-86.528480000051843,27.841229999564973],[-86.520290000083321,27.865569999655918],[-86.51224000027571,27.890040000345891],[-86.508200000129818,27.902280000022131],[-86.495990000038375,27.93885000022749],[-86.487809999631679,27.96319999988026],[-86.479750000262186,27.987669999670914],[-86.471689999993373,28.012140000360887],[-86.463640000185762,28.036610000151541],[-86.455840000215744,28.061340000240989],[-86.452069999930472,28.073840000215966],[-86.441279999672133,28.111850000277457],[-86.434399999859977,28.137490000063622],[-86.427640000185761,28.163260000448815],[-86.420749999912459,28.18890000023498],[-86.41360000023974,28.214290000183496],[-86.406199999830051,28.239410000271448],[-86.402440000005868,28.25189999978528],[-86.390869999750578,28.289129999849763],[-86.383450000217238,28.314249999937715],[-86.376319999668169,28.339630000324405],[-86.369430000294187,28.365279999672396],[-86.362809999881506,28.391179999757298],[-86.356309999606708,28.417210000441287],[-86.34981000023123,28.443249999787781],[-86.343309999956432,28.46927999957245],[-86.336809999681634,28.495310000256438],[-86.330319999867982,28.521349999602933],[-86.323819999593184,28.547380000286921],[-86.317320000217705,28.57341000007159],[-86.310819999942964,28.599450000317404],[-86.304319999668166,28.625480000102073],[-86.297829999854514,28.651509999886741],[-86.291340000040861,28.67753999967141],[-86.284839999766064,28.703579999917224],[-86.281590000078324,28.716590000028646],[-86.271840000115787,28.755640000385824],[-86.268590000428048,28.768660000059072],[-86.258839999566248,28.807710000416307],[-86.252349999752596,28.833740000200976],[-86.245850000377118,28.85978000044679],[-86.23935000010232,28.885810000231459],[-86.232860000288667,28.911840000016127],[-86.226489999713635,28.938000000399825],[-86.223369999725605,28.951149999772838],[-86.214530000359105,28.99110999982679],[-86.208950000242226,29.018050000207495],[-86.203610000401113,29.04526000044882],[-86.198300000144798,29.072469999790826],[-86.192840000165745,29.09953999987124],[-86.187380000186749,29.126609999951654],[-86.181929999769579,29.153689999593951],[-86.176469999790527,29.180759999674365],[-86.17114000041056,29.20796999991569],[-86.165810000131273,29.23516999969587],[-86.160350000152278,29.262250000237486],[-86.155030000334136,29.289450000017609],[-86.149960000353644,29.31691999965841],[-86.145160000233716,29.344640000036122],[-86.14073000008932,29.372759999974164],[-86.13658000026669,29.401129999749855],[-86.13215999968412,29.429249999687897],[-86.127350000002366,29.45697000006561],[-86.122409999721583,29.484570000305439],[-86.117479999901946,29.512169999645891],[-86.112670000220248,29.539890000023604],[-86.108249999637678,29.568009999961646],[-86.104099999815048,29.596379999737337],[-86.099680000131798,29.624499999675379],[-86.094859999988898,29.652220000053092],[-86.089919999708115,29.679820000292921],[-86.085110000026361,29.707539999771313],[-86.080699999904994,29.735659999709355],[-86.076929999619665,29.764429999944696],[-86.073679999931926,29.793710000316423],[-86.070430000244187,29.823000000249976],[-86.066670000420061,29.851760000024115],[-86.062260000298693,29.879879999962156],[-86.057440000155793,29.907609999901695],[-86.052640000035865,29.935330000279407],[-86.048339999591178,29.963579999917215],[-86.045100000364641,29.992860000288943],[-86.043010000211211,30.023320000218007],[-86.041720000077817,30.054560000144022],[-86.040670000220246,30.086060000368889],[-86.039380000086851,30.117300000294904],[-86.037300000394623,30.147760000223968],[-86.034049999807564,30.177050000157521],[-86.032099999815046,30.191370000425309],[-86.024959999704095,30.233020000172985],[-86.022490000013363,30.24681999984324],[-86.015860000038856,30.288990000188505],[-86.012599999889972,30.318280000122058],[-86.010529999759569,30.348740000051123],[-86.009359999764058,30.380109999676904],[-86.008849999627671,30.412129999599927],[-86.008710000366136,30.44454000042083],[-86.008710000366136,30.477080000042122],[-86.008710000366136,30.509619999663414],[-86.008710000366136,30.542160000184026],[-86.008579999767051,30.574579999667378],[-86.008060000068838,30.606590000028632],[-86.006890000073327,30.637959999654413],[-86.004819999942924,30.668419999583477],[-86.001570000255185,30.69771000041635],[-85.997269999810555,30.725960000054101],[-85.992469999690627,30.753680000431814],[-85.989999999999895,30.767480000102069],[-85.983379999587214,30.809650000447334],[-85.980129999899475,30.83894000038083],[-85.978039999746102,30.869400000309895],[-85.976880000211736,30.900769999935676],[-85.976350000052378,30.932789999858755],[-85.976229999914437,30.965199999780282],[-85.976229999914437,30.997740000300894],[-85.976229999914437,31.030279999922186],[-85.976229999914437,31.062830000004624],[-85.976229999914437,31.095369999625916],[-85.976229999914437,31.127910000146528],[-85.976229999914437,31.16044999976782],[-85.976229999914437,31.192990000288432],[-85.976229999914437,31.225529999909725],[-85.976229999914437,31.258070000430337],[-85.976229999914437,31.290610000051629],[-85.976229999914437,31.323160000134067],[-85.976229999914437,31.355699999755302],[-85.976229999914437,31.388240000275914],[-85.976229999914437,31.420779999897206],[-85.976229999914437,31.453320000417818],[-85.976229999914437,31.485860000039111],[-85.976229999914437,31.518399999660403],[-85.976229999914437,31.550949999742841],[-85.976229999914437,31.583490000263453],[-85.976229999914437,31.616029999884745],[-85.976229999914437,31.648570000405357],[-85.976229999914437,31.681110000026649],[-85.976229999914437,31.713649999647885],[-85.976229999914437,31.746190000168497],[-85.976229999914437,31.778729999789789],[-85.976229999914437,31.811270000310401],[-85.976229999914437,31.843820000392839],[-85.976229999914437,31.876360000014131],[-85.976229999914437,31.908899999635423],[-85.976229999914437,31.941440000156035],[-85.976229999914437,31.973979999777328],[-85.976229999914437,32.00652000029794],[-85.976229999914437,32.039070000380377],[-85.976229999914437,32.07161000000167],[-85.976229999914437,32.104149999622905],[-85.976229999914437,32.136679999682372],[-85.976229999914437,32.169229999764809],[-85.976229999914437,32.201770000285421],[-85.976229999914437,32.234309999906714],[-85.976229999914437,32.266850000427326],[-85.976229999914437,32.299399999610444],[-85.976229999914437,32.331940000131056],[-85.976229999914437,32.364479999752348],[-85.976229999914437,32.39702000027296],[-85.976229999914437,32.429559999894252],[-85.976229999914437,32.462100000414807],[-85.976229999914437,32.4946400000361],[-85.976229999914437,32.527179999657392],[-85.976229999914437,32.559720000178004],[-85.976229999914437,32.592270000260442],[-85.976229999914437,32.624809999881734],[-85.976229999914437,32.657350000402346],[-85.976229999914437,32.689890000023638],[-85.976229999914437,32.72242999964493],[-85.976229999914437,32.754970000165542],[-85.976229999914437,32.787509999786778],[-85.976229999914437,32.820059999869216],[-85.976229999914437,32.852600000389828],[-85.976229999914437,32.88514000001112],[-85.976229999914437,32.917679999632412],[-85.976229999914437,32.950220000153024],[-85.976229999914437,32.982770000235462],[-85.976229999914437,33.015309999856754],[-85.976229999914437,33.047850000377366],[-85.976229999914437,33.080389999998658],[-85.976229999914437,33.112929999619951],[-85.976229999914437,33.145470000140563],[-85.976229999914437,33.178009999761798],[-85.976229999914437,33.21055000028241],[-85.976229999914437,33.243089999903702],[-85.976359999614203,33.275499999825286],[-85.976880000211736,33.30753000020951],[-85.978039999746102,33.338890000273466],[-85.980129999899475,33.369350000202473],[-85.983370000025388,33.398640000136027],[-85.987660000008873,33.426889999773834],[-85.990129999699604,33.440690000343409],[-85.997280000271701,33.482340000091085],[-86.001570000255185,33.510589999728836],[-86.004810000381099,33.539870000100564],[-86.006899999635152,33.570339999591454],[-86.008060000068838,33.601699999655409],[-86.008579999767051,33.633730000039634],[-86.008710000366136,33.666130000399335],[-86.008710000366136,33.698679999582453],[-86.008710000366136,33.731209999641919],[-86.008710000366136,33.763759999724357],[-86.008710000366136,33.796300000244969],[-86.008710000366136,33.828839999866261],[-86.008710000366136,33.861380000386873],[-86.008710000366136,33.893920000008166],[-86.008710000366136,33.926459999629401],[-86.008710000366136,33.959000000150013],[-86.008849999627671,33.991410000071596],[-86.009370000225204,34.023439999556501],[-86.010540000220715,34.054799999620457],[-86.012610000351117,34.08527000001061],[-86.015849999577711,34.114559999944163],[-86.020139999561252,34.142800000020145],[-86.024959999704095,34.170520000397858],[-86.029759999824023,34.198250000337396],[-86.03406000026871,34.226490000413321],[-86.037289999933421,34.255780000346874],[-86.039380000086851,34.286240000275939],[-86.040550000082305,34.31760999990172],[-86.04108000024172,34.349629999824799],[-86.041200000379604,34.382039999746326],[-86.041200000379604,34.414580000266938],[-86.041200000379604,34.44711999988823],[-86.041200000379604,34.479660000408842],[-86.041200000379604,34.512200000030134],[-86.041200000379604,34.544750000112572],[-86.041200000379604,34.577289999733864],[-86.041200000379604,34.609830000254476],[-86.041330000079313,34.642240000176002],[-86.041849999777583,34.674260000099082],[-86.043019999773094,34.705640000186008],[-86.045100000364641,34.736089999653927],[-86.04835000005238,34.765379999587481],[-86.052629999574719,34.793619999663406],[-86.055100000164771,34.807429999794806],[-86.062249999837491,34.849080000441802],[-86.066539999821032,34.87733000007961],[-86.069790000408091,34.906609999551961],[-86.071870000100319,34.937070000380345],[-86.07304000009583,34.968440000006126],[-86.073550000232217,35.000459999929205],[-86.073679999931926,35.032869999850732],[-86.073679999931926,35.065410000371344],[-86.073679999931926,35.097949999992636],[-86.073679999931926,35.130489999613928],[-86.073809999631692,35.162900000434831],[-86.074330000229224,35.194920000357854],[-86.075509999786561,35.226300000444837],[-86.077579999916964,35.256749999912699],[-86.080829999604703,35.286039999846253],[-86.085250000187273,35.314159999784295],[-86.09057999956724,35.341359999564474],[-86.093699999555213,35.35450999983675],[-86.099809999831507,35.380940000081068],[-86.109550000232218,35.419979999977159],[-86.113060000218752,35.432740000250931],[-86.123579999717094,35.471009999711839],[-86.131000000149754,35.496120000237966],[-86.138789999658627,35.52085999988924],[-86.146840000365614,35.545329999679893],[-86.154899999735107,35.569800000369867],[-86.163089999703629,35.594139999561492],[-86.171649999647684,35.618100000115078],[-86.180500000374593,35.641780000346898],[-86.189580000016861,35.66520999984175],[-86.199329999979398,35.688000000399825],[-86.209730000239233,35.710119999738367],[-86.22051000003637,35.731860000438814],[-86.231829999554748,35.753070000080584],[-86.24376999978557,35.773639999886257],[-86.256120000037868,35.793819999693369],[-86.268720000127814,35.813729999639918],[-86.281590000078324,35.833389999748817],[-86.294720000327629,35.852779999997153],[-86.308109999976409,35.871909999946695],[-86.32173000033913,35.890790000058587],[-86.335639999686123,35.909400000309915],[-86.349819999793056,35.927759999824275],[-86.363970000315135,35.946109999776809],[-86.377879999662127,35.964720000028137],[-86.391649999747585,35.98347000044032],[-86.405430000294189,36.002210000391358],[-86.419330000079356,36.020830000204512],[-86.433619999863026,36.03904999955796],[-86.448559999943939,36.056629999974689],[-86.464030000184266,36.073680000231946],[-86.479879999961952,36.090339999591436],[-86.495990000038375,36.106739999551507],[-86.51224000027571,36.123009999811813],[-86.528609999751609,36.139139999911208],[-86.553700000254707,36.162829999704854],[-86.562269999760588,36.170519999998135],[-86.588780000096847,36.192780000396851],[-86.607219999703148,36.206829999904699],[-86.625939999631157,36.220629999574953],[-86.63529999959519,36.2275300003094],[-86.663369999925465,36.248229999814782],[-86.681819999992911,36.262280000222006],[-86.690910000096324,36.269440000355871],[-86.718450000267183,36.290659999559466],[-86.737170000195249,36.304460000129041],[-86.756139999960908,36.317989999938675],[-86.775379999587187,36.331269999910717],[-86.785130000449044,36.33777999974734],[-86.814619999713102,36.35704000029591],[-86.834629999774563,36.369540000270945],[-86.854900000134819,36.381770000385359],[-86.875699999755057,36.393490000363386],[-86.907659999609166,36.410280000321904],[-86.918309999706594,36.415879999562492],[-86.93987999976207,36.426809999981685],[-86.972500000374623,36.442960000104051],[-86.98328000017176,36.448420000083104],[-87.015899999884994,36.464559999744324],[-87.026950000442071,36.469760000323902],[-87.04904000019576,36.480179999707389],[-87.071379999787041,36.490330000129575],[-87.094509999836532,36.499699999655434],[-87.118170000045382,36.508559999944168],[-87.153900000184763,36.52157000005559],[-87.178209999791534,36.529769999585938],[-87.20262999997442,36.537840000315896],[-87.214840000065863,36.541879999562468],[-87.251230000064368,36.554240000275911],[-87.275650000247197,36.56231000010655],[-87.287869999900465,36.566350000252442],[-87.32450999973662,36.578449999767827],[-87.336730000289151,36.582489999913719],[-87.374279999822022,36.593679999732331],[-87.386890000373114,36.597329999879719],[-87.425219999902993,36.60773999970138],[-87.438080000291677,36.611130000449293],[-87.477189999818506,36.620760000273947],[-87.490309999606666,36.62388000026192],[-87.517089999803545,36.629610000101593],[-87.558290000383124,36.637160000233962],[-87.586350000252196,36.641579999917212],[-87.614679999981888,36.645749999762813],[-87.628849999627676,36.647830000354361],[-87.670429999744613,36.654989999588963],[-87.697980000376617,36.659929999869746],[-87.711749999562699,36.662410000021623],[-87.753850000277168,36.66903999999613],[-87.783080000141808,36.672300000145015],[-87.813489999563728,36.674390000298445],[-87.844809999581685,36.675549999832754],[-87.876770000335171,36.676079999992169],[-87.909129999749609,36.676209999691878],[-87.941630000224222,36.676209999691878],[-87.974100000214719,36.676209999691878],[-88.006579999767098,36.676209999691878],[-88.039080000241711,36.676209999691878],[-88.071570000255178,36.676209999691878],[-88.104040000245732,36.676209999691878],[-88.136399999660171,36.676079999992169],[-88.168369999975425,36.675560000293899],[-88.199689999993382,36.674390000298445],[-88.230089999853533,36.672300000145015],[-88.259319999718116,36.669049999557956],[-88.28753999977107,36.664759999574471],[-88.315200000079813,36.659929999869746],[-88.342760000273699,36.654989999588963],[-88.370439999706093,36.650170000345383],[-88.398499999575222,36.645749999762813],[-88.426830000204234,36.641579999917212],[-88.454899999635188,36.637149999772816],[-88.482439999806047,36.632210000391353],[-88.509469999840519,36.626750000412358],[-88.535980000176778,36.620760000273947],[-88.575089999703607,36.611130000449293],[-88.587950000092349,36.60773999970138],[-88.61356000029366,36.600839999866253],[-88.638890000173262,36.593679999732331],[-88.663970000215215,36.586269999760816],[-88.688660000258722,36.578449999767827],[-88.713090000003376,36.570379999937188],[-88.737519999748088,36.562319999668375],[-88.761830000254179,36.554109999676882],[-88.785729999839532,36.545520000148031],[-88.809370000025353,36.536670000320385],[-88.832899999635174,36.52768999989371],[-88.856029999684608,36.518320000367851],[-88.878889999873479,36.508689999643934],[-88.90201999992297,36.49930999965693],[-88.925419999833025,36.490200000429809],[-88.948679999582225,36.480959999704396],[-88.971800000069834,36.471590000178537],[-89.005979999777082,36.457009999611955],[-89.016770000035365,36.451540000071077],[-89.037950000092337,36.44021999965338],[-89.068619999813052,36.422120000437815],[-89.088629999874513,36.409630000024606],[-89.108639999935917,36.397130000049629],[-89.118770000335132,36.391010000211509],[-89.149440000055847,36.372919999658393],[-89.159840000315683,36.367069999680893],[-89.190770000335135,36.349240000325892],[-89.211030000234246,36.336999999750333],[-89.221039999596201,36.330750000212504],[-89.250799999620199,36.311740000400846],[-89.27028999998339,36.298730000289424],[-89.289520000047844,36.285450000317383],[-89.299009999711586,36.278689999743847],[-89.32693000031918,36.257859999639436],[-89.344879999812065,36.243279999972174],[-89.362019999723088,36.227920000307904],[-89.378909999796576,36.212300000344896],[-89.403470000140317,36.188089999953661],[-89.419720000377595,36.171810000131529],[-89.435960000153784,36.155550000332369],[-89.444150000122306,36.147479999602467],[-89.460269999760555,36.131079999642395],[-89.484700000404587,36.106739999551507],[-89.492750000212254,36.098529999559958],[-89.509119999688153,36.082389999898737],[-89.525229999764576,36.065989999938665],[-89.549660000408608,36.041649999847778],[-89.557719999778044,36.03345000031743],[-89.582150000422075,36.009110000226485],[-89.590209999791568,36.000909999796818],[-89.606319999867992,35.984509999836746],[-89.629579999617192,35.958999999750347],[-89.637240000325676,35.950410000221495],[-89.651790000408084,35.932450000267465],[-89.672579999567233,35.904460000029133],[-89.679340000140769,35.894950000342362],[-89.699100000364638,35.865930000269429],[-89.705599999740116,35.856169999845747],[-89.718319999967946,35.836380000037138],[-89.736910000196247,35.806180000406812],[-89.748859999988895,35.785620000163021],[-89.754709999966394,35.775199999880215],[-89.765879999762092,35.753859999639417],[-89.782519999997874,35.721699999555483],[-89.793179999657127,35.699839999616415],[-89.803570000355137,35.677700000254958],[-89.808770000035395,35.666640000136056],[-89.823589999978424,35.632670000220457],[-89.832689999643662,35.609250000287432],[-89.837099999765087,35.597399999710376],[-89.850100000314683,35.561599999940199],[-89.858279999822003,35.537259999849255],[-89.86632999962967,35.512790000058601],[-89.874389999898483,35.488320000267947],[-89.88204999970759,35.46345999957947],[-89.885699999854978,35.450829999904727],[-89.895569999955455,35.41191000014652],[-89.901549999632664,35.385359999764319],[-89.907009999611716,35.358280000122079],[-89.912330000329121,35.331080000341899],[-89.917790000308173,35.304010000261428],[-89.923130000149285,35.276800000020103],[-89.928050000407097,35.249210000241476],[-89.932340000390582,35.220950000142523],[-89.935590000078321,35.191669999770795],[-89.937680000231694,35.161209999841788],[-89.938719999628177,35.129969999915716],[-89.938710000066351,35.098469999690906],[-89.937669999770549,35.067240000225979],[-89.935590000078321,35.036769999835769],[-89.932340000390582,35.007479999902216],[-89.928050000407097,34.979239999826291],[-89.923130000149285,34.951639999586462],[-89.917790000308173,34.924439999806282],[-89.912330000329121,34.897369999725868],[-89.907000000049834,34.870160000383862],[-89.901549999632664,34.843090000303391],[-89.898420000082808,34.829940000031115],[-89.889069999680657,34.790499999675376],[-89.88204999970759,34.764989999588977],[-89.874400000359628,34.740129999799819],[-89.86632999962967,34.715660000009166],[-89.862299999944923,34.703420000332869],[-89.850219999553246,34.666720000427802],[-89.842029999584724,34.642369999875712],[-89.838010000361123,34.630139999761298],[-89.825789999808535,34.59355999999417],[-89.821619999962934,34.581459999579465],[-89.813189999718588,34.557379999787315],[-89.800190000068369,34.521580000017138],[-89.79122000010284,34.498019999923201],[-89.781869999700632,34.474849999827768],[-89.772250000337124,34.451940000031129],[-89.762890000373091,34.428769999935696],[-89.758480000251723,34.416929999819786],[-89.749510000286193,34.393360000164023],[-89.736509999736597,34.357569999955672],[-89.728330000229221,34.333229999864727],[-89.720140000260699,34.308889999773839],[-89.711560000293673,34.284939999681399],[-89.702740000050881,34.261249999887752],[-89.693770000085351,34.237689999793815],[-89.684410000121318,34.214519999698382],[-89.674800000319635,34.191609999901743],[-89.665440000355602,34.16843999980631],[-89.656479999951955,34.144879999712373],[-89.652049999807559,34.133030000034637],[-89.639050000157283,34.097239999826286],[-89.630869999750587,34.072899999735341],[-89.622679999782065,34.048559999644397],[-89.61411999983801,34.024609999551956],[-89.60970000015476,34.01275999987422],[-89.596309999606717,33.977359999664372],[-89.586960000103829,33.954189999568996],[-89.577350000302147,33.9312799997723],[-89.567979999876968,33.908109999676867],[-89.55888000021173,33.884680000182016],[-89.549649999947462,33.861380000386873],[-89.540439999706109,33.838079999692354],[-89.531329999579725,33.814650000197503],[-89.521980000076837,33.791480000102069],[-89.512359999814009,33.768570000305431],[-89.503010000311178,33.745409999771823],[-89.494029999884503,33.72184000011606],[-89.485209999641654,33.69815999988424],[-89.481050000257198,33.686049999907709],[-89.468439999706106,33.649860000139029],[-89.460249999737584,33.625529999609967],[-89.45583999961616,33.613679999932174],[-89.442850000427086,33.577880000161997],[-89.433879999562237,33.554320000068117],[-89.424519999598203,33.531149999972683],[-89.414909999796578,33.508240000175988],[-89.405549999832544,33.485070000080611],[-89.40113999971112,33.473229999964644],[-89.387739999601195,33.437829999754854],[-89.379170000095314,33.413870000100587],[-89.370989999688618,33.389530000009643],[-89.36279000015827,33.365189999918698],[-89.358380000036846,33.353340000240962],[-89.349809999631702,33.329390000148521],[-89.336430000444068,33.293989999938674],[-89.327069999580715,33.270819999843241],[-89.317459999779089,33.247910000046602],[-89.308110000276201,33.224739999951169],[-89.303680000131806,33.212890000273433],[-89.294719999728102,33.189339999741321],[-89.281720000077826,33.153539999971144],[-89.273539999671129,33.129199999880257],[-89.265469999840491,33.104730000089603],[-89.261320000017861,33.092629999674898],[-89.25327000021025,33.068150000322419],[-89.245089999803554,33.043810000231474],[-89.232990000288169,33.007110000326406],[-89.224809999881472,32.982770000235462],[-89.21661999991295,32.958430000144517],[-89.212590000228204,32.946189999568958],[-89.200380000136818,32.909609999801773],[-89.191800000169792,32.885670000170535],[-89.182970000365117,32.861969999915686],[-89.174000000399587,32.838409999821806],[-89.164759999674118,32.815119999588433],[-89.155559999893967,32.791810000231465],[-89.146850000227232,32.76798999983879],[-89.142950000242195,32.75563000002461],[-89.131250000287196,32.718529999659893],[-89.124099999715099,32.693150000172523],[-89.117079999742089,32.667629999624921],[-89.109939999631194,32.642250000137551],[-89.102520000097797,32.617130000049599],[-89.094729999689605,32.592399999960151],[-89.086679999881994,32.567919999708351],[-89.078619999613181,32.543460000378843],[-89.074589999928435,32.531219999803284],[-89.062379999836992,32.4946400000361],[-89.05418999986847,32.470310000406357],[-89.046129999599714,32.445830000154501],[-89.042110000376113,32.433589999578942],[-89.030020000422553,32.39690000013502],[-89.02223000001436,32.372159999584483],[-89.018590000328174,32.359540000370885],[-89.007679999931952,32.32166000000916],[-89.00078999965865,32.29600999976185],[-88.994159999684143,32.27010999967689],[-88.987660000308665,32.244079999892222],[-88.981160000033867,32.218039999646408],[-88.974659999759069,32.192009999861739],[-88.968169999945417,32.16598000007707],[-88.961669999670619,32.139950000292401],[-88.958419999982937,32.126929999719835],[-88.948679999582225,32.087880000261919],[-88.942180000206747,32.061849999577987],[-88.935679999931949,32.035810000231493],[-88.929179999657151,32.009780000446824],[-88.925929999969412,31.996759999874257],[-88.916189999568701,31.957710000416341],[-88.909699999755105,31.931679999732353],[-88.903200000379627,31.905649999947684],[-88.896700000104829,31.879620000163015],[-88.890199999830031,31.853579999917201],[-88.883699999555233,31.827550000132533],[-88.877209999741581,31.801509999886719],[-88.870710000366103,31.77548000010205],[-88.864210000091305,31.749450000317381],[-88.857709999816507,31.723419999633393],[-88.851210000441085,31.697380000286955],[-88.844719999728113,31.671349999602967],[-88.838229999914461,31.645310000256472],[-88.831729999639663,31.619279999572484],[-88.825230000264185,31.593249999787815],[-88.818729999989387,31.567220000003147],[-88.815480000301648,31.554200000329899],[-88.805739999900993,31.515149999972664],[-88.799239999626195,31.489120000187995],[-88.792740000250717,31.463090000403326],[-88.786250000437065,31.437050000157512],[-88.779750000162267,31.411020000372844],[-88.773249999887469,31.384989999688855],[-88.766749999612671,31.358959999904243],[-88.760390000398104,31.332789999958663],[-88.75428000012181,31.306370000175491],[-88.74843000014431,31.279679999632435],[-88.742839999566229,31.25274000015105],[-88.737519999748088,31.225529999909725],[-88.732190000368121,31.198330000129545],[-88.726610000251185,31.17138999974884],[-88.720760000273685,31.144700000105047],[-88.717640000285655,31.131549999832771],[-88.708280000321679,31.092110000376351],[-88.701780000046881,31.066079999692363],[-88.695419999932938,31.039920000207985],[-88.689320000117789,31.013489999963667],[-88.683459999679144,30.986809999881757],[-88.677870000000382,30.959859999939169],[-88.672550000182241,30.932660000159046],[-88.667219999902954,30.905449999917721],[-88.661759999923959,30.87837999983725],[-88.656299999944963,30.851309999756836],[-88.650850000427056,30.82423000011454],[-88.64539000044806,30.797160000034125],[-88.640060000168774,30.7699499997928],[-88.634740000350632,30.74275000001262],[-88.629269999910491,30.715679999932206],[-88.62395000009235,30.688469999690881],[-88.618880000111801,30.661009999611963],[-88.614070000430047,30.633279999672368],[-88.609649999847534,30.605159999734326],[-88.605500000024904,30.576789999958692],[-88.601080000341653,30.54867000002065],[-88.59626999976058,30.520949999642937],[-88.591319999917971,30.493350000302428],[-88.586390000098334,30.465759999624424],[-88.581589999978405,30.438029999684886],[-88.577170000295155,30.409909999746844],[-88.573010000011379,30.381539999971153],[-88.568590000328129,30.353420000033111],[-88.563790000208257,30.325699999655399],[-88.558849999927475,30.298109999876715],[-88.55404000024572,30.270379999937177],[-88.549610000101325,30.242259999999135],[-88.545850000277198,30.213500000224997],[-88.54259999969014,30.184210000291444],[-88.539359999564226,30.15492000035789],[-88.5355999997401,30.126159999684376],[-88.53118000005685,30.098039999746334],[-88.526370000375096,30.070309999806796],[-88.521559999794079,30.042590000328403],[-88.517269999810537,30.014339999791275],[-88.514020000122798,29.985060000318924],[-88.511949999992396,29.95460000038986],[-88.510779999996885,29.923229999864759],[-88.510120000137817,29.891339999641389],[-88.509480000301664,29.859450000317395],[-88.508310000306153,29.828079999792294],[-88.506229999714606,29.79761999986323],[-88.502980000026866,29.768329999929676],[-88.498699999605208,29.740089999853751],[-88.493889999923454,29.712359999914213],[-88.489069999780554,29.68464000043582],[-88.484790000258215,29.656389999898693],[-88.481539999671156,29.627099999965196],[-88.479459999978928,29.596640000036132],[-88.478289999983417,29.565270000410351],[-88.47777999984703,29.533249999587952],[-88.477639999686119,29.500839999666368],[-88.477639999686119,29.468300000045133],[-88.477639999686119,29.435760000423841],[-88.477639999686119,29.403219999903229],[-88.477639999686119,29.370680000281936],[-88.477639999686119,29.338130000199499],[-88.477639999686119,29.305589999678887],[-88.477639999686119,29.273050000057594],[-88.477639999686119,29.240510000436302],[-88.477639999686119,29.20796999991569],[-88.477639999686119,29.175430000294398],[-88.477639999686119,29.14288000021196],[-88.477770000285204,29.110479999852259],[-88.478289999983417,29.078450000367354],[-88.479450000417103,29.047079999842254],[-88.481539999671156,29.016619999913189],[-88.484790000258215,28.987340000440838],[-88.489069999780554,28.959100000364856],[-88.493880000361628,28.931370000425318],[-88.498699999605208,28.90363999958646],[-88.502989999588692,28.875400000409854],[-88.506229999714606,28.846109999576981],[-88.508319999867979,28.815649999647917],[-88.509480000301664,28.784280000022136],[-88.509990000438052,28.752260000099056],[-88.510120000137817,28.71985000017753],[-88.510249999837527,28.687440000255947],[-88.510770000435059,28.655420000332867],[-88.51194000043057,28.624049999807767],[-88.514020000122798,28.593589999878759],[-88.517260000248712,28.564299999945206],[-88.521550000232196,28.536050000307398],[-88.52635999991395,28.508329999929686],[-88.531169999595704,28.480599999990147],[-88.535459999579189,28.452359999914222],[-88.538710000166247,28.423069999980669],[-88.540909999996416,28.392739999751313],[-88.54259999969014,28.361889999823802],[-88.544299999845009,28.331039999896234],[-88.54649999967512,28.300720000128024],[-88.549750000262179,28.271430000194471],[-88.554029999784575,28.2431799996574],[-88.558840000365592,28.215460000179007],[-88.563650000047346,28.187730000239469],[-88.568069999730596,28.159619999863253],[-88.571849999577694,28.130849999627912],[-88.575089999703607,28.101559999694359],[-88.578340000290666,28.072280000221951],[-88.582109999676618,28.043509999986668],[-88.586530000259188,28.015390000048626],[-88.591330000379116,27.987669999670914],[-88.596149999622696,27.959939999731318],[-88.600559999744064,27.931830000254479],[-88.604319999568247,27.903060000019138],[-88.607579999717132,27.873779999647411],[-88.610819999842988,27.844489999713858],[-88.614590000128317,27.815720000377837],[-88.61900999981151,27.787600000439795],[-88.62395000009235,27.760009999761849],[-88.629280000371637,27.732800000419843],[-88.634740000350632,27.705730000339372],[-88.640060000168774,27.678520000098047],[-88.64539000044806,27.651320000317924],[-88.650850000427056,27.624250000237453],[-88.656299999944963,27.597169999695893],[-88.661759999923959,27.570099999615422],[-88.667219999902954,27.543019999973183],[-88.672550000182241,27.515820000193003],[-88.677870000000382,27.488609999951677],[-88.683329999979435,27.461539999871263],[-88.688789999958431,27.434469999790792],[-88.694240000375601,27.407390000148553],[-88.699700000354653,27.380320000068082],[-88.70502999973462,27.353109999826756],[-88.710360000013907,27.325910000046633],[-88.715940000130786,27.298969999665871],[-88.721790000108342,27.272280000022135],[-88.727909999946462,27.245860000238963],[-88.734270000060349,27.21969000029344],[-88.740770000335147,27.193659999609451],[-88.747269999710625,27.167629999824783],[-88.753769999985423,27.141589999578969],[-88.760259999799075,27.1155599997943],[-88.766749999612671,27.089530000009631],[-88.77000000019973,27.076510000336384],[-88.779750000162267,27.037459999979149],[-88.786250000437065,27.01143000019448],[-88.792749999812543,26.985389999948666],[-88.799239999626195,26.959360000163997],[-88.805869999600702,26.933460000079094],[-88.812759999874004,26.907820000292929],[-88.819899999984898,26.882430000344357],[-88.827320000417558,26.857310000256462],[-88.835100000364605,26.832580000167013],[-88.843150000172272,26.808110000376359],[-88.851220000002911,26.783639999686386],[-88.859280000271667,26.759169999895732],[-88.867459999779044,26.734820000242962],[-88.87564000018574,26.710480000152018],[-88.883699999555233,26.686010000361364],[-88.8877300001393,26.67378000024695],[-88.899949999792568,26.637199999580446],[-88.908130000199264,26.612860000388821],[-88.916189999568701,26.588389999698848],[-88.924380000436543,26.56404999960796],[-88.932949999942423,26.540100000414839],[-88.941790000208243,26.516409999721873],[-88.950760000173773,26.492849999627936],[-88.955309999556732,26.481129999649909],[-88.964920000257678,26.458230000314416],[-88.979080000341639,26.42359999964043],[-88.988180000006878,26.400170000145522],[-88.997410000271202,26.37687000035038],[-89.006630000074324,26.353569999655917],[-89.015729999739619,26.330140000161009],[-89.020280000021899,26.318420000182982],[-89.029889999823524,26.295519999948169],[-89.044049999907486,26.260890000173504],[-89.053149999572724,26.237459999779333],[-89.062379999836992,26.214159999984133],[-89.071610000101316,26.190860000188991],[-89.080829999904495,26.167569999955674],[-89.090579999866975,26.144789999858745],[-89.100850000427101,26.122530000359347],[-89.111240000225735,26.100399999660397],[-89.121890000323162,26.078530000159503],[-89.127350000302158,26.067730000339395],[-89.138259999799061,26.046120000237977],[-89.154369999875485,26.013450000017656],[-89.159840000315683,26.002650000197491],[-89.17606999963067,25.970100000115053],[-89.181399999909956,25.95916999969586],[-89.192319999868005,25.937559999594441],[-89.20857000010534,25.905019999973149],[-89.219349999902477,25.883289999733847],[-89.224809999881472,25.872480000351857],[-89.241060000118807,25.839939999831245],[-89.246379999936948,25.829010000311428],[-89.257290000333171,25.807400000210009],[-89.273530000109304,25.774859999689397],[-89.27886000038859,25.763919999708378],[-89.289780000346639,25.74230999960696],[-89.300689999843542,25.720709999966687],[-89.311350000402115,25.698839999566474],[-89.327710000316131,25.66642999964489],[-89.333179999857009,25.655620000262957],[-89.343829999954437,25.633760000323889],[-89.36033999959119,25.601469999640926],[-89.365919999708126,25.590800000419847],[-89.382949999942412,25.559039999896243],[-89.388790000358142,25.548630000074581],[-89.401000000449585,25.528319999668383],[-89.413480000401591,25.508280000022125],[-89.425949999892453,25.488229999914722],[-89.444529999659665,25.458030000284452],[-89.450639999935959,25.447879999862266],[-89.468439999706106,25.416900000234989],[-89.480270000260191,25.396210000291433],[-89.49236000021375,25.375770000185526],[-89.498460000028899,25.365619999763339],[-89.517300000094849,25.335680000431807],[-89.523669999770561,25.325790000308416],[-89.536670000320157,25.306259999899225],[-89.549669999970433,25.28673999995118],[-89.569149999872479,25.257450000017627],[-89.582019999823046,25.237789999908728],[-89.588379999936933,25.227899999785279],[-89.600850000327171,25.207860000139021],[-89.613069999980439,25.187549999732823],[-89.630869999750587,25.156570000105546],[-89.636730000189232,25.146160000283942],[-89.654790000258174,25.115440000056083],[-89.667130000049383,25.09526000024897],[-89.679730000139273,25.075350000302421],[-89.686099999815042,25.06546000017903],[-89.699100000364638,25.045929999769839],[-89.712360000313652,25.026659999659387],[-89.732740000350645,24.998289999883752],[-89.739629999724627,24.988920000357894],[-89.753680000131794,24.970439999806274],[-89.767969999915465,24.952209999991624],[-89.782000000299661,24.933730000339381],[-89.795779999946944,24.914979999927198],[-89.816440000305647,24.886869999550981],[-89.830210000391105,24.868120000038118],[-89.837090000203261,24.85874999961294],[-89.851139999711108,24.840269999960697],[-89.865419999932953,24.822049999707872],[-89.886339999691131,24.794190000068568],[-89.893229999964433,24.784819999643389],[-89.907009999611716,24.766079999692352],[-89.920779999697118,24.747330000179488],[-89.934810000081313,24.728849999627926],[-89.949369999725604,24.710889999673896],[-89.964710000266223,24.693700000155047],[-89.980299999745114,24.676779999597443],[-89.996409999821537,24.660379999637428],[-90.012530000359106,24.643979999677413],[-90.028890000273179,24.627840000016135],[-90.045009999911485,24.611429999594975],[-90.061380000286704,24.595300000394843],[-90.077490000363127,24.578900000434828],[-90.093610000001377,24.562499999575437],[-90.109200000379587,24.545570000355383],[-90.124529999559741,24.52839000039836],[-90.139079999642149,24.51043000044433],[-90.153119999588228,24.491949999892711],[-90.166889999673629,24.473200000379848],[-90.180670000220232,24.45446000042881],[-90.194699999705108,24.435970000315422],[-90.209260000248719,24.418010000361392],[-90.224590000328135,24.400830000404312],[-90.240449999667646,24.384170000145559],[-90.257080000341659,24.368289999883757],[-90.274229999814509,24.352930000219487],[-90.292160000183742,24.338349999652905],[-90.310610000251188,24.324300000145058],[-90.329319999718109,24.310499999575484],[-90.348039999646176,24.296699999905229],[-90.366489999713622,24.28263999993618],[-90.38440999962171,24.268060000268918],[-90.401569999555704,24.252699999705385],[-90.418459999629192,24.237079999742321],[-90.434839999566236,24.2209400000811],[-90.451209999941454,24.204800000419823],[-90.467320000017878,24.188399999560488],[-90.483699999954922,24.172259999899211],[-90.499819999593228,24.155859999939196],[-90.516189999968447,24.139720000277919],[-90.53230000004487,24.123320000317904],[-90.548670000420088,24.107179999757307],[-90.564779999597192,24.090770000235466],[-90.581149999972411,24.074629999674869],[-90.597269999610717,24.058240000175999],[-90.621829999954457,24.034020000222995],[-90.630019999922979,24.025950000392356],[-90.655489999963436,24.002649999697894],[-90.673030000334165,23.987680000032128],[-90.681989999838493,23.980399999760323],[-90.691220000102817,23.973370000225486],[-90.709799999869972,23.959439999956203],[-90.728519999798038,23.945640000285948],[-90.756320000267692,23.924679999582452],[-90.774249999737606,23.910110000376335],[-90.791400000109832,23.894749999812802],[-90.808299999745088,23.879129999849738],[-90.824670000120307,23.862990000188518],[-90.841039999596205,23.846849999627921],[-90.86586000023874,23.822900000434799],[-90.87430999960668,23.815090000003636],[-90.891459999978906,23.799730000339366],[-90.909390000348139,23.785149999772841],[-90.927840000415586,23.771089999803792],[-90.937189999918473,23.764189999968664],[-90.95590999984654,23.75039000029841],[-90.97462999977455,23.736600000189981],[-90.993210000441081,23.722669999920697],[-91.020620000012912,23.701320000118073],[-91.039070000080358,23.687260000149024],[-91.057790000008367,23.673470000040595],[-91.067279999672166,23.666699999905234],[-91.086380000036854,23.653290000233483],[-91.105739999801074,23.64013999996115],[-91.125370000325177,23.627260000448814],[-91.145229999764581,23.614629999874751],[-91.165379999986897,23.602259999599426],[-91.185909999746571,23.590289999783806],[-91.20696999966566,23.5788399996664],[-91.228280000321661,23.567640000285905],[-91.249710000216226,23.556580000167003],[-91.27153999967112,23.545899999585458],[-91.293639999886011,23.535489999763797],[-91.315860000238729,23.525209999641902],[-91.338600000289659,23.515450000117539],[-91.361980000176743,23.50633000042933],[-91.385640000385592,23.497479999702364],[-91.409539999970946,23.488890000173512],[-91.433849999577717,23.480689999743845],[-91.458269999760603,23.472619999913206],[-91.482569999805548,23.464420000382859],[-91.506869999850494,23.456219999953191],[-91.531299999595205,23.448150000122553],[-91.555739999801062,23.440080000291914],[-91.580030000284182,23.431879999862247],[-91.604330000329128,23.423680000331899],[-91.628769999635665,23.415609999601941],[-91.653060000118785,23.407410000071593],[-91.676970000165284,23.398819999643422],[-91.700610000351105,23.389969999815776],[-91.723999999800071,23.380859999689392],[-91.746750000312147,23.371089999703884],[-91.768969999765602,23.360809999581932],[-91.791049999957409,23.350399999760327],[-91.812760000173739,23.339590000378337],[-91.833800000069857,23.32814000026093],[-91.854340000290676,23.316159999984166],[-91.873960000353634,23.303279999572453],[-91.900850000227251,23.28141000007156],[-91.917230000164295,23.265270000410339],[-91.938669999620686,23.237929999569985],[-91.951140000010867,23.217889999923671],[-91.961930000269206,23.196150000122543],[-91.970499999775086,23.172460000328897],[-91.97648999991344,23.146950000242441],[-91.979730000039353,23.12000000029991],[-91.980120000037857,23.092279999922198],[-91.977659999908951,23.064810000281454],[-91.972580000366634,23.038389999598962],[-91.965300000094828,23.013400000110039],[-91.955949999692621,22.990230000014606],[-91.944639999736069,22.969009999911691],[-91.931649999647675,22.949489999963646],[-91.917219999703093,22.93152000044779],[-91.901369999925464,22.915250000187484],[-91.875400000209765,22.893780000246977],[-91.8474599995792,22.876330000429334],[-91.838350000352136,22.871129999849757],[-91.818469999990384,22.862790000158498],[-91.785859999839033,22.853940000330908]]]},"properties":{"objectid":564,"stormname":"Isaias","stormtype":"HU","basin":"AL","advdate":"100 AM CDT Thu Oct 08 2026","advisnum":"6A","fcstprd":120,"stormnum":9,"idp_source":"al092026-006A_5day_pgn","idp_filedate":1791439725000,"idp_ingestdate":1791439733000,"st_area(shape)":34.927652811125931,"st_perimeter(shape)":34.573564564142139,"binnumber":"AT4"}}]}