{"type":"FeatureCollection","features":[{"type":"Feature","id":4685,"geometry":{"type":"Point","coordinates":[-90.200000000399598,23.700000000399825]},"properties":{"objectid":4685,"stormname":"Hurricane Isaias","stormtype":"HU","dvlbl":"H","basin":"AL","advdate":"1000 AM CDT Thu Oct 08 2026","advisnum":"8","fcstprd":120,"gust":90,"maxwind":75,"mslp":975,"ssnum":1,"datelbl":"10:00 AM Thu","tcdvlp":"Hurricane","tcdir":60,"tcspd":9,"fldatelbl":"2026-10-08 7:00 AM Thu CDT","lat":24,"lon":-90,"stormnum":9,"stormsrc":"Tropical Cyclone","tau":0,"timezone":"CDT","validtime":"08/1200","idp_source":"al092026-008_5day_pts","idp_filedate":1791473297000,"idp_ingestdate":1791473358000,"binnumber":"AT4"}},{"type":"Feature","id":4686,"geometry":{"type":"Point","coordinates":[-89.000000000099817,24.899999999800286]},"properties":{"objectid":4686,"stormname":"Hurricane Isaias","stormtype":"HU","dvlbl":"H","basin":"AL","advdate":"1000 AM CDT Thu Oct 08 2026","advisnum":"8","fcstprd":120,"gust":110,"maxwind":90,"mslp":9999,"ssnum":2,"datelbl":"7:00 PM Thu","tcdvlp":"Hurricane","tcdir":9999,"tcspd":9999,"fldatelbl":"2026-10-08 7:00 PM Thu CDT","lat":25,"lon":-89,"stormnum":9,"stormsrc":"Tropical Cyclone","tau":12,"timezone":"CDT","validtime":"09/0000","idp_source":"al092026-008_5day_pts","idp_filedate":1791473297000,"idp_ingestdate":1791473358000,"binnumber":"AT4"}},{"type":"Feature","id":4687,"geometry":{"type":"Point","coordinates":[-87.899999999600197,27.099999999900206]},"properties":{"objectid":4687,"stormname":"Hurricane Isaias","stormtype":"HU","dvlbl":"H","basin":"AL","advdate":"1000 AM CDT Thu Oct 08 2026","advisnum":"8","fcstprd":120,"gust":115,"maxwind":95,"mslp":9999,"ssnum":2,"datelbl":"7:00 AM Fri","tcdvlp":"Hurricane","tcdir":9999,"tcspd":9999,"fldatelbl":"2026-10-09 7:00 AM Fri CDT","lat":27,"lon":-88,"stormnum":9,"stormsrc":"Tropical Cyclone","tau":24,"timezone":"CDT","validtime":"09/1200","idp_source":"al092026-008_5day_pts","idp_filedate":1791473297000,"idp_ingestdate":1791473358000,"binnumber":"AT4"}},{"type":"Feature","id":4688,"geometry":{"type":"Point","coordinates":[-87.399999999700128,29.600000000299929]},"properties":{"objectid":4688,"stormname":"Hurricane Isaias","stormtype":"HU","dvlbl":"H","basin":"AL","advdate":"1000 AM CDT Thu Oct 08 2026","advisnum":"8","fcstprd":120,"gust":105,"maxwind":85,"mslp":9999,"ssnum":2,"datelbl":"7:00 PM Fri","tcdvlp":"Hurricane","tcdir":9999,"tcspd":9999,"fldatelbl":"2026-10-09 7:00 PM Fri CDT","lat":30,"lon":-87,"stormnum":9,"stormsrc":"Tropical Cyclone","tau":36,"timezone":"CDT","validtime":"10/0000","idp_source":"al092026-008_5day_pts","idp_filedate":1791473297000,"idp_ingestdate":1791473358000,"binnumber":"AT4"}},{"type":"Feature","id":4689,"geometry":{"type":"Point","coordinates":[-87.799999999800036,32.300000000299917]},"properties":{"objectid":4689,"stormname":"Hurricane Isaias","stormtype":"TS","dvlbl":"S","basin":"AL","advdate":"1000 AM CDT Thu Oct 08 2026","advisnum":"8","fcstprd":120,"gust":45,"maxwind":35,"mslp":9999,"ssnum":0,"datelbl":"7:00 AM Sat","tcdvlp":"Tropical Storm","tcdir":9999,"tcspd":9999,"fldatelbl":"2026-10-10 7:00 AM Sat CDT","lat":32,"lon":-88,"stormnum":9,"stormsrc":"Tropical Cyclone","tau":48,"timezone":"CDT","validtime":"10/1200","idp_source":"al092026-008_5day_pts","idp_filedate":1791473297000,"idp_ingestdate":1791473358000,"binnumber":"AT4"}},{"type":"Feature","id":4690,"geometry":{"type":"Point","coordinates":[-88.10000000009984,34.600000000199998]},"properties":{"objectid":4690,"stormname":"Hurricane Isaias","stormtype":"STD","dvlbl":"D","basin":"AL","advdate":"1000 AM CDT Thu Oct 08 2026","advisnum":"8","fcstprd":120,"gust":40,"maxwind":30,"mslp":9999,"ssnum":0,"datelbl":"7:00 PM Sat","tcdvlp":"Subtropical Depression","tcdir":9999,"tcspd":9999,"fldatelbl":"2026-10-10 7:00 PM Sat CDT","lat":35,"lon":-88,"stormnum":9,"stormsrc":"Post-Tropical Cyclone","tau":60,"timezone":"CDT","validtime":"11/0000","idp_source":"al092026-008_5day_pts","idp_filedate":1791473297000,"idp_ingestdate":1791473358000,"binnumber":"AT4"}},{"type":"Feature","id":4691,"geometry":{"type":"Point","coordinates":[-87.799999999800036,36.500000000000171]},"properties":{"objectid":4691,"stormname":"Hurricane Isaias","stormtype":"STD","dvlbl":"D","basin":"AL","advdate":"1000 AM CDT Thu Oct 08 2026","advisnum":"8","fcstprd":120,"gust":35,"maxwind":25,"mslp":9999,"ssnum":0,"datelbl":"7:00 AM Sun","tcdvlp":"Subtropical Depression","tcdir":9999,"tcspd":9999,"fldatelbl":"2026-10-11 7:00 AM Sun CDT","lat":36,"lon":-88,"stormnum":9,"stormsrc":"Post-Tropical Cyclone","tau":72,"timezone":"CDT","validtime":"11/1200","idp_source":"al092026-008_5day_pts","idp_filedate":1791473297000,"idp_ingestdate":1791473358000,"binnumber":"AT4"}}]}