{"type":"FeatureCollection","features":[{"type":"Feature","id":4631,"geometry":{"type":"Point","coordinates":[-90.599999999600186,23.700000000399825]},"properties":{"objectid":4631,"stormname":"Hurricane Isaias","stormtype":"HU","dvlbl":"H","basin":"AL","advdate":"700 AM CDT Thu Oct 08 2026","advisnum":"7A","fcstprd":120,"gust":85,"maxwind":70,"mslp":975,"ssnum":1,"datelbl":"7:00 AM Thu","tcdvlp":"Hurricane","tcdir":60,"tcspd":8,"fldatelbl":"2026-10-08 4:00 AM Thu CDT","lat":24,"lon":-91,"stormnum":9,"stormsrc":"Tropical Cyclone","tau":0,"timezone":"CDT","validtime":"08/0900","idp_source":"al092026-007A_5day_pts","idp_filedate":1791461318000,"idp_ingestdate":1791461387000,"binnumber":"AT4"}},{"type":"Feature","id":4632,"geometry":{"type":"Point","coordinates":[-89.999999999899956,24.200000000299895]},"properties":{"objectid":4632,"stormname":"Hurricane Isaias","stormtype":"HU","dvlbl":"H","basin":"AL","advdate":"700 AM CDT Thu Oct 08 2026","advisnum":"7A","fcstprd":120,"gust":105,"maxwind":85,"mslp":9999,"ssnum":2,"datelbl":"1:00 PM Thu","tcdvlp":"Hurricane","tcdir":9999,"tcspd":9999,"fldatelbl":"2026-10-08 1:00 PM Thu CDT","lat":24,"lon":-90,"stormnum":9,"stormsrc":"Tropical Cyclone","tau":12,"timezone":"CDT","validtime":"08/1800","idp_source":"al092026-007A_5day_pts","idp_filedate":1791461318000,"idp_ingestdate":1791461387000,"binnumber":"AT4"}},{"type":"Feature","id":4633,"geometry":{"type":"Point","coordinates":[-88.599999999999909,25.899999999600425]},"properties":{"objectid":4633,"stormname":"Hurricane Isaias","stormtype":"HU","dvlbl":"H","basin":"AL","advdate":"700 AM CDT Thu Oct 08 2026","advisnum":"7A","fcstprd":120,"gust":115,"maxwind":95,"mslp":9999,"ssnum":2,"datelbl":"1:00 AM Fri","tcdvlp":"Hurricane","tcdir":9999,"tcspd":9999,"fldatelbl":"2026-10-09 1:00 AM Fri CDT","lat":26,"lon":-89,"stormnum":9,"stormsrc":"Tropical Cyclone","tau":24,"timezone":"CDT","validtime":"09/0600","idp_source":"al092026-007A_5day_pts","idp_filedate":1791461318000,"idp_ingestdate":1791461387000,"binnumber":"AT4"}},{"type":"Feature","id":4634,"geometry":{"type":"Point","coordinates":[-87.600000000199771,28.400000000000148]},"properties":{"objectid":4634,"stormname":"Hurricane Isaias","stormtype":"HU","dvlbl":"H","basin":"AL","advdate":"700 AM CDT Thu Oct 08 2026","advisnum":"7A","fcstprd":120,"gust":110,"maxwind":90,"mslp":9999,"ssnum":2,"datelbl":"1:00 PM Fri","tcdvlp":"Hurricane","tcdir":9999,"tcspd":9999,"fldatelbl":"2026-10-09 1:00 PM Fri CDT","lat":28,"lon":-88,"stormnum":9,"stormsrc":"Tropical Cyclone","tau":36,"timezone":"CDT","validtime":"09/1800","idp_source":"al092026-007A_5day_pts","idp_filedate":1791461318000,"idp_ingestdate":1791461387000,"binnumber":"AT4"}},{"type":"Feature","id":4635,"geometry":{"type":"Point","coordinates":[-87.600000000199771,31.000000000199975]},"properties":{"objectid":4635,"stormname":"Hurricane Isaias","stormtype":"TS","dvlbl":"S","basin":"AL","advdate":"700 AM CDT Thu Oct 08 2026","advisnum":"7A","fcstprd":120,"gust":65,"maxwind":55,"mslp":9999,"ssnum":0,"datelbl":"1:00 AM Sat","tcdvlp":"Tropical Storm","tcdir":9999,"tcspd":9999,"fldatelbl":"2026-10-10 1:00 AM Sat CDT","lat":31,"lon":-88,"stormnum":9,"stormsrc":"Tropical Cyclone","tau":48,"timezone":"CDT","validtime":"10/0600","idp_source":"al092026-007A_5day_pts","idp_filedate":1791461318000,"idp_ingestdate":1791461387000,"binnumber":"AT4"}},{"type":"Feature","id":4636,"geometry":{"type":"Point","coordinates":[-88.500000000199748,33.700000000200021]},"properties":{"objectid":4636,"stormname":"Hurricane Isaias","stormtype":"STD","dvlbl":"D","basin":"AL","advdate":"700 AM CDT Thu Oct 08 2026","advisnum":"7A","fcstprd":120,"gust":40,"maxwind":30,"mslp":9999,"ssnum":0,"datelbl":"1:00 PM Sat","tcdvlp":"Subtropical Depression","tcdir":9999,"tcspd":9999,"fldatelbl":"2026-10-10 1:00 PM Sat CDT","lat":34,"lon":-88,"stormnum":9,"stormsrc":"Post-Tropical Cyclone","tau":60,"timezone":"CDT","validtime":"10/1800","idp_source":"al092026-007A_5day_pts","idp_filedate":1791461318000,"idp_ingestdate":1791461387000,"binnumber":"AT4"}},{"type":"Feature","id":4637,"geometry":{"type":"Point","coordinates":[-88.69999999980007,36.000000000100044]},"properties":{"objectid":4637,"stormname":"Hurricane Isaias","stormtype":"STD","dvlbl":"D","basin":"AL","advdate":"700 AM CDT Thu Oct 08 2026","advisnum":"7A","fcstprd":120,"gust":35,"maxwind":25,"mslp":9999,"ssnum":0,"datelbl":"1:00 AM Sun","tcdvlp":"Subtropical Depression","tcdir":9999,"tcspd":9999,"fldatelbl":"2026-10-11 1:00 AM Sun CDT","lat":36,"lon":-89,"stormnum":9,"stormsrc":"Post-Tropical Cyclone","tau":72,"timezone":"CDT","validtime":"11/0600","idp_source":"al092026-007A_5day_pts","idp_filedate":1791461318000,"idp_ingestdate":1791461387000,"binnumber":"AT4"}}]}