{"type":"FeatureCollection","features":[{"type":"Feature","id":4563,"geometry":{"type":"Point","coordinates":[-91.700000000099806,23.099999999800275]},"properties":{"objectid":4563,"stormname":"Hurricane Isaias","stormtype":"HU","dvlbl":"H","basin":"AL","advdate":"100 AM CDT Thu Oct 08 2026","advisnum":"6A","fcstprd":120,"gust":75,"maxwind":65,"mslp":981,"ssnum":1,"datelbl":"1:00 AM Thu","tcdvlp":"Hurricane","tcdir":70,"tcspd":8,"fldatelbl":"2026-10-07 10:00 PM Wed CDT","lat":23,"lon":-92,"stormnum":9,"stormsrc":"Tropical Cyclone","tau":0,"timezone":"CDT","validtime":"08/0300","idp_source":"al092026-006A_5day_pts","idp_filedate":1791439725000,"idp_ingestdate":1791439738000,"binnumber":"AT4"}},{"type":"Feature","id":4564,"geometry":{"type":"Point","coordinates":[-90.700000000299667,23.400000000100079]},"properties":{"objectid":4564,"stormname":"Hurricane Isaias","stormtype":"HU","dvlbl":"H","basin":"AL","advdate":"100 AM CDT Thu Oct 08 2026","advisnum":"6A","fcstprd":120,"gust":90,"maxwind":75,"mslp":9999,"ssnum":1,"datelbl":"7:00 AM Thu","tcdvlp":"Hurricane","tcdir":9999,"tcspd":9999,"fldatelbl":"2026-10-08 7:00 AM Thu CDT","lat":23,"lon":-91,"stormnum":9,"stormsrc":"Tropical Cyclone","tau":12,"timezone":"CDT","validtime":"08/1200","idp_source":"al092026-006A_5day_pts","idp_filedate":1791439725000,"idp_ingestdate":1791439738000,"binnumber":"AT4"}},{"type":"Feature","id":4565,"geometry":{"type":"Point","coordinates":[-89.099999999899978,24.700000000199964]},"properties":{"objectid":4565,"stormname":"Hurricane Isaias","stormtype":"HU","dvlbl":"H","basin":"AL","advdate":"100 AM CDT Thu Oct 08 2026","advisnum":"6A","fcstprd":120,"gust":105,"maxwind":85,"mslp":9999,"ssnum":2,"datelbl":"7:00 PM Thu","tcdvlp":"Hurricane","tcdir":9999,"tcspd":9999,"fldatelbl":"2026-10-08 7:00 PM Thu CDT","lat":25,"lon":-89,"stormnum":9,"stormsrc":"Tropical Cyclone","tau":24,"timezone":"CDT","validtime":"09/0000","idp_source":"al092026-006A_5day_pts","idp_filedate":1791439725000,"idp_ingestdate":1791439738000,"binnumber":"AT4"}},{"type":"Feature","id":4566,"geometry":{"type":"Point","coordinates":[-87.899999999600197,26.799999999600459]},"properties":{"objectid":4566,"stormname":"Hurricane Isaias","stormtype":"HU","dvlbl":"H","basin":"AL","advdate":"100 AM CDT Thu Oct 08 2026","advisnum":"6A","fcstprd":120,"gust":115,"maxwind":95,"mslp":9999,"ssnum":2,"datelbl":"7:00 AM Fri","tcdvlp":"Hurricane","tcdir":9999,"tcspd":9999,"fldatelbl":"2026-10-09 7:00 AM Fri CDT","lat":27,"lon":-88,"stormnum":9,"stormsrc":"Tropical Cyclone","tau":36,"timezone":"CDT","validtime":"09/1200","idp_source":"al092026-006A_5day_pts","idp_filedate":1791439725000,"idp_ingestdate":1791439738000,"binnumber":"AT4"}},{"type":"Feature","id":4567,"geometry":{"type":"Point","coordinates":[-87.299999999899967,29.600000000299929]},"properties":{"objectid":4567,"stormname":"Hurricane Isaias","stormtype":"HU","dvlbl":"H","basin":"AL","advdate":"100 AM CDT Thu Oct 08 2026","advisnum":"6A","fcstprd":120,"gust":110,"maxwind":90,"mslp":9999,"ssnum":2,"datelbl":"7:00 PM Fri","tcdvlp":"Hurricane","tcdir":9999,"tcspd":9999,"fldatelbl":"2026-10-09 7:00 PM Fri CDT","lat":30,"lon":-87,"stormnum":9,"stormsrc":"Tropical Cyclone","tau":48,"timezone":"CDT","validtime":"10/0000","idp_source":"al092026-006A_5day_pts","idp_filedate":1791439725000,"idp_ingestdate":1791439738000,"binnumber":"AT4"}},{"type":"Feature","id":4568,"geometry":{"type":"Point","coordinates":[-87.500000000399609,32.49999999990024]},"properties":{"objectid":4568,"stormname":"Hurricane Isaias","stormtype":"TS","dvlbl":"S","basin":"AL","advdate":"100 AM CDT Thu Oct 08 2026","advisnum":"6A","fcstprd":120,"gust":60,"maxwind":50,"mslp":9999,"ssnum":0,"datelbl":"7:00 AM Sat","tcdvlp":"Tropical Storm","tcdir":9999,"tcspd":9999,"fldatelbl":"2026-10-10 7:00 AM Sat CDT","lat":32,"lon":-88,"stormnum":9,"stormsrc":"Tropical Cyclone","tau":60,"timezone":"CDT","validtime":"10/1200","idp_source":"al092026-006A_5day_pts","idp_filedate":1791439725000,"idp_ingestdate":1791439738000,"binnumber":"AT4"}},{"type":"Feature","id":4569,"geometry":{"type":"Point","coordinates":[-88.000000000299679,35.100000000100067]},"properties":{"objectid":4569,"stormname":"Hurricane Isaias","stormtype":"STD","dvlbl":"D","basin":"AL","advdate":"100 AM CDT Thu Oct 08 2026","advisnum":"6A","fcstprd":120,"gust":35,"maxwind":25,"mslp":9999,"ssnum":0,"datelbl":"7:00 PM Sat","tcdvlp":"Subtropical Depression","tcdir":9999,"tcspd":9999,"fldatelbl":"2026-10-10 7:00 PM Sat CDT","lat":35,"lon":-88,"stormnum":9,"stormsrc":"Post-Tropical Cyclone","tau":72,"timezone":"CDT","validtime":"11/0000","idp_source":"al092026-006A_5day_pts","idp_filedate":1791439725000,"idp_ingestdate":1791439738000,"binnumber":"AT4"}}]}