{"type":"FeatureCollection","features":[{"type":"Feature","id":24771,"geometry":{"type":"Point","coordinates":[-96.500000000399609,22.000000000199975]},"properties":{"objectid":24771,"stormname":"GENESIS022","stormtype":"DB","stormnum":9,"intensity":15,"basin":"al","mslp":0,"dtg":2026100418,"year":2026,"month":"10","day":4,"hhmm":"1800","lat":22,"lon":-96,"ss":0,"idp_source":"AL092026_pts","idp_filedate":1791581282000,"idp_ingestdate":1791581380000,"binnumber":"AT4"}},{"type":"Feature","id":24772,"geometry":{"type":"Point","coordinates":[-96.500000000399609,22.000000000199975]},"properties":{"objectid":24772,"stormname":"GENESIS022","stormtype":"DB","stormnum":9,"intensity":20,"basin":"al","mslp":0,"dtg":2026100500,"year":2026,"month":"10","day":5,"hhmm":"0000","lat":22,"lon":-96,"ss":0,"idp_source":"AL092026_pts","idp_filedate":1791581282000,"idp_ingestdate":1791581380000,"binnumber":"AT4"}},{"type":"Feature","id":24773,"geometry":{"type":"Point","coordinates":[-96.500000000399609,22.000000000199975]},"properties":{"objectid":24773,"stormname":"GENESIS022","stormtype":"DB","stormnum":9,"intensity":25,"basin":"al","mslp":0,"dtg":2026100506,"year":2026,"month":"10","day":5,"hhmm":"0600","lat":22,"lon":-96,"ss":0,"idp_source":"AL092026_pts","idp_filedate":1791581282000,"idp_ingestdate":1791581380000,"binnumber":"AT4"}},{"type":"Feature","id":24774,"geometry":{"type":"Point","coordinates":[-96.500000000399609,22.000000000199975]},"properties":{"objectid":24774,"stormname":"INVEST","stormtype":"DB","stormnum":9,"intensity":25,"basin":"al","mslp":1010,"dtg":2026100512,"year":2026,"month":"10","day":5,"hhmm":"1200","lat":22,"lon":-96,"ss":0,"idp_source":"AL092026_pts","idp_filedate":1791581282000,"idp_ingestdate":1791581380000,"binnumber":"AT4"}},{"type":"Feature","id":24775,"geometry":{"type":"Point","coordinates":[-96.299999999899967,22.199999999800298]},"properties":{"objectid":24775,"stormname":"INVEST","stormtype":"DB","stormnum":9,"intensity":25,"basin":"al","mslp":1010,"dtg":2026100518,"year":2026,"month":"10","day":5,"hhmm":"1800","lat":22,"lon":-96,"ss":0,"idp_source":"AL092026_pts","idp_filedate":1791581282000,"idp_ingestdate":1791581380000,"binnumber":"AT4"}},{"type":"Feature","id":24776,"geometry":{"type":"Point","coordinates":[-96.100000000299644,22.299999999600459]},"properties":{"objectid":24776,"stormname":"INVEST","stormtype":"DB","stormnum":9,"intensity":25,"basin":"al","mslp":1009,"dtg":2026100600,"year":2026,"month":"10","day":6,"hhmm":"0000","lat":22,"lon":-96,"ss":0,"idp_source":"AL092026_pts","idp_filedate":1791581282000,"idp_ingestdate":1791581380000,"binnumber":"AT4"}},{"type":"Feature","id":24777,"geometry":{"type":"Point","coordinates":[-95.99999999960022,22.199999999800298]},"properties":{"objectid":24777,"stormname":"INVEST","stormtype":"DB","stormnum":9,"intensity":25,"basin":"al","mslp":1009,"dtg":2026100606,"year":2026,"month":"10","day":6,"hhmm":"0600","lat":22,"lon":-96,"ss":0,"idp_source":"AL092026_pts","idp_filedate":1791581282000,"idp_ingestdate":1791581380000,"binnumber":"AT4"}},{"type":"Feature","id":24778,"geometry":{"type":"Point","coordinates":[-95.99999999960022,22.000000000199975]},"properties":{"objectid":24778,"stormname":"INVEST","stormtype":"DB","stormnum":9,"intensity":25,"basin":"al","mslp":1008,"dtg":2026100612,"year":2026,"month":"10","day":6,"hhmm":"1200","lat":22,"lon":-96,"ss":0,"idp_source":"AL092026_pts","idp_filedate":1791581282000,"idp_ingestdate":1791581380000,"binnumber":"AT4"}},{"type":"Feature","id":24779,"geometry":{"type":"Point","coordinates":[-95.700000000199736,21.900000000399814]},"properties":{"objectid":24779,"stormname":"NINE","stormtype":"TD","stormnum":9,"intensity":30,"basin":"al","mslp":1007,"dtg":2026100618,"year":2026,"month":"10","day":6,"hhmm":"1800","lat":22,"lon":-96,"ss":0,"idp_source":"AL092026_pts","idp_filedate":1791581282000,"idp_ingestdate":1791581380000,"binnumber":"AT4"}},{"type":"Feature","id":24780,"geometry":{"type":"Point","coordinates":[-95.300000000099828,21.699999999900228]},"properties":{"objectid":24780,"stormname":"NINE","stormtype":"TD","stormnum":9,"intensity":30,"basin":"al","mslp":1006,"dtg":2026100700,"year":2026,"month":"10","day":7,"hhmm":"0000","lat":22,"lon":-95,"ss":0,"idp_source":"AL092026_pts","idp_filedate":1791581282000,"idp_ingestdate":1791581380000,"binnumber":"AT4"}},{"type":"Feature","id":24781,"geometry":{"type":"Point","coordinates":[-94.599999999700117,21.900000000399814]},"properties":{"objectid":24781,"stormname":"ISAIAS","stormtype":"TS","stormnum":9,"intensity":35,"basin":"al","mslp":1004,"dtg":2026100706,"year":2026,"month":"10","day":7,"hhmm":"0600","lat":22,"lon":-95,"ss":0,"idp_source":"AL092026_pts","idp_filedate":1791581282000,"idp_ingestdate":1791581380000,"binnumber":"AT4"}},{"type":"Feature","id":24782,"geometry":{"type":"Point","coordinates":[-93.900000000199725,22.199999999800298]},"properties":{"objectid":24782,"stormname":"ISAIAS","stormtype":"TS","stormnum":9,"intensity":40,"basin":"al","mslp":1002,"dtg":2026100712,"year":2026,"month":"10","day":7,"hhmm":"1200","lat":22,"lon":-94,"ss":0,"idp_source":"AL092026_pts","idp_filedate":1791581282000,"idp_ingestdate":1791581380000,"binnumber":"AT4"}},{"type":"Feature","id":24783,"geometry":{"type":"Point","coordinates":[-93.299999999600175,22.500000000100044]},"properties":{"objectid":24783,"stormname":"ISAIAS","stormtype":"TS","stormnum":9,"intensity":50,"basin":"al","mslp":995,"dtg":2026100718,"year":2026,"month":"10","day":7,"hhmm":"1800","lat":22,"lon":-93,"ss":0,"idp_source":"AL092026_pts","idp_filedate":1791581282000,"idp_ingestdate":1791581380000,"binnumber":"AT4"}},{"type":"Feature","id":24784,"geometry":{"type":"Point","coordinates":[-92.299999999800036,22.699999999700367]},"properties":{"objectid":24784,"stormname":"ISAIAS","stormtype":"TS","stormnum":9,"intensity":60,"basin":"al","mslp":988,"dtg":2026100800,"year":2026,"month":"10","day":8,"hhmm":"0000","lat":23,"lon":-92,"ss":0,"idp_source":"AL092026_pts","idp_filedate":1791581282000,"idp_ingestdate":1791581380000,"binnumber":"AT4"}},{"type":"Feature","id":24785,"geometry":{"type":"Point","coordinates":[-91.49999999960022,23.099999999800275]},"properties":{"objectid":24785,"stormname":"ISAIAS","stormtype":"HU","stormnum":9,"intensity":70,"basin":"al","mslp":981,"dtg":2026100806,"year":2026,"month":"10","day":8,"hhmm":"0600","lat":23,"lon":-92,"ss":1,"idp_source":"AL092026_pts","idp_filedate":1791581282000,"idp_ingestdate":1791581380000,"binnumber":"AT4"}},{"type":"Feature","id":24786,"geometry":{"type":"Point","coordinates":[-90.599999999600186,23.400000000100079]},"properties":{"objectid":24786,"stormname":"ISAIAS","stormtype":"HU","stormnum":9,"intensity":75,"basin":"al","mslp":977,"dtg":2026100812,"year":2026,"month":"10","day":8,"hhmm":"1200","lat":23,"lon":-91,"ss":1,"idp_source":"AL092026_pts","idp_filedate":1791581282000,"idp_ingestdate":1791581380000,"binnumber":"AT4"}},{"type":"Feature","id":24787,"geometry":{"type":"Point","coordinates":[-89.80000000029969,23.900000000000148]},"properties":{"objectid":24787,"stormname":"ISAIAS","stormtype":"HU","stormnum":9,"intensity":80,"basin":"al","mslp":975,"dtg":2026100818,"year":2026,"month":"10","day":8,"hhmm":"1800","lat":24,"lon":-90,"ss":1,"idp_source":"AL092026_pts","idp_filedate":1791581282000,"idp_ingestdate":1791581380000,"binnumber":"AT4"}},{"type":"Feature","id":24788,"geometry":{"type":"Point","coordinates":[-89.000000000099817,24.800000000000125]},"properties":{"objectid":24788,"stormname":"ISAIAS","stormtype":"HU","stormnum":9,"intensity":85,"basin":"al","mslp":974,"dtg":2026100900,"year":2026,"month":"10","day":9,"hhmm":"0000","lat":25,"lon":-89,"ss":2,"idp_source":"AL092026_pts","idp_filedate":1791581282000,"idp_ingestdate":1791581380000,"binnumber":"AT4"}},{"type":"Feature","id":24789,"geometry":{"type":"Point","coordinates":[-88.400000000399586,25.79999999980032]},"properties":{"objectid":24789,"stormname":"ISAIAS","stormtype":"HU","stormnum":9,"intensity":90,"basin":"al","mslp":970,"dtg":2026100906,"year":2026,"month":"10","day":9,"hhmm":"0600","lat":26,"lon":-88,"ss":2,"idp_source":"AL092026_pts","idp_filedate":1791581282000,"idp_ingestdate":1791581380000,"binnumber":"AT4"}},{"type":"Feature","id":24790,"geometry":{"type":"Point","coordinates":[-87.600000000199771,27.000000000100044]},"properties":{"objectid":24790,"stormname":"ISAIAS","stormtype":"HU","stormnum":9,"intensity":105,"basin":"al","mslp":959,"dtg":2026100912,"year":2026,"month":"10","day":9,"hhmm":"1200","lat":27,"lon":-88,"ss":3,"idp_source":"AL092026_pts","idp_filedate":1791581282000,"idp_ingestdate":1791581380000,"binnumber":"AT4"}},{"type":"Feature","id":24791,"geometry":{"type":"Point","coordinates":[-87.100000000299644,28.499999999800309]},"properties":{"objectid":24791,"stormname":"ISAIAS","stormtype":"HU","stormnum":9,"intensity":105,"basin":"al","mslp":959,"dtg":2026100918,"year":2026,"month":"10","day":9,"hhmm":"1800","lat":28,"lon":-87,"ss":3,"idp_source":"AL092026_pts","idp_filedate":1791581282000,"idp_ingestdate":1791581380000,"binnumber":"AT4"}}]}