{"type":"FeatureCollection","features":[{"type":"Feature","id":550,"geometry":{"type":"LineString","coordinates":[[-92.900000000399586,22.699999999700367],[-91.799999999899967,23.099999999800275],[-90.099999999700117,24.09999999960047],[-88.69999999980007,25.79999999980032],[-87.600000000199771,28.099999999700344],[-87.299999999899967,31.000000000199975],[-87.500000000399609,33.999999999600448],[-84.500000000099817,37.499999999800309]]},"properties":{"objectid":550,"stormname":"Isaias","stormtype":"TS","basin":"AL","advdate":"400 PM CDT Wed Oct 07 2026","advisnum":"5","fcstprd":120,"stormnum":9,"idp_source":"al092026-005_5day_lin","idp_filedate":1791408473000,"idp_ingestdate":1791408496000,"st_length(shape)":18.42646704721059,"binnumber":"AT4"}}]}