{"type":"FeatureCollection","features":[{"type":"Feature","id":21754,"geometry":{"type":"Point","coordinates":[-96.500000000399609,22.000000000199975]},"properties":{"objectid":21754,"stormname":"GENESIS022","stormtype":"DB","stormnum":9,"intensity":15,"basin":"al","mslp":0,"dtg":2026100418,"year":2026,"month":"10","day":4,"hhmm":"1800","lat":22,"lon":-96,"ss":0,"idp_source":"AL092026_pts","idp_filedate":1791408474000,"idp_ingestdate":1791408539000,"binnumber":"AT4"}},{"type":"Feature","id":21755,"geometry":{"type":"Point","coordinates":[-96.500000000399609,22.000000000199975]},"properties":{"objectid":21755,"stormname":"GENESIS022","stormtype":"DB","stormnum":9,"intensity":20,"basin":"al","mslp":0,"dtg":2026100500,"year":2026,"month":"10","day":5,"hhmm":"0000","lat":22,"lon":-96,"ss":0,"idp_source":"AL092026_pts","idp_filedate":1791408474000,"idp_ingestdate":1791408539000,"binnumber":"AT4"}},{"type":"Feature","id":21756,"geometry":{"type":"Point","coordinates":[-96.500000000399609,22.000000000199975]},"properties":{"objectid":21756,"stormname":"GENESIS022","stormtype":"DB","stormnum":9,"intensity":25,"basin":"al","mslp":0,"dtg":2026100506,"year":2026,"month":"10","day":5,"hhmm":"0600","lat":22,"lon":-96,"ss":0,"idp_source":"AL092026_pts","idp_filedate":1791408474000,"idp_ingestdate":1791408539000,"binnumber":"AT4"}},{"type":"Feature","id":21757,"geometry":{"type":"Point","coordinates":[-96.500000000399609,22.000000000199975]},"properties":{"objectid":21757,"stormname":"INVEST","stormtype":"DB","stormnum":9,"intensity":25,"basin":"al","mslp":1010,"dtg":2026100512,"year":2026,"month":"10","day":5,"hhmm":"1200","lat":22,"lon":-96,"ss":0,"idp_source":"AL092026_pts","idp_filedate":1791408474000,"idp_ingestdate":1791408539000,"binnumber":"AT4"}},{"type":"Feature","id":21758,"geometry":{"type":"Point","coordinates":[-96.299999999899967,22.199999999800298]},"properties":{"objectid":21758,"stormname":"INVEST","stormtype":"DB","stormnum":9,"intensity":25,"basin":"al","mslp":1010,"dtg":2026100518,"year":2026,"month":"10","day":5,"hhmm":"1800","lat":22,"lon":-96,"ss":0,"idp_source":"AL092026_pts","idp_filedate":1791408474000,"idp_ingestdate":1791408539000,"binnumber":"AT4"}},{"type":"Feature","id":21759,"geometry":{"type":"Point","coordinates":[-96.100000000299644,22.299999999600459]},"properties":{"objectid":21759,"stormname":"INVEST","stormtype":"DB","stormnum":9,"intensity":25,"basin":"al","mslp":1009,"dtg":2026100600,"year":2026,"month":"10","day":6,"hhmm":"0000","lat":22,"lon":-96,"ss":0,"idp_source":"AL092026_pts","idp_filedate":1791408474000,"idp_ingestdate":1791408539000,"binnumber":"AT4"}},{"type":"Feature","id":21760,"geometry":{"type":"Point","coordinates":[-95.99999999960022,22.199999999800298]},"properties":{"objectid":21760,"stormname":"INVEST","stormtype":"DB","stormnum":9,"intensity":25,"basin":"al","mslp":1009,"dtg":2026100606,"year":2026,"month":"10","day":6,"hhmm":"0600","lat":22,"lon":-96,"ss":0,"idp_source":"AL092026_pts","idp_filedate":1791408474000,"idp_ingestdate":1791408539000,"binnumber":"AT4"}},{"type":"Feature","id":21761,"geometry":{"type":"Point","coordinates":[-95.99999999960022,22.000000000199975]},"properties":{"objectid":21761,"stormname":"INVEST","stormtype":"DB","stormnum":9,"intensity":25,"basin":"al","mslp":1008,"dtg":2026100612,"year":2026,"month":"10","day":6,"hhmm":"1200","lat":22,"lon":-96,"ss":0,"idp_source":"AL092026_pts","idp_filedate":1791408474000,"idp_ingestdate":1791408539000,"binnumber":"AT4"}},{"type":"Feature","id":21762,"geometry":{"type":"Point","coordinates":[-95.700000000199736,21.900000000399814]},"properties":{"objectid":21762,"stormname":"NINE","stormtype":"TD","stormnum":9,"intensity":30,"basin":"al","mslp":1007,"dtg":2026100618,"year":2026,"month":"10","day":6,"hhmm":"1800","lat":22,"lon":-96,"ss":0,"idp_source":"AL092026_pts","idp_filedate":1791408474000,"idp_ingestdate":1791408539000,"binnumber":"AT4"}},{"type":"Feature","id":21763,"geometry":{"type":"Point","coordinates":[-95.300000000099828,21.699999999900228]},"properties":{"objectid":21763,"stormname":"NINE","stormtype":"TD","stormnum":9,"intensity":30,"basin":"al","mslp":1006,"dtg":2026100700,"year":2026,"month":"10","day":7,"hhmm":"0000","lat":22,"lon":-95,"ss":0,"idp_source":"AL092026_pts","idp_filedate":1791408474000,"idp_ingestdate":1791408539000,"binnumber":"AT4"}},{"type":"Feature","id":21764,"geometry":{"type":"Point","coordinates":[-94.599999999700117,21.900000000399814]},"properties":{"objectid":21764,"stormname":"ISAIAS","stormtype":"TS","stormnum":9,"intensity":35,"basin":"al","mslp":1004,"dtg":2026100706,"year":2026,"month":"10","day":7,"hhmm":"0600","lat":22,"lon":-95,"ss":0,"idp_source":"AL092026_pts","idp_filedate":1791408474000,"idp_ingestdate":1791408539000,"binnumber":"AT4"}},{"type":"Feature","id":21765,"geometry":{"type":"Point","coordinates":[-93.900000000199725,22.199999999800298]},"properties":{"objectid":21765,"stormname":"ISAIAS","stormtype":"TS","stormnum":9,"intensity":40,"basin":"al","mslp":1002,"dtg":2026100712,"year":2026,"month":"10","day":7,"hhmm":"1200","lat":22,"lon":-94,"ss":0,"idp_source":"AL092026_pts","idp_filedate":1791408474000,"idp_ingestdate":1791408539000,"binnumber":"AT4"}},{"type":"Feature","id":21766,"geometry":{"type":"Point","coordinates":[-93.299999999600175,22.500000000100044]},"properties":{"objectid":21766,"stormname":"ISAIAS","stormtype":"TS","stormnum":9,"intensity":50,"basin":"al","mslp":995,"dtg":2026100718,"year":2026,"month":"10","day":7,"hhmm":"1800","lat":22,"lon":-93,"ss":0,"idp_source":"AL092026_pts","idp_filedate":1791408474000,"idp_ingestdate":1791408539000,"binnumber":"AT4"}}]}