{"type":"FeatureCollection","features":[{"type":"Feature","id":21495,"geometry":{"type":"Point","coordinates":[-96.500000000399609,22.000000000199975]},"properties":{"objectid":21495,"stormname":"GENESIS022","stormtype":"DB","stormnum":9,"intensity":15,"basin":"al","mslp":0,"dtg":2026100418,"year":2026,"month":"10","day":4,"hhmm":"1800","lat":22,"lon":-96,"ss":0,"idp_source":"AL092026_pts","idp_filedate":1791386891000,"idp_ingestdate":1791386989000,"binnumber":"AT4"}},{"type":"Feature","id":21496,"geometry":{"type":"Point","coordinates":[-96.500000000399609,22.000000000199975]},"properties":{"objectid":21496,"stormname":"GENESIS022","stormtype":"DB","stormnum":9,"intensity":20,"basin":"al","mslp":0,"dtg":2026100500,"year":2026,"month":"10","day":5,"hhmm":"0000","lat":22,"lon":-96,"ss":0,"idp_source":"AL092026_pts","idp_filedate":1791386891000,"idp_ingestdate":1791386989000,"binnumber":"AT4"}},{"type":"Feature","id":21497,"geometry":{"type":"Point","coordinates":[-96.500000000399609,22.000000000199975]},"properties":{"objectid":21497,"stormname":"GENESIS022","stormtype":"DB","stormnum":9,"intensity":25,"basin":"al","mslp":0,"dtg":2026100506,"year":2026,"month":"10","day":5,"hhmm":"0600","lat":22,"lon":-96,"ss":0,"idp_source":"AL092026_pts","idp_filedate":1791386891000,"idp_ingestdate":1791386989000,"binnumber":"AT4"}},{"type":"Feature","id":21498,"geometry":{"type":"Point","coordinates":[-96.500000000399609,22.000000000199975]},"properties":{"objectid":21498,"stormname":"INVEST","stormtype":"DB","stormnum":9,"intensity":25,"basin":"al","mslp":1010,"dtg":2026100512,"year":2026,"month":"10","day":5,"hhmm":"1200","lat":22,"lon":-96,"ss":0,"idp_source":"AL092026_pts","idp_filedate":1791386891000,"idp_ingestdate":1791386989000,"binnumber":"AT4"}},{"type":"Feature","id":21499,"geometry":{"type":"Point","coordinates":[-96.299999999899967,22.199999999800298]},"properties":{"objectid":21499,"stormname":"INVEST","stormtype":"DB","stormnum":9,"intensity":25,"basin":"al","mslp":1010,"dtg":2026100518,"year":2026,"month":"10","day":5,"hhmm":"1800","lat":22,"lon":-96,"ss":0,"idp_source":"AL092026_pts","idp_filedate":1791386891000,"idp_ingestdate":1791386989000,"binnumber":"AT4"}},{"type":"Feature","id":21500,"geometry":{"type":"Point","coordinates":[-96.100000000299644,22.299999999600459]},"properties":{"objectid":21500,"stormname":"INVEST","stormtype":"DB","stormnum":9,"intensity":25,"basin":"al","mslp":1009,"dtg":2026100600,"year":2026,"month":"10","day":6,"hhmm":"0000","lat":22,"lon":-96,"ss":0,"idp_source":"AL092026_pts","idp_filedate":1791386891000,"idp_ingestdate":1791386989000,"binnumber":"AT4"}},{"type":"Feature","id":21501,"geometry":{"type":"Point","coordinates":[-95.99999999960022,22.199999999800298]},"properties":{"objectid":21501,"stormname":"INVEST","stormtype":"DB","stormnum":9,"intensity":25,"basin":"al","mslp":1009,"dtg":2026100606,"year":2026,"month":"10","day":6,"hhmm":"0600","lat":22,"lon":-96,"ss":0,"idp_source":"AL092026_pts","idp_filedate":1791386891000,"idp_ingestdate":1791386989000,"binnumber":"AT4"}},{"type":"Feature","id":21502,"geometry":{"type":"Point","coordinates":[-95.99999999960022,22.000000000199975]},"properties":{"objectid":21502,"stormname":"INVEST","stormtype":"DB","stormnum":9,"intensity":25,"basin":"al","mslp":1008,"dtg":2026100612,"year":2026,"month":"10","day":6,"hhmm":"1200","lat":22,"lon":-96,"ss":0,"idp_source":"AL092026_pts","idp_filedate":1791386891000,"idp_ingestdate":1791386989000,"binnumber":"AT4"}},{"type":"Feature","id":21503,"geometry":{"type":"Point","coordinates":[-95.700000000199736,21.900000000399814]},"properties":{"objectid":21503,"stormname":"NINE","stormtype":"TD","stormnum":9,"intensity":30,"basin":"al","mslp":1007,"dtg":2026100618,"year":2026,"month":"10","day":6,"hhmm":"1800","lat":22,"lon":-96,"ss":0,"idp_source":"AL092026_pts","idp_filedate":1791386891000,"idp_ingestdate":1791386989000,"binnumber":"AT4"}},{"type":"Feature","id":21504,"geometry":{"type":"Point","coordinates":[-95.300000000099828,21.79999999970039]},"properties":{"objectid":21504,"stormname":"NINE","stormtype":"TD","stormnum":9,"intensity":30,"basin":"al","mslp":1006,"dtg":2026100700,"year":2026,"month":"10","day":7,"hhmm":"0000","lat":22,"lon":-95,"ss":0,"idp_source":"AL092026_pts","idp_filedate":1791386891000,"idp_ingestdate":1791386989000,"binnumber":"AT4"}},{"type":"Feature","id":21505,"geometry":{"type":"Point","coordinates":[-94.499999999899956,21.79999999970039]},"properties":{"objectid":21505,"stormname":"ISAIAS","stormtype":"TS","stormnum":9,"intensity":35,"basin":"al","mslp":1004,"dtg":2026100706,"year":2026,"month":"10","day":7,"hhmm":"0600","lat":22,"lon":-94,"ss":0,"idp_source":"AL092026_pts","idp_filedate":1791386891000,"idp_ingestdate":1791386989000,"binnumber":"AT4"}},{"type":"Feature","id":21506,"geometry":{"type":"Point","coordinates":[-93.900000000199725,22.000000000199975]},"properties":{"objectid":21506,"stormname":"ISAIAS","stormtype":"TS","stormnum":9,"intensity":35,"basin":"al","mslp":1002,"dtg":2026100712,"year":2026,"month":"10","day":7,"hhmm":"1200","lat":22,"lon":-94,"ss":0,"idp_source":"AL092026_pts","idp_filedate":1791386891000,"idp_ingestdate":1791386989000,"binnumber":"AT4"}}]}