{"type":"FeatureCollection","features":[{"type":"Feature","id":552,"geometry":{"type":"Polygon","coordinates":[[[-92.489390000248193,22.557860000039113],[-92.462170000445042,22.5535900000786],[-92.43229000028316,22.551080000341869],[-92.399749999762548,22.549750000162533],[-92.365309999756562,22.549159999934204],[-92.329699999755064,22.549159999934204],[-92.293779999847004,22.549750000162533],[-92.258319999568243,22.551080000341869],[-92.2238799995622,22.553440000355863],[-92.190760000173782,22.557120000088048],[-92.158809999881498,22.561989999838772],[-92.127619999563251,22.567589999978679],[-92.096860000188769,22.573640000186003],[-92.066240000075823,22.579829999654919],[-92.035479999802021,22.585870000300417],[-92.004870000150277,22.592059999769333],[-91.974849999827541,22.598849999927722],[-91.945399999710105,22.606219999853238],[-91.916559999844026,22.614180000007138],[-91.888439999905984,22.622880000112048],[-91.860779999597185,22.632019999823285],[-91.833100000164791,22.641160000433786],[-91.805439999855992,22.650300000145023],[-91.777919999708104,22.659589999578941],[-91.750399999560216,22.668879999912235],[-91.722720000127822,22.678019999623416],[-91.695199999979934,22.687309999956653],[-91.668109999876492,22.697030000334394],[-91.641320000117787,22.707059999719377],[-91.614689999643645,22.717230000164534],[-91.588490000113325,22.727849999777789],[-91.562590000028365,22.738760000174011],[-91.536389999598725,22.749370000225497],[-91.5097499995627,22.75955000023248],[-91.482959999804052,22.76957000005558],[-91.455880000161756,22.779299999995146],[-91.428360000013868,22.788590000328384],[-91.400679999682154,22.797730000039621],[-91.373160000433586,22.807020000372859],[-91.345640000285698,22.816309999806776],[-91.317959999953928,22.825450000417334],[-91.290310000106331,22.834590000128571],[-91.262780000396617,22.843879999562489],[-91.235260000248729,22.853169999895727],[-91.207579999916959,22.862309999606964],[-91.179919999608217,22.871450000217465],[-91.152389999898446,22.880739999651382],[-91.124860000188733,22.890029999984677],[-91.09719999987999,22.899169999695857],[-91.069670000170277,22.908449999567949],[-91.04258999962866,22.918180000406835],[-91.015810000331157,22.928209999791818],[-90.989170000295189,22.938380000236975],[-90.962969999865493,22.94899999985023],[-90.93706999978059,22.959910000246452],[-90.910870000250213,22.970520000297938],[-90.884379999936925,22.980850000027601],[-90.858029999784549,22.99131000035635],[-90.831679999632172,23.001780000246981],[-90.805190000218261,23.012100000414819],[-90.778989999788564,23.02272000002813],[-90.753080000141779,23.03361999996315],[-90.726890000173285,23.044239999576462],[-90.700390000298171,23.054559999744356],[-90.67404999970762,23.06502999963493],[-90.647710000016389,23.075500000424825],[-90.621359999864012,23.085959999854254],[-90.582939999781047,23.102769999835743],[-90.570430000244187,23.108670000320387],[-90.545259999649147,23.120319999768299],[-90.520100000414573,23.131959999654384],[-90.494929999819533,23.143610000001615],[-90.46918000035663,23.154659999659373],[-90.442830000204253,23.165130000449324],[-90.416480000051877,23.175600000339898],[-90.390140000360645,23.186070000230472],[-90.363790000208212,23.196540000121047],[-90.338030000284164,23.20760000023995],[-90.312859999689124,23.219240000126035],[-90.287839999716084,23.231040000196003],[-90.250900000434569,23.249319999618422],[-90.238690000343126,23.255509999986657],[-90.214100000414589,23.267749999662897],[-90.189529999609704,23.279990000238456],[-90.152889999773549,23.298560000443786],[-90.140520000397601,23.304609999751847],[-90.115940000030889,23.316839999866261],[-90.091650000447032,23.329379999887237],[-90.067509999686649,23.342060000069068],[-90.043670000170266,23.355030000134548],[-90.020419999982892,23.368599999990124],[-89.986269999860497,23.389679999932184],[-89.96360999990145,23.403829999555001],[-89.940940000380635,23.41798000007708],[-89.929459999779056,23.424919999958149],[-89.894729999889478,23.445409999671881],[-89.882949999842538,23.452039999646388],[-89.847919999608166,23.472240000375848],[-89.824969999765585,23.486100000115073],[-89.802289999783568,23.500249999737832],[-89.779919999708113,23.514699999705385],[-89.75784000041557,23.529439999556473],[-89.735760000223706,23.544189999868763],[-89.713689999593726,23.558929999719851],[-89.691610000301182,23.573669999570939],[-89.669539999671144,23.588419999883229],[-89.658490000013387,23.595789999808801],[-89.625679999632155,23.618199999930198],[-89.60418999966862,23.633530000009614],[-89.582989999588733,23.649160000433824],[-89.562100000314672,23.665079999842249],[-89.541489999563737,23.681299999595467],[-89.520580000266705,23.697219999903211],[-89.499389999748587,23.712850000327421],[-89.478200000129789,23.728479999852254],[-89.457009999611671,23.744110000276407],[-89.436109999876464,23.760029999684889],[-89.415800000369643,23.776540000220962],[-89.39637999963719,23.793940000430837],[-89.377240000125823,23.811629999624927],[-89.358400000059873,23.829620000063073],[-89.339259999649187,23.84731000015654],[-89.319839999816054,23.864710000366358],[-89.29951999984803,23.881220000003111],[-89.278629999674649,23.897140000310912],[-89.257429999594706,23.912769999835746],[-89.236239999975908,23.928400000259956],[-89.215329999779556,23.94431999966838],[-89.195020000272677,23.96083000020451],[-89.175600000439545,23.978230000414328],[-89.156460000028858,23.995919999608418],[-89.137920000307645,24.014199999930213],[-89.119370000125286,24.032489999813777],[-89.101129999849491,24.051060000019106],[-89.082579999667132,24.069340000340901],[-89.064329999829511,24.087920000108056],[-89.045790000108298,24.106200000429794],[-89.027529999809531,24.124780000197006],[-89.008990000088318,24.143059999619425],[-88.990740000250696,24.1616400002859],[-88.972179999607192,24.179919999708375],[-88.953929999769571,24.198489999913704],[-88.935390000048358,24.216770000235442],[-88.917140000210736,24.235350000002654],[-88.898610000051349,24.253630000324392],[-88.880360000213727,24.272210000091547],[-88.861819999593195,24.290490000413342],[-88.843569999755573,24.309070000180498],[-88.82503000003436,24.327349999602916],[-88.806760000173767,24.345930000269448],[-88.788219999553235,24.364209999691866],[-88.769969999715613,24.382790000358398],[-88.751420000432574,24.401069999780816],[-88.733169999695633,24.419639999986146],[-88.714620000412594,24.437929999869766],[-88.696369999675653,24.456500000075096],[-88.67782999995444,24.474780000396834],[-88.659580000116819,24.493360000164046],[-88.641040000395606,24.511639999586464],[-88.622789999658664,24.530220000252939],[-88.604249999937451,24.548499999675414],[-88.58600000009983,24.567080000341889],[-88.567460000378617,24.585359999764307],[-88.549189999618704,24.603940000430839],[-88.530939999781083,24.622509999736849],[-88.51328000017179,24.641679999732332],[-88.495910000446088,24.661139999611407],[-88.479430000394075,24.681479999602459],[-88.463530000109301,24.702420000282928],[-88.447930000169265,24.723649999947668],[-88.432330000229229,24.744879999612408],[-88.416429999944455,24.765820000292933],[-88.399949999892499,24.786160000283928],[-88.382580000166797,24.805620000163003],[-88.364919999658127,24.824790000158544],[-88.3469700001653,24.84365999980929],[-88.32930999965663,24.862829999804774],[-88.311939999930928,24.882289999683906],[-88.295459999878972,24.9026299996749],[-88.279559999594198,24.923570000355369],[-88.263950000092336,24.944800000020109],[-88.2483500001523,24.966029999684906],[-88.232460000328672,24.986970000365375],[-88.215980000276716,25.00731000035637],[-88.198909999996374,25.027069999680862],[-88.18183999971609,25.046820000342905],[-88.164759999873979,25.066579999667397],[-88.148279999822023,25.086930000119537],[-88.132389999998395,25.10786000033886],[-88.116779999597213,25.129090000003657],[-88.101170000095351,25.150319999668397],[-88.085280000271666,25.171260000348866],[-88.06880000021971,25.191600000339861],[-88.051709999916454,25.21135999966441],[-88.034650000097315,25.231119999888222],[-88.017579999817031,25.250869999650888],[-88.001079999742103,25.271220000103085],[-87.985189999918475,25.292150000322408],[-87.969589999978439,25.313379999987148],[-87.953990000038345,25.334609999651889],[-87.938390000098309,25.355840000216006],[-87.922500000274681,25.376779999997154],[-87.906310000106316,25.397420000332886],[-87.890420000282688,25.418360000114035],[-87.874820000342652,25.439589999778832],[-87.859209999941413,25.460820000342892],[-87.843600000439551,25.482050000007632],[-87.82801000006134,25.503279999672372],[-87.812109999776567,25.524209999891696],[-87.795910000046376,25.544850000227484],[-87.780009999761603,25.565790000008633],[-87.764420000282655,25.587019999673373],[-87.748820000342619,25.60825000023749],[-87.733220000402582,25.62947999990223],[-87.717619999563226,25.650709999566971],[-87.701720000177772,25.671650000247439],[-87.685530000009408,25.692289999683908],[-87.66964000018578,25.713219999903231],[-87.654040000245686,25.734449999567971],[-87.63844000030565,25.755680000132031],[-87.622829999904468,25.776909999796771],[-87.607240000425577,25.798140000360888],[-87.591340000140804,25.819080000142037],[-87.575149999972439,25.839719999578449],[-87.559249999687609,25.860649999797772],[-87.543649999747572,25.881889999923715],[-87.528339999691127,25.903410000371366],[-87.513340000440564,25.925230000264435],[-87.498610000151302,25.94734999960292],[-87.483899999884954,25.969460000278957],[-87.469180000056838,25.991579999617443],[-87.454449999767576,26.013690000293423],[-87.439740000400604,26.035800000070083],[-87.425030000134313,26.057920000307888],[-87.41031000030614,26.080039999646431],[-87.395580000016878,26.102150000322411],[-87.380869999750587,26.124260000099071],[-87.366160000383616,26.146380000336876],[-87.351430000094297,26.168499999675362],[-87.336719999828006,26.190610000351398],[-87.321999999999889,26.212720000128058],[-87.307280000171772,26.234840000365864],[-87.292560000343656,26.256950000142524],[-87.277839999616162,26.279070000380329],[-87.263119999788046,26.301189999718872],[-87.248399999959929,26.323300000394852],[-87.233689999693638,26.345410000171512],[-87.218969999865521,26.367530000409317],[-87.204250000037348,26.389640000185977],[-87.189530000209231,26.41176000042384],[-87.17481999994294,26.433879999762325],[-87.160100000114824,26.455990000438305],[-87.145389999848533,26.478100000214965],[-87.130659999559214,26.500219999553451],[-87.116240000075834,26.522629999674905],[-87.102109999576726,26.545329999679893],[-87.088269999860529,26.568339999591444],[-87.074729999589692,26.591629999824761],[-87.06148999966365,26.615220000402815],[-87.047939999831044,26.638509999736868],[-87.034109999676616,26.661510000086594],[-87.019969999615682,26.684219999653408],[-87.005840000015894,26.706919999658396],[-86.991710000416106,26.72963000012453],[-86.977880000261678,26.75262000001311],[-86.964640000335635,26.776209999691901],[-86.94566000010883,26.812479999552465],[-86.933140000110825,26.836810000081584],[-86.926960000203735,26.849040000195998],[-86.914890000273203,26.873810000331389],[-86.896349999652671,26.910519999798282],[-86.890169999745581,26.922760000373842],[-86.871919999907959,26.959770000185529],[-86.865740000000869,26.972000000299943],[-86.853070000280184,26.996180000207005],[-86.840419999683149,27.020360000114067],[-86.827159999734079,27.043949999792801],[-86.813340000040853,27.066950000142526],[-86.799210000441064,27.08965999970934],[-86.785070000380131,27.112359999714386],[-86.764619999813021,27.147160000134022],[-86.751820000392627,27.171190000318404],[-86.74004000034563,27.196250000337386],[-86.734449999767548,27.209080000241954],[-86.723850000177265,27.235319999818273],[-86.708099999615172,27.274829999804808],[-86.702939999980913,27.288100000214968],[-86.686609999651637,27.327019999973174],[-86.680870000250195,27.339700000155005],[-86.669099999765081,27.36476999973587],[-86.657330000179286,27.389829999754852],[-86.644959999903961,27.414310000006651],[-86.626710000066339,27.451310000256456],[-86.614939999581225,27.476370000275438],[-86.609049999557726,27.488910000296414],[-86.592270000060353,27.527390000448293],[-86.586979999827008,27.540510000236452],[-86.571379999886972,27.580169999945667],[-86.566080000091802,27.593289999733827],[-86.55577000038511,27.619829999654883],[-86.545459999779041,27.646360000014113],[-86.534570000305166,27.67230999970684],[-86.518529999859481,27.711529999809784],[-86.508220000152789,27.73806999973084],[-86.503070000080356,27.751340000141056],[-86.492480000051842,27.777579999717375],[-86.48217000034515,27.804119999638431],[-86.471870000200227,27.830659999559487],[-86.460979999827032,27.856599999690388],[-86.444940000280667,27.895819999793275],[-86.439790000208234,27.909090000203491],[-86.429779999946959,27.935920000008139],[-86.41504999965764,27.976470000290419],[-86.405789999808519,28.004040000046132],[-86.396659999659164,28.031760000423844],[-86.392110000276205,28.045609999701867],[-86.378110000376125,28.086890000373387],[-86.369000000249684,28.11460999985178],[-86.359870000100329,28.142330000229492],[-86.350599999790063,28.169899999985148],[-86.341319999917971,28.197469999740861],[-86.332189999768559,28.225190000118573],[-86.323070000080349,28.25290000003514],[-86.313950000392083,28.280620000412853],[-86.309389999648658,28.294480000152021],[-86.300849999727575,28.322780000296916],[-86.288639999636189,28.365840000315927],[-86.280839999666171,28.394880000411831],[-86.277010000211249,28.409480000102064],[-86.265379999886989,28.453119999888202],[-86.257279999572233,28.481870000100571],[-86.248890000273207,28.510319999968146],[-86.240199999730123,28.538479999952187],[-86.231519999648185,28.566639999936172],[-86.223130000349158,28.595100000264949],[-86.215039999596172,28.623849999577942],[-86.207239999626154,28.652889999673903],[-86.199740000000872,28.682230000114544],[-86.192519999798037,28.711860000438833],[-86.185610000401084,28.741790000208482],[-86.178989999988403,28.772020000322925],[-86.172649999897487,28.802529999859757],[-86.166610000151309,28.833350000202472],[-86.160579999966899,28.864160000084098],[-86.154250000337129,28.894680000082076],[-86.147629999924447,28.924899999735317],[-86.140719999628175,28.954830000404343],[-86.133509999886485,28.984470000290401],[-86.126139999960913,29.013949999992633],[-86.118930000219223,29.043589999878748],[-86.112010000361124,29.073519999648397],[-86.105389999948443,29.103740000201014],[-86.099060000318673,29.134260000198992],[-86.09303000013432,29.165070000080561],[-86.086990000388084,29.195890000423333],[-86.080809999581732,29.226549999682902],[-86.077729999639644,29.241890000223464],[-86.068460000228697,29.287879999562449],[-86.062269999860519,29.318550000182483],[-86.056239999676166,29.349369999625935],[-86.05019999992993,29.380180000406824],[-86.044020000022897,29.410839999666393],[-86.037829999654662,29.441510000286428],[-86.031660000208717,29.472180000007143],[-86.025480000301684,29.502840000166032],[-86.019439999656129,29.533650000047601],[-86.01339999990995,29.564470000390372],[-86.010310000406093,29.579799999570469],[-86.001189999818507,29.625949999992656],[-85.995450000417065,29.657049999757817],[-85.992660000358626,29.672680000182027],[-85.984999999650142,29.720300000045086],[-85.980290000083357,29.752449999667874],[-85.975280000171779,29.78429000028342],[-85.969829999754552,29.815690000393374],[-85.967039999696112,29.831319999918207],[-85.958659999958911,29.878210000291404],[-85.955860000338646,29.893839999816294],[-85.948199999630162,29.94145999967941],[-85.943499999625203,29.973599999740316],[-85.938480000151799,30.005440000355861],[-85.935839999816039,30.021219999603431],[-85.927460000078838,30.068100000414859],[-85.922000000099843,30.099499999625436],[-85.917010000211235,30.131349999802808],[-85.912729999789576,30.163930000369362],[-85.90905999961916,30.197100000264925],[-85.905379999886975,30.23027999972237],[-85.901109999926462,30.262860000288924],[-85.896100000014883,30.29470000000515],[-85.893450000117298,30.31048000015204],[-85.885209999641688,30.357509999786828],[-85.88019999973011,30.389359999964142],[-85.875949999792567,30.421939999631434],[-85.872250000037354,30.455110000426316],[-85.868579999866995,30.488289999883705],[-85.864300000344656,30.520869999550996],[-85.859299999994903,30.552710000166542],[-85.853849999577733,30.584119999838265],[-85.848420000082854,30.615519999948162],[-85.843410000171275,30.647370000125534],[-85.839140000210762,30.679949999792825],[-85.8354599995792,30.713119999688388],[-85.831779999847015,30.746289999583951],[-85.827509999886502,30.778879999712387],[-85.825149999872508,30.794940000180986],[-85.817069999580724,30.842120000437831],[-85.811609999601671,30.873530000109554],[-85.806759999873975,30.90552000044778],[-85.803089999703616,30.938690000343399],[-85.800740000150768,30.973190000418356],[-85.799409999971431,31.008720000327912],[-85.798970000365102,31.026709999866739],[-85.798520000297685,31.08154999993269],[-85.797930000069357,31.117819999793312],[-85.796599999889963,31.153349999702868],[-85.794250000337115,31.187849999777825],[-85.79056999970561,31.221030000134533],[-85.785710000416088,31.253019999573439],[-85.780420000182744,31.284280000421802],[-85.775569999555728,31.315090000303428],[-85.772029999984397,31.345749999562997],[-85.770710000266206,31.376569999905712],[-85.772029999984397,31.407379999787281],[-85.775559999993902,31.438050000407316],[-85.780420000182744,31.468860000288942],[-85.785710000416088,31.500120000237985],[-85.79056999970561,31.532109999676891],[-85.794259999898998,31.565279999572454],[-85.796619999912934,31.59977999964741],[-85.797939999631183,31.635309999556966],[-85.798520000297685,31.671580000316908],[-85.798670000020365,31.708289999783801],[-85.798670000020365,31.745149999872751],[-85.798670000020365,31.782009999961701],[-85.798810000181277,31.818720000327914],[-85.799400000409605,31.854990000188479],[-85.800720000127797,31.890520000098093],[-85.803089999703616,31.925020000172992],[-85.806759999873975,31.958190000068612],[-85.811609999601671,31.990180000406838],[-85.817060000018898,32.021590000078561],[-85.822510000436068,32.052990000188515],[-85.827360000163765,32.084979999627421],[-85.83103999989595,32.11815999998413],[-85.83354999963268,32.152510000336406],[-85.8354599995792,32.187450000017634],[-85.837370000425096,32.222400000160007],[-85.839869999700625,32.256740000051082],[-85.843559999893955,32.289920000407847],[-85.848409999621708,32.321909999846753],[-85.853849999577733,32.353320000417852],[-85.859309999556729,32.38471999962843],[-85.864160000183745,32.416709999966656],[-85.867839999915986,32.449879999862276],[-85.870190000368098,32.484379999937175],[-85.871519999648172,32.519909999846732],[-85.8721099998765,32.556179999707354],[-85.872250000037354,32.592890000073567],[-85.872250000037354,32.629750000162517],[-85.872250000037354,32.666610000251467],[-85.872250000037354,32.703459999879215],[-85.872250000037354,32.740319999968165],[-85.872250000037354,32.777180000057115],[-85.872250000037354,32.814040000146008],[-85.872250000037354,32.850900000234958],[-85.872250000037354,32.887760000323908],[-85.872250000037354,32.924620000412858],[-85.8721099998765,32.961329999879752],[-85.871519999648172,32.997599999740316],[-85.870190000368098,33.03312999964993],[-85.867839999915986,33.067629999724829],[-85.864009999561745,33.100649999897712],[-85.85856999960572,33.132050000007666],[-85.851649999747565,33.161979999777316],[-85.843260000448538,33.190440000106037],[-85.833250000187263,33.217269999910684],[-85.821780000046886,33.24263000027446],[-85.815729999839505,33.255010000111554],[-85.801899999685133,33.278020000023105],[-85.786589999628688,33.299539999571493],[-85.769819999693141,33.319589999678897],[-85.752460000428584,33.339049999557972],[-85.734209999691643,33.357630000224503],[-85.715959999854022,33.376209999991659],[-85.697400000109837,33.394490000313397],[-85.679150000272216,33.413059999619406],[-85.660609999651683,33.431339999941201],[-85.642359999814062,33.449919999708356],[-85.623809999631646,33.468200000030095],[-85.605570000255227,33.486779999797307],[-85.587020000072812,33.505060000119045],[-85.56877000023519,33.523639999886257],[-85.550229999614658,33.541920000207995],[-85.531979999777036,33.560490000413324],[-85.51344000005588,33.578780000296945],[-85.495179999757056,33.597349999602955],[-85.476640000035843,33.615629999924693],[-85.458080000291659,33.633910000246431],[-85.438950000342118,33.651609999901723],[-85.419529999609665,33.669010000111541],[-85.399220000102844,33.685519999748351],[-85.378309999906492,33.701440000056095],[-85.357129999849519,33.717069999580985],[-85.335929999769576,33.732700000005138],[-85.315030000034369,33.748620000312883],[-85.294719999628171,33.765140000410838],[-85.275279999772067,33.782530000159511],[-85.256160000283671,33.800220000252978],[-85.237610000101313,33.818499999675396],[-85.2190700003801,33.836779999997134],[-85.200520000197741,33.855069999880754],[-85.181379999787055,33.872759999974164],[-85.161959999953922,33.890149999722837],[-85.141650000447044,33.906669999820792],[-85.120740000250692,33.922590000128537],[-85.099560000193776,33.938219999653427],[-85.078360000113832,33.95385000007758],[-85.057460000378626,33.969770000385381],[-85.037160000433573,33.986280000022134],[-85.017429999794558,34.003379999887215],[-84.997700000054863,34.020479999752354],[-84.977979999876993,34.03759000007858],[-84.957670000370115,34.054099999715334],[-84.936769999735588,34.070020000023135],[-84.915569999655645,34.085650000447288],[-84.894380000036847,34.101279999972178],[-84.873489999863523,34.117200000279922],[-84.853169999895499,34.133709999916732],[-84.833449999717629,34.150820000242959],[-84.813740000000905,34.16792000010804],[-84.783839999816053,34.193279999572439],[-84.773699999855012,34.201529999609932],[-84.75278999965866,34.217460000378878],[-84.731600000039862,34.233089999903711],[-84.710399999959918,34.248709999866719],[-84.689500000224712,34.26463000017452],[-84.669200000279659,34.281150000272419],[-84.649480000101846,34.298250000137557],[-84.629750000362094,34.315350000002638],[-84.610030000184281,34.33244999986772],[-84.589719999778083,34.348960000403849],[-84.568820000042876,34.364890000273419],[-84.547619999962933,34.38051999979831],[-84.526430000344135,34.396150000222462],[-84.505230000264191,34.411770000185527],[-84.48434000009081,34.427700000055097],[-84.463730000239195,34.443919999808315],[-84.442829999604669,34.45984000011606],[-84.421630000424102,34.475469999640893],[-84.400439999905984,34.491100000065103],[-84.379239999826041,34.50672000002811],[-84.358050000207243,34.522349999553001],[-84.337160000033862,34.53828000032189],[-84.316550000182247,34.554489999613963],[-84.29565000044704,34.570409999921708],[-84.274459999928922,34.586040000345861],[-84.253259999849035,34.601669999870751],[-84.232070000230237,34.617289999833758],[-84.21087999971212,34.632929999819794],[-84.189970000415087,34.648850000127538],[-84.169359999664152,34.665069999880757],[-84.148470000390091,34.680979999727356],[-84.127270000310148,34.696619999713334],[-84.10607999979203,34.712239999676399],[-84.084879999712086,34.727870000100552],[-84.063690000093345,34.743499999625442],[-84.042790000358139,34.759419999933186],[-84.022190000068349,34.775639999686405],[-84.001290000333142,34.791559999994149],[-83.980090000253199,34.807190000418302],[-83.958899999735081,34.822819999943192],[-83.937710000116283,34.838450000367345],[-83.91651000003634,34.85407000033041],[-83.89561000030119,34.87000000019998],[-83.875019999573226,34.886219999953198],[-83.854110000276194,34.902140000260943],[-83.832919999758076,34.91776000022395],[-83.811719999678132,34.93338999974884],[-83.790519999598189,34.949020000172993],[-83.769329999979391,34.964649999697883],[-83.748430000244184,34.980570000005628],[-83.727829999954452,34.996789999758846],[-83.706919999758099,35.012710000066591],[-83.685730000139301,35.028339999591481],[-83.664539999621184,35.043970000015634],[-83.64334000044056,35.059600000439787],[-83.622149999922442,35.075220000402851],[-83.60123999972609,35.091150000272421],[-83.58064000033562,35.107359999564494],[-83.559739999701094,35.123279999872238],[-83.538550000082353,35.138910000296448],[-83.517350000002409,35.154539999821282],[-83.496149999922466,35.170170000245434],[-83.474960000303668,35.185799999770325],[-83.454059999669141,35.201720000078069],[-83.433460000278671,35.217939999831287],[-83.412550000082319,35.233860000139032],[-83.391370000025347,35.249489999663922],[-83.370160000383578,35.265120000088075],[-83.348980000326662,35.280749999612965],[-83.327780000246719,35.296369999575973],[-83.306879999612192,35.312289999883717],[-83.286280000221723,35.328509999636935],[-83.265379999587196,35.344440000405825],[-83.244189999968398,35.36006000036889],[-83.222989999888455,35.375689999893723],[-83.201800000269714,35.391320000317933],[-83.18060000018977,35.40694000028094],[-83.159710000016389,35.42287000015051],[-83.139100000164774,35.439089999903729],[-83.118209999991393,35.455010000211473],[-83.097000000349624,35.470639999736363],[-83.075809999831506,35.486270000160516],[-83.054609999751563,35.501899999685406],[-83.033710000016356,35.517819999993151],[-83.013399999610215,35.534329999629904],[-82.993680000331665,35.551430000394362],[-82.973960000153795,35.568530000259443],[-82.954239999975925,35.585639999686407],[-82.933929999569727,35.60215000022248],[-82.913020000272695,35.618069999630904],[-82.891829999754577,35.633700000055114],[-82.870640000135779,35.649329999579948],[-82.839580000416561,35.673510000386329],[-82.829429999994375,35.681760000423822],[-82.809709999816505,35.698860000288903],[-82.789989999638692,35.715969999715867],[-82.770259999898997,35.733069999580948],[-82.749950000392118,35.749580000117078],[-82.729049999757592,35.765509999986648],[-82.707860000138794,35.781140000410858],[-82.686660000058851,35.796760000373865],[-82.665760000323644,35.81267999978229],[-82.645449999917446,35.829199999880245],[-82.625729999739576,35.846299999745327],[-82.605999999999881,35.863399999610465],[-82.586290000283157,35.880500000374866],[-82.565979999876959,35.897010000011619],[-82.545069999680607,35.912939999881246],[-82.523880000061865,35.928570000305399],[-82.502690000443067,35.944190000268463],[-82.481789999808541,35.960120000138033],[-82.461469999840517,35.976629999774843],[-82.442050000007384,35.994029999984662],[-82.422909999596698,36.011720000078071],[-82.404369999875485,36.030000000399866],[-82.385819999693126,36.048279999822284],[-82.367569999855505,36.06685999958944],[-82.349030000134292,36.085139999911235],[-82.330769999835525,36.10371999967839],[-82.303119999987928,36.131290000333422],[-82.29398000027669,36.14057999976734],[-82.275439999656157,36.158860000089078],[-82.257189999818536,36.177430000294407],[-82.238939999980914,36.196010000061619],[-82.221269999910476,36.215180000057103],[-82.195659999709108,36.244810000381335],[-82.179470000440062,36.265449999817804],[-82.171519999847987,36.275919999708378],[-82.155919999907951,36.297150000272438],[-82.140319999967915,36.318370000375353],[-82.124729999589704,36.339609999601919],[-82.10883000020425,36.360539999821299],[-82.092640000035885,36.38118000015703],[-82.068939999781037,36.412729999989665],[-82.061139999811019,36.42334999960292],[-82.045840000215719,36.444879999612454],[-82.030820000042866,36.466700000404842],[-82.016100000214749,36.488810000181502],[-82.001679999831993,36.511220000302899],[-81.987550000232204,36.53392999986977],[-81.967090000103326,36.568719999828261],[-81.954129999599672,36.592609999851732],[-81.941470000340132,36.616780000197025],[-81.928970000365098,36.641109999826767],[-81.916749999812509,36.665730000239478],[-81.910719999628157,36.678119999638398],[-81.892170000345118,36.714830000004667],[-81.879960000253675,36.739450000417321],[-81.867739999701143,36.764069999930712],[-81.855379999886964,36.788539999721365],[-81.843320000417577,36.813309999856756],[-81.831540000370637,36.838380000336883],[-81.819910000046377,36.863590000078602],[-81.808869999950446,36.889390000048593],[-81.798569999805522,36.915920000407823],[-81.788710000166247,36.942910000396353],[-81.779430000294155,36.970469999690863],[-81.770899999934954,36.998780000296904],[-81.762810000081345,37.027529999609953],[-81.754999999650181,37.056580000167003],[-81.7475000000249,37.085919999708381],[-81.740299999845035,37.115550000032613],[-81.733520000147792,37.145630000424319],[-81.727340000240702,37.176289999683888],[-81.72174999966262,37.207549999632931],[-81.716739999751098,37.239399999810303],[-81.712030000184257,37.27153000030944],[-81.707020000272678,37.303379999587435],[-81.701580000316653,37.334779999697389],[-81.695980000176746,37.366039999646432],[-81.690540000220722,37.39743999975633],[-81.68568000003188,37.429439999656381],[-81.682000000299695,37.462609999552001],[-81.679790000008381,37.49695999990422],[-81.679059999619199,37.531899999585448],[-81.679790000008381,37.566840000165996],[-81.682000000299695,37.601200000080098],[-81.68568000003188,37.634369999975661],[-81.690540000220722,37.666360000313887],[-81.695980000176746,37.697760000423841],[-81.701580000316653,37.729020000372884],[-81.707020000272678,37.760419999583462],[-81.712019999723111,37.792269999760833],[-81.716739999751098,37.824409999821796],[-81.721740000100795,37.856250000437342],[-81.727340000240702,37.887510000386328],[-81.733520000147792,37.918169999645897],[-81.740299999845035,37.948250000037604],[-81.7475000000249,37.977889999923718],[-81.754999999650181,38.007230000364359],[-81.762799999620199,38.036269999561],[-81.770899999934954,38.065019999773313],[-81.775310000056379,38.079030000134537],[-81.788710000166247,38.120900000135066],[-81.793720000077826,38.134309999806817],[-81.808869999950446,38.174419999583449],[-81.819919999608203,38.200209999991671],[-81.831540000370637,38.225430000194478],[-81.843309999956432,38.25049000021346],[-81.855379999886964,38.275260000348908],[-81.867739999701143,38.299730000139562],[-81.879960000253675,38.324349999652895],[-81.892179999906944,38.348979999627431],[-81.904539999721123,38.373450000317405],[-81.916749999812509,38.398069999830795],[-81.928970000365098,38.422690000243449],[-81.941479999901958,38.447019999873248],[-81.954140000060875,38.47119999978031],[-81.967239999826006,38.494929999619956],[-81.981219999703114,38.517780000246944],[-81.995929999969405,38.539899999585487],[-82.011249999587733,38.561420000033138],[-82.027149999872506,38.582359999814287],[-82.043179999856989,38.603149999872755],[-82.058930000419082,38.624229999814759],[-82.074539999920944,38.645460000378876],[-82.090130000299155,38.666690000043616],[-82.105890000423074,38.687769999985676],[-82.114139999561246,38.697940000430833],[-82.139000000249723,38.728320000267956],[-82.156519999698105,38.747630000424351],[-82.174470000090309,38.766500000075098],[-82.192719999927931,38.785079999842253],[-82.211120000387609,38.803509999886728],[-82.238650000097323,38.831230000264441],[-82.247920000407589,38.840369999975678],[-82.275439999656157,38.868090000353391],[-82.284709999966424,38.877230000064571],[-82.312230000114312,38.904950000442341],[-82.321500000424578,38.914090000153521],[-82.33989999998488,38.932520000197997],[-82.367569999855505,38.960080000391827],[-82.376690000443034,38.969369999825801],[-82.404369999875485,38.996939999581457],[-82.422909999596698,39.015219999903195],[-82.432480000251701,39.024069999730841],[-82.461469999840517,39.050319999768305],[-82.481789999808541,39.066830000304435],[-82.492230000114318,39.074789999558959],[-82.513279999572205,39.090560000144023],[-82.534470000090323,39.106189999668914],[-82.555670000170267,39.121820000093066],[-82.587170000395076,39.145560000393857],[-82.59746999964068,39.153659999809292],[-82.628679999981898,39.1776999995555],[-82.639270000010413,39.185509999986664],[-82.660610000251211,39.200989999788817],[-82.693140000310677,39.223700000254951],[-82.704180000406609,39.231070000180523],[-82.737589999678619,39.252890000073592],[-82.760249999637665,39.267039999696351],[-82.771739999801071,39.273970000015652],[-82.80675999957424,39.294169999845735],[-82.818830000404091,39.300509999936708],[-82.855040000195743,39.319530000209511],[-82.879469999940454,39.331910000046605],[-82.904200000029846,39.344000000000165],[-82.928629999774557,39.356379999837259],[-82.953060000418589,39.368770000135555],[-82.977800000069863,39.380860000089058],[-83.002220000252692,39.393239999926209],[-83.026649999997403,39.405630000224505],[-83.051380000086851,39.417720000178008],[-83.075809999831506,39.430100000015159],[-83.100239999576218,39.442490000313398],[-83.125260000448577,39.454279999922221],[-83.15028000042156,39.466070000430307],[-83.175599999840017,39.477579999717364],[-83.215189999918437,39.493199999680371],[-83.228579999567216,39.49820999959195],[-83.255370000225241,39.508239999876253],[-83.282750000212218,39.51767999993217],[-83.310409999621697,39.526819999643408],[-83.351779999946928,39.540680000281952],[-83.365460000378619,39.545389999848737],[-83.40696999996544,39.559110000326427],[-83.420800000119812,39.563670000170532],[-83.44846999999038,39.572809999881713],[-83.47615000032215,39.581960000054096],[-83.504410000421103,39.590510000436325],[-83.547390000348116,39.602750000112565],[-83.561809999831496,39.606730000189486],[-83.590939999581224,39.614399999560476],[-83.635240000125805,39.625300000394873],[-83.650109999676658,39.628839999966146],[-83.695299999894985,39.638870000250449],[-83.725759999824049,39.645199999880219],[-83.756529999659676,39.6512500000876],[-83.787289999933421,39.657300000294924],[-83.817899999585222,39.66348999976384],[-83.848659999859024,39.669530000409338],[-83.879859999739097,39.675140000111071],[-83.911649999847498,39.68015000002265],[-83.944179999906964,39.684430000444308],[-83.977289999733614,39.688110000176493],[-84.010410000021352,39.691800000369881],[-84.042940000080819,39.696070000330394],[-84.058979999627184,39.698430000344388],[-84.10607999979203,39.706540000220969],[-84.13743000029416,39.711989999738819],[-84.153179999956933,39.714650000097549],[-84.202479999951947,39.720549999682873],[-84.236919999957934,39.722900000135041],[-84.272400000259722,39.724230000314435],[-84.308610000051374,39.724819999643444],[-84.345249999887471,39.724970000265444],[-84.382040000345626,39.724970000265444],[-84.418840000365606,39.724970000265444],[-84.455640000385586,39.724970000265444],[-84.49242999994442,39.724970000265444],[-84.5292299999644,39.724970000265444],[-84.566020000422554,39.724970000265444],[-84.602820000442534,39.724970000265444],[-84.639610000001369,39.724970000265444],[-84.676410000021406,39.724970000265444],[-84.713060000318649,39.724819999643444],[-84.7492700001103,39.724230000314435],[-84.784739999950943,39.722900000135041],[-84.81917999995693,39.720540000121048],[-84.852289999783579,39.716860000388863],[-84.884229999614661,39.711989999738819],[-84.915569999655645,39.706540000220969],[-84.9469299997196,39.701080000241973],[-84.978710000266176,39.696070000330394],[-85.011249999887468,39.691800000369881],[-85.044359999714118,39.688110000176493],[-85.077480000001913,39.684430000444308],[-85.109999999600177,39.68015000002265],[-85.141650000447044,39.674990000388334],[-85.172409999821525,39.668949999742836],[-85.202439999706144,39.662159999584446],[-85.232020000422551,39.654940000280931],[-85.261449999617696,39.647570000355358],[-85.290890000173249,39.640200000429843],[-85.33504000009583,39.62914000031094],[-85.349759999923947,39.625450000117553],[-85.379199999580237,39.618080000191981],[-85.40849000041311,39.610559999644408],[-85.437480000001869,39.602750000112565],[-85.480450000367114,39.590510000436325],[-85.494579999966902,39.586239999576492],[-85.536389999898461,39.572809999881713],[-85.550229999614658,39.568239999576463],[-85.591729999639654,39.554529999559975],[-85.619400000409598,39.545389999848737],[-85.633090000403115,39.540680000281952],[-85.660609999651683,39.531389999948658],[-85.688280000421571,39.522250000237477],[-85.715810000131285,39.51295999990424],[-85.756289999883506,39.49820999959195],[-85.783070000080329,39.488189999768849],[-85.796310000006372,39.483030000134534],[-85.822510000436068,39.472409999621959],[-85.861370000125305,39.456049999707886],[-85.874610000051348,39.450890000073571],[-85.914349999852504,39.435410000271418],[-85.940550000282201,39.424800000219989],[-85.966749999812521,39.414179999707358],[-85.979550000132292,39.408579999567451],[-86.004579999667158,39.396780000396859],[-86.028569999805541,39.383960000054117],[-86.063299999695118,39.36345999987924],[-86.08597000011531,39.34931000025648],[-86.108630000074356,39.335159999734344],[-86.131590000378083,39.321299999995176],[-86.155140000010874,39.30802999958496],[-86.179279999871994,39.295350000302392],[-86.203410000171289,39.282670000120561],[-86.227550000032352,39.269989999938673],[-86.251689999893472,39.257309999756842],[-86.263469999940412,39.250679999782335],[-86.286720000127787,39.237109999926702],[-86.320870000250181,39.216029999984642],[-86.343240000325636,39.201580000017145],[-86.365310000056354,39.186840000166001],[-86.387100000364626,39.171799999970176],[-86.408579999867015,39.156460000328877],[-86.429479999602222,39.140540000021133],[-86.449790000008363,39.12403000038438],[-86.469519999748059,39.106929999619922],[-86.489239999925928,39.089829999754841],[-86.508960000103798,39.072720000327877],[-86.529269999610676,39.056209999791804],[-86.550179999807028,39.040290000383379],[-86.571370000325146,39.024659999959169],[-86.59257000040509,39.009030000434336],[-86.613459999679151,38.993110000126535],[-86.633770000085349,38.976590000028636],[-86.653200000379627,38.959200000279964],[-86.681599999740115,38.93236999957594],[-86.690870000050381,38.923229999864759],[-86.709429999794565,38.904950000442341],[-86.727670000070361,38.886369999775809],[-86.74622000025272,38.868090000353391],[-86.764470000090341,38.849509999686859],[-86.782710000366137,38.830940000380849],[-86.809070000080339,38.8020400004458],[-86.817750000162278,38.792300000045088],[-86.842190000368134,38.761490000163519],[-86.857940000030851,38.740410000221459],[-86.865740000000869,38.729789999708885],[-86.889130000349155,38.697940000430833],[-86.896939999880999,38.687330000379347],[-86.920919999558237,38.65607999999213],[-86.936969999565747,38.635289999933718],[-86.94490999969662,38.624820000043087],[-86.96817000034514,38.592829999704861],[-86.983320000217759,38.571160000433792],[-86.998189999768556,38.549189999918724],[-87.012770000335138,38.526919999958182],[-87.027049999657663,38.504369999675873],[-87.041030000434091,38.481510000386379],[-87.054720000427551,38.458369999875742],[-87.06148999966365,38.446720000427831],[-87.081499999725111,38.411480000401866],[-87.095180000156802,38.38833999989123],[-87.109160000033853,38.365490000163504],[-87.116229999614688,38.354129999699865],[-87.137420000132806,38.320079999692382],[-87.15140999957174,38.297220000402831],[-87.158330000329158,38.285719999778337],[-87.1784900001133,38.250630000374372],[-87.191890000223225,38.227199999980144],[-87.198649999897498,38.215549999632913],[-87.21956000009385,38.181200000180013],[-87.226620000112803,38.169839999716373],[-87.241039999596182,38.147429999594976],[-87.263119999788046,38.114270000160502],[-87.270480000151792,38.103199999580454],[-87.292560000343656,38.070029999684891],[-87.307130000449035,38.047770000185494],[-87.321409999771561,38.025210000341417],[-87.335389999648669,38.002359999714372],[-87.349079999642186,37.97920999964191],[-87.355849999777547,37.967560000193998],[-87.376009999561745,37.932469999890714],[-87.390140000060853,37.909769999885725],[-87.40485999988897,37.88764999964792],[-87.420169999945415,37.866130000099588],[-87.436059999769043,37.845199999880265],[-87.452100000214728,37.824409999821796],[-87.467849999877501,37.80332000031791],[-87.475649999847519,37.792710000266425],[-87.498460000428565,37.760269999860725],[-87.513329999979419,37.738300000244976],[-87.520690000343109,37.727249999687899],[-87.542769999635652,37.69407999979228],[-87.557479999901943,37.671959999554474],[-87.572199999730117,37.649849999777814],[-87.586919999558233,37.627730000439328],[-87.60164000028567,37.605610000201466],[-87.608990000188271,37.594559999644389],[-87.63107999994196,37.561389999748826],[-87.63844000030565,37.550329999629923],[-87.660510000036368,37.517159999734361],[-87.675229999864484,37.495040000395875],[-87.689949999692601,37.472920000158012],[-87.697310000056348,37.461869999600935],[-87.719379999787066,37.428699999705373],[-87.726740000150755,37.41763999958647],[-87.748829999904444,37.384469999690907],[-87.76352999970959,37.362350000352365],[-87.778409999721589,37.340390000298441],[-87.793559999594208,37.318709999666908],[-87.801220000302692,37.307949999892742],[-87.824769999935427,37.27625000033737],[-87.832719999628182,37.265790000008622],[-87.856860000388622,37.234679999782315],[-87.86481000008132,37.224209999891741],[-87.888060000268695,37.192209999991633],[-87.90321999970314,37.170539999821301],[-87.918079999692111,37.148570000205495],[-87.932800000419604,37.126460000428835],[-87.947520000247721,37.104349999752856],[-87.962229999614692,37.082230000414313],[-87.976950000342129,37.060110000176508],[-87.991670000170245,37.038000000399848],[-88.006389999998419,37.015880000162042],[-88.02110000026471,36.993770000385382],[-88.035980000276709,36.971799999870257],[-88.04347999990199,36.960890000373354],[-88.066589999928453,36.928750000312391],[-88.082339999591227,36.907670000370388],[-88.098380000036855,36.886880000311919],[-88.10648000035161,36.876560000144025],[-88.130170000145313,36.84501000031139],[-88.145629999924438,36.82363000002465],[-88.160790000258203,36.801959999854262],[-88.175639999786085,36.779990000238456],[-88.190370000075347,36.757879999562476],[-88.205080000341638,36.735760000223991],[-88.212439999806065,36.724700000105088],[-88.227159999634182,36.702590000328371],[-88.24923000026422,36.669409999971663],[-88.25658999972859,36.658360000313905],[-88.271320000017909,36.636249999637926],[-88.2860300002842,36.61413000029944],[-88.300750000112316,36.592010000061578],[-88.315480000401578,36.569900000284917],[-88.330180000206724,36.547780000047112],[-88.344909999596723,36.525670000270452],[-88.359619999863014,36.503559999594472],[-88.374339999691131,36.48144000025593],[-88.396419999882994,36.448270000360367],[-88.411000000449576,36.426000000399824],[-88.41819999973012,36.414800000120067],[-88.432330000229229,36.392089999653933],[-88.452940000080844,36.357450000317385],[-88.466329999729624,36.334010000361388],[-88.47295999970413,36.32221000029142],[-88.493410000271183,36.287420000332872],[-88.507390000148291,36.264560000144058],[-88.514450000167244,36.253210000141564],[-88.528880000111826,36.23080000002011],[-88.543599999939943,36.20869000024345],[-88.558319999768059,36.186579999567471],[-88.573039999596176,36.164460000228985],[-88.587749999862524,36.142339999991179],[-88.602179999807049,36.119929999869726],[-88.616310000306157,36.097229999864737],[-88.636909999696627,36.062580000067101],[-88.650309999806552,36.039140000111047],[-88.663700000354652,36.01570000015505],[-88.670480000051839,36.004049999807762],[-88.684310000206267,35.981050000357357],[-88.698439999806055,35.958350000352368],[-88.712570000305163,35.935639999886234],[-88.726690000343126,35.912939999881246],[-88.747149999572741,35.878140000360872],[-88.753780000446568,35.86634999985273],[-88.772770000235198,35.830079999992165],[-88.785279999772058,35.805750000362366],[-88.791459999679148,35.793520000247952],[-88.80352999960968,35.768750000112561],[-88.822219999952949,35.732190000368348],[-88.828540000020894,35.720100000414845],[-88.847819999693115,35.684120000437815],[-88.861359999963895,35.660830000204498],[-88.875339999841003,35.637970000015628],[-88.882410000321158,35.626620000013133],[-88.896539999920947,35.603920000008145],[-88.910679999981937,35.581210000441331],[-88.931120000087844,35.546419999583463],[-88.943929999969441,35.522379999837256],[-88.956149999622653,35.497760000323922],[-88.96792999966965,35.47270000030494],[-88.978960000203756,35.446900000334892],[-88.989410000071359,35.420510000136517],[-88.999859999938963,35.394119999938198],[-89.010309999806566,35.367729999739822],[-89.020750000112287,35.341340000440823],[-89.031799999770044,35.315539999571456],[-89.043430000094304,35.290329999829794],[-89.055210000141301,35.265269999810812],[-89.061100000164799,35.252729999789779],[-89.079639999885956,35.216029999884711],[-89.091709999816544,35.191250000187495],[-89.103489999863484,35.166190000168513],[-89.115109999726599,35.14098000042685],[-89.126140000260705,35.115179999557483],[-89.136599999690134,35.088790000258427],[-89.147049999557737,35.062400000060109],[-89.15750000032466,35.036009999861733],[-89.167799999570207,35.009469999940677],[-89.178389999598721,34.983219999903213],[-89.189290000433061,34.957279999772311],[-89.199879999562199,34.931029999734847],[-89.210040000445588,34.904349999652879],[-89.220049999807543,34.877519999848232],[-89.229759999724081,34.850389999698848],[-89.239039999596173,34.822810000381367],[-89.248149999722614,34.79509999956548],[-89.257279999871969,34.767380000087087],[-89.266109999676644,34.739369999825783],[-89.274510000336136,34.710910000396325],[-89.282600000189746,34.682169999745838],[-89.290400000159764,34.653120000088052],[-89.297910000246191,34.623779999647411],[-89.305269999710617,34.594299999945179],[-89.312630000074364,34.564809999781801],[-89.319979999976908,34.535319999618423],[-89.327340000340655,34.505839999916191],[-89.334699999805025,34.476349999752813],[-89.342060000168772,34.446859999589435],[-89.349430000094344,34.417370000325377],[-89.356779999996888,34.387889999723825],[-89.364140000360635,34.358399999560504],[-89.371490000263179,34.328910000296446],[-89.378709999566695,34.299279999972157],[-89.385619999863025,34.269350000202508],[-89.392240000275706,34.23912999964989],[-89.398569999905476,34.208609999651912],[-89.4046200001128,34.177799999770343],[-89.410650000297153,34.146989999888717],[-89.416819999743097,34.116320000168002],[-89.422869999950422,34.085499999825288],[-89.428599999790038,34.054400000060127],[-89.434039999746062,34.022990000388347],[-89.439040000095815,33.991149999772801],[-89.443760000123802,33.959009999711839],[-89.448759999574236,33.927160000433844],[-89.454219999553231,33.895760000323889],[-89.459810000131313,33.864500000374846],[-89.465239999626192,33.833100000264949],[-89.470110000276179,33.801109999926723],[-89.473780000446538,33.767929999569958],[-89.476139999561212,33.733439999956204],[-89.47746000017878,33.697910000046591],[-89.478059999968934,33.661640000186026],[-89.478200000129789,33.624929999819756],[-89.478200000129789,33.588069999730862],[-89.478200000129789,33.551209999641912],[-89.478200000129789,33.514349999552962],[-89.478200000129789,33.477490000363389],[-89.478200000129789,33.440630000274439],[-89.478200000129789,33.403770000185489],[-89.478200000129789,33.366919999658421],[-89.478059999968934,33.330210000191528],[-89.47746000017878,33.293940000330906],[-89.476150000022358,33.258399999960147],[-89.473790000008364,33.223910000346393],[-89.470110000276179,33.190729999989628],[-89.465250000087337,33.158739999651402],[-89.462460000028898,33.143110000126569],[-89.454359999714086,33.09594000033087],[-89.449360000263709,33.064090000153556],[-89.445099999865022,33.031509999586945],[-89.441409999671635,32.998330000129556],[-89.437729999939449,32.965160000233993],[-89.433459999978936,32.932579999667382],[-89.428450000067357,32.900730000389331],[-89.422869999950422,32.86948000000217],[-89.419769999985419,32.854140000360871],[-89.410639999836008,32.807989999938684],[-89.4046200001128,32.777180000057115],[-89.398569999905476,32.746370000175489],[-89.392249999837532,32.715850000177511],[-89.388869999550707,32.700809999981686],[-89.378720000027897,32.655699999855244],[-89.371510000286207,32.626059999969186],[-89.364000000199724,32.596729999989634],[-89.35618999976856,32.567680000331904],[-89.34809999991495,32.538930000119535],[-89.339709999716604,32.51048000025196],[-89.33087000035016,32.48246000042883],[-89.321749999762574,32.454749999612943],[-89.312619999613162,32.42703000013455],[-89.303499999924952,32.399309999756838],[-89.29422000005286,32.371740000001125],[-89.284949999742594,32.34417000024547],[-89.275830000054327,32.316449999867757],[-89.266690000343146,32.28873999995119],[-89.257429999594706,32.261170000195477],[-89.248149999722614,32.233600000439822],[-89.239030000034347,32.205880000062109],[-89.229910000346138,32.178159999684397],[-89.220629999574726,32.150589999928684],[-89.211360000163779,32.123020000173028],[-89.202239999576193,32.095310000256461],[-89.193110000326158,32.067580000316923],[-89.183840000015891,32.040020000123036],[-89.174560000143799,32.01245000036738],[-89.165439999556213,31.984729999989668],[-89.156170000145266,31.957160000233955],[-89.146449999767583,31.930030000084571],[-89.136449999967397,31.903200000279924],[-89.126300000444587,31.876520000198013],[-89.115690000393101,31.850270000160549],[-89.104800000019907,31.824330000029647],[-89.094209999991392,31.798079999992126],[-89.0839000002847,31.77154000007107],[-89.073459999978922,31.745149999872751],[-89.062999999650174,31.718759999674376],[-89.05270000040457,31.69221999975332],[-89.042099999914967,31.665980000177001],[-89.031210000441035,31.640029999584954],[-89.020609999951432,31.613790000008635],[-89.010309999806566,31.587250000087579],[-88.999859999938963,31.560859999889203],[-88.989410000071359,31.534469999690884],[-88.97910000036461,31.507929999769829],[-88.968510000336153,31.48169000019351],[-88.957619999962901,31.455739999601462],[-88.947020000372618,31.429500000025143],[-88.936860000388606,31.402810000381351],[-88.926859999689157,31.375979999677384],[-88.917140000210736,31.348850000427319],[-88.907880000361615,31.321279999772344],[-88.89875000021226,31.293569999855777],[-88.889479999901994,31.266000000100064],[-88.880200000029902,31.238419999883206],[-88.871080000341635,31.210709999966696],[-88.861950000192223,31.182989999588926],[-88.852829999604694,31.155270000110534],[-88.843990000238193,31.12725999984923],[-88.835600000039847,31.098800000419828],[-88.827510000186237,31.070059999769342],[-88.819719999778044,31.041010000111555],[-88.812209999691618,31.011669999670914],[-88.804990000388102,30.982040000245945],[-88.798220000252684,30.951959999854239],[-88.792190000068331,30.92114999997267],[-88.787189999718635,30.889299999795298],[-88.783500000424567,30.856129999899736],[-88.781140000410574,30.821629999824779],[-88.779679999632151,30.786249999637903],[-88.778500000074814,30.750570000005666],[-88.777040000195768,30.71518999981879],[-88.774669999720629,30.680689999743834],[-88.771000000449533,30.647510000286445],[-88.766140000260691,30.615519999948162],[-88.760700000304666,30.584119999838265],[-88.755249999887496,30.552719999728367],[-88.7504000001598,30.520719999828259],[-88.746720000427558,30.487549999932696],[-88.744349999952419,30.45304999985774],[-88.743030000234228,30.417519999948183],[-88.742449999567725,30.381250000087562],[-88.742290000283162,30.344539999721349],[-88.742159999684134,30.307830000254455],[-88.74155999989398,30.271560000393833],[-88.740240000175788,30.236029999584957],[-88.737880000161795,30.201530000409321],[-88.734200000429553,30.168350000052612],[-88.729349999802537,30.136359999714387],[-88.723909999846512,30.104959999604432],[-88.718449999867516,30.073549999932709],[-88.713600000139763,30.041559999594426],[-88.709920000407578,30.008389999698863],[-88.70756999995541,29.973889999623907],[-88.706239999776074,29.938359999714351],[-88.705650000447065,29.902089999853729],[-88.705510000286154,29.865380000386835],[-88.705510000286154,29.828520000297942],[-88.705510000286154,29.791660000208992],[-88.705510000286154,29.754809999681868],[-88.705510000286154,29.717949999592975],[-88.705510000286154,29.681090000403344],[-88.705510000286154,29.644230000314394],[-88.705510000286154,29.607370000225501],[-88.705510000286154,29.570510000136551],[-88.705510000286154,29.533659999609426],[-88.705510000286154,29.496800000419853],[-88.705510000286154,29.459940000330903],[-88.705510000286154,29.423080000241953],[-88.705510000286154,29.386220000153003],[-88.705510000286154,29.349369999625935],[-88.705510000286154,29.312510000436305],[-88.705510000286154,29.275650000347355],[-88.705510000286154,29.238790000258462],[-88.705510000286154,29.201930000169511],[-88.705510000286154,29.165070000080561],[-88.705510000286154,29.128219999553494],[-88.705510000286154,29.091360000363863],[-88.705510000286154,29.054500000274913],[-88.705510000286154,29.01764000018602],[-88.705510000286154,28.98078000009707],[-88.705510000286154,28.94392000000812],[-88.705510000286154,28.907059999919227],[-88.705510000286154,28.870199999830277],[-88.705510000286154,28.833350000202472],[-88.705510000286154,28.796490000113579],[-88.705510000286154,28.759630000024629],[-88.705650000447065,28.722919999658416],[-88.706239999776074,28.686660000258939],[-88.70756999995541,28.651119999888238],[-88.709920000407578,28.616619999813281],[-88.713589999678618,28.583449999917718],[-88.718460000328662,28.551459999579436],[-88.723909999846512,28.520049999907712],[-88.729340000240711,28.488649999797815],[-88.734200000429553,28.456660000358852],[-88.738020000322649,28.423629999724824],[-88.740969999665651,28.389719999878253],[-88.743619999563236,28.355520000148033],[-88.746569999805558,28.321610000301405],[-88.7504000001598,28.288579999667377],[-88.755249999887496,28.256590000228471],[-88.760839999566201,28.225330000279428],[-88.766869999750611,28.194520000397858],[-88.77306000011879,28.163849999777824],[-88.776149999622703,28.148519999698351],[-88.785130000049378,28.102230000014629],[-88.791459999679148,28.071710000016651],[-88.798080000091829,28.041479999902208],[-88.804990000388102,28.011550000132559],[-88.812209999691618,27.981919999808269],[-88.819559999594219,27.952429999644892],[-88.826930000419054,27.922949999942659],[-88.834289999883481,27.893459999779282],[-88.841639999786082,27.863980000077106],[-88.849000000149772,27.834489999913728],[-88.856359999614199,27.804999999750351],[-88.863719999977889,27.775520000048118],[-88.871080000341635,27.74602999988474],[-88.878439999806062,27.716539999721363],[-88.885800000169752,27.68706000001913],[-88.893310000256179,27.657710000016607],[-88.901110000226254,27.628669999920703],[-88.909189999618661,27.599919999708391],[-88.91759000027821,27.571469999840758],[-88.921860000238723,27.557320000217999],[-88.93555000023224,27.515740000101061],[-88.944660000358624,27.488019999723349],[-88.953929999769571,27.460449999967693],[-88.958649999797558,27.446739999951205],[-88.968649999597687,27.419910000146558],[-88.978659999859019,27.393069999880709],[-88.994419999982881,27.35355999989423],[-89.005310000356133,27.327619999763328],[-89.010759999873983,27.314640000136023],[-89.021060000018906,27.288100000214968],[-89.031070000280181,27.26127000041032],[-89.045790000108298,27.220729999689866],[-89.055049999957419,27.19315999993421],[-89.064329999829511,27.165590000178497],[-89.074050000207251,27.138460000029113],[-89.08405000000738,27.111630000224466],[-89.094209999991392,27.08493999968141],[-89.099369999625651,27.071670000170514],[-89.110239999975931,27.045719999578466],[-89.121139999910952,27.019780000346884],[-89.131440000055875,26.993240000425828],[-89.141749999762567,26.966699999605453],[-89.15750000032466,26.927189999618918],[-89.162639999935948,26.913920000108078],[-89.178990000288195,26.874989999888726],[-89.184720000127811,26.86232000016804],[-89.202379999737104,26.824720000128025],[-89.214449999667636,26.799949999992634],[-89.220629999574726,26.787710000316395],[-89.232990000288169,26.763239999626421],[-89.244770000335166,26.738179999607439],[-89.256550000382106,26.713110000026631],[-89.273320000317653,26.674629999874753],[-89.278629999674649,26.661510000086594],[-89.29422000005286,26.621850000377378],[-89.29951999984803,26.608729999689899],[-89.309829999554722,26.582189999768843],[-89.320430000044382,26.555950000192524],[-89.331909999746586,26.530589999828749],[-89.3436800002317,26.505529999809767],[-89.355449999817552,26.480460000228959],[-89.367809999631675,26.455990000438305],[-89.380190000368145,26.431519999748332],[-89.392240000275706,26.406749999612941],[-89.410789999558745,26.370040000146048],[-89.416979999926923,26.357799999570489],[-89.429049999857511,26.333030000334418],[-89.441409999671635,26.308559999644388],[-89.453770000385134,26.284080000291908],[-89.465840000315666,26.259319999718343],[-89.478200000129789,26.234840000365864],[-89.490559999943912,26.210369999675891],[-89.5026299998745,26.18560000043982],[-89.521180000056859,26.148890000073607],[-89.527359999963949,26.136650000397367],[-89.545620000262716,26.09963999968636],[-89.551800000169749,26.087409999571946],[-89.564159999983929,26.062930000219467],[-89.57622999991446,26.038160000084076],[-89.588589999728583,26.013690000293423],[-89.607569999955444,25.977420000432801],[-89.61391000004636,25.965329999579978],[-89.627149999972403,25.941739999901245],[-89.640980000126774,25.918750000012608],[-89.655109999726619,25.896040000445794],[-89.669240000225727,25.87332999997966],[-89.68336000026369,25.850629999974672],[-89.697199999979887,25.827629999624946],[-89.710450000367132,25.804039999946156],[-89.723109999626672,25.779860000039093],[-89.742100000314679,25.743599999740354],[-89.748429999944449,25.731500000224969],[-89.761090000103309,25.707320000317907],[-89.774339999591177,25.683740000200999],[-89.78816000018378,25.660739999851273],[-89.802289999783568,25.638030000284402],[-89.816730000189239,25.615620000163005],[-89.83143999955621,25.593510000386345],[-89.846160000283703,25.57139000014854],[-89.860869999650674,25.54928000037188],[-89.875599999939936,25.527160000134018],[-89.890009999861491,25.504750000012621],[-89.904140000360599,25.482050000007632],[-89.917980000076852,25.459049999657907],[-89.931520000347632,25.435749999862765],[-89.951539999970919,25.400520000297945],[-89.958310000106337,25.388869999950657],[-89.972149999822534,25.365869999600932],[-89.986269999860497,25.343169999595943],[-90.000690000243196,25.320760000373866],[-90.01541000007137,25.298640000136061],[-90.030430000244223,25.276820000242935],[-90.045729999839523,25.255290000233458],[-90.061329999779559,25.234059999669398],[-90.077230000064333,25.213130000349395],[-90.093429999794523,25.192490000013606],[-90.109319999618208,25.171550000232457],[-90.124919999558244,25.150319999668397],[-90.140520000397601,25.129090000003657],[-90.156120000337637,25.10786000033886],[-90.171720000277674,25.0866299997748],[-90.187610000101301,25.065699999555477],[-90.203800000269666,25.045060000119065],[-90.219699999655177,25.024120000337859],[-90.235310000056359,25.002889999773799],[-90.250900000434569,24.981660000109059],[-90.266509999936432,24.960430000444319],[-90.282100000314642,24.939199999880259],[-90.297999999700096,24.918260000099053],[-90.314189999868518,24.897619999763322],[-90.330090000153291,24.876690000443318],[-90.345690000093327,24.855459999879258],[-90.36129999959519,24.834230000214461],[-90.3768899999734,24.812999999650401],[-90.392790000258174,24.792059999869252],[-90.409270000310187,24.771719999878258],[-90.426649999597714,24.7522500004373],[-90.444310000106327,24.733090000003642],[-90.462550000382123,24.714510000236487],[-90.480800000219745,24.695929999569955],[-90.499339999940958,24.677650000147537],[-90.517589999778579,24.659079999942207],[-90.536150000422083,24.640790000058587],[-90.554389999798559,24.622219999853257],[-90.572939999980917,24.603940000430839],[-90.591189999818539,24.585359999764307],[-90.609730000439072,24.567080000341889],[-90.627989999838519,24.548499999675414],[-90.646529999559732,24.530220000252939],[-90.664780000296673,24.511639999586464],[-90.683329999579712,24.493360000164046],[-90.701580000316653,24.474780000396834],[-90.720120000037866,24.456500000075096],[-90.738369999875488,24.437929999869766],[-90.756909999596701,24.419639999986146],[-90.775160000333642,24.401069999780816],[-90.793720000077826,24.382790000358398],[-90.811960000353622,24.364209999691866],[-90.830509999636661,24.345930000269448],[-90.848749999912457,24.327349999602916],[-90.86728999963367,24.309070000180498],[-90.885560000393582,24.290490000413342],[-90.904100000114795,24.272210000091547],[-90.922650000297153,24.253929999769809],[-90.94178999980852,24.2362399996764],[-90.961209999641653,24.218840000365844],[-90.981520000047851,24.202329999829772],[-91.002419999783058,24.186399999960145],[-91.023610000301176,24.170779999997137],[-91.044810000381119,24.155149999572984],[-91.065990000438092,24.139520000048094],[-91.086899999735124,24.12359999974035],[-91.107500000024856,24.107379999987131],[-91.128399999760063,24.091459999679387],[-91.149599999840007,24.075830000154497],[-91.171080000241716,24.060500000075081],[-91.192869999650668,24.045459999879256],[-91.214949999842531,24.030720000028111],[-91.237030000034395,24.015969999715878],[-91.259110000226201,24.001229999864734],[-91.281170000395093,23.9864799995525],[-91.303249999687637,23.971739999701356],[-91.3253299998795,23.956999999850268],[-91.347410000071363,23.942259999999123],[-91.369479999802024,23.92750999968689],[-91.391559999993888,23.912769999835746],[-91.413649999747577,23.898029999984658],[-91.435720000377614,23.883290000133513],[-91.457799999670158,23.86853999982128],[-91.479870000300195,23.853799999970136],[-91.501949999592682,23.839049999657902],[-91.512989999688614,23.83167999973233],[-91.546109999976409,23.809560000393844],[-91.568190000168272,23.794819999643437],[-91.59025999989899,23.780079999792292],[-91.612039999746116,23.765039999596468],[-91.633529999709594,23.749710000416314],[-91.654720000227712,23.734079999992161],[-91.675619999962919,23.71815999968436],[-91.696229999814534,23.701939999931199],[-91.717119999987915,23.686019999623397],[-91.738329999629684,23.670390000098564],[-91.759810000031393,23.655060000019148],[-91.781589999878463,23.640019999823267],[-91.803670000070326,23.625270000410353],[-91.82575000026219,23.610529999659889],[-91.847819999992907,23.595789999808801],[-91.869900000184771,23.581040000395831],[-91.891980000376634,23.566299999645423],[-91.914059999669121,23.551559999794279],[-91.936130000299158,23.536810000381365],[-91.958209999591702,23.522069999630901],[-91.979999999899974,23.507030000334396],[-92.001480000301683,23.491700000254923],[-92.02238000003689,23.475779999947179],[-92.042690000443088,23.459270000310426],[-92.062420000182783,23.442159999984142],[-92.082140000360653,23.425060000119061],[-92.10185000007732,23.407960000253922],[-92.122170000045344,23.39144999971785],[-92.14306999978055,23.375519999848279],[-92.164269999860494,23.359890000323389],[-92.185460000378612,23.344270000360382],[-92.206659999559236,23.328639999936172],[-92.227549999732616,23.312719999628428],[-92.248150000022406,23.296499999875209],[-92.269060000218758,23.280579999567465],[-92.290249999837499,23.264950000042631],[-92.311449999917443,23.249319999618422],[-92.332640000435561,23.233690000093588],[-92.353540000170767,23.217769999785787],[-92.373860000138791,23.201260000149034],[-92.393279999971924,23.183859999939159],[-92.412409999921465,23.166169999845749],[-92.430949999642678,23.147890000423331],[-92.449510000286182,23.129599999640391],[-92.467760000123803,23.111030000334381],[-92.486299999845016,23.092750000012643],[-92.504549999682638,23.074170000245431],[-92.523090000303171,23.055889999923693],[-92.541340000140792,23.037310000156538],[-92.559890000323151,23.019029999834743],[-92.578129999699627,23.000450000067588],[-92.596389999998394,22.981879999862258],[-92.61375000016227,22.962419999983126],[-92.630239999776052,22.942070000430306],[-92.650699999904987,22.907279999572438],[-92.661160000233735,22.88118000015703],[-92.668369999975425,22.852730000289398],[-92.672200000329667,22.822360000014157],[-92.672630000374113,22.790950000342377],[-92.669829999854528,22.759840000116071],[-92.66408999955371,22.729910000346365],[-92.655720000277711,22.701759999924207],[-92.644669999720634,22.675950000392334],[-92.631269999610709,22.652660000159017],[-92.615809999831527,22.631729999939694],[-92.59844999966765,22.613290000333393],[-92.558560000143814,22.583809999731841],[-92.537219999902959,22.572749999612938],[-92.514270000060378,22.564200000130029],[-92.489390000248193,22.557860000039113]]]},"properties":{"objectid":552,"stormname":"Isaias","stormtype":"TS","basin":"AL","advdate":"700 PM CDT Wed Oct 07 2026","advisnum":"5A","fcstprd":120,"stormnum":9,"idp_source":"al092026-005A_5day_pgn","idp_filedate":1791418125000,"idp_ingestdate":1791418259000,"st_area(shape)":60.093981863305096,"st_perimeter(shape)":45.211868321540599,"binnumber":"AT4"}}]}