{"type":"FeatureCollection","features":[{"type":"Feature","id":633,"geometry":{"type":"LineString","coordinates":[[-87.299999999899967,27.699999999600436],[-86.799999999999898,29.70000000010009],[-87.100000000299644,32.099999999800275],[-87.200000000099806,34.20000000010009],[-84.999999999999886,36.500000000000171],[-80.999999999899956,39.100000000199998]]},"properties":{"objectid":633,"stormname":"Isaias","stormtype":"HU","basin":"AL","advdate":"1000 AM CDT Fri Oct 09 2026","advisnum":"12","fcstprd":120,"stormnum":9,"idp_source":"al092026-012_5day_lin","idp_filedate":1791559694000,"idp_ingestdate":1791559744000,"st_length(shape)":14.536120011459492,"binnumber":"AT4"}}]}