{"type":"FeatureCollection","features":[{"type":"Feature","id":604,"geometry":{"type":"Polygon","coordinates":[[[-88.405070000380135,25.133569999755821],[-88.384829999604676,25.135049999657895],[-88.36365000044708,25.139080000241961],[-88.341260000348655,25.14511999998814],[-88.306270000160282,25.157339999641408],[-88.294739999950934,25.161900000384833],[-88.271290000433055,25.171699999955194],[-88.248629999574689,25.182579999867244],[-88.21699999965017,25.20123999972634],[-88.197690000393095,25.215479999902243],[-88.180000000299685,25.231329999679872],[-88.163910000246233,25.248780000396835],[-88.148899999635148,25.267309999656902],[-88.134680000381593,25.286650000297413],[-88.121010000411104,25.30652000019802],[-88.107599999840033,25.326670000420336],[-88.094469999590729,25.347080000042126],[-88.075299999595188,25.378230000314431],[-88.069000000449535,25.388700000205006],[-88.056670000220208,25.40992000030792],[-88.044600000289677,25.43139999981031],[-88.03227000006035,25.452619999913225],[-88.013240000225721,25.483910000346384],[-88.006809999581719,25.49424999963793],[-87.993669999770589,25.51466000015904],[-87.980260000098838,25.53479999992021],[-87.966859999988912,25.55493999968138],[-87.953450000317162,25.57508000034187],[-87.933329999679643,25.605299999995168],[-87.926639999636166,25.615370000325413],[-87.913220000402589,25.635510000086583],[-87.899550000432043,25.655379999987133],[-87.885609999701614,25.674989999588945],[-87.871409999571711,25.694319999768311],[-87.849560000093845,25.722789999658914],[-87.842190000168273,25.73218999966889],[-87.827709999716603,25.751260000448781],[-87.813489999563728,25.770589999728827],[-87.799549999732619,25.790200000229959],[-87.785879999762074,25.810070000130565],[-87.772479999652148,25.830220000352881],[-87.759069999980397,25.850360000114051],[-87.745669999870472,25.870499999875221],[-87.732269999760604,25.890639999636392],[-87.718860000088853,25.910780000296938],[-87.705459999978927,25.930920000058109],[-87.692050000307177,25.951070000280424],[-87.678639999736106,25.971210000041594],[-87.665239999626181,25.991349999802765],[-87.65182999995443,26.011489999563992],[-87.631730000239202,26.041710000116552],[-87.625029999734579,26.051780000446797],[-87.611620000062828,26.071920000207967],[-87.598219999952903,26.092059999969138],[-87.584810000281209,26.112199999730365],[-87.571399999710138,26.13234999995268],[-87.551830000154268,26.163099999765336],[-87.539089999903467,26.183909999846776],[-87.532789999858494,26.194390000198496],[-87.520459999629168,26.215599999840265],[-87.502240000275663,26.247699999855229],[-87.496069999930455,26.258300000344889],[-87.477040000095826,26.289589999878729],[-87.470599999889998,26.299930000069594],[-87.457729999939431,26.320609999552005],[-87.444850000427095,26.341289999933679],[-87.426220000152796,26.372979999927225],[-87.414429999644653,26.394730000189497],[-87.408659999759095,26.405739999801312],[-87.397140000010893,26.427759999924206],[-87.385879999662166,26.450049999907719],[-87.374879999612176,26.472609999751853],[-87.363620000162769,26.494899999735367],[-87.346859999789046,26.528470000090579],[-87.335739999601174,26.550900000234947],[-87.33010999987647,26.562040000445791],[-87.318859999988888,26.584330000429304],[-87.30276000037361,26.618570000205466],[-87.297399999610207,26.629989999838756],[-87.282120000037878,26.665029999634896],[-87.277299999894979,26.676980000326921],[-87.263090000203249,26.713110000026631],[-87.25827000006035,26.72505999981928],[-87.2488799996122,26.749230000164516],[-87.239229999764575,26.773129999749813],[-87.228770000335146,26.796230000214507],[-87.218040000145777,26.819059999919205],[-87.202219999952945,26.853569999555987],[-87.196849999627659,26.864979999627451],[-87.181579999617156,26.900020000322911],[-87.176749999912488,26.911979999677385],[-87.162540000220702,26.94809999981527],[-87.157709999616657,26.960049999607918],[-87.148329999629652,26.984219999953154],[-87.133990000238214,27.02021000039133],[-87.124080000091851,27.043840000116063],[-87.114430000244226,27.067739999701359],[-87.10973000023921,27.079829999654919],[-87.096049999807519,27.116490000413307],[-87.09150000042456,27.128699999605431],[-87.078769999735584,27.166299999645389],[-87.074619999912954,27.178919999758307],[-87.066030000384103,27.203899999685405],[-87.052360000413557,27.240560000443793],[-87.047810000131278,27.252780000097061],[-87.033460000278694,27.288769999635917],[-87.023530000109304,27.31240000025997],[-87.018580000266695,27.324209999891707],[-87.009189999818545,27.348380000236943],[-87.000079999692105,27.3728200004428],[-86.986670000020354,27.409750000162546],[-86.978230000214239,27.434870000250442],[-86.969909999646688,27.460109999576957],[-86.961460000278691,27.485220000103084],[-86.9530199995732,27.510329999729834],[-86.944719999927941,27.535580000416815],[-86.940559999644165,27.548199999630413],[-86.927959999554218,27.585930000269457],[-86.919510000186278,27.611039999896207],[-86.911189999618671,27.636280000122042],[-86.902889999973411,27.661529999909703],[-86.894450000167296,27.68664000043583],[-86.88599999989998,27.71175000006258],[-86.88185000007735,27.724370000175497],[-86.869370000125286,27.762240000076076],[-86.861069999580707,27.787480000301912],[-86.853030000234241,27.812999999950193],[-86.84913999981103,27.825889999923675],[-86.838010000061331,27.865099999565473],[-86.830909999996379,27.891549999832762],[-86.823939999631193,27.918140000260962],[-86.816830000004416,27.944589999628931],[-86.813219999902969,27.957750000362353],[-86.801820000292651,27.996690000143531],[-86.79376999958572,28.022209999791812],[-86.785460000378635,28.047450000017648],[-86.777150000272172,28.072690000243483],[-86.768840000165767,28.097940000031144],[-86.760530000059362,28.123180000256923],[-86.75248999981352,28.148699999905205],[-86.744850000027384,28.174620000013135],[-86.737469999640666,28.200800000419804],[-86.730369999575714,28.22724999978783],[-86.723400000109791,28.253840000215973],[-86.716289999583694,28.280289999583943],[-86.708919999658178,28.306479999552494],[-86.701279999871986,28.332390000098542],[-86.693370000225229,28.358040000345909],[-86.685459999679153,28.3836899996939],[-86.681570000155261,28.396579999667381],[-86.674060000068835,28.42263000037434],[-86.663349999902493,28.462239999576468],[-86.656510000136279,28.488959999704377],[-86.649800000069831,28.515819999993141],[-86.643099999565209,28.542680000281905],[-86.636399999959906,28.56953000010958],[-86.629700000354603,28.596390000398344],[-86.622999999849981,28.623240000225962],[-86.616289999783532,28.650099999615406],[-86.609590000178287,28.676959999904227],[-86.602889999673664,28.703809999731845],[-86.596179999607216,28.730670000020609],[-86.589480000001913,28.757519999848284],[-86.58278000039661,28.784380000137048],[-86.576070000330162,28.811229999964667],[-86.56936999982554,28.83809000025343],[-86.562670000220237,28.864949999642931],[-86.555960000153789,28.891809999931695],[-86.549259999649166,28.918659999759313],[-86.542560000043864,28.945520000048134],[-86.535860000438561,28.972369999875752],[-86.53250999973659,28.985799999570474],[-86.52244999986749,29.02608999955396],[-86.515750000262187,29.052940000280955],[-86.509049999757565,29.079799999670399],[-86.502350000152262,29.106659999959163],[-86.499000000349611,29.120080000092059],[-86.488939999581191,29.160370000075602],[-86.4823800001368,29.187360000064075],[-86.476069999630681,29.214610000351399],[-86.470040000345648,29.242140000061113],[-86.464280000021859,29.269939999631447],[-86.458779999996921,29.298000000399838],[-86.453279999971926,29.326069999830793],[-86.447650000247222,29.354000000000156],[-86.442019999623199,29.381930000169518],[-86.43640000035964,29.409860000338881],[-86.430760000173791,29.437789999608924],[-86.425260000148796,29.465850000377372],[-86.419769999685627,29.49391999980827],[-86.414139999960923,29.521840000415807],[-86.40851000023622,29.549780000147052],[-86.402879999612196,29.577710000316415],[-86.397249999887492,29.605639999586458],[-86.391749999862498,29.63370000035485],[-86.386260000298648,29.661769999785804],[-86.380629999674625,29.689699999955167],[-86.375140000110832,29.717759999824295],[-86.370039999646167,29.746229999714842],[-86.365490000263208,29.775229999764804],[-86.361599999839996,29.804909999696861],[-86.358239999576199,29.835119999788276],[-86.354889999773548,29.865340000340893],[-86.351000000249712,29.895009999811805],[-86.346440000405607,29.924020000322912],[-86.341489999663622,29.952619999913225],[-86.338939999881006,29.966849999627925],[-86.332109999676618,30.010359999714353],[-86.328750000312141,30.040569999805768],[-86.32660999965168,30.071989999938694],[-86.32539999961017,30.104350000252452],[-86.324719999728075,30.137250000287452],[-86.324059999869007,30.170150000322394],[-86.322849999827497,30.202509999736833],[-86.320690000043385,30.233929999869758],[-86.317349999802559,30.264139999961174],[-86.312930000119309,30.293289999733872],[-86.310519999598171,30.307659999609427],[-86.303019999972889,30.35048999981376],[-86.298600000289696,30.379630000024633],[-86.295240000025899,30.409840000116048],[-86.293089999803556,30.4412699998108],[-86.291890000223248,30.473630000124558],[-86.291349999602687,30.506659999859266],[-86.291210000341152,30.54009999961545],[-86.291210000341152,30.573669999970662],[-86.291210000341152,30.607229999864728],[-86.291210000341152,30.640800000219997],[-86.291210000341152,30.674369999675889],[-86.291210000341152,30.707949999592927],[-86.291210000341152,30.741519999948196],[-86.291210000341152,30.775090000303408],[-86.291210000341152,30.808650000197474],[-86.291210000341152,30.842219999653423],[-86.291210000341152,30.875790000008635],[-86.291210000341152,30.909360000363847],[-86.291210000341152,30.942929999819796],[-86.291210000341152,30.976509999736834],[-86.291210000341152,31.0100699996309],[-86.291210000341152,31.043650000447315],[-86.291210000341152,31.077219999903207],[-86.291349999602687,31.110650000097564],[-86.291890000223248,31.143679999832273],[-86.293089999803556,31.176049999707857],[-86.295229999564697,31.207469999840782],[-86.29858999982855,31.237679999932197],[-86.303019999972889,31.266820000143014],[-86.307969999815555,31.295419999733326],[-86.312930000119309,31.324020000222959],[-86.317349999802559,31.353160000433832],[-86.320710000066356,31.383369999625927],[-86.322860000288699,31.414789999758852],[-86.324070000330153,31.447150000072611],[-86.324590000028365,31.480190000268465],[-86.324719999728075,31.513619999563446],[-86.324719999728075,31.54720000037986],[-86.324719999728075,31.580760000273926],[-86.324719999728075,31.614329999729875],[-86.324719999728075,31.647900000085087],[-86.324719999728075,31.681480000002125],[-86.324719999728075,31.715050000357394],[-86.324719999728075,31.748619999813286],[-86.324719999728075,31.782190000168498],[-86.324719999728075,31.815759999624447],[-86.324719999728075,31.849329999979659],[-86.324719999728075,31.882900000334871],[-86.324719999728075,31.91646999979082],[-86.324719999728075,31.950040000146032],[-86.324719999728075,31.983609999601924],[-86.324719999728075,32.017179999957193],[-86.324719999728075,32.050750000312405],[-86.324719999728075,32.084319999768297],[-86.324719999728075,32.117890000123566],[-86.324719999728075,32.151459999579458],[-86.324719999728075,32.18502999993467],[-86.324719999728075,32.218600000289939],[-86.324719999728075,32.252169999745831],[-86.324719999728075,32.285740000101043],[-86.324719999728075,32.319309999556992],[-86.324859999888986,32.35273999975135],[-86.325390000048344,32.385770000385378],[-86.326600000089854,32.418129999799817],[-86.328750000312141,32.449560000393831],[-86.332100000114792,32.479769999585983],[-86.336530000259188,32.508909999796799],[-86.341489999663622,32.537510000286431],[-86.346440000405607,32.566120000337889],[-86.350869999650683,32.59525000008756],[-86.35422999991448,32.625469999740858],[-86.356369999675621,32.656889999873727],[-86.357570000155306,32.689250000187485],[-86.35810999987649,32.722279999922193],[-86.35837999973711,32.755580000416842],[-86.358920000357614,32.788619999713376],[-86.360119999937922,32.820980000027134],[-86.36225999969912,32.852400000160003],[-86.365619999962917,32.882610000251475],[-86.370039999646167,32.911749999562971],[-86.374999999949921,32.940350000052604],[-86.379960000253732,32.968960000104062],[-86.384379999936925,32.998089999853732],[-86.387729999739577,33.02831000040635],[-86.38987999996192,33.059729999639899],[-86.391080000441548,33.092089999953657],[-86.391620000162789,33.125119999688366],[-86.391749999862498,33.158560000343869],[-86.391749999862498,33.192129999799818],[-86.391749999862498,33.22570000015503],[-86.391749999862498,33.259269999610922],[-86.391749999862498,33.292839999966191],[-86.391749999862498,33.326410000321403],[-86.391749999862498,33.359979999777295],[-86.391749999862498,33.393550000132564],[-86.391749999862498,33.427119999588456],[-86.391620000162789,33.460560000243959],[-86.391080000441548,33.493589999978667],[-86.38987999996192,33.525950000292426],[-86.387600000039868,33.557239999826265],[-86.383709999616713,33.586910000196497],[-86.381290000433069,33.601280000072109],[-86.370839999666146,33.64116000003412],[-86.361980000276674,33.665870000100597],[-86.351940000430545,33.689370000125564],[-86.341350000402088,33.712330000429347],[-86.335980000076859,33.723739999601435],[-86.324719999728075,33.746029999584948],[-86.313460000278667,33.768319999568462],[-86.30246999979056,33.790880000311915],[-86.291210000341152,33.813170000295429],[-86.274460000428576,33.846750000212467],[-86.263340000240703,33.869169999895746],[-86.251939999731121,33.891330000179494],[-86.240410000421093,33.913350000302444],[-86.228610000351125,33.935099999665397],[-86.216280000121799,33.956310000206486],[-86.203539999870998,33.977129999849751],[-86.190540000220722,33.99767000007057],[-86.18397999987701,34.007879999662407],[-86.163740000000871,34.037960000054113],[-86.149929999869471,34.057689999793809],[-86.142960000403605,34.067499999825259],[-86.128749999812555,34.086830000004625],[-86.106900000334633,34.115299999895228],[-86.092290000183255,34.13424000007609],[-86.077929999869468,34.153439999656428],[-86.063729999739564,34.172780000296939],[-86.056629999674612,34.182450000167535],[-86.042410000421057,34.201780000346901],[-86.028210000291153,34.221120000088092],[-86.013729999839541,34.240189999968663],[-85.991740000200764,34.268519999698356],[-85.984510000436046,34.278050000307417],[-85.970290000283171,34.297390000048608],[-85.94897999962717,34.32639000009857],[-85.941879999562218,34.336059999969166],[-85.919889999923441,34.364400000160003],[-85.912379999837015,34.373660000009124],[-85.888529999859486,34.400110000276413],[-85.872180000406615,34.417299999795318],[-85.863859999839008,34.425759999624404],[-85.8387900002582,34.450999999850239],[-85.822040000345623,34.467789999808815],[-85.813719999778073,34.476249999637901],[-85.788510000036354,34.501360000164027],[-85.780199999929948,34.509819999993169],[-85.754999999750112,34.534929999619919],[-85.738249999837535,34.551710000016612],[-85.721499999924959,34.568499999975188],[-85.704739999551236,34.585289999933707],[-85.696299999745065,34.593620000063083],[-85.679669999970429,34.610530000159542],[-85.662779999896998,34.627190000418352],[-85.64615999968413,34.644099999615435],[-85.629269999610699,34.660759999874244],[-85.612659999858977,34.677669999970647],[-85.59576000022372,34.694319999768311],[-85.579130000449084,34.711240000325915],[-85.553939999831016,34.736349999952665],[-85.545620000162785,34.744809999781808],[-85.520419999982892,34.769920000307934],[-85.512109999876486,34.77838000013702],[-85.486770000435058,34.803360000064117],[-85.478320000167741,34.811679999732348],[-85.460910000396098,34.827800000269917],[-85.443209999841542,34.843639999586458],[-85.424710000166272,34.858679999782282],[-85.405680000331643,34.87318000025698],[-85.386370000175248,34.887420000432826],[-85.367069999580735,34.901650000147526],[-85.348039999746106,34.916149999722847],[-85.32952999960969,34.931189999918729],[-85.31156999965566,34.946769999835794],[-85.293589999678659,34.96234999975286],[-85.275640000185774,34.977920000108043],[-85.257139999611184,34.992960000303924],[-85.238109999776555,35.00747000034039],[-85.21879999962016,35.021700000055091],[-85.199510000386113,35.035929999769792],[-85.180200000229718,35.050160000383869],[-85.161159999933943,35.064670000420335],[-85.142399999959935,35.079439999856277],[-85.12335999966416,35.093940000330917],[-85.113709999816535,35.10106000041884],[-85.084490000413098,35.122140000360901],[-85.064650000097345,35.13583000035436],[-85.044539999920971,35.149260000049082],[-85.034350000352106,35.155840000415822],[-85.003520000447566,35.175309999856779],[-84.982610000251213,35.18792999996964],[-84.961430000194241,35.20028999978382],[-84.939989999838531,35.212370000175497],[-84.929399999810016,35.218550000082587],[-84.897890000023381,35.237350000102595],[-84.887569999855486,35.243799999870248],[-84.856599999790035,35.263130000049614],[-84.835949999892478,35.276020000023152],[-84.815050000157271,35.288649999697896],[-84.804319999967902,35.294690000343394],[-84.771620000162784,35.312280000321891],[-84.760620000112795,35.318050000207506],[-84.727650000447056,35.335379999887209],[-84.716650000397124,35.341149999772824],[-84.694929999719591,35.352969999865763],[-84.673749999662675,35.365320000118061],[-84.642649999897458,35.384519999698398],[-84.622009999561726,35.397409999671879],[-84.601359999664169,35.410299999645417],[-84.590909999796565,35.416610000151536],[-84.559010000011369,35.435009999711838],[-84.537029999934418,35.446559999944213],[-84.526029999884486,35.452329999829772],[-84.492779999896982,35.469380000087085],[-84.481520000447574,35.474889999673906],[-84.459139999910974,35.486040000345895],[-84.436889999973403,35.497310000256448],[-84.414510000336122,35.508460000029118],[-84.392120000237696,35.519609999801787],[-84.369859999839036,35.53087999971234],[-84.347469999740611,35.542030000384329],[-84.313960000353632,35.558820000342905],[-84.291699999954915,35.570099999815284],[-84.280439999606187,35.575599999840279],[-84.246930000219209,35.592389999798797],[-84.235810000031393,35.598029999984647],[-84.202159999584183,35.614679999782311],[-84.191040000295686,35.62031999996816],[-84.157650000147271,35.637239999626445],[-84.146389999798544,35.642750000112585],[-84.124010000161263,35.653890000323429],[-84.090640000035876,35.670809999981657],[-84.079249999987383,35.676180000306942],[-84.056460000328627,35.68692000005808],[-84.02200000029967,35.702769999835766],[-84.010069999630673,35.707600000439811],[-83.974009999561702,35.721839999716337],[-83.962079999792024,35.726670000320382],[-83.938080000091816,35.736200000030124],[-83.914089999953433,35.74574000020101],[-83.890620000412582,35.755809999631936],[-83.867709999716624,35.766410000121539],[-83.844920000057868,35.777160000333879],[-83.811260000048833,35.793810000131543],[-83.789019999673144,35.805089999603922],[-83.777760000223736,35.810589999628917],[-83.755370000125311,35.821740000300906],[-83.733120000187739,35.833019999773342],[-83.699469999740586,35.849669999570949],[-83.688349999552713,35.855309999756855],[-83.6549699998655,35.872230000314403],[-83.643579999817007,35.877599999740369],[-83.620790000158252,35.888340000390826],[-83.586330000129294,35.904179999707367],[-83.574400000359617,35.909019999873237],[-83.550410000221234,35.918549999582979],[-83.526409999621706,35.928089999753809],[-83.502420000382585,35.93762000036287],[-83.478419999783057,35.947150000072611],[-83.44344000005583,35.962460000129056],[-83.432040000445568,35.967829999554965],[-83.397859999839,35.983950000092591],[-83.375600000339659,35.99522999956497],[-83.353350000402088,36.006509999936668],[-83.342090000053361,36.012020000422808],[-83.319699999954935,36.023159999734332],[-83.297450000017363,36.034440000106088],[-83.274930000219229,36.045449999717846],[-83.252139999661154,36.05619000036836],[-83.229220000302689,36.066800000419846],[-83.205760000323664,36.076869999850771],[-83.181770000185281,36.086410000021601],[-83.157780000046841,36.095939999731343],[-83.133780000346633,36.105479999902229],[-83.097849999977427,36.119840000215959],[-83.086330000229225,36.125079999942216],[-83.051999999899977,36.14106000031893],[-83.040609999851483,36.146429999744839],[-83.018099999615174,36.157440000255974],[-82.995840000115834,36.168719999728353],[-82.973450000017408,36.179859999939197],[-82.939930000169284,36.196649999897716],[-82.917680000231712,36.207930000269471],[-82.906290000183276,36.21329999969538],[-82.883499999625201,36.224040000345894],[-82.86058000026668,36.234650000397323],[-82.82520000007986,36.249550000432293],[-82.801069999780566,36.258950000442326],[-82.789140000010889,36.263789999708877],[-82.753070000380092,36.278020000322897],[-82.741139999711095,36.282859999589448],[-82.71767999973207,36.292929999919693],[-82.694760000373606,36.303539999971179],[-82.660579999767094,36.319650000047602],[-82.649450000017396,36.325290000233451],[-82.616070000330126,36.342209999891736],[-82.604809999981399,36.347720000377876],[-82.5712999996951,36.36449999987525],[-82.560169999945458,36.370140000061099],[-82.537650000147266,36.381149999672914],[-82.514859999589191,36.391899999885254],[-82.491940000230727,36.402500000374857],[-82.456560000043851,36.417409999971653],[-82.444490000113319,36.422109999976669],[-82.420499999974936,36.431639999686354],[-82.396500000274671,36.441170000295415],[-82.372510000136288,36.450709999566982],[-82.349039999696117,36.460779999897227],[-82.326120000337653,36.471389999948713],[-82.303329999779578,36.48212999969985],[-82.269680000231745,36.498780000396835],[-82.247439999855999,36.51005999986927],[-82.224909999596719,36.521070000380348],[-82.213790000308165,36.526709999666878],[-82.18040000015975,36.543630000224482],[-82.169139999811023,36.549130000249477],[-82.146760000173742,36.560280000022146],[-82.113390000048355,36.577199999680374],[-82.102129999699628,36.582699999705369],[-82.079730000039376,36.593850000377358],[-82.057480000101805,36.605129999849737],[-82.035099999565205,36.616270000060581],[-82.00157999971708,36.633060000019157],[-81.990449999967439,36.63868999974386],[-81.968059999869013,36.64984000041585],[-81.934560000043859,36.666630000374369],[-81.912310000106288,36.677909999846747],[-81.889790000308153,36.688920000357882],[-81.867540000370639,36.700199999830261],[-81.845549999832542,36.71175000006258],[-81.834549999782553,36.717519999948195],[-81.812839999566222,36.729340000041134],[-81.791660000408569,36.741690000293431],[-81.760570000205234,36.760889999873768],[-81.740190000168241,36.774060000169015],[-81.720079999991924,36.787480000301912],[-81.700239999676114,36.801179999857254],[-81.69046000012878,36.808159999784323],[-81.661359999963906,36.829379999887237],[-81.642330000129277,36.843880000361878],[-81.623559999694123,36.858649999797819],[-81.604520000297669,36.87315000027246],[-81.585219999703099,36.887379999987161],[-81.565920000007907,36.901620000163007],[-81.546620000312657,36.915849999877764],[-81.527569999555737,36.930350000352405],[-81.509080000341612,36.94538999964891],[-81.491379999787057,36.961240000325915],[-81.473949999992385,36.977350000402339],[-81.448620000112783,37.00233000032938],[-81.440180000306668,37.010659999559493],[-81.423549999632655,37.027580000117041],[-81.40693999988099,37.0444900002135],[-81.390849999827537,37.061949999592969],[-81.375029999634648,37.079670000170495],[-81.36001999992294,37.098209999891708],[-81.34554000037059,37.117279999772336],[-81.331329999779541,37.136609999951702],[-81.310009999561714,37.165619999563489],[-81.302910000396082,37.175290000333405],[-81.288440000405615,37.194349999752831],[-81.27369999965515,37.213149999772838],[-81.252109999576703,37.24187999996218],[-81.244999999949925,37.251549999832775],[-81.224220000352602,37.281089999603921],[-81.217379999687125,37.291030000234457],[-81.197420000132809,37.321379999587464],[-81.184399999560242,37.341919999808283],[-81.177960000253677,37.352259999999148],[-81.159340000440579,37.383949999992637],[-81.14767000007032,37.405840000415822],[-81.136549999882504,37.428269999660927],[-81.125819999693135,37.451100000264944],[-81.115779999847007,37.474600000289911],[-81.106390000298177,37.498769999735828],[-81.097269999710591,37.523200000379859],[-81.088419999883001,37.547910000446336],[-81.079989999638656,37.573020000073086],[-81.071669999970425,37.598269999860747],[-81.063350000302194,37.623510000086583],[-81.055310000056352,37.649020000173039],[-81.047679999832042,37.674940000280912],[-81.040309999906469,37.701130000249464],[-81.033200000279692,37.727579999617433],[-81.026359999614158,37.754299999745342],[-81.019789999708621,37.781289999733872],[-81.013629999824502,37.808689999743819],[-81.008129999799564,37.836749999612948],[-81.003569999955403,37.86574999966291],[-81.000220000152751,37.89597000021547],[-80.99808000039161,37.927390000348396],[-80.996870000350157,37.959749999762835],[-80.996340000190742,37.992780000396863],[-80.996200000029887,38.026209999691901],[-80.996340000190742,38.059650000347403],[-80.996870000350157,38.092680000082112],[-80.99808000039161,38.12504000039587],[-81.000229999714634,38.156470000090565],[-81.003569999955403,38.186680000182037],[-81.008129999799564,38.215689999793824],[-81.013629999824502,38.243749999662896],[-81.019789999708621,38.271140000111075],[-81.026359999614158,38.298130000099547],[-81.033200000279692,38.324850000227457],[-81.040300000344644,38.351299999595426],[-81.047679999832042,38.377489999563977],[-81.055450000217206,38.403270000410316],[-81.063899999585203,38.428389999598949],[-81.072880000011878,38.452960000403834],[-81.082259999998882,38.477129999849751],[-81.092319999867982,38.500629999874718],[-81.102909999896497,38.523590000178501],[-81.113620000062838,38.546419999883256],[-81.124620000112827,38.568979999727333],[-81.135879999562235,38.591269999710846],[-81.146999999750108,38.613690000293445],[-81.158130000399069,38.636120000437813],[-81.169530000009388,38.658270000260472],[-81.181060000218736,38.680299999945191],[-81.192989999988413,38.70191000004661],[-81.205719999778069,38.722720000128049],[-81.2125499999824,38.732659999859266],[-81.233079999742074,38.762470000390351],[-81.247540000170773,38.781540000270923],[-81.262159999883977,38.800469999990639],[-81.276500000174735,38.819680000032122],[-81.290709999866522,38.839010000211488],[-81.312030000084349,38.868019999823275],[-81.319270000310155,38.877559999994162],[-81.3340100001613,38.896349999552967],[-81.349429999894483,38.914480000152025],[-81.365370000225198,38.932079999692405],[-81.381730000139271,38.949259999649428],[-81.398350000352139,38.966180000206975],[-81.415120000287686,38.982959999704349],[-81.431999999899972,38.999619999963159],[-81.449159999834023,39.015999999900203],[-81.466720000227724,39.031969999815772],[-81.494060000168759,39.05493999968138],[-81.5035899998785,39.062190000368389],[-81.522759999873983,39.076549999782799],[-81.542050000007407,39.090789999958702],[-81.561360000163745,39.105030000134548],[-81.58051999969814,39.119390000448334],[-81.599430000294149,39.134030000184509],[-81.618330000429069,39.148669999920685],[-81.637500000424552,39.163030000234471],[-81.666730000289192,39.184119999738357],[-81.67664999999738,39.190960000403834],[-81.706670000320173,39.211240000325915],[-81.716859999888982,39.217819999793278],[-81.737369999625685,39.230849999927727],[-81.768599999989874,39.249919999808299],[-81.800510000236216,39.268309999806775],[-81.811229999964439,39.27434999955301],[-81.832410000021355,39.286710000266453],[-81.843000000049869,39.292879999712341],[-81.864180000106785,39.30524000042584],[-81.90720999964168,39.329269999710846],[-81.918200000129787,39.335039999596461],[-81.940989999788542,39.345789999808801],[-81.964039999746092,39.356259999699375],[-81.987639999885971,39.366200000329911],[-82.011509999886471,39.375870000200507],[-82.035099999565205,39.385800000369841],[-82.070760000073847,39.400440000106073],[-82.082820000442553,39.405140000111089],[-82.119420000232708,39.418830000104549],[-82.13161000030118,39.423400000409856],[-82.169139999811023,39.436159999784309],[-82.181750000362115,39.440320000068084],[-82.219409999571724,39.452940000181002],[-82.231870000400079,39.457239999726369],[-82.269680000231745,39.469730000139521],[-82.28228999988346,39.473890000423353],[-82.320079999692098,39.486379999937185],[-82.33269000024319,39.49054000022096],[-82.371959999953901,39.501549999832775],[-82.398769999735578,39.508259999899224],[-82.41231999956824,39.511489999563992],[-82.454010000261178,39.520079999992163],[-82.468090000253198,39.52276999993569],[-82.509900000184757,39.531229999764832],[-82.523849999577692,39.534050000307388],[-82.566340000290666,39.541839999816261],[-82.595309999856511,39.546399999660423],[-82.624920000157772,39.550299999645404],[-82.639940000330625,39.552039999846272],[-82.670229999614662,39.55527000041036],[-82.714869999650659,39.560909999696889],[-82.743820000092796,39.565470000440314],[-82.772370000075341,39.570440000305894],[-82.786579999767071,39.572990000088566],[-82.830020000222703,39.579840000315926],[-82.860179999807031,39.583199999680403],[-82.891550000332131,39.585340000340864],[-82.923849999677657,39.586550000382374],[-82.95682999980454,39.587090000103558],[-82.990210000391073,39.587230000264469],[-83.023719999778052,39.587230000264469],[-83.057100000364642,39.587090000103558],[-83.09007000003038,39.586550000382374],[-83.122379999836994,39.585340000340864],[-83.153750000362095,39.583199999680403],[-83.183909999946422,39.579840000315926],[-83.212999999650151,39.57541000017153],[-83.241549999632696,39.570440000305894],[-83.270099999615184,39.565470000440314],[-83.299070000080349,39.560909999696889],[-83.328689999943435,39.557009999711852],[-83.358850000427083,39.553650000347375],[-83.38901000001141,39.550290000083578],[-83.418640000335643,39.546399999660423],[-83.447460000178751,39.541699999655407],[-83.475470000440055,39.536190000068586],[-83.502819999942915,39.530019999723379],[-83.529769999885502,39.52344000025596],[-83.556579999667122,39.516730000189511],[-83.583390000348118,39.510009999661918],[-83.610200000129794,39.50329999959547],[-83.63700999991147,39.496579999967196],[-83.663810000131321,39.489869999900748],[-83.690490000213231,39.483019999673388],[-83.716900000434578,39.475910000046611],[-83.743039999895984,39.468520000098067],[-83.76891000039609,39.460869999850786],[-83.794380000436547,39.452809999581973],[-83.832179999807067,39.440320000068084],[-83.844790000358103,39.436159999784309],[-83.869859999938967,39.427699999955166],[-83.89452000039762,39.418830000104549],[-83.918910000096332,39.409710000416339],[-83.94304000039557,39.400310000406364],[-83.96650999993642,39.390240000076062],[-83.989430000194261,39.379630000024633],[-84.023609999901453,39.363510000386327],[-84.034739999651151,39.357870000200478],[-84.068120000237741,39.34094999964293],[-84.079379999687148,39.335449999617936],[-84.101760000223749,39.324299999845266],[-84.134870000050341,39.307119999888243],[-84.145859999639185,39.301350000002628],[-84.178300000044885,39.283490000163511],[-84.199219999803063,39.270859999589447],[-84.209530000409075,39.264420000282939],[-84.250289999583686,39.238099999715359],[-84.260350000352105,39.231380000087086],[-84.280459999629159,39.217959999954189],[-84.290500000374607,39.211240000325915],[-84.310620000112806,39.197809999731874],[-84.330719999828034,39.184380000037095],[-84.370800000019869,39.157390000048622],[-84.380719999728115,39.150550000282408],[-84.400279999722102,39.136579999967182],[-84.429110000026355,39.115090000003647],[-84.438630000174271,39.107840000215958],[-84.457399999710105,39.093069999880754],[-84.476430000444054,39.078570000305433],[-84.505520000147783,39.057359999764344],[-84.515310000156262,39.05037000027545],[-84.535149999572695,39.036669999820788],[-84.555250000187243,39.023249999687891],[-84.585420000232716,39.003109999926721],[-84.625090000403077,38.975720000377862],[-84.634869999950411,38.968729999989648],[-84.654189999668631,38.954500000274948],[-84.67322000040258,38.939990000238481],[-84.691989999938414,38.92521999990322],[-84.711019999773043,38.910720000327899],[-84.740110000376092,38.889500000224984],[-84.749889999923425,38.882520000297916],[-84.769739999801061,38.868830000304399],[-84.789840000415609,38.855399999710357],[-84.820009999561705,38.835250000387362],[-84.850170000045352,38.815109999726872],[-84.870289999783552,38.801689999593975],[-84.88032999962968,38.794969999965645],[-84.910490000113327,38.774830000204474],[-84.930600000289701,38.761399999610433],[-84.950709999566698,38.747969999915711],[-84.970810000181245,38.734540000220989],[-84.980870000050345,38.72783000015454],[-85.011029999634673,38.70769000039337],[-85.041060000418554,38.687409999571969],[-85.060759999674133,38.673580000316917],[-85.070540000120786,38.666600000389849],[-85.099370000425097,38.645110000426314],[-85.108889999673636,38.637859999739362],[-85.12766000010879,38.623090000303421],[-85.146680000381593,38.60858999982878],[-85.165989999638668,38.594360000114079],[-85.185560000093801,38.580389999798797],[-85.215449999817508,38.559980000177006],[-85.225509999686608,38.553270000110558],[-85.245619999862981,38.539840000415836],[-85.265730000039355,38.526409999821794],[-85.295889999623682,38.506270000060624],[-85.305939999930956,38.499559999994176],[-85.32605000010733,38.486130000299397],[-85.346160000283703,38.472699999705355],[-85.366259999998874,38.459270000010633],[-85.396419999583202,38.439130000249463],[-85.416529999759575,38.425699999655421],[-85.426589999628675,38.418980000027148],[-85.446690000243223,38.405559999894251],[-85.466800000419596,38.392130000199472],[-85.48690999969665,38.378699999605431],[-85.51707000018024,38.35855999984426],[-85.527119999588194,38.351840000215986],[-85.547229999764568,38.33842000008309],[-85.567339999940941,38.324990000388368],[-85.587450000117315,38.311559999794326],[-85.607560000293688,38.298130000099547],[-85.637719999877959,38.277990000338377],[-85.657830000054332,38.264559999744336],[-85.667880000361606,38.257849999677887],[-85.677800000069851,38.251000000349904],[-85.716949999642679,38.223070000180485],[-85.726589999928422,38.215950000092562],[-85.745630000224253,38.201449999617921],[-85.764399999760087,38.186680000182037],[-85.773919999907946,38.179430000394348],[-85.812520000197765,38.150959999604424],[-85.822310000206244,38.143979999677413],[-85.842149999622677,38.130289999683896],[-85.862259999799051,38.116859999989174],[-85.892420000282698,38.096709999766802],[-85.902469999690652,38.089999999700353],[-85.922579999866969,38.076570000005631],[-85.942679999582197,38.063140000310909],[-85.962780000196744,38.049709999716868],[-85.972840000065844,38.042999999650419],[-86.003010000111317,38.022859999889249],[-86.032640000435549,38.002180000406838],[-86.042419999982883,37.99519999958045],[-86.061719999678132,37.980960000303924],[-86.090130000399085,37.959080000341885],[-86.099519999947915,37.951690000393342],[-86.11856000024369,37.937189999918701],[-86.147640000385593,37.915969999815786],[-86.167350000102317,37.902139999661415],[-86.177280000271708,37.895290000333375],[-86.197390000448081,37.881870000200479],[-86.217490000163252,37.868439999606437],[-86.23758999987848,37.855009999911715],[-86.257430000194233,37.841319999918198],[-86.286660000058873,37.820239999976138],[-86.296309999906441,37.813119999888215],[-86.315350000202216,37.798609999851749],[-86.334110000176281,37.783840000415807],[-86.353149999572736,37.769339999941167],[-86.382109999576699,37.747990000138543],[-86.391749999862498,37.74087000005062],[-86.411060000018892,37.726629999874717],[-86.430089999853521,37.712139999861279],[-86.448590000428055,37.697090000103572],[-86.466550000382085,37.681519999748332],[-86.493500000324673,37.658159999884219],[-86.502490000313173,37.650370000375347],[-86.520980000426562,37.635330000179522],[-86.540019999823016,37.620829999704881],[-86.56897000026521,37.599470000340375],[-86.588129999799548,37.585110000026646],[-86.597649999947407,37.577860000238957],[-86.616160000083823,37.562820000043132],[-86.634109999576708,37.547240000126067],[-86.652079999991884,37.531669999770827],[-86.670039999945914,37.516089999853762],[-86.68855000008233,37.50104999965788],[-86.707570000355133,37.486550000082559],[-86.726879999612208,37.472309999906713],[-86.746189999768546,37.458080000192012],[-86.765219999603175,37.443570000155546],[-86.792570000005412,37.420609999851763],[-86.801410000271176,37.412689999743861],[-86.827420000032873,37.388389999698859],[-86.835999999999899,37.380199999730337],[-86.862270000060334,37.356159999984186],[-86.871119999887981,37.348239999876228],[-86.889619999563251,37.333199999680403],[-86.908650000297143,37.318689999643937],[-86.927959999554218,37.304459999929179],[-86.947269999710613,37.290230000214478],[-86.975560000293683,37.26819999963044],[-86.984800000119833,37.260679999982187],[-87.002490000213243,37.244839999766327],[-87.028370000275174,37.22039999956047],[-87.036810000081346,37.212070000330414],[-87.053700000154777,37.195430000094575],[-87.070320000367644,37.178499999975145],[-87.087210000441075,37.161859999739363],[-87.103840000215712,37.144940000081078],[-87.12902999993446,37.119829999555009],[-87.145790000308182,37.103039999596433],[-87.154239999676122,37.094719999928202],[-87.170850000327164,37.077800000269917],[-87.196060000068826,37.052689999743848],[-87.204379999737114,37.044229999914705],[-87.221260000248719,37.027569999655896],[-87.23787999956221,37.010649999997668],[-87.254780000096844,36.994000000200003],[-87.279840000115826,36.968759999974168],[-87.28827999992194,36.960429999844735],[-87.304920000157779,36.943510000186507],[-87.321790000208239,36.926860000388842],[-87.338419999982932,36.909939999831295],[-87.355299999595218,36.89329000003363],[-87.371930000269174,36.876370000375346],[-87.388820000342662,36.859719999678362],[-87.405439999656153,36.842800000020134],[-87.422070000330166,36.825889999923731],[-87.438160000383618,36.808429999644886],[-87.461489999763558,36.781439999656413],[-87.476229999614702,36.762639999636406],[-87.483469999840509,36.753109999926721],[-87.497669999970412,36.73377000018553],[-87.511890000123287,36.714430000444338],[-87.533870000200238,36.686099999815269],[-87.549289999933421,36.667970000115531],[-87.55721000004138,36.659109999826796],[-87.573289999633687,36.641650000447328],[-87.589639999985934,36.624469999590929],[-87.613630000124317,36.5981400003609],[-87.621539999771073,36.589280000072108],[-87.636550000382101,36.570749999912721],[-87.651040000395597,36.551689999593975],[-87.665250000087326,36.532349999852784],[-87.67945000021723,36.513010000111535],[-87.701430000294181,36.484680000381843],[-87.716720000327655,36.466420000083076],[-87.724489999813557,36.45741999963343],[-87.740040000145768,36.439430000094546],[-87.755589999578717,36.4214399996564],[-87.777849999977434,36.393370000225502],[-87.792179999807047,36.374169999745845],[-87.806390000398096,36.354839999566479],[-87.820600000089826,36.335490000263462],[-87.827709999716603,36.325829999954692],[-87.842190000168273,36.306760000074064],[-87.864170000245224,36.278419999883226],[-87.878509999636663,36.259220000302889],[-87.885609999701614,36.249550000432293],[-87.906399999760083,36.220009999761828],[-87.919940000030863,36.199999999700367],[-87.926639999636166,36.189930000269442],[-87.940050000207236,36.169789999608952],[-87.960140000360639,36.139580000416856],[-87.966850000427087,36.129510000086555],[-87.986950000142315,36.099299999995139],[-87.993660000208763,36.089229999664894],[-88.007060000318631,36.069080000341899],[-88.020479999552208,36.048939999681409],[-88.04056999970561,36.018729999589937],[-88.053989999838507,35.998580000266941],[-88.060690000343129,35.988509999936696],[-88.080259999898999,35.95776000012404],[-88.0930000001498,35.9369500000426],[-88.099300000194773,35.926480000152026],[-88.117659999709133,35.894520000297916],[-88.129869999800519,35.873169999595973],[-88.142329999729611,35.852080000092087],[-88.155060000418587,35.831270000010647],[-88.167919999907951,35.810589999628917],[-88.180800000319664,35.789919999708388],[-88.19353000010932,35.769100000065123],[-88.199839999716119,35.758630000174492],[-88.21766999997044,35.726140000161024],[-88.223430000294172,35.715120000088064],[-88.240590000228224,35.681950000192501],[-88.246219999952928,35.670809999981657],[-88.262840000165795,35.637109999926679],[-88.274099999615203,35.61481000038134],[-88.285219999803019,35.592389999798797],[-88.296360000013863,35.569959999654429],[-88.307620000362647,35.547669999670916],[-88.313250000087351,35.536519999898246],[-88.329859999839016,35.502819999843268],[-88.341129999749569,35.480529999859755],[-88.346760000373592,35.469380000087085],[-88.357740000400611,35.446829999804777],[-88.374629999574722,35.413390000048594],[-88.38576000022374,35.390970000365371],[-88.391260000248735,35.379689999993673],[-88.408150000322166,35.34625000023749],[-88.419139999910954,35.323690000393356],[-88.429870000100323,35.300870000250484],[-88.44046000012878,35.277900000384875],[-88.450510000436054,35.254400000359851],[-88.460020000122825,35.230370000175526],[-88.469540000270683,35.206330000429318],[-88.479060000418599,35.182289999783791],[-88.488449999967429,35.158120000337874],[-88.493129999949417,35.146039999946197],[-88.508029999984387,35.110590000128525],[-88.512979999827053,35.098770000035643],[-88.526919999658162,35.062389999598963],[-88.531480000401586,35.050160000383869],[-88.544879999612192,35.013240000225949],[-88.553329999879509,34.988129999699879],[-88.561650000447059,34.962879999912218],[-88.570090000253231,34.937770000285411],[-88.578539999621171,34.912670000220487],[-88.586840000165751,34.88740999997168],[-88.595150000272213,34.862169999745845],[-88.603460000378618,34.836930000419329],[-88.611510000186229,34.811409999871728],[-88.615390000148295,34.798519999898247],[-88.626519999897994,34.759319999818274],[-88.633619999962946,34.732859999989159],[-88.640459999729103,34.70613999986125],[-88.647169999795551,34.679279999572486],[-88.653870000300174,34.652429999744811],[-88.660569999905476,34.625570000355367],[-88.667270000410099,34.598719999628429],[-88.673970000015402,34.571860000238985],[-88.680539999920938,34.544870000250455],[-88.686710000266203,34.517470000240451],[-88.692339999990907,34.489540000071088],[-88.695009999911463,34.475440000056096],[-88.701989999838531,34.432070000130523],[-88.706279999822016,34.402800000219997],[-88.710830000104295,34.37378999970889],[-88.713250000187259,34.359430000294424],[-88.720889999973394,34.3167299997898],[-88.723430000194242,34.302489999613954],[-88.730399999660165,34.25911999968838],[-88.73429000008332,34.229450000217469],[-88.737650000347116,34.199229999664908],[-88.741000000149768,34.16901000001161],[-88.74488999967366,34.139339999641436],[-88.749439999955939,34.110339999591474],[-88.754389999798548,34.081730000439336],[-88.759350000102302,34.053129999949704],[-88.763780000246697,34.023989999738831],[-88.767139999611175,33.993779999647415],[-88.769280000271692,33.96236000041381],[-88.770479999852,33.930000000100051],[-88.770889999873475,33.897100000065109],[-88.770490000313146,33.86420000003011],[-88.769289999833518,33.831839999716351],[-88.767139999611175,33.800419999583482],[-88.765130000449062,33.785639999686396],[-88.759350000102302,33.741070000180514],[-88.754389999798548,33.712460000129056],[-88.749439999955939,33.683859999639424],[-88.74488999967366,33.654859999589462],[-88.741000000149768,33.625179999657405],[-88.737639999885971,33.59496999956599],[-88.734279999622174,33.564760000373838],[-88.73041000012131,33.535080000441837],[-88.727999999600172,33.520709999666906],[-88.72074999981254,33.477609999601952],[-88.715260000248691,33.449540000170998],[-88.71245000016728,33.435580000316918],[-88.704129999599672,33.393550000132564],[-88.698499999874969,33.365619999963201],[-88.695290000233229,33.352059999669393],[-88.685640000385604,33.311370000125578],[-88.678389999698595,33.285049999557998],[-88.67062000021275,33.259269999610922],[-88.666729999789538,33.246379999637441],[-88.655080000341627,33.207700000155],[-88.647710000416055,33.181519999748332],[-88.640470000190248,33.155200000080072],[-88.636710000366122,33.142169999945679],[-88.625309999856484,33.103230000164501],[-88.621030000334144,33.090739999751349],[-88.608020000222723,33.053409999571954],[-88.598500000074864,33.029380000286949],[-88.588979999926948,33.005339999641421],[-88.584429999644669,32.993130000449298],[-88.570620000412589,32.956600000289939],[-88.561769999685623,32.931890000223461],[-88.557619999862993,32.919270000110544],[-88.549039999895967,32.894290000183503],[-88.536029999784546,32.85696999956599],[-88.526919999658162,32.832530000259453],[-88.517670000270186,32.808219999753305],[-88.508009999961416,32.784320000168009],[-88.498099999815054,32.760690000443333],[-88.488449999967429,32.73678999995866],[-88.479060000418599,32.712610000051598],[-88.469540000270683,32.688579999867272],[-88.460020000122825,32.664540000121065],[-88.450649999697646,32.640369999775828],[-88.440990000288195,32.616470000190475],[-88.436029999984385,32.604650000097593],[-88.421419999833006,32.5689300004193],[-88.412030000284176,32.544760000074064],[-88.402510000136317,32.520729999889738],[-88.393000000449547,32.496690000143531],[-88.383619999563223,32.472519999798294],[-88.378660000158789,32.460699999705355],[-88.364040000445584,32.424989999588945],[-88.35438999969864,32.401080000441823],[-88.34514999987249,32.37678000039682],[-88.33603000018428,32.35234000019102],[-88.327180000356634,32.327630000124543],[-88.318739999651143,32.302519999598474],[-88.310419999982912,32.277280000271958],[-88.302120000337652,32.252029999584977],[-88.294069999630665,32.226520000397841],[-88.290309999806539,32.213490000263448],[-88.279059999918957,32.174419999883241],[-88.271959999854005,32.147969999615952],[-88.265120000087848,32.121250000387363],[-88.261759999824051,32.107819999793321],[-88.251710000416097,32.067540000270924],[-88.245009999911474,32.04067999998216],[-88.238310000306171,32.013819999693396],[-88.231609999801549,31.986969999865721],[-88.225039999895955,31.959979999877248],[-88.218730000289156,31.932709999566953],[-88.212709999666629,31.905190000318385],[-88.206939999781071,31.877389999848731],[-88.201450000217221,31.849329999979659],[-88.195950000192227,31.821259999649385],[-88.190180000306668,31.793460000079108],[-88.184150000122315,31.76593999993122],[-88.177859999639168,31.73868000008207],[-88.171280000171748,31.711690000093597],[-88.164579999667126,31.684829999804776],[-88.157880000061823,31.657979999977158],[-88.151169999995375,31.631119999688394],[-88.144470000390129,31.604269999860776],[-88.137769999885506,31.577409999571955],[-88.131070000280204,31.550559999744337],[-88.124369999775581,31.523700000354893],[-88.117659999709133,31.496840000066072],[-88.11096000010383,31.469990000238454],[-88.104259999599208,31.44312999994969],[-88.097559999993905,31.416280000122072],[-88.090990000088311,31.389290000133542],[-88.084690000043338,31.362030000284449],[-88.078659999858985,31.334499999675415],[-88.072889999973427,31.306700000105081],[-88.067400000409577,31.278640000235953],[-88.061889999923437,31.250569999905736],[-88.058939999681115,31.236739999751308],[-88.050089999853526,31.195250000187514],[-88.043789999808553,31.167990000338364],[-88.037230000364104,31.141000000349891],[-88.030529999859482,31.11414000006107],[-88.023819999793034,31.087279999772306],[-88.020479999552208,31.07385999963941],[-88.010419999683108,31.033569999655924],[-88.003720000077863,31.006719999828249],[-87.99701999957324,30.979860000438805],[-87.990449999667646,30.952869999550956],[-87.984149999622673,30.925609999701862],[-87.97812000033764,30.898079999992149],[-87.972349999552705,30.87028999998364],[-87.966850000427087,30.842219999653423],[-87.961359999963918,30.814159999784295],[-87.955719999778069,30.786229999614932],[-87.950230000214219,30.75816999974586],[-87.945009999611671,30.729840000016111],[-87.940039999746091,30.701229999964653],[-87.935490000363131,30.672229999914691],[-87.931189999918445,30.642960000004166],[-87.92663000007434,30.613950000392322],[-87.921680000231731,30.585349999902689],[-87.916579999767066,30.556880000012143],[-87.91148000020172,30.528410000121539],[-87.906519999897966,30.499809999631907],[-87.901969999615687,30.470809999581945],[-87.89767000007032,30.441530000109537],[-87.893110000226216,30.412530000059576],[-87.888149999922462,30.383920000008118],[-87.883070000380087,30.355459999679397],[-87.878110000076333,30.326849999627939],[-87.873690000393083,30.297719999878211],[-87.870330000129286,30.267509999786796],[-87.868190000368145,30.236080000092102],[-87.86698999988846,30.203719999778286],[-87.866459999729102,30.170690000043635],[-87.866319999568248,30.137259999849277],[-87.866180000306656,30.103820000093094],[-87.865650000147298,30.070790000358386],[-87.864440000105844,30.038430000044627],[-87.862300000344646,30.007000000349876],[-87.85894000008085,29.976790000258461],[-87.854520000397599,29.947650000047588],[-87.849560000093845,29.919049999557956],[-87.844599999790034,29.890449999967643],[-87.840180000106841,29.861309999756827],[-87.836819999842987,29.831090000103586],[-87.834669999620701,29.799669999970661],[-87.833470000040393,29.767309999656902],[-87.832939999880978,29.734279999922194],[-87.832810000181269,29.700840000166011],[-87.832810000181269,29.667269999810799],[-87.832810000181269,29.63370000035485],[-87.832810000181269,29.600129999999638],[-87.832810000181269,29.566559999644426],[-87.832810000181269,29.532990000188477],[-87.832810000181269,29.499419999833265],[-87.832810000181269,29.465850000377372],[-87.832810000181269,29.432280000022104],[-87.832810000181269,29.398709999666892],[-87.832810000181269,29.365140000210999],[-87.832810000181269,29.331569999855731],[-87.832810000181269,29.298000000399838],[-87.832939999880978,29.264570000205481],[-87.833470000040393,29.231539999571453],[-87.834689999643672,29.199169999695869],[-87.836839999866015,29.167749999563],[-87.840180000106841,29.137540000370848],[-87.844599999790034,29.108400000160032],[-87.849560000093845,29.079799999670399],[-87.854520000397599,29.051200000080087],[-87.858929999619704,29.022059999869214],[-87.862289999883501,28.991840000215973],[-87.864440000105844,28.960420000083104],[-87.865650000147298,28.928059999769289],[-87.866180000306656,28.895030000034637],[-87.866319999568248,28.861590000278454],[-87.866319999568248,28.828019999923185],[-87.866459999729102,28.794589999728828],[-87.86698999988846,28.761550000432294],[-87.868190000368145,28.729190000118535],[-87.870350000152257,28.697769999985667],[-87.873690000393083,28.667559999894195],[-87.878110000076333,28.638419999683379],[-87.883070000380087,28.609820000093066],[-87.888020000222753,28.581219999603434],[-87.892439999905946,28.552080000291937],[-87.895800000169743,28.521870000200465],[-87.897950000392086,28.490439999606451],[-87.899149999972394,28.458080000192012],[-87.899829999854489,28.425180000157013],[-87.900500000174759,28.392280000122071],[-87.901699999755067,28.359919999808312],[-87.90384999997741,28.328499999675387],[-87.907199999780062,28.298280000022146],[-87.911620000362632,28.269150000272418],[-87.916590000228211,28.24054000022096],[-87.92154000007082,28.211939999731328],[-87.92595999975407,28.182800000419832],[-87.929320000017867,28.152590000328416],[-87.931590000378094,28.1212999998952],[-87.933329999679643,28.089480000202002],[-87.935069999880511,28.057650000047602],[-87.937360000263709,28.026370000075588],[-87.940719999628186,27.996150000422347],[-87.945140000210756,27.967019999773299],[-87.95009999961519,27.938420000182987],[-87.955059999918944,27.909810000131529],[-87.959479999602195,27.880680000381858],[-87.962969999565701,27.850599999990152],[-87.965649999947459,27.819710000016642],[-87.968059999569221,27.788559999744336],[-87.970750000412067,27.757680000231971],[-87.974229999914485,27.72759000027844],[-87.978649999597678,27.698459999629449],[-87.983609999901489,27.669849999577934],[-87.988570000205243,27.641249999987679],[-87.993130000049348,27.612249999937717],[-87.99701999957324,27.58257000000566],[-88.000370000275211,27.552359999914188],[-88.003720000077863,27.522140000260947],[-88.007609999601698,27.492469999890716],[-88.012159999883977,27.463460000278928],[-88.017120000187731,27.434859999789296],[-88.022219999753077,27.406389999898693],[-88.027180000056831,27.377799999870263],[-88.031739999900992,27.348790000258475],[-88.036029999884477,27.319520000347893],[-88.040580000166756,27.290520000297931],[-88.042989999788574,27.276150000422319],[-88.050769999735621,27.233579999617405],[-88.056269999760559,27.205510000186507],[-88.061900000384583,27.17758999957897],[-88.067400000409577,27.149520000148016],[-88.072889999973427,27.121460000278944],[-88.078659999858985,27.09365999980929],[-88.084690000043338,27.066130000099577],[-88.090990000088311,27.038870000250427],[-88.097550000432079,27.011880000261954],[-88.104390000198237,26.985160000134044],[-88.111499999825014,26.958709999866755],[-88.118869999750586,26.932519999898204],[-88.126510000436042,26.906599999790274],[-88.134409999621653,26.880960000004166],[-88.142329999729611,26.855309999756798],[-88.149959999953921,26.829389999648924],[-88.157329999879494,26.803210000141519],[-88.164440000405591,26.77675999987423],[-88.17142000033266,26.750170000345406],[-88.178520000397612,26.723709999616915],[-88.185899999885009,26.697530000109566],[-88.193659999809029,26.671750000162547],[-88.197690000393095,26.658989999888718],[-88.211089999603701,26.622060000169029],[-88.220339999890996,26.597760000124026],[-88.230000000199766,26.57385999963941],[-88.2349599996042,26.562040000445791],[-88.249569999755579,26.526330000329381],[-88.258949999742583,26.502159999984144],[-88.263640000185774,26.490070000030641],[-88.277979999577212,26.454079999592466],[-88.287370000025362,26.429910000146549],[-88.297030000334132,26.406009999661876],[-88.306950000042377,26.3823799999372],[-88.311899999884986,26.370559999844261],[-88.321290000333136,26.346390000398344],[-88.33067000032014,26.322220000053107],[-88.345009999711635,26.286229999614932],[-88.349700000154769,26.274150000122575],[-88.364589999728594,26.238700000304902],[-88.375179999757052,26.215730000439294],[-88.385769999785566,26.192770000135567],[-88.396359999814024,26.169809999831784],[-88.406940000280656,26.146850000427321],[-88.41698999968861,26.123350000402354],[-88.426509999836526,26.099309999756827],[-88.431209999841542,26.087219999803267],[-88.44085999968911,26.063320000217971],[-88.450239999676114,26.039149999872734],[-88.459890000423059,26.015250000287438],[-88.470349999852488,25.992160000283945],[-88.486299999745086,25.957780000346872],[-88.49152999990946,25.946230000114554],[-88.502249999637684,25.923409999971682],[-88.517530000109332,25.888359999714339],[-88.527050000257191,25.864319999968188],[-88.536579999966932,25.840289999783806],[-88.541400000109832,25.828339999991158],[-88.555620000262707,25.792210000291448],[-88.560440000405606,25.780259999599423],[-88.570879999812064,25.757169999595931],[-88.586840000165751,25.722789999658914],[-88.592070000330125,25.711249999887741],[-88.608020000222723,25.676869999950668],[-88.613250000387097,25.665319999718349],[-88.622909999796548,25.641420000133053],[-88.636570000205268,25.604760000273927],[-88.641130000049372,25.592539999721339],[-88.653870000300174,25.55493999968138],[-88.662189999968405,25.529700000354865],[-88.67035000035213,25.504589999828795],[-88.677720000277702,25.479480000201988],[-88.683619999863026,25.454230000414327],[-88.68763999998589,25.428990000188492],[-88.689119999887964,25.403879999662422],[-88.68763999998589,25.378770000035615],[-88.68349000016326,25.353649999947663],[-88.677060000418578,25.328950000342388],[-88.668469999990407,25.305049999857772],[-88.658020000122804,25.282220000153018],[-88.63924999968765,25.250659999859238],[-88.624239999975941,25.23212999969985],[-88.607089999603716,25.215749999762807],[-88.588050000207261,25.20123999972634],[-88.55640999982154,25.182579999867244],[-88.545549999932462,25.176809999981629],[-88.522769999835532,25.166600000389849],[-88.499969999715631,25.157339999641408],[-88.477859999938914,25.148879999812266],[-88.445420000432591,25.139080000241961],[-88.425029999934452,25.135049999657895],[-88.405070000380135,25.133569999755821]]]},"properties":{"objectid":604,"stormname":"Isaias","stormtype":"HU","basin":"AL","advdate":"1000 PM CDT Thu Oct 08 2026","advisnum":"10","fcstprd":120,"stormnum":9,"idp_source":"al092026-010_5day_pgn","idp_filedate":1791516480000,"idp_ingestdate":1791516520000,"st_area(shape)":36.168176221542311,"st_perimeter(shape)":36.898162562822314,"binnumber":"AT4"}}]}