{"type":"FeatureCollection","features":[{"type":"Feature","id":4859,"geometry":{"type":"Point","coordinates":[-88.400000000399586,25.399999999700356]},"properties":{"objectid":4859,"stormname":"Hurricane Isaias","stormtype":"HU","dvlbl":"H","basin":"AL","advdate":"1000 PM CDT Thu Oct 08 2026","advisnum":"10","fcstprd":120,"gust":110,"maxwind":90,"mslp":969,"ssnum":2,"datelbl":"10:00 PM Thu","tcdvlp":"Hurricane","tcdir":40,"tcspd":12,"fldatelbl":"2026-10-08 7:00 PM Thu CDT","lat":25,"lon":-88,"stormnum":9,"stormsrc":"Tropical Cyclone","tau":0,"timezone":"CDT","validtime":"09/0000","idp_source":"al092026-010_5day_pts","idp_filedate":1791516480000,"idp_ingestdate":1791516510000,"binnumber":"AT4"}},{"type":"Feature","id":4860,"geometry":{"type":"Point","coordinates":[-87.600000000199771,27.099999999900206]},"properties":{"objectid":4860,"stormname":"Hurricane Isaias","stormtype":"MH","dvlbl":"M","basin":"AL","advdate":"1000 PM CDT Thu Oct 08 2026","advisnum":"10","fcstprd":120,"gust":120,"maxwind":100,"mslp":9999,"ssnum":3,"datelbl":"7:00 AM Fri","tcdvlp":"Major Hurricane","tcdir":9999,"tcspd":9999,"fldatelbl":"2026-10-09 7:00 AM Fri CDT","lat":27,"lon":-88,"stormnum":9,"stormsrc":"Tropical Cyclone","tau":12,"timezone":"CDT","validtime":"09/1200","idp_source":"al092026-010_5day_pts","idp_filedate":1791516480000,"idp_ingestdate":1791516510000,"binnumber":"AT4"}},{"type":"Feature","id":4861,"geometry":{"type":"Point","coordinates":[-87.100000000299644,29.899999999700356]},"properties":{"objectid":4861,"stormname":"Hurricane Isaias","stormtype":"HU","dvlbl":"H","basin":"AL","advdate":"1000 PM CDT Thu Oct 08 2026","advisnum":"10","fcstprd":120,"gust":105,"maxwind":85,"mslp":9999,"ssnum":2,"datelbl":"7:00 PM Fri","tcdvlp":"Hurricane","tcdir":9999,"tcspd":9999,"fldatelbl":"2026-10-09 7:00 PM Fri CDT","lat":30,"lon":-87,"stormnum":9,"stormsrc":"Tropical Cyclone","tau":24,"timezone":"CDT","validtime":"10/0000","idp_source":"al092026-010_5day_pts","idp_filedate":1791516480000,"idp_ingestdate":1791516510000,"binnumber":"AT4"}},{"type":"Feature","id":4862,"geometry":{"type":"Point","coordinates":[-87.299999999899967,32.199999999600436]},"properties":{"objectid":4862,"stormname":"Hurricane Isaias","stormtype":"TS","dvlbl":"S","basin":"AL","advdate":"1000 PM CDT Thu Oct 08 2026","advisnum":"10","fcstprd":120,"gust":55,"maxwind":45,"mslp":9999,"ssnum":0,"datelbl":"7:00 AM Sat","tcdvlp":"Tropical Storm","tcdir":9999,"tcspd":9999,"fldatelbl":"2026-10-10 7:00 AM Sat CDT","lat":32,"lon":-87,"stormnum":9,"stormsrc":"Tropical Cyclone","tau":36,"timezone":"CDT","validtime":"10/1200","idp_source":"al092026-010_5day_pts","idp_filedate":1791516480000,"idp_ingestdate":1791516510000,"binnumber":"AT4"}},{"type":"Feature","id":4863,"geometry":{"type":"Point","coordinates":[-87.500000000399609,34.100000000299929]},"properties":{"objectid":4863,"stormname":"Hurricane Isaias","stormtype":"STD","dvlbl":"D","basin":"AL","advdate":"1000 PM CDT Thu Oct 08 2026","advisnum":"10","fcstprd":120,"gust":40,"maxwind":30,"mslp":9999,"ssnum":0,"datelbl":"7:00 PM Sat","tcdvlp":"Subtropical Depression","tcdir":9999,"tcspd":9999,"fldatelbl":"2026-10-10 7:00 PM Sat CDT","lat":34,"lon":-88,"stormnum":9,"stormsrc":"Post-Tropical Cyclone","tau":48,"timezone":"CDT","validtime":"11/0000","idp_source":"al092026-010_5day_pts","idp_filedate":1791516480000,"idp_ingestdate":1791516510000,"binnumber":"AT4"}},{"type":"Feature","id":4864,"geometry":{"type":"Point","coordinates":[-86.099999999600186,36.099999999900206]},"properties":{"objectid":4864,"stormname":"Hurricane Isaias","stormtype":"STD","dvlbl":"D","basin":"AL","advdate":"1000 PM CDT Thu Oct 08 2026","advisnum":"10","fcstprd":120,"gust":30,"maxwind":20,"mslp":9999,"ssnum":0,"datelbl":"7:00 AM Sun","tcdvlp":"Subtropical Depression","tcdir":9999,"tcspd":9999,"fldatelbl":"2026-10-11 7:00 AM Sun CDT","lat":36,"lon":-86,"stormnum":9,"stormsrc":"Post-Tropical Cyclone","tau":60,"timezone":"CDT","validtime":"11/1200","idp_source":"al092026-010_5day_pts","idp_filedate":1791516480000,"idp_ingestdate":1791516510000,"binnumber":"AT4"}},{"type":"Feature","id":4865,"geometry":{"type":"Point","coordinates":[-83.000000000399609,37.999999999700378]},"properties":{"objectid":4865,"stormname":"Hurricane Isaias","stormtype":"STD","dvlbl":"D","basin":"AL","advdate":"1000 PM CDT Thu Oct 08 2026","advisnum":"10","fcstprd":120,"gust":30,"maxwind":20,"mslp":9999,"ssnum":0,"datelbl":"7:00 PM Sun","tcdvlp":"Subtropical Depression","tcdir":9999,"tcspd":9999,"fldatelbl":"2026-10-11 7:00 PM Sun CDT","lat":38,"lon":-83,"stormnum":9,"stormsrc":"Post-Tropical Cyclone","tau":72,"timezone":"CDT","validtime":"12/0000","idp_source":"al092026-010_5day_pts","idp_filedate":1791516480000,"idp_ingestdate":1791516510000,"binnumber":"AT4"}}]}