{"type":"FeatureCollection","features":[{"type":"Feature","id":580,"geometry":{"type":"Polygon","coordinates":[[[-90.285350000002381,23.44538999964891],[-90.261959999654152,23.441070000080572],[-90.236350000352104,23.438979999927199],[-90.208779999697128,23.43885000022749],[-90.180409999921437,23.440550000382359],[-90.152450000167278,23.444210000091573],[-90.125660000408573,23.449839999816277],[-90.100429999744563,23.457300000294936],[-90.077040000295653,23.466600000189999],[-90.055209999941439,23.477460000079077],[-90.034439999905942,23.489380000286928],[-90.014309999706597,23.501949999892702],[-89.994579999966902,23.51489999993521],[-89.975109999626682,23.528130000299427],[-89.955890000023373,23.541609999601917],[-89.936940000280686,23.555359999664404],[-89.918249999937416,23.569359999564483],[-89.890689999743586,23.59083000040431],[-89.872129999999402,23.604969999565981],[-89.862720000427601,23.61191000034637],[-89.843889999923476,23.62577999964742],[-89.825069999880498,23.639660000308936],[-89.806260000298664,23.653540000071075],[-89.778290000083359,23.67460999955199],[-89.759989999738593,23.689009999911718],[-89.750720000327647,23.696080000391873],[-89.732029999984434,23.710089999853778],[-89.713069999780544,23.723830000354383],[-89.693879999762089,23.737320000118075],[-89.67439000029816,23.750540000021147],[-89.64498999978855,23.770180000107075],[-89.635190000218245,23.776720000427815],[-89.615719999877967,23.789949999892713],[-89.596500000274716,23.803430000094579],[-89.577560000093854,23.817169999695864],[-89.558869999750584,23.831180000057088],[-89.540439999706109,23.845449999817788],[-89.512729999789542,23.866790000058586],[-89.503329999779567,23.873729999939712],[-89.484380000036879,23.887470000440317],[-89.465160000433571,23.900960000204009],[-89.44569000009335,23.914180000107081],[-89.426090000053364,23.927270000310386],[-89.406490000013378,23.940359999614429],[-89.387019999673157,23.953580000416821],[-89.367800000069849,23.967070000180513],[-89.348859999888987,23.980809999781798],[-89.320889999673625,24.001880000162032],[-89.302599999790061,24.016279999622441],[-89.284029999584732,24.030419999683374],[-89.274629999574699,24.037359999564444],[-89.255810000431097,24.05124000022596],[-89.236979999926973,24.06511000042633],[-89.209029999734582,24.08619000036839],[-89.190989999688611,24.100850000127537],[-89.173479999802055,24.116040000046098],[-89.155960000353616,24.13122999996466],[-89.138460000028886,24.146410000321396],[-89.120419999982914,24.161070000080599],[-89.101869999800556,24.175210000141533],[-89.083040000195751,24.189089999903729],[-89.073620000162748,24.196020000222973],[-89.045669999970414,24.217100000165033],[-89.027629999924443,24.231759999924179],[-89.010380000336625,24.247210000141536],[-88.993390000148281,24.26291999975831],[-88.976930000119296,24.279149999972674],[-88.960459999629165,24.295380000186981],[-88.944259999898975,24.311880000261965],[-88.927790000308164,24.328109999576952],[-88.911589999678654,24.34460999965188],[-88.895109999626698,24.360839999866243],[-88.87890999989645,24.377330000379345],[-88.862440000305639,24.393570000155535],[-88.846239999676129,24.410059999769317],[-88.829770000085318,24.42628999998368],[-88.813570000355128,24.442790000058608],[-88.797090000303172,24.459020000272915],[-88.780880000111836,24.475509999886754],[-88.764689999943414,24.492009999961681],[-88.749009999911436,24.509029999734821],[-88.733590000178253,24.526309999806813],[-88.718960000003904,24.544369999875755],[-88.704830000404115,24.562960000104056],[-88.690989999788542,24.581809999731831],[-88.677119999588228,24.600669999820752],[-88.663010000011411,24.619249999587964],[-88.648379999837005,24.637320000118052],[-88.632960000103822,24.654600000189987],[-88.617280000071844,24.671619999963184],[-88.601069999880508,24.688109999576966],[-88.584870000150261,24.704609999651893],[-88.568659999958925,24.721100000164995],[-88.552979999926947,24.738119999938192],[-88.537549999732619,24.755400000010127],[-88.522919999558212,24.773460000079069],[-88.508800000419569,24.792050000307427],[-88.494959999804053,24.810899999935202],[-88.481109999626653,24.829749999562978],[-88.467249999887486,24.848609999651899],[-88.453140000310668,24.867190000318374],[-88.438770000435056,24.885520000247936],[-88.424639999935948,24.904109999576974],[-88.410789999758606,24.922960000104069],[-88.396939999581207,24.941809999731845],[-88.383090000303184,24.96066000025894],[-88.36922999966464,24.979520000347861],[-88.355120000087823,24.998100000115073],[-88.340739999751065,25.016430000044636],[-88.326619999713103,25.035020000272937],[-88.31277000043508,25.053869999900712],[-88.298929999819507,25.072720000427807],[-88.27815000022224,25.100999999650412],[-88.271219999902996,25.110419999683359],[-88.257119999888005,25.129009999911716],[-88.242739999551247,25.147339999841279],[-88.228620000412604,25.165930000069579],[-88.214770000235205,25.184779999697355],[-88.201169999895455,25.203889999623925],[-88.187840000315646,25.223270000310436],[-88.174770000135311,25.242899999935219],[-88.155170000095325,25.272359999614423],[-88.14864000023573,25.282180000107076],[-88.135309999756601,25.301550000332384],[-88.12171000031617,25.320660000258954],[-88.107860000138771,25.339520000347875],[-88.093749999662634,25.35810000011503],[-88.079379999787079,25.376430000044593],[-88.06525999974906,25.39502000027295],[-88.044620000312648,25.423430000094584],[-88.031160000133809,25.442669999720863],[-88.024490000113303,25.45235999961443],[-88.004879999612172,25.481809999731865],[-87.991819999892982,25.501449999817794],[-87.985290000033388,25.51127000031039],[-87.965680000431576,25.540720000427825],[-87.959140000110835,25.550540000021101],[-87.939540000070849,25.579990000138537],[-87.933010000211254,25.58980999973187],[-87.913410000171268,25.619270000310394],[-87.906880000311673,25.629080000341901],[-87.893799999670136,25.648720000427829],[-87.880739999950947,25.668359999614438],[-87.86793000006935,25.688259999999161],[-87.84923999972608,25.718630000274459],[-87.843090000303164,25.728839999866238],[-87.825190000418104,25.759990000138544],[-87.819309999956431,25.770469999590944],[-87.807289999633667,25.791149999972674],[-87.79500000034966,25.81157000005561],[-87.776180000306681,25.841809999731822],[-87.763629999824502,25.86197000041534],[-87.757369999825528,25.872050000307411],[-87.739070000380082,25.902820000143038],[-87.733060000218757,25.913160000333903],[-87.721300000194731,25.934100000115052],[-87.709270000310141,25.954790000058608],[-87.690720000127783,25.985290000033615],[-87.678169999645661,26.005449999817756],[-87.665629999624684,26.025609999601954],[-87.659349999602682,26.035690000393345],[-87.647060000318675,26.056109999576961],[-87.629700000154799,26.087790000008624],[-87.624070000430095,26.098520000197993],[-87.60720999994146,26.130729999889752],[-87.601589999778582,26.141460000079064],[-87.584469999890473,26.173399999910202],[-87.572449999567709,26.194089999853759],[-87.560040000145761,26.214380000236986],[-87.553760000123816,26.224460000129056],[-87.534929999619692,26.254699999805268],[-87.522520000197744,26.274990000188495],[-87.516389999898479,26.285199999780332],[-87.499000000149806,26.316880000211995],[-87.493379999986928,26.32761999996319],[-87.476650000097322,26.359949999792775],[-87.471159999634153,26.370820000143055],[-87.460450000367132,26.392809999781832],[-87.449470000340114,26.414540000021134],[-87.438490000313152,26.436270000260436],[-87.427780000146811,26.458259999899212],[-87.416800000119792,26.479990000138514],[-87.405820000092831,26.501720000377873],[-87.389629999924466,26.534580000366873],[-87.384129999899471,26.545449999817777],[-87.367799999570195,26.578180000107068],[-87.356950000142263,26.600040000046135],[-87.345970000115301,26.621770000285437],[-87.340479999652132,26.632630000174515],[-87.324270000360116,26.665490000163516],[-87.318790000358149,26.676359999614419],[-87.307799999869985,26.698089999853778],[-87.297089999703644,26.720080000391874],[-87.280620000112833,26.75268000008208],[-87.275129999649664,26.763539999971158],[-87.264420000382586,26.785529999609935],[-87.253440000355624,26.807270000310382],[-87.242460000328663,26.828999999650421],[-87.231750000162265,26.850990000188517],[-87.220770000135303,26.872720000427819],[-87.204570000405113,26.905580000416819],[-87.199340000240738,26.916710000166518],[-87.18378999990847,26.950219999553497],[-87.178690000343124,26.961479999902224],[-87.164720000027899,26.996559999744363],[-87.155429999694604,27.019990000138534],[-87.146160000283658,27.043430000094588],[-87.137010000111331,27.066990000188525],[-87.127590000078328,27.090289999983668],[-87.122760000373603,27.10180999973187],[-87.113080000041862,27.124850000127537],[-87.099370000025374,27.160190000268415],[-87.094790000158298,27.171979999877237],[-87.08081000028119,27.207059999719377],[-87.071660000108807,27.230630000274459],[-87.067080000241731,27.242410000321399],[-87.057410000371135,27.265449999817804],[-87.043170000195232,27.300270000260468],[-87.034029999584732,27.323830000354349],[-87.029449999717599,27.335610000401346],[-87.015460000278665,27.370699999805311],[-87.006319999668165,27.394259999899191],[-86.996899999635161,27.41755999969439],[-86.992069999930436,27.429080000341912],[-86.97782999975459,27.463910000346402],[-86.968810000181236,27.487600000140048],[-86.959920000307648,27.511430000094549],[-86.951309999856505,27.535509999886756],[-86.943070000280159,27.559990000138555],[-86.934969999965404,27.584600000090063],[-86.926730000389114,27.609080000341862],[-86.918500000374593,27.633559999694398],[-86.910389999598692,27.658180000107052],[-86.902290000183257,27.682790000058617],[-86.894060000168793,27.707270000310416],[-86.885819999693126,27.731749999662895],[-86.877720000277691,27.75635999961446],[-86.86961000040111,27.780969999565968],[-86.861369999925444,27.805449999817768],[-86.853150000372125,27.829930000069567],[-86.84505000005737,27.854540000021132],[-86.836949999742615,27.87914999997264],[-86.828719999728094,27.903630000224496],[-86.820480000151804,27.928109999576975],[-86.812379999836992,27.952720000427803],[-86.804280000421556,27.977330000379368],[-86.796050000407092,28.001809999731847],[-86.787820000392571,28.026289999983646],[-86.779709999616671,28.050899999935211],[-86.771610000201235,28.075509999886719],[-86.763500000324655,28.100119999838284],[-86.755660000308637,28.124999999650413],[-86.748210000291181,28.15025999989922],[-86.741019999673142,28.175790000008647],[-86.734099999815044,28.201580000416811],[-86.727309999656654,28.227499999625422],[-86.72038000023673,28.253290000033644],[-86.713189999618692,28.278820000143014],[-86.705730000039352,28.304080000391821],[-86.698030000184247,28.329080000341889],[-86.690319999867995,28.354089999853727],[-86.682869999850482,28.37935000010259],[-86.67568000013182,28.404880000211961],[-86.668760000273664,28.430669999720863],[-86.662090000253215,28.456720000427822],[-86.655549999932418,28.482899999935171],[-86.649020000072824,28.509080000341896],[-86.642490000213229,28.535259999849245],[-86.635960000353634,28.561449999817796],[-86.62942999959472,28.587630000224465],[-86.623019999873009,28.613940000330899],[-86.616869999550715,28.640509999836752],[-86.610989999988419,28.667350000102545],[-86.605360000263715,28.694449999767812],[-86.602619999813044,28.708070000130533],[-86.594650000097317,28.74916999969588],[-86.589170000095351,28.776399999960177],[-86.583679999632182,28.803630000224473],[-86.578190000068332,28.83085999958945],[-86.572710000066365,28.858089999853746],[-86.56733999974108,28.885449999817808],[-86.561990000338142,28.912809999781814],[-86.556499999874973,28.94004000004611],[-86.551019999873006,28.967259999849261],[-86.545519999848011,28.994490000113558],[-86.540039999845987,29.021720000377854],[-86.534679999981904,29.04908000034186],[-86.529309999656675,29.076440000305922],[-86.523829999654652,29.103669999670899],[-86.518460000228743,29.131029999634904],[-86.513499999924932,29.158779999597471],[-86.50906000021871,29.187059999719338],[-86.505260000348642,29.215990000138561],[-86.502000000199757,29.245449999817765],[-86.498729999589727,29.274899999935201],[-86.494940000180748,29.303830000354367],[-86.490510000036352,29.332109999576971],[-86.485660000308656,29.359990000138566],[-86.480829999704611,29.387869999800785],[-86.476519999698098,29.416279999622418],[-86.473249999987388,29.445740000200999],[-86.47101999967316,29.476240000176006],[-86.469329999979436,29.507270000310427],[-86.46762999982451,29.538289999983647],[-86.465409999971428,29.568789999958653],[-86.462140000260717,29.598249999637915],[-86.45781999979306,29.626649999897722],[-86.452990000088334,29.654540000021143],[-86.448149999922464,29.682419999683361],[-86.443850000377097,29.710830000404314],[-86.440579999767067,29.74027999962243],[-86.438489999613694,29.770919999758348],[-86.437310000056357,29.8024600000291],[-86.436790000358144,29.834669999720859],[-86.436650000197233,29.867270000310384],[-86.436650000197233,29.89999000013853],[-86.436650000197233,29.932720000427821],[-86.436650000197233,29.965449999817793],[-86.436650000197233,29.998169999645938],[-86.436650000197233,30.030899999935173],[-86.436650000197233,30.063630000224464],[-86.436650000197233,30.096359999614435],[-86.436650000197233,30.129080000341901],[-86.436650000197233,30.161809999731872],[-86.436650000197233,30.194540000021107],[-86.436650000197233,30.227259999849252],[-86.436650000197233,30.259990000138544],[-86.436650000197233,30.292720000427835],[-86.436650000197233,30.325449999817806],[-86.436650000197233,30.358169999645895],[-86.436650000197233,30.390899999935186],[-86.436650000197233,30.423630000224477],[-86.436650000197233,30.456350000052623],[-86.436650000197233,30.489080000341858],[-86.436650000197233,30.521809999731829],[-86.436779999896999,30.554410000321411],[-86.437299999595211,30.586609999551968],[-86.438480000051868,30.618160000283922],[-86.440570000205241,30.648789999958694],[-86.443839999915951,30.678249999637899],[-86.448149999922464,30.706649999897706],[-86.452990000088334,30.734540000021127],[-86.45781999979306,30.762419999683402],[-86.462140000260717,30.790830000404355],[-86.465409999971428,30.820279999622414],[-86.467500000124801,30.850919999758332],[-86.468670000120312,30.882469999590967],[-86.46920000027967,30.914669999720843],[-86.46945000011732,30.947130000149514],[-86.469980000276678,30.979339999841272],[-86.471150000272189,31.010880000112081],[-86.473249999987388,31.041520000247942],[-86.476519999698098,31.070970000365378],[-86.480829999704611,31.099380000187011],[-86.485669999870481,31.12725999984923],[-86.490490000013381,31.15514999997265],[-86.494809999581719,31.183559999794284],[-86.498080000191749,31.213009999911719],[-86.500170000345122,31.243639999586435],[-86.501340000340633,31.275190000318389],[-86.502000000199757,31.307259999849236],[-86.502660000058825,31.339339999841286],[-86.503830000054336,31.370880000112038],[-86.505920000207766,31.401520000247956],[-86.509189999918476,31.430970000365392],[-86.513510000386077,31.459380000187025],[-86.518340000090802,31.487259999849243],[-86.52318000025673,31.515149999972664],[-86.527499999825011,31.543559999794297],[-86.530759999973895,31.573009999911733],[-86.532850000127326,31.603639999586449],[-86.534029999684606,31.635190000318403],[-86.534679999981904,31.66725999984925],[-86.535319999818057,31.699339999841243],[-86.536509999836539,31.730880000112052],[-86.538599999989913,31.76152000024797],[-86.541860000138797,31.790970000365348],[-86.54617000014531,31.819380000186982],[-86.55101000031118,31.847259999849257],[-86.555849999577731,31.875149999972678],[-86.560159999584187,31.903559999794311],[-86.563430000194273,31.93300999991169],[-86.565520000347647,31.963639999586462],[-86.566699999904984,31.995190000318416],[-86.567210000041371,32.027400000010118],[-86.56733999974108,32.059990000138555],[-86.56733999974108,32.092720000427846],[-86.56733999974108,32.125449999817761],[-86.56733999974108,32.158169999645907],[-86.56733999974108,32.190899999935198],[-86.56733999974108,32.223630000224489],[-86.56733999974108,32.25635999961446],[-86.56733999974108,32.289080000341869],[-86.56733999974108,32.32180999973184],[-86.56733999974108,32.354529999559986],[-86.567470000340165,32.387130000149511],[-86.567999999600204,32.419330000279444],[-86.569169999595715,32.450880000112079],[-86.571270000210234,32.48152000024794],[-86.574519999897973,32.510970000365376],[-86.578840000365631,32.539380000187009],[-86.583679999632182,32.56727000031043],[-86.588510000236226,32.595149999972648],[-86.592820000242739,32.623550000232456],[-86.596080000391623,32.653009999911717],[-86.598180000106822,32.683639999586433],[-86.599350000102334,32.715190000318387],[-86.599880000261692,32.747400000010146],[-86.600009999961401,32.779990000138525],[-86.600009999961401,32.812720000427817],[-86.600009999961401,32.845449999817788],[-86.600009999961401,32.878169999645934],[-86.600009999961401,32.910899999935168],[-86.600009999961401,32.943630000224459],[-86.600009999961401,32.976350000052605],[-86.600009999961401,33.009080000341896],[-86.600009999961401,33.041809999731868],[-86.600009999961401,33.074540000021102],[-86.600009999961401,33.107259999849248],[-86.600009999961401,33.139990000138539],[-86.600009999961401,33.17272000042783],[-86.600009999961401,33.205449999817802],[-86.600009999961401,33.238169999645891],[-86.600009999961401,33.270899999935182],[-86.600009999961401,33.303630000224473],[-86.600009999961401,33.336350000052619],[-86.600009999961401,33.36908000034191],[-86.600009999961401,33.401809999731825],[-86.600009999961401,33.434540000021116],[-86.600009999961401,33.467259999849261],[-86.600009999961401,33.499990000138553],[-86.600009999961401,33.532720000427844],[-86.600009999961401,33.565440000255933],[-86.600009999961401,33.59818000010705],[-86.600009999961401,33.630899999935195],[-86.600009999961401,33.663630000224487],[-86.600009999961401,33.696350000052632],[-86.600009999961401,33.729080000341867],[-86.600009999961401,33.761809999731838],[-86.600009999961401,33.794540000021129],[-86.600009999961401,33.827259999849275],[-86.600009999961401,33.859990000138566],[-86.600009999961401,33.892720000427801],[-86.600009999961401,33.925449999817772],[-86.600009999961401,33.958169999645918],[-86.600009999961401,33.990899999935209],[-86.600009999961401,34.023619999763298],[-86.599880000261692,34.05622000035288],[-86.599359999664159,34.088419999583436],[-86.598189999668648,34.119979999877216],[-86.596080000391623,34.150599999990163],[-86.592829999804565,34.180059999669368],[-86.59087000025022,34.194460000029096],[-86.583679999632182,34.236350000052596],[-86.578849999927456,34.264240000176017],[-86.574399999760089,34.292509999836795],[-86.570619999912935,34.321440000255961],[-86.56733999974108,34.350899999935166],[-86.56407000003037,34.380359999614427],[-86.560290000183272,34.409290000033593],[-86.558200000029899,34.423550000232467],[-86.550349999552736,34.464789999958668],[-86.5443499998525,34.491490000063607],[-86.537949999692614,34.517809999731867],[-86.531279999672165,34.543860000438826],[-86.527880000261689,34.556820000043103],[-86.51715000007232,34.595180000057098],[-86.509700000054863,34.620440000305905],[-86.501880000061874,34.645320000118033],[-86.493759999724091,34.669930000069598],[-86.485660000308656,34.694540000021107],[-86.481609999701618,34.706839999766316],[-86.473510000286183,34.731449999717881],[-86.465149999672633,34.755800000269915],[-86.457050000257198,34.78041000022148],[-86.444760000073813,34.817199999780314],[-86.4361299995997,34.841290000033609],[-86.427250000187257,34.865110000426341],[-86.418229999714583,34.888800000219987],[-86.408820000142782,34.912109999576955],[-86.399139999811041,34.93514999997268],[-86.389739999801066,34.958449999767822],[-86.380600000089828,34.982009999861759],[-86.376020000222752,34.993789999908699],[-86.36204999990747,35.028880000211984],[-86.352759999574232,35.052309999706893],[-86.34296000000387,35.075220000402851],[-86.332639999836033,35.097609999601957],[-86.322310000106313,35.119990000138557],[-86.311989999938419,35.142369999775838],[-86.301669999770581,35.164759999874263],[-86.296570000205236,35.176020000222991],[-86.282579999866982,35.211100000065073],[-86.27329999999489,35.234540000021127],[-86.268590000428048,35.246190000368358],[-86.254749999812532,35.281399999910207],[-86.244939999781081,35.304309999706845],[-86.234619999613187,35.326699999805271],[-86.224169999745584,35.348949999742842],[-86.218930000019384,35.360080000391861],[-86.202469999990399,35.392669999620921],[-86.191619999663146,35.414540000021134],[-86.180770000235214,35.436390000398319],[-86.175290000233247,35.44725999984928],[-86.15908999960368,35.48011999983828],[-86.153860000338625,35.491249999587978],[-86.138310000006413,35.52475999987422],[-86.128499999974906,35.547669999670916],[-86.12379999996989,35.559320000018147],[-86.109949999792548,35.594540000021141],[-86.100669999920456,35.617970000415312],[-86.091399999610189,35.64139999991022],[-86.086690000043347,35.653050000257451],[-86.071270000310165,35.686699999805285],[-86.060939999681125,35.709080000341885],[-86.050609999951405,35.731470000440311],[-86.040289999783568,35.753850000077591],[-86.030490000213263,35.77675999987423],[-86.025779999747101,35.788410000221461],[-86.011929999569702,35.823630000224455],[-86.00264999969761,35.847059999719363],[-85.993500000424604,35.8706199998133],[-85.984089999953426,35.893919999608443],[-85.974429999644656,35.916960000004167],[-85.965009999611709,35.940270000260455],[-85.960429999744576,35.952050000307395],[-85.94659000002838,35.987259999849243],[-85.937319999718113,36.010690000243471],[-85.928159999983905,36.034259999899234],[-85.918880000111812,36.057690000293405],[-85.909609999801546,36.081119999788314],[-85.900849999627667,36.1050800003419],[-85.892750000212231,36.129690000293408],[-85.885160000033864,36.154819999943186],[-85.878109999576736,36.180490000213467],[-85.871570000155259,36.206669999720873],[-85.865569999555703,36.233369999825754],[-85.860200000129794,36.260729999789817],[-85.855760000423572,36.289009999911684],[-85.852489999813542,36.31846000002912],[-85.850399999660169,36.349089999703892],[-85.849229999664658,36.38064000043579],[-85.848689999943417,36.412850000127548],[-85.848569999805534,36.445440000255928],[-85.848569999805534,36.4781699996459],[-85.848569999805534,36.510899999935191],[-85.848569999805534,36.543619999763337],[-85.848569999805534,36.576350000052628],[-85.848700000404563,36.608949999742833],[-85.849229999664658,36.641149999872766],[-85.850399999660169,36.672699999705344],[-85.852489999813542,36.703330000279436],[-85.855760000423572,36.732789999958698],[-85.858250000137275,36.746669999720837],[-85.865569999555703,36.788430000044627],[-85.868700000004878,36.801649999947699],[-85.87797999987697,36.841440000255943],[-85.884640000335651,36.867490000063583],[-85.891569999755575,36.893279999572485],[-85.895230000364108,36.905979999777287],[-85.906340000090836,36.943940000230953],[-85.9145700001053,36.968419999583432],[-85.923319999818034,36.992380000137018],[-85.932460000428591,37.015949999792781],[-85.942259999998896,37.038859999589477],[-85.952589999728616,37.061240000126077],[-85.95781999989299,37.072360000313893],[-85.973769999785532,37.105479999702368],[-85.984880000411579,37.127080000241961],[-85.99611000027619,37.148550000182524],[-86.007610000001421,37.169759999824294],[-86.019650000347156,37.190440000205967],[-86.032059999769046,37.21074000015102],[-86.044719999927963,37.230770000235452],[-86.057669999970415,37.250529999560001],[-86.070869999850515,37.270039999946164],[-86.08433999959118,37.289279999572443],[-86.098180000206753,37.308130000099595],[-86.112559999644191,37.326460000029101],[-86.127579999817044,37.344130000099597],[-86.143139999711138,37.361279999572446],[-86.159069999580709,37.378039999946168],[-86.183380000086856,37.402779999597442],[-86.191619999663146,37.410899999935168],[-86.207959999554248,37.427259999849241],[-86.232530000359134,37.451740000101097],[-86.240629999774569,37.459990000138532],[-86.256969999665671,37.476350000052605],[-86.273290000433065,37.492709999966678],[-86.289630000324166,37.509080000341896],[-86.305970000215211,37.525440000255969],[-86.322299999645168,37.541809999731868],[-86.338640000435589,37.558169999645941],[-86.354980000326634,37.574540000021102],[-86.371440000355619,37.590770000235466],[-86.396670000120309,37.614589999728878],[-86.405290000133277,37.6223200000681],[-86.422929999719599,37.637369999825751],[-86.450500000374632,37.658839999766315],[-86.460050000107287,37.665649999947675],[-86.488939999581191,37.685809999731873],[-86.498740000050873,37.692350000052613],[-86.518480000251714,37.70530999965689],[-86.538470000290204,37.718009999861749],[-86.558719999728112,37.730449999767814],[-86.57923999992596,37.742619999813314],[-86.600020000422603,37.754529999559963],[-86.641309999756572,37.778619999813259],[-86.651500000224701,37.784770000135552],[-86.671630000424102,37.797339999741325],[-86.691759999724127,37.809910000246475],[-86.701950000192255,37.816059999669392],[-86.743900000284668,37.83949000006362],[-86.754749999712601,37.844990000088558],[-86.789109999626703,37.859649999847761],[-86.812379999836992,37.86908000034191],[-86.835770000185278,37.878369999775828],[-86.847530000209247,37.882949999642904],[-86.87105999981901,37.892119999838258],[-86.894060000168793,37.901809999731825],[-86.917050000057372,37.911490000063623],[-86.952479999852017,37.925110000426344],[-86.976260000198749,37.934009999861757],[-87.000310000406103,37.942649999897696],[-87.012460000428575,37.946839999766325],[-87.049319999618206,37.959009999811769],[-87.061600000239707,37.963069999980632],[-87.09871000016625,37.974979999727339],[-87.123930000369114,37.982440000205997],[-87.149409999971397,37.989649999947687],[-87.162230000314139,37.993179999957192],[-87.188099999914982,37.999979999677407],[-87.214229999814563,38.006529999559973],[-87.253969999615663,38.015830000354356],[-87.280749999812542,38.021720000377854],[-87.294219999553206,38.024600000090061],[-87.321400000209735,38.030100000115056],[-87.362430000144286,38.038080000291927],[-87.376020000022891,38.040830000304425],[-87.416929999819558,38.048949999742831],[-87.444630000174243,38.053919999608468],[-87.458619999613177,38.056279999622404],[-87.502399999560225,38.061520000247981],[-87.532970000065347,38.063610000401354],[-87.564479999851983,38.064789999958691],[-87.596619999912946,38.065309999656904],[-87.629169999995383,38.065440000255933],[-87.661829999754559,38.065440000255933],[-87.694499999974937,38.065440000255933],[-87.727170000195258,38.065440000255933],[-87.759840000415579,38.065440000255933],[-87.792520000197726,38.065440000255933],[-87.825190000418104,38.065440000255933],[-87.857859999739105,38.065440000255933],[-87.890540000420572,38.065440000255933],[-87.923209999741573,38.065440000255933],[-87.955879999961951,38.065440000255933],[-87.988550000182272,38.065440000255933],[-88.021089999803564,38.065320000118049],[-88.053240000325673,38.064789999958691],[-88.068789999758565,38.064000000399858],[-88.115310000156285,38.061520000247981],[-88.144720000227721,38.058249999637894],[-88.173080000441587,38.053919999608468],[-88.200790000358154,38.048949999742831],[-88.228099999815015,38.043580000316922],[-88.255279999572224,38.038089999853753],[-88.282589999928462,38.032709999966698],[-88.309900000284699,38.027350000102558],[-88.336959999903968,38.021720000377854],[-88.363740000100847,38.01581999989321],[-88.390269999560701,38.009669999570974],[-88.416550000082339,38.003259999849263],[-88.44255000028221,37.996580000266931],[-88.468290000183231,37.989649999947687],[-88.493789999808541,37.982440000205997],[-88.51900000044958,37.974979999727339],[-88.54384000021571,37.967130000149552],[-88.568410000121332,37.959009999811769],[-88.592969999565696,37.950899999935189],[-88.617420000232698,37.942649999897696],[-88.641459999978906,37.934009999861757],[-88.665240000325639,37.925110000426344],[-88.688760000373634,37.915940000230989],[-88.72286999955071,37.901020000172991],[-88.733980000176757,37.895780000446791],[-88.767299999795057,37.880069999930697],[-88.788999999550242,37.86908000034191],[-88.799849999877495,37.863580000316915],[-88.821669999770563,37.852709999966692],[-88.854339999990884,37.836350000052619],[-88.876039999746069,37.825359999564455],[-88.887019999773088,37.819990000138546],[-88.908830000104331,37.809119999788322],[-88.941110000326148,37.792369999875746],[-88.962549999782539,37.781110000426338],[-88.973010000111287,37.77522000040284],[-89.00384999957771,37.757020000173043],[-89.013899999884984,37.75074000015104],[-89.043820000092808,37.731619999763325],[-89.063440000155765,37.718529999559962],[-89.082779999896957,37.705179999957181],[-89.111269999810531,37.684630000174536],[-89.120680000281709,37.67769000029341],[-89.148390000198219,37.656350000052612],[-89.157529999909457,37.649149999872748],[-89.176089999653641,37.635009999811814],[-89.194900000134794,37.621139999611444],[-89.213729999739598,37.607259999849248],[-89.232540000220752,37.593380000087109],[-89.251099999964936,37.579240000026118],[-89.269130000449081,37.564580000266972],[-89.286380000036843,37.549139999611441],[-89.303379999787069,37.533429999994667],[-89.328080000291664,37.509080000341896],[-89.336299999845039,37.50096000000417],[-89.352510000036375,37.484470000390331],[-89.368720000227711,37.467970000315404],[-89.384400000259689,37.450960000104089],[-89.407140000310676,37.424640000435829],[-89.421519999748114,37.406309999606947],[-89.428570000205241,37.397020000173029],[-89.449349999802564,37.368740000051105],[-89.456280000121808,37.359320000018158],[-89.47013000029915,37.340470000390326],[-89.48425000033717,37.321880000162025],[-89.505680000231735,37.294259999899225],[-89.512729999789542,37.284969999565988],[-89.526590000428087,37.266110000376386],[-89.546839999865995,37.237309999656929],[-89.560039999746095,37.21780000017003],[-89.572980000226721,37.198039999946161],[-89.585660000408609,37.178009999861729],[-89.598080000291702,37.157720000377878],[-89.610090000153264,37.137039999996148],[-89.621460000178786,37.11569999975535],[-89.626949999742578,37.104839999866272],[-89.642760000373642,37.071580000316885],[-89.652570000405092,37.048669999620927],[-89.661710000116329,37.025110000426309],[-89.666149999822551,37.013199999780284],[-89.679229999564711,36.977199999780339],[-89.687470000040378,36.952720000427803],[-89.695570000355133,36.928109999576975],[-89.699620000062851,36.91580000026994],[-89.707729999939431,36.891190000318431],[-89.718440000105829,36.852839999866262],[-89.721840000415568,36.839869999800783],[-89.730989999688632,36.79994999979283],[-89.736469999690655,36.772720000427796],[-89.741840000015884,36.745350000002645],[-89.744579999567236,36.73174000010107],[-89.752679999881991,36.690770000235489],[-89.757640000185745,36.663009999811777],[-89.761950000192257,36.634609999551969],[-89.765210000341142,36.605149999872765],[-89.767310000056341,36.574520000197992],[-89.768480000051852,36.542970000365358],[-89.76901000021121,36.510770000235482],[-89.769139999910976,36.4781699996459],[-89.769139999910976,36.445440000255928],[-89.769139999910976,36.412720000427839],[-89.769139999910976,36.379990000138548],[-89.76901000021121,36.347390000448286],[-89.768489999613678,36.31519000031841],[-89.767319999618167,36.283639999586455],[-89.765210000341142,36.25300999991174],[-89.761959999754083,36.223550000232478],[-89.757640000185745,36.195140000410845],[-89.7528099995817,36.16725999984925],[-89.747979999876975,36.139380000187032],[-89.743669999870519,36.110970000365398],[-89.740400000159752,36.081520000247963],[-89.738300000444553,36.050880000112045],[-89.737140000010868,36.01933000027941],[-89.736600000289684,35.987130000149534],[-89.736469999690655,35.954529999559952],[-89.736469999690655,35.921809999731863],[-89.736469999690655,35.889080000341892],[-89.736469999690655,35.856350000052601],[-89.736469999690655,35.823630000224455],[-89.736469999690655,35.79089999993522],[-89.736469999690655,35.758169999645929],[-89.736469999690655,35.725440000255958],[-89.736469999690655,35.692709999966667],[-89.736469999690655,35.659990000138521],[-89.736469999690655,35.627259999849286],[-89.736469999690655,35.594540000021141],[-89.736469999690655,35.56180999973185],[-89.736469999690655,35.529080000341878],[-89.736469999690655,35.496350000052587],[-89.736469999690655,35.463619999763296],[-89.736469999690655,35.430899999935207],[-89.736469999690655,35.398169999645916],[-89.736469999690655,35.365440000255944],[-89.736469999690655,35.332709999966653],[-89.736469999690655,35.299990000138564],[-89.736469999690655,35.267259999849273],[-89.736469999690655,35.234540000021127],[-89.736339999990889,35.201940000330922],[-89.735949999992386,35.185970000415352],[-89.73463999983602,35.138179999907209],[-89.732549999682647,35.107550000232493],[-89.729279999971936,35.078100000115057],[-89.726930000419088,35.064089999753833],[-89.720140000260699,35.021800000170003],[-89.715300000094828,34.993919999608465],[-89.710999999650141,34.965520000247977],[-89.707729999939431,34.936059999669396],[-89.705510000086349,34.90555999969439],[-89.703800000369597,34.874529999559968],[-89.702100000214728,34.843509999886749],[-89.6998699999005,34.813000000349859],[-89.696609999751558,34.783550000232481],[-89.692290000183277,34.755140000410847],[-89.687459999579232,34.727259999849252],[-89.682620000312681,34.699380000186977],[-89.67817999970714,34.67110000006511],[-89.67439000029816,34.642169999645887],[-89.671130000149276,34.612720000427828],[-89.667860000438566,34.583259999849247],[-89.664070000130323,34.554330000329401],[-89.661719999678155,34.540319999968176],[-89.654659999659145,34.498300000244967],[-89.651920000107793,34.484690000343392],[-89.64656000024371,34.457330000379386],[-89.641189999918481,34.429970000415324],[-89.633089999603669,34.388990000088597],[-89.630350000052374,34.375369999725876],[-89.624859999589205,34.348149999922725],[-89.616629999574741,34.307300000194971],[-89.613890000023389,34.293690000293452],[-89.608539999721131,34.26633000032939],[-89.600420000282668,34.225359999564489],[-89.594929999819556,34.198130000199512],[-89.589449999817532,34.170899999935216],[-89.583949999792537,34.143669999670919],[-89.57846999979057,34.116440000305943],[-89.575850000377102,34.102690000243456],[-89.570370000375135,34.075459999979159],[-89.562129999899469,34.034619999813287],[-89.55623999987597,34.00779000000864],[-89.553119999887997,33.994559999644423],[-89.543710000316139,33.954899999935208],[-89.540439999706109,33.941809999731845],[-89.533909999846514,33.915630000224496],[-89.52411000027621,33.876350000052582],[-89.517569999955413,33.850169999645914],[-89.514309999806528,33.837080000341871],[-89.504379999637194,33.797940000330868],[-89.497450000217214,33.772149999922704],[-89.490259999599175,33.746619999813277],[-89.482809999581718,33.72135999956447],[-89.475100000164787,33.696350000052632],[-89.471300000294661,33.683780000446802],[-89.459939999831022,33.646080000291931],[-89.456409999821517,33.633259999949189],[-89.445830000254205,33.59475999977434],[-89.43902999963467,33.568850000127554],[-89.432100000214746,33.543059999719333],[-89.424909999596707,33.517529999609962],[-89.417470000040339,33.492270000260476],[-89.409750000162262,33.467259999849261],[-89.402039999846011,33.442259999899193],[-89.394589999828497,33.41699000008856],[-89.387409999671661,33.391459999979133],[-89.38401999982301,33.378509999936682],[-89.373690000093347,33.339759999924183],[-89.370160000083843,33.326930000019615],[-89.359570000055328,33.288440000305911],[-89.35577000018526,33.275880000261964],[-89.344280000021854,33.238300000244976],[-89.336179999707099,33.213690000293411],[-89.328080000291664,33.189080000341903],[-89.319979999976908,33.164470000390338],[-89.315799999670162,33.152300000344894],[-89.303499999924952,33.11550999988674],[-89.295410000071342,33.090899999935175],[-89.287300000194762,33.066289999983667],[-89.283249999587724,33.053990000238457],[-89.271359999863989,33.016800000219973],[-89.267700000154775,33.00410999957694],[-89.256709999666668,32.96600999986174],[-89.249789999808513,32.940220000352895],[-89.242999999650181,32.91430999980679],[-89.2360700002302,32.888509999836742],[-89.232409999621666,32.875820000093086],[-89.22144000005585,32.837720000377885],[-89.217390000348132,32.825419999733356],[-89.205490000163252,32.788240000176017],[-89.197389999848497,32.763630000224452],[-89.189290000433061,32.739020000272944],[-89.181060000418597,32.714540000021145],[-89.177020000272705,32.70222999981479],[-89.164719999628176,32.665440000255956],[-89.15662000021274,32.640830000304391],[-89.148379999737074,32.616359999614417],[-89.144330000029356,32.604050000307438],[-89.132050000307174,32.567259999849284],[-89.123949999992419,32.542649999897719],[-89.115840000115782,32.518039999946211],[-89.108000000099821,32.493169999695851],[-89.10055999964419,32.467899999885219],[-89.097029999634685,32.455069999980651],[-89.086439999606171,32.416589999828773],[-89.079650000347158,32.390669999720842],[-89.076120000337653,32.377839999816274],[-89.065539999871021,32.33935000010257],[-89.058069999830536,32.314089999853763],[-89.054149999822528,32.301649999947699],[-89.042659999659179,32.264080000391857],[-89.038999999949908,32.251380000186998],[-89.028019999922947,32.213290000033624],[-89.021089999603703,32.187490000063576],[-89.017699999755052,32.174529999559979],[-89.007370000025389,32.135790000008626],[-89.000180000306671,32.110259999899199],[-88.992739999850983,32.084990000088567],[-88.985030000434051,32.059990000138555],[-88.9773200001178,32.034990000188486],[-88.969859999639141,32.009720000377854],[-88.962680000381624,31.984190000268427],[-88.955750000062324,31.958399999860262],[-88.9490899996037,31.932350000052622],[-88.94255000018228,31.906169999645897],[-88.939290000033395,31.893080000341911],[-88.929489999563714,31.853809999731823],[-88.922959999704119,31.827630000224474],[-88.916289999683613,31.801580000416834],[-88.909360000263689,31.775790000008612],[-88.902180000106796,31.750259999899242],[-88.894710000066368,31.724990000088553],[-88.890669999920476,31.7126900003434],[-88.878780000196741,31.675509999886742],[-88.870679999881986,31.650899999935177],[-88.862579999567231,31.626289999983669],[-88.854480000151796,31.601680000032104],[-88.85068000028167,31.589110000426331],[-88.839179999657176,31.551539999971169],[-88.831989999938457,31.526009999861742],[-88.825070000080359,31.500220000352897],[-88.818270000360144,31.474300000244966],[-88.811340000040843,31.448509999836745],[-88.804150000322181,31.42299000018852],[-88.800369999575707,31.41041999968337],[-88.788860000288651,31.372850000127528],[-88.780759999973895,31.34824000017602],[-88.776710000266178,31.335929999969665],[-88.764560000243705,31.299020000272947],[-88.756330000229241,31.274540000021148],[-88.748089999753574,31.250059999769292],[-88.739990000338139,31.225440000255958],[-88.731890000023384,31.200839999866218],[-88.723789999708629,31.176220000352885],[-88.720000000299649,31.163660000308937],[-88.708499999675155,31.126089999853775],[-88.701309999956436,31.100559999744348],[-88.697920000107842,31.087600000140014],[-88.687590000378123,31.048850000127572],[-88.680660000058879,31.023059999719351],[-88.673459999879015,30.997529999609924],[-88.66968000003186,30.984960000004151],[-88.658189999868512,30.947390000448308],[-88.654129999699649,30.935089999803779],[-88.641979999677119,30.898169999645916],[-88.633869999800538,30.873559999694351],[-88.625779999946928,30.848949999742842],[-88.617930000369142,30.824080000391859],[-88.610480000351629,30.798809999681907],[-88.60328999973359,30.77327999957248],[-88.596369999875492,30.747499999625404],[-88.589570000155277,30.72158000041685],[-88.582639999836033,30.695790000008628],[-88.575450000117314,30.670259999899201],[-88.568009999661626,30.644999999650395],[-88.560289999783549,30.619990000138557],[-88.552580000366618,30.594990000188488],[-88.545139999910987,30.569720000377856],[-88.537950000192268,30.544199999830255],[-88.531019999872967,30.51841000032141],[-88.524360000313663,30.492350000052625],[-88.517829999554749,30.466169999645899],[-88.511299999695098,30.43999000013855],[-88.508029999984387,30.426899999935188],[-88.498230000414082,30.387630000224476],[-88.491690000093342,30.361449999817808],[-88.485149999772545,30.335259999849256],[-88.478619999912951,30.309080000341908],[-88.472090000053356,30.282899999935182],[-88.465560000193761,30.256720000427833],[-88.459010000311139,30.230529999559963],[-88.452479999552224,30.204350000052614],[-88.44594999969263,30.178169999645888],[-88.439410000271209,30.151990000138539],[-88.432880000411558,30.125809999731871],[-88.426349999652643,30.099630000224465],[-88.419939999930932,30.073309999656885],[-88.416929999619697,30.059960000054105],[-88.407919999608168,30.019910000346385],[-88.40230000034461,29.992809999781798],[-88.396939999581207,29.965449999817793],[-88.391590000178269,29.93808999985373],[-88.386090000153274,29.910850000027608],[-88.380739999851016,29.883499999625428],[-88.375780000446582,29.855749999662919],[-88.371319999818013,29.827470000440314],[-88.367539999970916,29.798540000021148],[-88.364270000260206,29.769080000341887],[-88.361010000111321,29.739630000224452],[-88.357210000241196,29.710699999805286],[-88.354859999789028,29.696690000343381],[-88.347930000369104,29.654540000021143],[-88.343090000203233,29.626649999897722],[-88.338780000196721,29.598249999637915],[-88.335509999586691,29.568789999958653],[-88.333420000332637,29.538160000283938],[-88.332239999875981,29.506609999551983],[-88.331729999739593,29.474410000321427],[-88.331600000039884,29.441809999731845],[-88.331600000039884,29.409080000341874],[-88.331600000039884,29.376350000052582],[-88.331600000039884,29.343630000224493],[-88.331600000039884,29.310899999935202],[-88.331600000039884,29.278169999645911],[-88.331600000039884,29.245449999817765],[-88.331600000039884,29.212720000427794],[-88.331600000039884,29.179990000138559],[-88.331600000039884,29.147270000310414],[-88.331600000039884,29.114540000021123],[-88.331600000039884,29.081809999731831],[-88.331600000039884,29.04908000034186],[-88.331600000039884,29.016350000052626],[-88.331600000039884,28.98363000022448],[-88.331600000039884,28.950899999935189],[-88.331729999739593,28.918300000244983],[-88.332239999875981,28.88610000011505],[-88.333429999894463,28.854550000282416],[-88.335520000047836,28.82391999970838],[-88.338780000196721,28.794460000029119],[-88.343099999765059,28.766059999769311],[-88.347939999930929,28.738169999645891],[-88.3527800000968,28.710289999983672],[-88.357090000103312,28.681880000162039],[-88.360350000252197,28.652430000044603],[-88.36244000040557,28.621789999908685],[-88.363749999662673,28.590380000236962],[-88.364789999958418,28.558699999805299],[-88.366100000114784,28.527279999672373],[-88.368190000268214,28.496649999997658],[-88.371459999978924,28.467190000318396],[-88.375760000423554,28.438790000058589],[-88.380599999690105,28.410899999935168],[-88.385439999856033,28.38302000027295],[-88.389879999562254,28.354740000151025],[-88.393680000331642,28.32580999973186],[-88.396939999581207,28.296359999614424],[-88.400210000191237,28.26689999993522],[-88.404010000061362,28.237970000415316],[-88.408449999767583,28.209690000293449],[-88.410800000219751,28.19569000039337],[-88.418239999776063,28.154059999769345],[-88.423079999941933,28.126169999645924],[-88.427519999648155,28.097899999985145],[-88.431710000416103,28.069359999564483],[-88.436150000122325,28.041080000341879],[-88.438499999675116,28.027069999980654],[-88.446089999853484,27.985580000416803],[-88.451449999717624,27.958219999553478],[-88.454190000168296,27.944600000090077],[-88.459670000170263,27.917380000286926],[-88.467650000347135,27.876270000260433],[-88.473139999910984,27.849039999996137],[-88.478619999912951,27.82180999973184],[-88.484119999937946,27.794580000366864],[-88.489610000401115,27.767350000102567],[-88.494959999804053,27.739990000138562],[-88.500319999668136,27.712630000174499],[-88.505939999831014,27.685540000071114],[-88.511809999831542,27.658699999805265],[-88.514820000142777,27.645350000202484],[-88.524349999852518,27.605809999731832],[-88.530890000173258,27.579630000224483],[-88.537429999594679,27.553449999817758],[-88.54396000035365,27.527270000310409],[-88.550490000213244,27.501080000341858],[-88.557020000072839,27.474899999935189],[-88.563569999955405,27.448720000427841],[-88.570099999815056,27.422540000021115],[-88.576629999674651,27.396359999614447],[-88.583169999995391,27.370169999645896],[-88.589699999854986,27.343990000138547],[-88.596229999714637,27.317809999731821],[-88.602640000335668,27.291499999625444],[-88.608789999758585,27.264919999658389],[-88.614659999759056,27.238089999853742],[-88.620290000383079,27.210990000188474],[-88.625639999786074,27.183630000224468],[-88.630999999650157,27.156270000260463],[-88.636630000274181,27.129169999695876],[-88.642500000274708,27.102330000329403],[-88.648640000135799,27.075759999924173],[-88.655040000295685,27.049449999817796],[-88.661710000316134,27.023400000010156],[-88.668639999736115,26.997600000040109],[-88.675830000354154,26.972080000391827],[-88.683269999910465,26.94682000014302],[-88.690989999788542,26.921809999731863],[-88.698700000104793,26.896809999781794],[-88.706150000122307,26.871539999971162],[-88.709809999831521,26.858839999766303],[-88.720259999699124,26.82022000035289],[-88.727049999857513,26.794309999806785],[-88.733980000176757,26.76852000029794],[-88.741169999895476,26.742990000188513],[-88.748610000351107,26.717720000377881],[-88.756450000367124,26.692850000127521],[-88.76454999978256,26.668240000176013],[-88.77265999965914,26.643630000224448],[-88.780759999973895,26.61902000027294],[-88.788999999550242,26.594540000021141],[-88.797229999564706,26.570059999769342],[-88.805329999879461,26.545449999817777],[-88.809390000048381,26.533139999611421],[-88.821669999770563,26.496359999614413],[-88.82991000024623,26.471869999800788],[-88.838009999661665,26.447270000310425],[-88.846120000437566,26.42266000035886],[-88.854339999990884,26.398169999645916],[-88.862570000005405,26.373699999855262],[-88.866619999713123,26.361389999648907],[-88.87890999989645,26.324600000090072],[-88.88754000037062,26.300520000297922],[-88.896419999783063,26.276690000343365],[-88.90544000025568,26.252999999650399],[-88.914849999827538,26.229699999855256],[-88.92453000015928,26.206660000358852],[-88.933930000169255,26.183350000102564],[-88.942940000180783,26.159660000308918],[-88.951830000054372,26.13583000035436],[-88.960459999629165,26.111749999662891],[-88.968689999643686,26.087270000310411],[-88.976919999658151,26.062790000058612],[-88.985539999671118,26.038699999805317],[-88.994430000444083,26.01486999985076],[-89.003450000017381,25.991180000057113],[-89.008029999884457,25.979400000010116],[-89.02253999992098,25.944839999866247],[-89.031939999930955,25.921540000071104],[-89.041090000103338,25.897970000415341],[-89.05036999997543,25.874540000021113],[-89.059649999847522,25.851109999626942],[-89.064220000152773,25.83932000001812],[-89.078730000189239,25.80475999987425],[-89.083820000192759,25.793509999986668],[-89.099380000086853,25.759990000138544],[-89.104479999652142,25.748740000250962],[-89.120029999984411,25.715229999964663],[-89.12511999998793,25.703969999615936],[-89.134540000020877,25.680660000258968],[-89.148379999737074,25.645449999817799],[-89.15765000004734,25.622009999861746],[-89.166929999919432,25.598580000366837],[-89.171649999947419,25.586930000019606],[-89.187060000118834,25.553290000033599],[-89.192290000283208,25.5421600002839],[-89.208240000175749,25.509039999996162],[-89.213720000177773,25.498180000107084],[-89.230060000068818,25.465449999817793],[-89.235410000371132,25.454449999767803],[-89.24639999995992,25.432720000427821],[-89.257370000425055,25.410990000188519],[-89.273060000018859,25.37760999960193],[-89.278279999722088,25.366479999852231],[-89.293179999757058,25.332309999706865],[-89.30245999962915,25.308880000211957],[-89.307040000395602,25.297100000165017],[-89.321020000272711,25.262020000322877],[-89.325589999678641,25.250229999814792],[-89.335000000149762,25.226930000019649],[-89.350560000043856,25.193419999733351],[-89.355910000346114,25.182419999683361],[-89.372769999935429,25.150219999553485],[-89.378659999958927,25.139749999662911],[-89.390930000119283,25.119320000018149],[-89.409750000162262,25.08908000034188],[-89.416019999723119,25.07899999955049],[-89.428570000205241,25.058839999766292],[-89.440860000388625,25.038419999683356],[-89.452879999812012,25.017740000201002],[-89.470659999559246,24.986449999767842],[-89.482800000019893,24.96589999998514],[-89.488950000342129,24.955690000393361],[-89.507900000084817,24.925580000416801],[-89.520839999666123,24.905809999731844],[-89.533909999846514,24.886180000107061],[-89.540439999706109,24.876359999614408],[-89.560039999746095,24.846899999935204],[-89.56656999960569,24.837089999903696],[-89.586180000106822,24.807630000224492],[-89.592709999966416,24.79780999973184],[-89.612840000165761,24.768880000211993],[-89.619639999885976,24.759320000018135],[-89.633739999900968,24.740729999789778],[-89.648379999637143,24.722669999720836],[-89.663800000269703,24.705389999648901],[-89.679489999863506,24.688369999875761],[-89.695430000194278,24.671619999963184],[-89.711110000226199,24.654600000189987],[-89.726529999959439,24.637320000118052],[-89.741169999695614,24.619249999587964],[-89.755289999733577,24.600660000258927],[-89.769130000349151,24.581809999731831],[-89.782990000088319,24.562960000104056],[-89.797099999665136,24.544369999875755],[-89.811740000300688,24.526309999806813],[-89.827160000033871,24.509029999734821],[-89.842849999627674,24.492009999961681],[-89.859050000257184,24.475509999886754],[-89.875260000448577,24.459020000272915],[-89.891719999578243,24.442790000058608],[-89.907920000207753,24.42628999998368],[-89.924389999798564,24.410059999769317],[-89.9405999999899,24.393570000155535],[-89.957060000018885,24.377330000379345],[-89.973270000210221,24.360839999866243],[-89.989739999801031,24.344600000090054],[-90.005940000430599,24.328109999576952],[-90.022410000021353,24.311880000261965],[-90.038600000189774,24.295380000186981],[-90.05508000024173,24.279149999972674],[-90.071290000433066,24.262660000358892],[-90.087749999562732,24.246419999683383],[-90.103959999754068,24.229930000069601],[-90.120419999783053,24.213699999855237],[-90.136629999974389,24.19719999978031],[-90.153110000026402,24.180969999565946],[-90.169309999756592,24.164470000390338],[-90.185510000386103,24.147979999877236],[-90.208899999835012,24.1223200000681],[-90.216610000151263,24.113680000032105],[-90.23124000032567,24.095619999963162],[-90.252269999760586,24.067600000140033],[-90.259200000079829,24.058180000107086],[-90.2730700002802,24.039329999579934],[-90.294489999713619,24.011699999755308],[-90.301819999593192,24.002669999720865],[-90.325080000241712,23.976880000211963],[-90.341019999673165,23.960119999838241],[-90.34911999998792,23.951880000261951],[-90.365330000179256,23.935380000187024],[-90.381540000370592,23.918889999673866],[-90.397220000402569,23.901869999900725],[-90.412640000135809,23.88458999982879],[-90.433689999593696,23.856579999567487],[-90.446349999752556,23.836550000382374],[-90.457590000078312,23.81508000044181],[-90.46699999965017,23.791770000185522],[-90.474299999944947,23.766639999636425],[-90.479409999971438,23.740070000130515],[-90.482030000284169,23.712309999706861],[-90.482030000284169,23.684040000046082],[-90.479420000432583,23.656279999622427],[-90.474319999967918,23.629710000116575],[-90.466869999950461,23.604710000166506],[-90.457070000380099,23.581800000369867],[-90.445050000057336,23.561119999988136],[-90.423609999701625,23.533490000163511],[-90.415370000125279,23.525509999986639],[-90.398390000398081,23.510190000368368],[-90.371599999740113,23.4892499996879],[-90.353559999694141,23.476680000082069],[-90.325869999800545,23.460579999567472],[-90.316710000066337,23.455729999839775],[-90.285350000002381,23.44538999964891]]]},"properties":{"objectid":580,"stormname":"Isaias","stormtype":"HU","basin":"AL","advdate":"1000 AM CDT Thu Oct 08 2026","advisnum":"8","fcstprd":120,"stormnum":9,"idp_source":"al092026-008_5day_pgn","idp_filedate":1791473297000,"idp_ingestdate":1791473374000,"st_area(shape)":32.548971447657905,"st_perimeter(shape)":34.116216918997679,"binnumber":"AT4"}}]}