{"type":"FeatureCollection","features":[{"type":"Feature","id":550,"geometry":{"type":"Polygon","coordinates":[[[-92.938029999584728,22.434059999869248],[-92.912950000442038,22.432129999899701],[-92.88652000019772,22.433319999918183],[-92.858599999590183,22.436889999973687],[-92.829500000324629,22.441939999931208],[-92.799509999586689,22.447890000023619],[-92.768919999957916,22.454139999561448],[-92.737889999823551,22.460240000275917],[-92.706859999689129,22.466340000091066],[-92.675969999715619,22.472580000067069],[-92.644939999581197,22.478679999882218],[-92.613460000278678,22.484329999629892],[-92.581400000309657,22.489390000048616],[-92.548580000366599,22.493700000055071],[-92.515179999757095,22.497419999833255],[-92.481769999585708,22.501139999611439],[-92.448960000103796,22.505449999617952],[-92.416889999673629,22.510510000036618],[-92.385270000210255,22.516010000061613],[-92.353790000008416,22.521659999809287],[-92.322160000083841,22.527159999834282],[-92.290080000091848,22.532220000252948],[-92.257719999778089,22.536980000326878],[-92.225650000247185,22.542039999846281],[-92.194179999607172,22.547689999593956],[-92.163289999633662,22.553940000031105],[-92.133000000349625,22.560779999797319],[-92.103160000233743,22.568069999630893],[-92.073619999563221,22.575650000247435],[-92.044360000113784,22.583530000309395],[-92.015409999671647,22.591709999816771],[-91.98675999957419,22.600189999668885],[-91.958400000259701,22.60896000030391],[-91.930040000045835,22.61773999960144],[-91.901380000386609,22.626220000352873],[-91.872440000405618,22.63439999986025],[-91.843320000217716,22.642429999644889],[-91.814380000236724,22.650610000051586],[-91.785870000300179,22.659230000064611],[-91.757960000153787,22.668460000328878],[-91.730789999958404,22.678420000083065],[-91.704209999991406,22.688979999627406],[-91.677639999586233,22.699540000071067],[-91.650760000173761,22.709800000169992],[-91.623750000162261,22.719920000108061],[-91.596419999783052,22.729730000139512],[-91.568660000258717,22.73909999966537],[-91.540750000112325,22.748320000367869],[-91.512980000126788,22.757689999893728],[-91.485219999703133,22.767060000318907],[-91.457309999556742,22.776280000122028],[-91.42940000030967,22.785499999925207],[-91.401630000324133,22.794870000350386],[-91.373860000338652,22.804239999876245],[-91.345950000192261,22.813470000140512],[-91.318040000045869,22.822689999943691],[-91.290270000060332,22.832049999907724],[-91.262500000074851,22.841420000332903],[-91.234600000389605,22.85064999969785],[-91.206679999782068,22.859870000400349],[-91.178909999796531,22.869239999926208],[-91.151150000272196,22.878610000351387],[-91.123240000125804,22.887830000154509],[-91.095320000417587,22.897049999957687],[-91.067569999555758,22.906420000382866],[-91.039790000008395,22.915789999908725],[-91.011879999862003,22.925009999711847],[-90.984120000337668,22.934380000137025],[-90.956800000419605,22.944190000168533],[-90.929779999946959,22.954310000106545],[-90.902899999635167,22.96457000020547],[-90.876470000290169,22.975280000371868],[-90.850340000390588,22.986289999983626],[-90.82391000014627,22.996989999688878],[-90.797199999580187,23.007400000409859],[-90.770610000051363,23.017970000415346],[-90.744030000084308,23.028520000397862],[-90.717320000417601,23.038939999781292],[-90.690890000173283,23.049640000385864],[-90.664749999812557,23.060649999997622],[-90.638319999568239,23.07136000016402],[-90.611600000339649,23.081769999985625],[-90.585020000372594,23.092330000429342],[-90.558440000405596,23.102889999973684],[-90.531870000000424,23.113450000417345],[-90.505880000261698,23.124600000190014],[-90.480499999875008,23.136349999752838],[-90.455259999649172,23.148249999937661],[-90.430310000206248,23.160449999567959],[-90.405669999770566,23.172939999981168],[-90.380870000050379,23.18527999977232],[-90.356079999891961,23.197630000024617],[-90.331440000355656,23.210120000437826],[-90.306639999736092,23.222469999790803],[-90.281829999554759,23.234809999581955],[-90.244870000250216,23.253550000432313],[-90.232390000298153,23.259650000247461],[-90.207609999701617,23.271990000038613],[-90.182950000142284,23.284479999552502],[-90.158159999983923,23.2968299998048],[-90.12105000005738,23.3154200000331],[-90.108730000289199,23.321669999570986],[-90.071460000178774,23.340110000076606],[-90.059140000410594,23.346359999614435],[-90.022450000067352,23.365390000348384],[-90.010280000021908,23.37178999960895],[-89.974349999652645,23.391569999855733],[-89.96276999983553,23.398560000243947],[-89.928309999806515,23.419829999954686],[-89.905460000078847,23.434099999715329],[-89.882579999867005,23.448379999937174],[-89.871000000049833,23.455370000325388],[-89.84770000025469,23.469199999580439],[-89.824100000114811,23.482739999851276],[-89.788759999973934,23.503110000326387],[-89.7655899998785,23.517099999765321],[-89.75417000024521,23.52423000031439],[-89.720149999822524,23.545950000092546],[-89.697890000323127,23.5608199996434],[-89.68689999983502,23.568409999821768],[-89.654240000075845,23.591459999779318],[-89.632859999789048,23.607219999903236],[-89.611770000285162,23.623289999933718],[-89.590989999788576,23.639649999847734],[-89.56990000028469,23.65571000031639],[-89.548529999559719,23.671470000440308],[-89.527150000172242,23.687240000126053],[-89.505769999885501,23.703000000249972],[-89.484689999943441,23.719070000280453],[-89.46420000022971,23.735720000078061],[-89.44460000018978,23.753270000010616],[-89.425299999595211,23.771120000287908],[-89.406300000244698,23.789260000448792],[-89.386990000088304,23.807109999826764],[-89.367390000048374,23.824659999759319],[-89.346900000334642,23.841320000018129],[-89.325820000392582,23.857379999587465],[-89.304440000105842,23.873150000172529],[-89.283059999819045,23.888910000296391],[-89.261979999876985,23.904980000326873],[-89.241490000163253,23.921630000124537],[-89.221879999662178,23.939180000057092],[-89.202590000428074,23.957030000334385],[-89.183880000061833,23.975469999940685],[-89.165169999695649,23.993920000008131],[-89.146759999674146,24.012659999959169],[-89.128050000207224,24.03109999956547],[-89.109629999724632,24.049840000415827],[-89.090929999819537,24.068280000022128],[-89.072530000259178,24.087019999973165],[-89.053819999892994,24.105459999579466],[-89.03540999987149,24.124200000429823],[-89.016700000404569,24.142640000036124],[-88.998279999921976,24.161379999987162],[-88.979580000016881,24.179819999593462],[-88.961169999995377,24.19856000044382],[-88.942459999629193,24.21700000005012],[-88.924040000045864,24.235740000001158],[-88.905329999679623,24.254190000068604],[-88.886919999658176,24.272930000019642],[-88.86821999975308,24.291369999625942],[-88.849809999731576,24.31010999957698],[-88.831100000264712,24.3285500000826],[-88.812690000243208,24.347290000033638],[-88.793979999876967,24.365729999639939],[-88.77556999985552,24.384469999590976],[-88.756869999950425,24.402919999658423],[-88.738450000367095,24.421650000047578],[-88.719740000000911,24.440100000115081],[-88.701340000440553,24.458840000066118],[-88.682619999613166,24.477279999672362],[-88.664220000052865,24.4960199996234],[-88.645509999686624,24.51446000012902],[-88.627090000103294,24.533200000080058],[-88.608390000198256,24.551639999686358],[-88.589980000176752,24.570379999637396],[-88.571269999810511,24.588829999704842],[-88.552859999789064,24.607560000094054],[-88.534159999883968,24.6260100001615],[-88.515740000300696,24.644739999651392],[-88.497330000279192,24.663490000063575],[-88.479520000047842,24.682820000242941],[-88.461990000138314,24.702449999867724],[-88.445369999925447,24.722979999627398],[-88.429339999940964,24.744090000053575],[-88.405719999778057,24.776219999653392],[-88.397859999739069,24.78692999981979],[-88.381820000192761,24.808049999807793],[-88.365190000418067,24.828579999567467],[-88.347670000070366,24.848210000091569],[-88.329859999839016,24.867540000270935],[-88.311739999701103,24.88657999966739],[-88.29393000036913,24.905909999846756],[-88.276410000021372,24.925540000370859],[-88.259780000246735,24.946070000130533],[-88.243739999801051,24.967190000118535],[-88.228010000161248,24.988609999551954],[-88.204249999837543,25.020579999867266],[-88.196229999614673,25.031140000310927],[-88.179599999840036,25.051670000070601],[-88.162379999837015,25.071589999578975],[-88.145159999833993,25.091530000009641],[-88.127930000269203,25.111450000417335],[-88.11129999959519,25.131980000177009],[-88.095260000048881,25.153100000165011],[-88.079530000409079,25.174510000036605],[-88.063799999870014,25.195930000369344],[-88.04805000020724,25.217349999802764],[-88.032029999784584,25.238469999790823],[-88.007669999670668,25.269849999877749],[-87.999650000347117,25.28041000032141],[-87.983899999785081,25.30182999975483],[-87.968170000145278,25.323239999626423],[-87.952430000044387,25.344659999959163],[-87.936389999598703,25.365779999947165],[-87.919759999824009,25.386300000145013],[-87.902539999821045,25.406230000114533],[-87.885319999818023,25.426160000084053],[-87.868099999815058,25.44609000005363],[-87.851470000040365,25.466610000251478],[-87.83542999959468,25.48773000023948],[-87.819699999954935,25.5091499996729],[-87.803959999853987,25.530570000005639],[-87.780200000429545,25.562549999882719],[-87.772189999768557,25.573099999865235],[-87.747829999654641,25.604490000413307],[-87.739819999892973,25.615049999957648],[-87.724079999792025,25.636459999829299],[-87.708339999691134,25.657880000162038],[-87.692599999590186,25.679290000033632],[-87.676860000388615,25.700710000366371],[-87.660830000404076,25.721830000354373],[-87.644489999613711,25.742649999997639],[-87.628459999629172,25.763769999985641],[-87.612720000427601,25.78519000031838],[-87.589709999616673,25.817910000146526],[-87.574719999927936,25.84007000043033],[-87.567300000394596,25.851220000203],[-87.552449999967394,25.87353999977131],[-87.537610000001393,25.895840000215969],[-87.522449999667629,25.917849999877717],[-87.507009999911475,25.939569999655873],[-87.491280000271672,25.960989999988669],[-87.475230000264219,25.982109999976672],[-87.458910000396088,26.002929999619937],[-87.44286999995046,26.024040000046114],[-87.427140000310658,26.045460000378853],[-87.404110000376136,26.078180000206999],[-87.396549999782565,26.089189999818757],[-87.374270000260196,26.122649999597968],[-87.366849999827537,26.133809999831783],[-87.35200999986148,26.156119999838268],[-87.337160000333654,26.178420000282927],[-87.314899999934937,26.211889999623907],[-87.307469999940452,26.223040000295896],[-87.292629999974395,26.245350000302437],[-87.270360000013909,26.278810000081592],[-87.262919999558221,26.289970000315407],[-87.240660000058824,26.323430000094561],[-87.233230000064339,26.334590000328376],[-87.21155999989395,26.368649999897741],[-87.204430000244201,26.380100000015148],[-87.190479999951947,26.403299999695378],[-87.176809999981401,26.426799999720345],[-87.163440000355649,26.450600000090049],[-87.142809999581686,26.485690000393333],[-87.128709999566695,26.508749999912709],[-87.121579999916946,26.520200000030115],[-87.107319999718129,26.543100000264928],[-87.093069999980401,26.566010000061624],[-87.079119999688146,26.589209999741854],[-87.0654499997176,26.612709999766821],[-87.052089999653674,26.636510000136525],[-87.0384399997061,26.659999999700347],[-87.024479999852019,26.683209999841779],[-87.010219999653145,26.706110000076592],[-86.995969999915474,26.729010000311405],[-86.974729999789531,26.763519999948187],[-86.967760000323665,26.77511999978833],[-86.954389999798536,26.798920000158034],[-86.935239999826024,26.835499999925219],[-86.922619999713106,26.860040000245931],[-86.9102900003831,26.884880000012117],[-86.897969999715599,26.909719999778304],[-86.885349999602681,26.934260000099073],[-86.872579999767083,26.958649999797785],[-86.866199999630169,26.970839999866257],[-86.845859999639174,27.006240000076104],[-86.838879999712105,27.017839999916191],[-86.817500000324628,27.052199999830293],[-86.803249999687637,27.075100000065106],[-86.789149999672645,27.098159999584482],[-86.782169999745577,27.109760000323888],[-86.76256999970559,27.145899999585481],[-86.750240000375641,27.170729999789785],[-86.738369999775557,27.196019999623445],[-86.727229999564713,27.222050000307433],[-86.716690000043343,27.248659999859228],[-86.706149999622653,27.275290000333371],[-86.695599999640194,27.301910000346368],[-86.68506999968065,27.32853999992119],[-86.673930000369126,27.354560000144033],[-86.66813999956122,27.367350000002659],[-86.650319999768044,27.405279999972151],[-86.6381499997226,27.430259999899192],[-86.625669999770594,27.454949999942698],[-86.613490000163267,27.479940000330885],[-86.601619999563241,27.505219999703343],[-86.589890000023388,27.530649999697857],[-86.578760000273689,27.556680000381846],[-86.568210000291174,27.583309999956668],[-86.557680000331629,27.609929999969665],[-86.547130000349114,27.636549999982662],[-86.536739999651161,27.66331999971834],[-86.52605000040711,27.689790000008657],[-86.515070000380092,27.715970000415325],[-86.504380000236722,27.742439999806265],[-86.494129999699624,27.769360000163999],[-86.484029999784582,27.79643000024447],[-86.478979999827004,27.80996999961593],[-86.464870000250187,27.851609999801781],[-86.455519999848036,27.87941999983326],[-86.450770000235195,27.893249999987631],[-86.435640000385604,27.933849999877737],[-86.42538000028668,27.96077000023547],[-86.414699999705135,27.987250000087556],[-86.403699999655146,28.013420000033136],[-86.398210000091353,28.026510000236442],[-86.382770000335142,28.066820000242956],[-86.377729999939447,28.08035000005259],[-86.362880000411565,28.121250000287432],[-86.353530000009414,28.149060000318912],[-86.344310000206235,28.177020000073071],[-86.335110000426084,28.204979999827287],[-86.326199999630148,28.233239999926184],[-86.317739999801063,28.261950000092554],[-86.309569999855512,28.290950000142516],[-86.301700000254698,28.320249999637895],[-86.293980000376621,28.34969999975533],[-86.286120000337633,28.378989999688883],[-86.277950000392082,28.408000000199991],[-86.269489999663676,28.436699999905215],[-86.260730000389117,28.465109999726849],[-86.251970000215238,28.493520000447802],[-86.24349999992495,28.522220000153027],[-86.235340000440544,28.551220000202989],[-86.227480000401613,28.580519999698367],[-86.219899999785071,28.610120000437803],[-86.21248000025173,28.63986000043883],[-86.205050000257188,28.669610000001626],[-86.197620000262702,28.699359999564479],[-86.190199999830043,28.729099999565449],[-86.182789999858528,28.758850000027621],[-86.17535000030216,28.788590000028648],[-86.1679299998695,28.818339999591444],[-86.16051000033616,28.848079999592471],[-86.153080000341618,28.877830000054587],[-86.145659999908958,28.90757999961744],[-86.138379999637152,28.937470000240467],[-86.131410000171286,28.967660000308911],[-86.124729999689634,28.998149999822772],[-86.118330000429069,29.028930000119544],[-86.112240000175746,29.060020000322879],[-86.106160000383625,29.091100000065069],[-86.09992999996939,29.122039999646404],[-86.093699999555213,29.152969999665913],[-86.08745999957921,29.183910000146511],[-86.081219999603206,29.214849999727846],[-86.075130000249203,29.245930000369356],[-86.069049999557706,29.277010000111545],[-86.062809999581702,29.30794999969288],[-86.056580000066845,29.338879999712333],[-86.050340000090841,29.369820000192988],[-86.044109999676664,29.400759999774323],[-86.038020000322661,29.431840000415832],[-86.031919999608192,29.462920000158022],[-86.02569999965516,29.493859999739357],[-86.019610000301157,29.524940000380866],[-86.013809999931425,29.556319999568473],[-86.008320000367632,29.588000000000136],[-86.003270000410112,29.620129999599953],[-85.998519999897951,29.652549999982682],[-85.99346999994043,29.684679999582443],[-85.987980000376638,29.716349999552961],[-85.982340000190732,29.747880000261944],[-85.976690000443057,29.779419999633433],[-85.971190000418062,29.811089999603951],[-85.966159999584193,29.843220000103088],[-85.961400000409583,29.87563999958644],[-85.956360000013888,29.907770000085577],[-85.950869999550719,29.939449999617921],[-85.945230000264189,29.970969999865758],[-85.939579999617195,30.002510000136567],[-85.9340799995922,30.034189999668911],[-85.929040000095824,30.066309999706846],[-85.924289999583721,30.098730000089574],[-85.9192399996262,30.130859999689392],[-85.91375000006235,30.162540000121055],[-85.908100000314676,30.194069999930718],[-85.902609999851506,30.225750000362382],[-85.897570000355131,30.257870000400317],[-85.893249999887473,30.290739999951199],[-85.889550000132317,30.324210000191499],[-85.885830000354133,30.357669999970653],[-85.881520000347621,30.390540000420799],[-85.876479999951925,30.422659999559471],[-85.870979999926931,30.454339999991134],[-85.865490000363138,30.486020000422798],[-85.860440000405617,30.51813999956147],[-85.856139999960931,30.551010000011615],[-85.852420000182747,30.584480000251972],[-85.848709999966445,30.617940000031126],[-85.844410000421078,30.650809999581952],[-85.839359999564238,30.682929999619944],[-85.833860000438563,30.714610000051607],[-85.828369999975394,30.746289999583951],[-85.82346999974061,30.778560000243942],[-85.819609999801571,30.811879999862242],[-85.816640000435541,30.846090000053607],[-85.813969999615665,30.880590000128564],[-85.811000000249692,30.914800000319929],[-85.807140000310653,30.948119999938172],[-85.802249999637695,30.980389999698843],[-85.7967499996127,31.012070000130564],[-85.791249999587706,31.043749999662907],[-85.78635999981401,31.076020000322899],[-85.782649999597709,31.109489999663879],[-85.780269999560744,31.144290000083572],[-85.778929999819525,31.180129999899748],[-85.778339999591196,31.216720000128021],[-85.778189999868516,31.253749999962679],[-85.778189999868516,31.290930000419337],[-85.778189999868516,31.328120000437821],[-85.778189999868516,31.365299999995159],[-85.778189999868516,31.402479999552497],[-85.778189999868516,31.439660000009155],[-85.778189999868516,31.476839999566494],[-85.778189999868516,31.514020000023152],[-85.778189999868516,31.551199999580433],[-85.778339999591196,31.588239999876237],[-85.778929999819525,31.624819999643421],[-85.780269999560744,31.660669999920685],[-85.782640000035883,31.695470000340379],[-85.78635999981401,31.728939999681359],[-85.791260000048851,31.761210000341407],[-85.7967499996127,31.792880000311925],[-85.802249999637695,31.824559999844269],[-85.807140000310653,31.856840000066086],[-85.810849999627692,31.89029999984524],[-85.813229999664657,31.925109999826759],[-85.81470999956673,31.960799999920198],[-85.815899999585213,31.996790000358374],[-85.817380000386606,32.032490000013638],[-85.819760000423571,32.067290000433331],[-85.82346999974061,32.100750000212486],[-85.828369999975394,32.133030000434303],[-85.833860000438563,32.164709999966647],[-85.839359999564238,32.196379999937164],[-85.844250000237196,32.228660000159039],[-85.847959999554234,32.262119999938193],[-85.850490000213256,32.296780000196975],[-85.852420000182747,32.332020000222997],[-85.854350000152294,32.367269999810787],[-85.856870000350114,32.401919999608424],[-85.860599999690123,32.43538999984878],[-85.865490000363138,32.467670000070598],[-85.8683199995682,32.483430000194517],[-85.876479999951925,32.531019999573459],[-85.881389999748592,32.563290000233451],[-85.885090000403068,32.596759999574488],[-85.887470000440089,32.631559999994124],[-85.888799999720106,32.6673999998103],[-85.889389999948435,32.70399000003863],[-85.889539999671115,32.741019999873231],[-85.889539999671115,32.778209999891715],[-85.889539999671115,32.815390000348373],[-85.889539999671115,32.852569999905711],[-85.88940000040958,32.889599999740312],[-85.888799999720106,32.926189999968642],[-85.887470000440089,32.962040000245963],[-85.885090000403068,32.996830000204511],[-85.881229999564709,33.030149999822754],[-85.875730000439091,33.061830000254474],[-85.868900000234703,33.092170000045598],[-85.860889999573715,33.121319999818297],[-85.851680000231738,33.149279999572457],[-85.84158000031664,33.176349999652928],[-85.830759999574241,33.202670000220451],[-85.818729999689651,33.227810000331374],[-85.805360000063843,33.251609999801815],[-85.7983899996986,33.263209999641902],[-85.783239999826037,33.285220000202969],[-85.766910000396081,33.306039999846234],[-85.749390000048379,33.325670000370337],[-85.731570000255203,33.345010000111586],[-85.713169999795525,33.363750000062623],[-85.694750000212252,33.382479999552459],[-85.676039999846012,33.400920000058079],[-85.657620000262682,33.419669999570942],[-85.62971000011629,33.447479999602422],[-85.620510000336139,33.4568500000276],[-85.601799999969899,33.475300000095046],[-85.574040000445564,33.503259999849263],[-85.564679999582211,33.512470000090559],[-85.546269999560707,33.531210000041597],[-85.518360000313635,33.559020000073076],[-85.509150000072339,33.568389999598935],[-85.490450000167243,33.586839999666381],[-85.472029999684651,33.605579999617419],[-85.45332000021773,33.624020000123039],[-85.434919999758051,33.642760000074077],[-85.416210000291187,33.661199999680377],[-85.397800000269683,33.679939999631415],[-85.379089999903442,33.698380000137035],[-85.360670000320169,33.717120000088073],[-85.332620000012867,33.744789999958698],[-85.323260000048833,33.75400999976182],[-85.303960000353641,33.771849999577967],[-85.284360000313654,33.789409999971667],[-85.263869999700603,33.806059999769332],[-85.2427899997586,33.822120000237987],[-85.221410000371122,33.837889999923675],[-85.210720000227695,33.845769999985635],[-85.178950000142265,33.869720000078075],[-85.15846000042859,33.88636999987574],[-85.138860000388604,33.903919999808295],[-85.119550000232209,33.921770000085587],[-85.100560000443579,33.939910000246471],[-85.081250000287184,33.957759999624443],[-85.061659999809024,33.975309999556998],[-85.041170000095349,33.991969999815808],[-85.020079999692143,34.008030000284407],[-84.998700000304666,34.023799999970151],[-84.977329999579695,34.039569999655896],[-84.945990000438087,34.063960000253928],[-84.935750000362134,34.072279999922216],[-84.905899999785049,34.098159999984148],[-84.895960000053833,34.106789999558998],[-84.876070000130312,34.124040000046136],[-84.85558000041658,34.140700000304889],[-84.834490000013375,34.156759999874225],[-84.813109999726578,34.172519999998144],[-84.791730000339157,34.188289999683889],[-84.77035000005236,34.204060000268953],[-84.7492700001103,34.220119999838289],[-84.728480000051832,34.236479999752305],[-84.707400000109828,34.252540000220961],[-84.686019999823031,34.268309999906705],[-84.664629999974409,34.284070000030624],[-84.643260000148757,34.299839999716369],[-84.611929999669655,34.324230000314401],[-84.591740000300661,34.341179999557482],[-84.581790000108299,34.349810000031596],[-84.561889999723576,34.367059999619414],[-84.541999999800055,34.384319999668378],[-84.521499999625178,34.400970000365362],[-84.500430000144263,34.417029999934698],[-84.479040000295697,34.432799999620443],[-84.4576600000089,34.448559999744361],[-84.436279999722103,34.464319999868223],[-84.415199999780043,34.480389999898705],[-84.394409999721631,34.496749999812778],[-84.383870000200261,34.504779999597474],[-84.351950000392094,34.528579999967178],[-84.330579999667123,34.544340000091097],[-84.309189999818557,34.560109999776842],[-84.28781000043108,34.575869999900704],[-84.266740000050845,34.591930000369359],[-84.245940000430551,34.608290000283432],[-84.224870000050373,34.624360000313914],[-84.20348000020175,34.640120000437832],[-84.182099999914954,34.655890000123577],[-84.160710000066331,34.671650000247439],[-84.139340000240736,34.687419999933184],[-84.118260000298676,34.703480000401839],[-84.097470000240207,34.719840000315912],[-84.076390000298147,34.735899999885248],[-84.055010000011407,34.751669999570993],[-84.033620000162784,34.767429999694855],[-84.012250000337133,34.783200000279919],[-83.98032000006782,34.80699999975036],[-83.969779999647187,34.815030000434319],[-83.948989999588719,34.831390000348392],[-83.927920000107804,34.847449999917728],[-83.906539999821007,34.863219999603416],[-83.87447000029016,34.886859999789294],[-83.863769999685644,34.894739999851254],[-83.842390000298167,34.910510000436318],[-83.821299999894961,34.926570000005654],[-83.800520000297695,34.942929999919727],[-83.779429999894489,34.958999999950208],[-83.758060000068838,34.97476000007407],[-83.725980000076845,34.998409999821774],[-83.71530000039462,35.006289999883734],[-83.693920000107823,35.022050000007653],[-83.672840000165763,35.038120000038134],[-83.652050000107295,35.054470000390324],[-83.630970000165291,35.070540000420806],[-83.609580000316669,35.08631000010655],[-83.588209999591697,35.102070000230469],[-83.566819999743075,35.117839999916214],[-83.545440000355654,35.133600000040133],[-83.52436999997542,35.149670000070614],[-83.503579999916951,35.166020000422805],[-83.482499999974891,35.182089999553966],[-83.450419999982898,35.205729999739845],[-83.439729999839528,35.213620000262949],[-83.418349999552731,35.229389999948694],[-83.396970000165254,35.245150000072613],[-83.375890000223251,35.261209999641892],[-83.355089999703637,35.277569999555965],[-83.334009999761577,35.293630000024621],[-83.312639999935925,35.309399999710365],[-83.291259999649185,35.325159999834284],[-83.269880000261708,35.340930000419348],[-83.248499999974911,35.356689999643891],[-83.227420000032851,35.372759999674372],[-83.206620000412556,35.389110000026619],[-83.185550000032379,35.405180000057101],[-83.164169999745582,35.42094000018102],[-83.142779999896959,35.436709999866764],[-83.121399999610162,35.452469999990626],[-83.09007000003038,35.476859999689395],[-83.079829999954427,35.485189999818772],[-83.059940000030849,35.502449999867736],[-83.030090000353141,35.528329999929724],[-83.009900000084826,35.545280000072069],[-82.999650000447048,35.553610000201502],[-82.967880000361617,35.577549999832797],[-82.957190000218247,35.5854299998947],[-82.93580999993145,35.601199999580444],[-82.914429999644653,35.616959999704363],[-82.882950000342134,35.641199999680396],[-82.872559999644182,35.649380000087092],[-82.851479999702121,35.665450000117573],[-82.830089999853499,35.681219999803318],[-82.808720000027847,35.69697999992718],[-82.787339999741107,35.712749999612925],[-82.756010000161268,35.737140000211014],[-82.745770000085315,35.74547000034039],[-82.726159999584183,35.763020000272945],[-82.706859999888991,35.780860000089092],[-82.687859999639159,35.799009999811801],[-82.668559999943909,35.816860000089093],[-82.638719999828027,35.842740000151025],[-82.628459999729102,35.851059999819256],[-82.617920000207732,35.859100000065098],[-82.586009999961448,35.882889999973656],[-82.564620000112825,35.898650000097575],[-82.543549999732591,35.914720000128057],[-82.523060000018859,35.931369999925721],[-82.503459999978929,35.948930000319422],[-82.484149999822534,35.966770000135568],[-82.465440000355613,35.985209999741812],[-82.437530000209222,36.013030000234494],[-82.418980000026863,36.031619999563475],[-82.40962000006283,36.040840000265973],[-82.391199999580238,36.059580000216954],[-82.363299999894991,36.087390000248433],[-82.344740000150807,36.105979999577471],[-82.326180000406566,36.124569999805772],[-82.307619999763062,36.143169999595955],[-82.298270000260175,36.152390000298396],[-82.279860000238727,36.171130000249434],[-82.261149999872487,36.189569999855735],[-82.242739999850983,36.208309999806772],[-82.214820000142765,36.236110000276426],[-82.205609999901469,36.245479999802285],[-82.177699999755077,36.27330000029491],[-82.168499999974927,36.282669999820769],[-82.141169999595718,36.311079999642402],[-82.132270000160247,36.320750000412318],[-82.114749999812545,36.340380000037101],[-82.090099999815038,36.37145999977929],[-82.07435999971409,36.392880000112086],[-82.059069999680617,36.414740000051097],[-82.051500000424596,36.425749999662912],[-82.029369999725589,36.459360000064123],[-82.022099999914985,36.470659999559473],[-82.000870000250188,36.505170000095575],[-81.993890000323177,36.516769999935718],[-81.974150000122279,36.552760000373837],[-81.961380000286681,36.577150000072606],[-81.948760000173763,36.601679999932173],[-81.936429999944437,36.626530000159505],[-81.924119999738082,36.651369999925691],[-81.911639999786075,36.676059999969141],[-81.899309999556749,36.700890000173501],[-81.886989999788568,36.725729999939688],[-81.874509999836505,36.750419999983137],[-81.862339999791061,36.77541000037138],[-81.850459999629152,36.800689999743838],[-81.838730000089299,36.826119999738353],[-81.827600000339658,36.852150000422341],[-81.817200000079822,36.878920000158018],[-81.807109999726606,36.905990000238489],[-81.797319999718127,36.933350000202495],[-81.787959999754094,36.961160000233974],[-81.778759999973886,36.989130000449279],[-81.76954999973259,37.017090000203495],[-81.76078999955871,37.045489999563983],[-81.752770000235216,37.074649999797771],[-81.745349999802556,37.104389999798798],[-81.738510000036342,37.134729999589979],[-81.732279999622165,37.165659999609431],[-81.726199999830044,37.196749999812766],[-81.719959999853984,37.227679999832276],[-81.713869999600718,37.258770000035611],[-81.708219999852986,37.290299999845274],[-81.703319999618202,37.322569999605946],[-81.699619999862989,37.35603000028442],[-81.697239999826024,37.390840000265939],[-81.695900000084805,37.426680000082058],[-81.695309999856477,37.463270000310388],[-81.695160000133797,37.500300000145046],[-81.695160000133797,37.537479999702384],[-81.695160000133797,37.574669999720868],[-81.695309999856477,37.611699999555469],[-81.695909999646688,37.648280000221973],[-81.697239999826024,37.684129999599975],[-81.699619999862989,37.718930000019611],[-81.703319999618202,37.752400000259968],[-81.708230000314131,37.78467000002064],[-81.713869999600718,37.816199999830246],[-81.719959999853984,37.847279999572493],[-81.726199999830044,37.878220000053091],[-81.732279999622165,37.90929999979528],[-81.738519999598225,37.940240000275935],[-81.745349999802556,37.970580000067116],[-81.752779999797042,38.000320000068086],[-81.76078999955871,38.029469999840785],[-81.76954999973259,38.057879999662418],[-81.778759999973886,38.085840000315898],[-81.787959999754094,38.113800000070114],[-81.797310000156301,38.141619999663419],[-81.807109999726606,38.168979999627425],[-81.812159999684127,38.182510000336379],[-81.827600000339658,38.222820000342892],[-81.844529999559711,38.261630000424304],[-81.850459999629152,38.274280000122076],[-81.862339999791061,38.299560000393853],[-81.874509999836505,38.32454999988272],[-81.887149999972394,38.349090000203489],[-81.899919999808048,38.373479999902202],[-81.912980000426558,38.397579999717379],[-81.926639999935958,38.421070000180521],[-81.940730000389124,38.444129999699896],[-81.955149999872503,38.466880000211972],[-81.969840000115823,38.489339999941194],[-81.984680000081823,38.511649999947679],[-81.999529999609706,38.533959999954163],[-82.014380000036851,38.556269999960648],[-82.029229999564734,38.578579999967189],[-82.04407999999188,38.600880000411848],[-82.059069999680617,38.623050000257479],[-82.07435999971409,38.644910000196489],[-82.090099999815038,38.666320000068083],[-82.106430000144258,38.687150000172494],[-82.123369999825513,38.707370000025605],[-82.149200000279677,38.737270000210515],[-82.1578099998315,38.747229999964645],[-82.174730000389104,38.767460000278959],[-82.191059999819004,38.788279999922224],[-82.206949999642688,38.809549999632907],[-82.222840000365636,38.830820000242966],[-82.239169999795536,38.851639999886231],[-82.256389999798557,38.871569999855751],[-82.274950000442061,38.890149999622906],[-82.294849999927465,38.90740999967187],[-82.326180000406566,38.931800000269959],[-82.347559999794044,38.947569999955704],[-82.358100000214733,38.955599999740343],[-82.378879999812057,38.971959999654416],[-82.39892999991946,38.989060000418817],[-82.428019999623189,39.01568999999364],[-82.437530000209222,39.024760000074082],[-82.456680000181734,39.042760000074111],[-82.476140000060866,39.060459999729346],[-82.506419999783077,39.085880000162035],[-82.516969999765593,39.09392000040782],[-82.548889999573703,39.117710000316436],[-82.5702699998605,39.133480000002123],[-82.58096000000387,39.141360000064083],[-82.602189999668667,39.157269999910739],[-82.62311999988799,39.173480000102074],[-82.65488999997342,39.197430000194515],[-82.665890000023353,39.205020000372883],[-82.688159999983895,39.21988999992368],[-82.722599999989882,39.241159999634419],[-82.734480000151791,39.247849999677896],[-82.758089999853496,39.26138000038685],[-82.792979999926956,39.282200000030116],[-82.804410000021392,39.289340000141067],[-82.838700000304641,39.310759999574486],[-82.861570000055337,39.325039999796275],[-82.884740000150771,39.339019999673383],[-82.896609999851478,39.34570999971686],[-82.932839999666157,39.365200000080108],[-82.957199999780073,39.377980000376851],[-82.981829999754552,39.390480000351886],[-83.007080000441533,39.402370000075564],[-83.032310000206223,39.41427999982227],[-83.057849999877476,39.425870000100588],[-83.097640000185777,39.441790000408332],[-83.111009999811529,39.44699000008859],[-83.137440000055847,39.457700000254931],[-83.164169999745582,39.468110000076592],[-83.190889999873491,39.478519999898197],[-83.217019999773072,39.489530000409331],[-83.243149999672653,39.500529999560001],[-83.269880000261708,39.510949999842751],[-83.296890000273208,39.521060000218995],[-83.323909999846535,39.531169999695862],[-83.351530000109335,39.540689999843778],[-83.379440000255727,39.5499099996469],[-83.407359999963944,39.559139999911224],[-83.435270000110336,39.568359999714346],[-83.463780000046881,39.576979999727371],[-83.507140000410573,39.589320000417842],[-83.521680000031893,39.593339999641444],[-83.551090000103329,39.601080000441812],[-83.595630000024357,39.612230000214481],[-83.610469999990414,39.615949999992665],[-83.655009999911442,39.62711000022648],[-83.669860000338645,39.630820000442839],[-83.699549999832527,39.63825999999915],[-83.744249999937438,39.649269999610965],[-83.774540000120794,39.656110000276442],[-83.805419999633159,39.662350000252445],[-83.836899999834998,39.66800000000012],[-83.868970000265222,39.673060000418843],[-83.885149999972441,39.675439999556488],[-83.933409999671653,39.682880000012119],[-83.949300000394601,39.685549999932675],[-83.996510000236242,39.694029999784789],[-84.012250000337133,39.696850000327402],[-84.060349999852519,39.70443999960645],[-84.093749999562704,39.708160000283954],[-84.128489999913484,39.710540000320918],[-84.164280000121778,39.711880000062081],[-84.200810000281194,39.712470000290409],[-84.237780000046882,39.712620000013146],[-84.274889999973425,39.712620000013146],[-84.312010000361113,39.712620000013146],[-84.349129999849481,39.712620000013146],[-84.386250000237226,39.712620000013146],[-84.423360000163768,39.712620000013146],[-84.460490000113282,39.712620000013146],[-84.497600000039881,39.712620000013146],[-84.534709999966424,39.712620000013146],[-84.571839999915937,39.712620000013146],[-84.608960000303682,39.712620000013146],[-84.646070000230225,39.712620000013146],[-84.683189999718593,39.712620000013146],[-84.720310000106338,39.712620000013146],[-84.757429999594706,39.712620000013146],[-84.794400000259714,39.712470000290409],[-84.830930000419073,39.711880000062081],[-84.866710000166279,39.710540000320918],[-84.901449999617682,39.708160000283954],[-84.934859999789069,39.70443999960645],[-84.96707000038009,39.699529999809783],[-84.998689999843521,39.694029999784789],[-85.030179999607185,39.688380000037114],[-85.061799999969935,39.682880000012119],[-85.093870000400102,39.677819999593453],[-85.126240000275686,39.673060000418843],[-85.158309999806534,39.66800000000012],[-85.189790000008372,39.662350000252445],[-85.220659999958912,39.656110000276442],[-85.250959999704094,39.649260000049082],[-85.280799999820033,39.641979999777334],[-85.310490000213235,39.634540000220966],[-85.340190000168263,39.627099999765335],[-85.369879999662146,39.619669999770792],[-85.399579999617174,39.612230000214481],[-85.429279999572202,39.60478999975885],[-85.473529999609696,39.593350000102589],[-85.488079999692104,39.589320000417842],[-85.517019999673153,39.581149999572972],[-85.545680000231698,39.572669999720858],[-85.573889999823507,39.563750000262473],[-85.601790000408073,39.554529999559975],[-85.62971000011629,39.545309999756853],[-85.657480000101827,39.535929999769849],[-85.684800000019891,39.526119999738341],[-85.711819999593217,39.515999999800272],[-85.752059999968935,39.500529999560001],[-85.765119999688125,39.495030000434326],[-85.791260000048851,39.484030000384337],[-85.817679999832023,39.473320000217996],[-85.844410000421078,39.462910000396334],[-85.870990000388076,39.452349999952673],[-85.897559999893986,39.441790000408332],[-85.924139999860984,39.431229999964671],[-85.950120000037884,39.420069999730856],[-85.988130000099318,39.402370000075564],[-86.013370000325153,39.390480000351886],[-86.02569999965516,39.384229999914737],[-86.050190000368104,39.371589999778791],[-86.074540000020875,39.358799999920222],[-86.11047000039008,39.339019999673383],[-86.133639999586194,39.325039999796275],[-86.156490000213239,39.310759999574486],[-86.179370000425081,39.296489999813787],[-86.202220000152806,39.282200000030116],[-86.213810000431067,39.275220000103047],[-86.237119999788035,39.26138000038685],[-86.27260999965165,39.241159999634419],[-86.296069999630674,39.227469999640903],[-86.319230000164282,39.213489999763851],[-86.342090000353153,39.199210000441326],[-86.36465000019723,39.184640000335889],[-86.386929999719598,39.169769999885716],[-86.408909999796549,39.154599999990182],[-86.430590000428083,39.139129999749855],[-86.451659999908941,39.123070000180519],[-86.472149999622673,39.106409999921709],[-86.492050000007396,39.089160000333891],[-86.511950000392119,39.071900000284927],[-86.542080000391593,39.046330000129558],[-86.552330000029372,39.037990000438299],[-86.573409999971432,39.021929999969643],[-86.594799999820054,39.006160000283955],[-86.626710000066339,38.98237000037534],[-86.637249999587709,38.974339999691381],[-86.657749999762586,38.957680000331891],[-86.677349999802516,38.940130000399336],[-86.69663999993594,38.922289999683869],[-86.71535000030218,38.903839999616423],[-86.733760000323628,38.885099999665385],[-86.751580000116803,38.865770000385339],[-86.777420000132793,38.835870000200487],[-86.793749999562749,38.815049999657901],[-86.809629999824551,38.793790000408364],[-86.825380000386588,38.772370000075568],[-86.84125999974907,38.751100000364886],[-86.857590000078346,38.730279999822301],[-86.865900000184752,38.720019999723377],[-86.883129999749599,38.700089999753857],[-86.900349999752564,38.680159999784337],[-86.925879999861991,38.649969999715836],[-86.934200000429598,38.639700000055086],[-86.957959999853983,38.607729999739831],[-86.973249999887457,38.585860000238938],[-86.98825000003734,38.563710000416336],[-87.00294000028066,38.541240000225969],[-87.017350000202271,38.518489999713836],[-87.031450000217205,38.495430000194517],[-87.045269999910488,38.47207999989223],[-87.058770000135269,38.448439999706352],[-87.072279999921932,38.424789999958705],[-87.086090000053332,38.401439999656418],[-87.100190000068324,38.378389999698868],[-87.114450000267198,38.355479999902229],[-87.128709999566695,38.332579999667416],[-87.142809999581686,38.309520000148041],[-87.156619999713087,38.286180000306899],[-87.170139999960952,38.262529999659876],[-87.183640000185733,38.238879999912228],[-87.197450000317133,38.215529999609942],[-87.21155999989395,38.192479999652392],[-87.225960000253679,38.16971999957849],[-87.240660000058824,38.147270000310414],[-87.248079999592221,38.136110000076599],[-87.270349999552707,38.102650000297444],[-87.285190000418083,38.080340000290903],[-87.300050000407111,38.058030000284418],[-87.314899999934937,38.035720000277934],[-87.329739999900994,38.013410000271449],[-87.344579999866994,37.991100000264964],[-87.359439999856022,37.968799999820305],[-87.366849999827537,37.957639999586434],[-87.389130000249224,37.924179999807279],[-87.403970000215224,37.901860000238969],[-87.418819999743107,37.879550000232484],[-87.426240000175767,37.868399999560495],[-87.448519999698135,37.834939999781284],[-87.463359999664135,37.812629999774799],[-87.478210000091337,37.790319999768315],[-87.485640000085823,37.779160000433819],[-87.50789999958522,37.745699999755345],[-87.515340000040851,37.734549999982676],[-87.537600000439568,37.701079999742319],[-87.552449999967394,37.678769999735835],[-87.56728999993345,37.65645999972935],[-87.582140000360596,37.634160000184011],[-87.596980000326653,37.611850000177526],[-87.611829999854479,37.589540000171041],[-87.626680000281681,37.5672300001645],[-87.641529999809563,37.544920000158015],[-87.656369999775563,37.522610000151531],[-87.671229999764591,37.500309999706872],[-87.686069999730591,37.477990000138561],[-87.701069999880474,37.455829999854757],[-87.716359999913948,37.433969999915689],[-87.731950000292159,37.41239999986027],[-87.747829999654641,37.391139999711356],[-87.764030000284208,37.370170000345411],[-87.780209999991428,37.349200000080089],[-87.796099999815056,37.327930000369349],[-87.811679999732121,37.30636000031393],[-87.82698000022674,37.284500000374862],[-87.841960000353652,37.262340000091058],[-87.856809999881477,37.240030000084573],[-87.87166000030868,37.217720000078089],[-87.87907999984202,37.206570000305419],[-87.901349999802562,37.173100000065119],[-87.916200000229708,37.150790000058578],[-87.92363000022425,37.139640000285908],[-87.94588999972359,37.106170000045609],[-87.960749999712618,37.083860000039124],[-87.975589999678618,37.061550000032639],[-87.990449999667646,37.03924999958798],[-88.005289999633646,37.016939999581439],[-88.020140000060849,36.994629999574954],[-88.035129999749586,36.972470000190526],[-88.050430000244205,36.950610000251459],[-88.066019999723096,36.929040000195982],[-88.081910000446044,36.907780000047126],[-88.098090000153263,36.886800000219978],[-88.114269999860483,36.865829999954656],[-88.130159999684111,36.844569999805799],[-88.145739999601176,36.822999999750323],[-88.161040000095852,36.801130000249429],[-88.176029999784532,36.778980000426827],[-88.19088999977356,36.756670000420343],[-88.205729999739617,36.734360000413858],[-88.220580000166763,36.712039999946171],[-88.235429999694645,36.689740000400832],[-88.250269999660645,36.667430000394347],[-88.265129999649673,36.645120000387863],[-88.279969999615673,36.622810000381378],[-88.287390000048333,36.611659999709389],[-88.30223000001439,36.589340000141021],[-88.324510000436078,36.555880000361867],[-88.339359999963904,36.533570000355382],[-88.34678000039662,36.522419999683393],[-88.361629999924446,36.500109999676909],[-88.383899999884989,36.466640000335872],[-88.398739999850989,36.444339999891213],[-88.41345000011728,36.421880000162048],[-88.42071999992794,36.410579999767322],[-88.441960000053882,36.376070000130539],[-88.448930000419068,36.364470000290453],[-88.469279999971945,36.329070000080605],[-88.482789999758552,36.305429999894727],[-88.489610000401115,36.293680000331904],[-88.510699999904944,36.259029999634947],[-88.525100000264672,36.236269999560989],[-88.532379999637158,36.224959999604437],[-88.54723000006436,36.202649999597952],[-88.5694899995637,36.169189999818798],[-88.576919999558243,36.158040000046128],[-88.599030000234222,36.124420000083092],[-88.606309999606708,36.113119999688365],[-88.627540000170768,36.078619999613409],[-88.641350000302168,36.055270000210498],[-88.654860000088831,36.031619999563475],[-88.661539999671163,36.019720000277914],[-88.682170000445069,35.98462000041286],[-88.689159999933963,35.973019999673397],[-88.710540000220703,35.938659999759352],[-88.724789999958432,35.915760000423802],[-88.738900000434569,35.892709999566989],[-88.752559999943912,35.869210000441285],[-88.765619999663159,35.84512000018799],[-88.778399999959902,35.820720000028132],[-88.79102000007282,35.796179999707363],[-88.803339999841,35.771350000402322],[-88.815659999609181,35.746509999736816],[-88.828120000437593,35.721819999693366],[-88.840449999767543,35.69697999992718],[-88.852779999996926,35.67214000016105],[-88.865250000387107,35.64745999967937],[-88.877579999717113,35.622619999913184],[-88.889889999923469,35.597780000147054],[-88.902369999875475,35.573090000103548],[-88.914689999643656,35.548250000337418],[-88.927019999872982,35.523409999671912],[-88.939479999802018,35.498730000089552],[-88.951810000031401,35.473890000323422],[-88.964129999799525,35.449049999657916],[-88.976609999751588,35.42435999961441],[-88.988930000419089,35.39951999984828],[-89.00125000018727,35.37468999964392],[-89.013730000139276,35.350010000061616],[-89.026049999907457,35.325159999834284],[-89.038380000136783,35.300320000068098],[-89.050840000065818,35.275630000024648],[-89.063170000295202,35.250799999820288],[-89.069259999649148,35.238299999845253],[-89.087970000015389,35.201270000010652],[-89.100129999599687,35.176279999622409],[-89.112009999761597,35.151000000249951],[-89.123749999762595,35.125570000255436],[-89.134889999973439,35.099539999571448],[-89.145279999772072,35.072769999835771],[-89.155359999664142,35.045699999755357],[-89.165169999695649,35.018339999791294],[-89.174529999659626,34.990529999759815],[-89.183880000061833,34.962719999728336],[-89.193679999632195,34.935350000202504],[-89.203769999985411,34.908280000122033],[-89.214010000061364,34.8813599997643],[-89.224549999582734,34.854739999751359],[-89.235090000003368,34.828119999738362],[-89.245040000195729,34.800899999935211],[-89.254250000437082,34.772940000180995],[-89.262859999988905,34.744379999737362],[-89.271029999934456,34.7153799996874],[-89.27905000015727,34.686229999914701],[-89.28722000010282,34.65722999986474],[-89.295679999931963,34.628519999698369],[-89.304440000105842,34.600109999876736],[-89.313200000279664,34.571709999616928],[-89.321660000108807,34.543009999911703],[-89.329819999593212,34.514000000299916],[-89.337690000093346,34.484699999905217],[-89.345269999810512,34.455100000065102],[-89.352550000082317,34.425210000341394],[-89.359509999986415,34.39502000027295],[-89.366200000029892,34.364529999859769],[-89.372589999728575,34.333749999562997],[-89.378670000420072,34.302660000258925],[-89.384770000235221,34.271579999617416],[-89.390990000188253,34.240640000036137],[-89.397230000164257,34.209710000016628],[-89.403470000140317,34.178770000435293],[-89.40971000011632,34.147829999954695],[-89.415789999908441,34.116750000212505],[-89.421880000161764,34.085669999570996],[-89.428120000137767,34.054729999989661],[-89.434199999929945,34.023650000247471],[-89.43984999967762,33.992120000437808],[-89.44474999991246,33.959849999777816],[-89.448609999851499,33.926530000159516],[-89.451569999655646,33.892319999968151],[-89.454239999576203,33.857819999893252],[-89.457209999841496,33.823609999701887],[-89.461069999780534,33.790290000083587],[-89.465970000015375,33.758029999884741],[-89.47147000004037,33.726339999891252],[-89.476970000065364,33.694660000358851],[-89.481870000300148,33.66238999969886],[-89.485579999617187,33.628929999919706],[-89.487950000092326,33.594119999938187],[-89.489289999833545,33.558280000122068],[-89.489880000061873,33.521689999893738],[-89.490029999784554,33.48466000005908],[-89.489880000061873,33.447630000224478],[-89.489289999833545,33.411039999996149],[-89.487950000092326,33.37520000018003],[-89.485579999617187,33.340390000198511],[-89.481870000300148,33.306930000419356],[-89.476959999604219,33.274659999759308],[-89.47147000004037,33.242969999765819],[-89.465970000015375,33.211299999795301],[-89.461069999780534,33.179019999573484],[-89.457209999841496,33.145710000416329],[-89.454250000037348,33.111500000224964],[-89.451569999655646,33.077000000150008],[-89.448609999851499,33.0427899999587],[-89.44474999991246,33.009479999902226],[-89.43984999967762,32.977199999680408],[-89.434199999929945,32.945669999870745],[-89.428120000137767,32.914590000128555],[-89.425000000149794,32.899119999888228],[-89.415789999908441,32.852569999905711],[-89.409699999655174,32.821490000163521],[-89.403470000140317,32.790549999682867],[-89.397219999703111,32.759610000101588],[-89.394099999715138,32.744150000322406],[-89.38475000021225,32.697739999601424],[-89.378659999958927,32.666659999859235],[-89.372440000005895,32.635729999839782],[-89.365609999801563,32.605379999587456],[-89.358179999807021,32.575639999586429],[-89.350170000045352,32.546489999813787],[-89.341409999871473,32.518079999992153],[-89.332199999630177,32.490120000237937],[-89.322999999850026,32.462159999584458],[-89.313800000069818,32.434199999830298],[-89.304580000266697,32.406240000076082],[-89.295670000370137,32.377979999977185],[-89.287200000079849,32.349269999810815],[-89.279039999696124,32.320269999760797],[-89.271029999934456,32.291119999988155],[-89.262859999988905,32.262119999938193],[-89.254239999975937,32.233569999955705],[-89.245049999757555,32.205599999740343],[-89.23509999956525,32.178379999937192],[-89.22456000004388,32.151759999924195],[-89.21401999962319,32.125139999911198],[-89.203769999985411,32.098219999553464],[-89.193670000070369,32.071159999934196],[-89.183880000061833,32.043790000408364],[-89.174509999636655,32.015980000376885],[-89.165180000156795,31.988170000345406],[-89.155359999664142,31.960799999920198],[-89.145270000210246,31.933729999839784],[-89.135030000134293,31.90681000038137],[-89.124339999990923,31.880340000091053],[-89.113350000402079,31.854159999684384],[-89.102660000258709,31.827690000293444],[-89.092269999560699,31.80091999965839],[-89.081730000039386,31.774290000083568],[-89.07118000005687,31.74767000007057],[-89.06079000025818,31.720900000334893],[-89.05010000011481,31.694430000044633],[-89.039120000087848,31.668249999637908],[-89.028429999944422,31.641780000246968],[-89.018029999684643,31.615009999611914],[-89.007490000163273,31.588389999598974],[-88.996949999742583,31.561760000024151],[-88.98655999994395,31.534990000288417],[-88.975860000238697,31.508519999998157],[-88.96486999975059,31.482350000052577],[-88.954190000068365,31.455870000200491],[-88.943940000430587,31.428949999842757],[-88.933839999616168,31.401879999762343],[-88.924040000045864,31.374519999798281],[-88.914689999643656,31.346700000204976],[-88.905480000301679,31.318739999551497],[-88.896129999899472,31.290930000419337],[-88.886780000396584,31.263120000387858],[-88.877579999717113,31.235159999734321],[-88.868359999913935,31.207199999980162],[-88.859160000133784,31.179240000225946],[-88.850250000237224,31.150980000127049],[-88.841799999969908,31.122280000421824],[-88.833630000024357,31.093269999910717],[-88.8257600004236,31.063970000415338],[-88.818179999807057,31.034380000137048],[-88.810909999996397,31.004479999952196],[-88.804079999792066,30.974140000161015],[-88.797990000438062,30.943060000418825],[-88.792950000042367,30.910929999919688],[-88.789250000287154,30.877470000140534],[-88.786710000066364,30.842820000342897],[-88.784780000096816,30.80756999985573],[-88.782850000127326,30.772320000267939],[-88.78032999992945,30.737669999570983],[-88.776610000151265,30.704200000229946],[-88.771709999916482,30.671929999569954],[-88.766220000352632,30.640250000037611],[-88.760729999889463,30.608569999605947],[-88.755820000092854,30.576299999845276],[-88.752120000337641,30.542829999604919],[-88.749740000300676,30.508030000084602],[-88.748410000121282,30.472190000268427],[-88.747810000331128,30.435600000040097],[-88.747509999986391,30.398719999928176],[-88.746919999758063,30.362129999699846],[-88.745569999555755,30.326289999883727],[-88.743210000441081,30.291479999902208],[-88.739500000224723,30.258020000123054],[-88.734590000428057,30.225750000362382],[-88.729099999964944,30.194069999930718],[-88.72359999993995,30.162390000398318],[-88.718699999705109,30.130119999738326],[-88.714999999949953,30.096650000397347],[-88.712619999912988,30.061849999977653],[-88.711289999733594,30.025999999700389],[-88.71068999994344,29.989419999933205],[-88.710540000220703,29.952379999637401],[-88.710540000220703,29.915200000080063],[-88.710540000220703,29.878019999623405],[-88.710540000220703,29.840840000066066],[-88.710540000220703,29.803659999609465],[-88.710540000220703,29.766480000052127],[-88.710540000220703,29.729290000033643],[-88.710540000220703,29.692109999576985],[-88.710540000220703,29.654930000019647],[-88.710540000220703,29.617749999562989],[-88.710540000220703,29.58057000000565],[-88.710540000220703,29.543379999987167],[-88.710540000220703,29.506200000429828],[-88.710540000220703,29.46901999997317],[-88.710540000220703,29.431840000415832],[-88.710540000220703,29.394659999959174],[-88.710540000220703,29.35746999994069],[-88.710540000220703,29.320290000383352],[-88.710540000220703,29.283109999926694],[-88.710540000220703,29.245930000369356],[-88.710540000220703,29.208749999912698],[-88.710540000220703,29.171570000355359],[-88.710540000220703,29.134380000336876],[-88.710540000220703,29.097199999880218],[-88.710540000220703,29.060020000322879],[-88.710540000220703,29.022839999866221],[-88.710540000220703,28.985660000308883],[-88.710540000220703,28.948470000290399],[-88.710540000220703,28.911289999833741],[-88.710540000220703,28.87411000027646],[-88.710540000220703,28.836929999819802],[-88.710540000220703,28.799750000262463],[-88.710540000220703,28.76256000024398],[-88.710540000220703,28.725379999787322],[-88.71068999994344,28.688349999952663],[-88.711280000171769,28.651759999724334],[-88.712619999912988,28.615919999908215],[-88.714999999949953,28.581120000387841],[-88.718699999705109,28.547650000147542],[-88.72359999993995,28.51538000038687],[-88.729099999964944,28.483699999955149],[-88.734599999989882,28.452020000422806],[-88.739500000224723,28.419749999762814],[-88.743349999702616,28.386430000144514],[-88.746319999967909,28.352230000414352],[-88.748989999888465,28.31771999987825],[-88.751969999715584,28.283509999686885],[-88.755829999654679,28.250199999630411],[-88.760729999889463,28.217920000307913],[-88.766370000075312,28.18638999959893],[-88.772460000328635,28.15530999985674],[-88.778700000304639,28.124370000275462],[-88.784789999658642,28.093289999633896],[-88.790870000350139,28.062209999891707],[-88.79726000004888,28.031420000033108],[-88.803939999631154,28.000929999619927],[-88.810909999996397,27.970739999551483],[-88.818179999807057,27.940849999827776],[-88.825609999801543,27.911100000264923],[-88.833019999773057,27.881349999802808],[-88.840449999767543,27.851609999801781],[-88.847890000223231,27.821869999800811],[-88.855300000194745,27.792120000237958],[-88.862879999911968,27.762520000397842],[-88.870739999950956,27.733220000003143],[-88.87890999989645,27.704219999953182],[-88.887369999725593,27.675520000247957],[-88.896279999622209,27.647249999687858],[-88.905489999863505,27.619300000394844],[-88.914689999643656,27.591339999741365],[-88.923899999885009,27.563370000425323],[-88.933239999826014,27.535560000393843],[-88.942599999790048,27.507750000362364],[-88.951810000031401,27.479789999708885],[-88.961009999811552,27.451829999954668],[-88.97038000023673,27.424019999923189],[-88.979720000177736,27.39620999989171],[-88.988939999980914,27.368239999676405],[-88.998279999921976,27.340429999644925],[-89.008089999953427,27.313060000119037],[-89.018180000306643,27.285999999600449],[-89.023219999803018,27.272460000228989],[-89.039120000087848,27.232600000289949],[-89.05010000011481,27.206430000344369],[-89.06079000025818,27.179949999592964],[-89.07118000005687,27.15317999985723],[-89.076379999737071,27.139799999770332],[-89.092269999560699,27.099939999831292],[-89.102660000258709,27.073170000095558],[-89.113350000402079,27.046699999805298],[-89.124339999990923,27.020520000297893],[-89.129829999554715,27.007430000094587],[-89.145419999932926,26.967280000271955],[-89.150619999613184,26.953889999723856],[-89.166499999874986,26.914029999784816],[-89.177049999857502,26.887409999771819],[-89.182389999698614,26.874169999845776],[-89.199910000046373,26.835949999992636],[-89.21177999974708,26.810669999720858],[-89.223960000253726,26.785680000231991],[-89.236429999744587,26.760990000188485],[-89.248610000251233,26.735999999800299],[-89.254549999882499,26.72335999966441],[-89.272219999952938,26.685290000433326],[-89.283360000163782,26.659259999749338],[-89.293899999685152,26.632639999736341],[-89.304440000105842,26.606010000161518],[-89.31497000006533,26.579390000148521],[-89.325520000047845,26.552770000135524],[-89.330859999888958,26.539539999771307],[-89.348380000236716,26.501310000356398],[-89.354319999867982,26.488670000220452],[-89.372440000005895,26.451039999696377],[-89.384910000396076,26.426349999652928],[-89.391150000372136,26.414009999861719],[-89.409560000393583,26.376679999682381],[-89.422029999884501,26.351989999638931],[-89.434360000113827,26.327149999872745],[-89.446670000320182,26.302310000106559],[-89.459150000272189,26.277629999624935],[-89.47147000004037,26.252789999858749],[-89.483800000269696,26.227950000092562],[-89.496260000198731,26.203260000049113],[-89.508590000428057,26.178420000282927],[-89.514679999782061,26.165929999869718],[-89.533390000148302,26.128900000035117],[-89.545720000377628,26.10406000026893],[-89.551789999708603,26.091569999855778],[-89.570500000074844,26.054529999559975],[-89.582819999843025,26.029700000254934],[-89.595139999611206,26.004859999589428],[-89.607770000185269,25.980320000168035],[-89.620540000020867,25.955929999569946],[-89.626920000157781,25.943729999939706],[-89.640269999760562,25.919940000031147],[-89.654240000075845,25.896729999889715],[-89.668500000274662,25.873829999654902],[-89.689870000100314,25.839480000202002],[-89.696999999750062,25.82801999962345],[-89.717640000085851,25.79291999975834],[-89.730710000266185,25.768830000404364],[-89.743469999640695,25.744439999806275],[-89.756240000375612,25.720050000107562],[-89.768999999750065,25.69566000040885],[-89.775390000348125,25.683459999879233],[-89.788759999973934,25.659660000408849],[-89.802719999828014,25.636459999829299],[-89.816960000003917,25.613559999594429],[-89.838940000080811,25.579800000369858],[-89.853789999608694,25.557490000363373],[-89.861219999603179,25.546339999691384],[-89.87605000000741,25.524020000123073],[-89.898179999807041,25.490409999721862],[-89.905449999617701,25.479110000226456],[-89.919709999816519,25.456200000429817],[-89.940490000313162,25.421250000287444],[-89.947330000079319,25.4094999998253],[-89.960690000143302,25.385709999916685],[-89.974640000435556,25.362510000236455],[-89.996770000235244,25.328890000273418],[-90.00434999995241,25.317890000223485],[-90.020079999592213,25.296469999890746],[-90.036420000382634,25.275650000247481],[-90.052439999905971,25.254530000259422],[-90.068189999568744,25.233109999926683],[-90.083630000224218,25.211399999710352],[-90.098769999635692,25.189390000048604],[-90.113620000062838,25.16708000004212],[-90.128460000028895,25.144770000035635],[-90.14330999955672,25.122460000029093],[-90.15846000032866,25.100450000367346],[-90.173900000084814,25.078740000151015],[-90.189640000185761,25.057319999818276],[-90.205670000170244,25.036199999830274],[-90.2219999996002,25.015380000187008],[-90.238040000045885,24.994260000199006],[-90.25376999968563,24.972839999866267],[-90.277380000286655,24.940719999828275],[-90.285249999887469,24.930009999661877],[-90.301279999872008,24.908889999673875],[-90.31792000010779,24.888359999914201],[-90.335140000110812,24.868429999944681],[-90.352360000113833,24.848499999975161],[-90.369580000116798,24.828579999567467],[-90.386220000352637,24.808049999807793],[-90.402250000337119,24.78692999981979],[-90.417979999976922,24.765510000386371],[-90.441740000300683,24.733540000071116],[-90.449759999624177,24.722979999627398],[-90.466399999860016,24.702449999867724],[-90.483920000207718,24.682820000242941],[-90.501730000439068,24.663490000063575],[-90.520139999561252,24.644739999651392],[-90.538549999582699,24.6260100001615],[-90.55725999994894,24.607560000094054],[-90.575669999970444,24.588829999704842],[-90.594380000336628,24.570379999637396],[-90.612790000358132,24.551639999686358],[-90.63149000026317,24.533200000080058],[-90.6499099998465,24.51446000012902],[-90.668609999751595,24.4960199996234],[-90.687030000234245,24.477279999672362],[-90.705730000139283,24.458840000066118],[-90.724140000160787,24.440100000115081],[-90.742849999627651,24.421650000047578],[-90.761259999649155,24.402919999658423],[-90.779970000015396,24.384469999590976],[-90.798389999598726,24.365729999639939],[-90.817090000403084,24.347290000033638],[-90.835489999963443,24.3285500000826],[-90.854200000329627,24.31010999957698],[-90.872909999796548,24.291669999970679],[-90.892210000391117,24.273819999693387],[-90.911819999992929,24.256269999760832],[-90.932300000144778,24.239610000401342],[-90.953380000086838,24.223549999932686],[-90.974760000373635,24.207780000246942],[-90.996139999761056,24.192020000123023],[-91.017230000164261,24.175959999654424],[-91.037719999877993,24.159300000294934],[-91.057609999801571,24.142049999807796],[-91.077510000186237,24.124789999758832],[-91.097400000109815,24.107540000171014],[-91.117889999823547,24.090890000373349],[-91.13896999976555,24.074820000342868],[-91.160350000052347,24.059060000218949],[-91.181730000339144,24.043289999633942],[-91.203109999726621,24.027530000409342],[-91.224200000129827,24.011460000378861],[-91.244990000188238,23.995099999565468],[-91.266070000130298,23.979039999996132],[-91.287450000417095,23.963279999872213],[-91.30913000014931,23.947809999631943],[-91.331099999765058,23.932639999736352],[-91.353369999725601,23.917759999724353],[-91.375639999686143,23.9028900001735],[-91.39790000008486,23.888019999723326],[-91.420179999607171,23.873150000172529],[-91.442460000028859,23.858279999722356],[-91.464729999989402,23.843399999710357],[-91.486999999949944,23.828530000159503],[-91.509269999910487,23.813659999709387],[-91.531539999870972,23.798779999697388],[-91.55382000029266,23.783910000146534],[-91.576079999792057,23.769039999696361],[-91.598340000190774,23.754170000145507],[-91.620619999713085,23.739290000133565],[-91.642900000134773,23.724419999683391],[-91.665170000095316,23.709550000132538],[-91.687440000055858,23.694679999682364],[-91.709719999578226,23.679799999670365],[-91.731979999976886,23.664930000119568],[-91.754260000398574,23.650050000107569],[-91.776530000359116,23.635190000118541],[-91.798800000319659,23.620310000106542],[-91.821059999819056,23.605439999656426],[-91.843329999779542,23.590559999644427],[-91.865599999740084,23.575690000093573],[-91.887880000161772,23.5608199996434],[-91.910139999661169,23.545950000092546],[-91.932420000082857,23.531070000080604],[-91.954690000043342,23.51619999963043],[-91.976969999565711,23.501330000079577],[-91.999240000425573,23.486459999629403],[-92.02149999992497,23.471579999617404],[-92.043780000346658,23.456710000066607],[-92.066050000307143,23.441839999616434],[-92.088320000267686,23.426959999604435],[-92.110579999767083,23.412090000053581],[-92.132860000188771,23.397219999603465],[-92.15542999959473,23.382639999936202],[-92.178289999783544,23.368370000175503],[-92.189880000061862,23.361379999787289],[-92.213329999579742,23.347689999793772],[-92.237379999787038,23.334610000051612],[-92.261730000339128,23.321820000192986],[-92.286220000152809,23.309169999595952],[-92.311019999872997,23.2968299998048],[-92.348140000260685,23.278239999576442],[-92.360460000028866,23.271990000038613],[-92.385250000187284,23.259650000247461],[-92.410060000368617,23.247299999995164],[-92.434710000366124,23.234809999581955],[-92.459499999625166,23.222469999790803],[-92.48430000024473,23.210120000437826],[-92.508939999781035,23.197630000024617],[-92.533740000400599,23.18527999977232],[-92.55852999965964,23.172939999981168],[-92.583179999657148,23.160449999567959],[-92.607969999815509,23.148100000214981],[-92.632759999973928,23.135760000423829],[-92.657409999971435,23.123260000448795],[-92.682209999691622,23.110919999758323],[-92.706999999849984,23.098570000405346],[-92.731660000308636,23.086079999992137],[-92.756440000005909,23.073740000200985],[-92.781250000187242,23.061389999948688],[-92.805889999723604,23.048900000434799],[-92.830690000343111,23.036559999744327],[-92.855470000040384,23.024210000391349],[-92.880120000037891,23.011719999978141],[-92.904910000196253,22.999369999725843],[-92.929720000377586,22.987029999934691],[-92.954210000191267,22.974389999798802],[-92.978559999844038,22.961599999940177],[-93.002460000328654,22.948360000014134],[-93.036760000173786,22.926939999681395],[-93.058439999905943,22.911479999902213],[-93.078929999619675,22.894819999643403],[-93.097929999869507,22.876669999920693],[-93.116040000445537,22.857640000086064],[-93.132679999782056,22.83711000032639],[-93.147670000370113,22.815250000387323],[-93.166689999743596,22.779699999555476],[-93.171739999701117,22.767949999992652],[-93.18197999977707,22.728390000398349],[-93.18300999961167,22.716200000329877],[-93.182110000376099,22.675300000095092],[-93.176619999912987,22.64866999962095],[-93.168010000361107,22.622800000020106],[-93.156879999712089,22.597960000253977],[-93.143969999715637,22.574010000161536],[-93.129260000348609,22.55155999999414],[-93.103579999617182,22.52151000008655],[-93.084429999644669,22.503670000270461],[-93.063639999586201,22.487899999685396],[-93.03009000015328,22.467969999715876],[-93.019259999848998,22.461720000177991],[-92.985089999703632,22.446410000121546],[-92.96193999963117,22.438969999665915],[-92.938029999584728,22.434059999869248]]]},"properties":{"objectid":550,"stormname":"Isaias","stormtype":"TS","basin":"AL","advdate":"400 PM CDT Wed Oct 07 2026","advisnum":"5","fcstprd":120,"stormnum":9,"idp_source":"al092026-005_5day_pgn","idp_filedate":1791408473000,"idp_ingestdate":1791408490000,"st_area(shape)":60.413196169379326,"st_perimeter(shape)":46.199615196363432,"binnumber":"AT4"}}]}