{"type":"FeatureCollection","features":[{"type":"Feature","id":4723,"geometry":{"type":"Point","coordinates":[-89.80000000029969,23.999999999800309]},"properties":{"objectid":4723,"stormname":"Hurricane Isaias","stormtype":"HU","dvlbl":"H","basin":"AL","advdate":"100 PM CDT Thu Oct 08 2026","advisnum":"8A","fcstprd":120,"gust":90,"maxwind":75,"mslp":975,"ssnum":1,"datelbl":"1:00 PM Thu","tcdvlp":"Hurricane","tcdir":60,"tcspd":9,"fldatelbl":"2026-10-08 10:00 AM Thu CDT","lat":24,"lon":-90,"stormnum":9,"stormsrc":"Tropical Cyclone","tau":0,"timezone":"CDT","validtime":"08/1500","idp_source":"al092026-008A_5day_pts","idp_filedate":1791483482000,"idp_ingestdate":1791483505000,"binnumber":"AT4"}},{"type":"Feature","id":4724,"geometry":{"type":"Point","coordinates":[-89.000000000099817,24.899999999800286]},"properties":{"objectid":4724,"stormname":"Hurricane Isaias","stormtype":"HU","dvlbl":"H","basin":"AL","advdate":"100 PM CDT Thu Oct 08 2026","advisnum":"8A","fcstprd":120,"gust":110,"maxwind":90,"mslp":9999,"ssnum":2,"datelbl":"7:00 PM Thu","tcdvlp":"Hurricane","tcdir":9999,"tcspd":9999,"fldatelbl":"2026-10-08 7:00 PM Thu CDT","lat":25,"lon":-89,"stormnum":9,"stormsrc":"Tropical Cyclone","tau":12,"timezone":"CDT","validtime":"09/0000","idp_source":"al092026-008A_5day_pts","idp_filedate":1791483482000,"idp_ingestdate":1791483505000,"binnumber":"AT4"}},{"type":"Feature","id":4725,"geometry":{"type":"Point","coordinates":[-87.899999999600197,27.099999999900206]},"properties":{"objectid":4725,"stormname":"Hurricane Isaias","stormtype":"HU","dvlbl":"H","basin":"AL","advdate":"100 PM CDT Thu Oct 08 2026","advisnum":"8A","fcstprd":120,"gust":115,"maxwind":95,"mslp":9999,"ssnum":2,"datelbl":"7:00 AM Fri","tcdvlp":"Hurricane","tcdir":9999,"tcspd":9999,"fldatelbl":"2026-10-09 7:00 AM Fri CDT","lat":27,"lon":-88,"stormnum":9,"stormsrc":"Tropical Cyclone","tau":24,"timezone":"CDT","validtime":"09/1200","idp_source":"al092026-008A_5day_pts","idp_filedate":1791483482000,"idp_ingestdate":1791483505000,"binnumber":"AT4"}},{"type":"Feature","id":4726,"geometry":{"type":"Point","coordinates":[-87.399999999700128,29.600000000299929]},"properties":{"objectid":4726,"stormname":"Hurricane Isaias","stormtype":"HU","dvlbl":"H","basin":"AL","advdate":"100 PM CDT Thu Oct 08 2026","advisnum":"8A","fcstprd":120,"gust":105,"maxwind":85,"mslp":9999,"ssnum":2,"datelbl":"7:00 PM Fri","tcdvlp":"Hurricane","tcdir":9999,"tcspd":9999,"fldatelbl":"2026-10-09 7:00 PM Fri CDT","lat":30,"lon":-87,"stormnum":9,"stormsrc":"Tropical Cyclone","tau":36,"timezone":"CDT","validtime":"10/0000","idp_source":"al092026-008A_5day_pts","idp_filedate":1791483482000,"idp_ingestdate":1791483505000,"binnumber":"AT4"}},{"type":"Feature","id":4727,"geometry":{"type":"Point","coordinates":[-87.799999999800036,32.300000000299917]},"properties":{"objectid":4727,"stormname":"Hurricane Isaias","stormtype":"TS","dvlbl":"S","basin":"AL","advdate":"100 PM CDT Thu Oct 08 2026","advisnum":"8A","fcstprd":120,"gust":45,"maxwind":35,"mslp":9999,"ssnum":0,"datelbl":"7:00 AM Sat","tcdvlp":"Tropical Storm","tcdir":9999,"tcspd":9999,"fldatelbl":"2026-10-10 7:00 AM Sat CDT","lat":32,"lon":-88,"stormnum":9,"stormsrc":"Tropical Cyclone","tau":48,"timezone":"CDT","validtime":"10/1200","idp_source":"al092026-008A_5day_pts","idp_filedate":1791483482000,"idp_ingestdate":1791483505000,"binnumber":"AT4"}},{"type":"Feature","id":4728,"geometry":{"type":"Point","coordinates":[-88.10000000009984,34.600000000199998]},"properties":{"objectid":4728,"stormname":"Hurricane Isaias","stormtype":"STD","dvlbl":"D","basin":"AL","advdate":"100 PM CDT Thu Oct 08 2026","advisnum":"8A","fcstprd":120,"gust":40,"maxwind":30,"mslp":9999,"ssnum":0,"datelbl":"7:00 PM Sat","tcdvlp":"Subtropical Depression","tcdir":9999,"tcspd":9999,"fldatelbl":"2026-10-10 7:00 PM Sat CDT","lat":35,"lon":-88,"stormnum":9,"stormsrc":"Post-Tropical Cyclone","tau":60,"timezone":"CDT","validtime":"11/0000","idp_source":"al092026-008A_5day_pts","idp_filedate":1791483482000,"idp_ingestdate":1791483505000,"binnumber":"AT4"}},{"type":"Feature","id":4729,"geometry":{"type":"Point","coordinates":[-87.799999999800036,36.500000000000171]},"properties":{"objectid":4729,"stormname":"Hurricane Isaias","stormtype":"STD","dvlbl":"D","basin":"AL","advdate":"100 PM CDT Thu Oct 08 2026","advisnum":"8A","fcstprd":120,"gust":35,"maxwind":25,"mslp":9999,"ssnum":0,"datelbl":"7:00 AM Sun","tcdvlp":"Subtropical Depression","tcdir":9999,"tcspd":9999,"fldatelbl":"2026-10-11 7:00 AM Sun CDT","lat":36,"lon":-88,"stormnum":9,"stormsrc":"Post-Tropical Cyclone","tau":72,"timezone":"CDT","validtime":"11/1200","idp_source":"al092026-008A_5day_pts","idp_filedate":1791483482000,"idp_ingestdate":1791483505000,"binnumber":"AT4"}}]}