{"type":"FeatureCollection","features":[{"type":"Feature","id":23620,"geometry":{"type":"Point","coordinates":[-96.500000000399609,22.000000000199975]},"properties":{"objectid":23620,"stormname":"GENESIS022","stormtype":"DB","stormnum":9,"intensity":15,"basin":"al","mslp":0,"dtg":2026100418,"year":2026,"month":"10","day":4,"hhmm":"1800","lat":22,"lon":-96,"ss":0,"idp_source":"AL092026_pts","idp_filedate":1791538099000,"idp_ingestdate":1791538208000,"binnumber":"AT4"}},{"type":"Feature","id":23621,"geometry":{"type":"Point","coordinates":[-96.500000000399609,22.000000000199975]},"properties":{"objectid":23621,"stormname":"GENESIS022","stormtype":"DB","stormnum":9,"intensity":20,"basin":"al","mslp":0,"dtg":2026100500,"year":2026,"month":"10","day":5,"hhmm":"0000","lat":22,"lon":-96,"ss":0,"idp_source":"AL092026_pts","idp_filedate":1791538099000,"idp_ingestdate":1791538208000,"binnumber":"AT4"}},{"type":"Feature","id":23622,"geometry":{"type":"Point","coordinates":[-96.500000000399609,22.000000000199975]},"properties":{"objectid":23622,"stormname":"GENESIS022","stormtype":"DB","stormnum":9,"intensity":25,"basin":"al","mslp":0,"dtg":2026100506,"year":2026,"month":"10","day":5,"hhmm":"0600","lat":22,"lon":-96,"ss":0,"idp_source":"AL092026_pts","idp_filedate":1791538099000,"idp_ingestdate":1791538208000,"binnumber":"AT4"}},{"type":"Feature","id":23623,"geometry":{"type":"Point","coordinates":[-96.500000000399609,22.000000000199975]},"properties":{"objectid":23623,"stormname":"INVEST","stormtype":"DB","stormnum":9,"intensity":25,"basin":"al","mslp":1010,"dtg":2026100512,"year":2026,"month":"10","day":5,"hhmm":"1200","lat":22,"lon":-96,"ss":0,"idp_source":"AL092026_pts","idp_filedate":1791538099000,"idp_ingestdate":1791538208000,"binnumber":"AT4"}},{"type":"Feature","id":23624,"geometry":{"type":"Point","coordinates":[-96.299999999899967,22.199999999800298]},"properties":{"objectid":23624,"stormname":"INVEST","stormtype":"DB","stormnum":9,"intensity":25,"basin":"al","mslp":1010,"dtg":2026100518,"year":2026,"month":"10","day":5,"hhmm":"1800","lat":22,"lon":-96,"ss":0,"idp_source":"AL092026_pts","idp_filedate":1791538099000,"idp_ingestdate":1791538208000,"binnumber":"AT4"}},{"type":"Feature","id":23625,"geometry":{"type":"Point","coordinates":[-96.100000000299644,22.299999999600459]},"properties":{"objectid":23625,"stormname":"INVEST","stormtype":"DB","stormnum":9,"intensity":25,"basin":"al","mslp":1009,"dtg":2026100600,"year":2026,"month":"10","day":6,"hhmm":"0000","lat":22,"lon":-96,"ss":0,"idp_source":"AL092026_pts","idp_filedate":1791538099000,"idp_ingestdate":1791538208000,"binnumber":"AT4"}},{"type":"Feature","id":23626,"geometry":{"type":"Point","coordinates":[-95.99999999960022,22.199999999800298]},"properties":{"objectid":23626,"stormname":"INVEST","stormtype":"DB","stormnum":9,"intensity":25,"basin":"al","mslp":1009,"dtg":2026100606,"year":2026,"month":"10","day":6,"hhmm":"0600","lat":22,"lon":-96,"ss":0,"idp_source":"AL092026_pts","idp_filedate":1791538099000,"idp_ingestdate":1791538208000,"binnumber":"AT4"}},{"type":"Feature","id":23627,"geometry":{"type":"Point","coordinates":[-95.99999999960022,22.000000000199975]},"properties":{"objectid":23627,"stormname":"INVEST","stormtype":"DB","stormnum":9,"intensity":25,"basin":"al","mslp":1008,"dtg":2026100612,"year":2026,"month":"10","day":6,"hhmm":"1200","lat":22,"lon":-96,"ss":0,"idp_source":"AL092026_pts","idp_filedate":1791538099000,"idp_ingestdate":1791538208000,"binnumber":"AT4"}},{"type":"Feature","id":23628,"geometry":{"type":"Point","coordinates":[-95.700000000199736,21.900000000399814]},"properties":{"objectid":23628,"stormname":"NINE","stormtype":"TD","stormnum":9,"intensity":30,"basin":"al","mslp":1007,"dtg":2026100618,"year":2026,"month":"10","day":6,"hhmm":"1800","lat":22,"lon":-96,"ss":0,"idp_source":"AL092026_pts","idp_filedate":1791538099000,"idp_ingestdate":1791538208000,"binnumber":"AT4"}},{"type":"Feature","id":23629,"geometry":{"type":"Point","coordinates":[-95.300000000099828,21.699999999900228]},"properties":{"objectid":23629,"stormname":"NINE","stormtype":"TD","stormnum":9,"intensity":30,"basin":"al","mslp":1006,"dtg":2026100700,"year":2026,"month":"10","day":7,"hhmm":"0000","lat":22,"lon":-95,"ss":0,"idp_source":"AL092026_pts","idp_filedate":1791538099000,"idp_ingestdate":1791538208000,"binnumber":"AT4"}},{"type":"Feature","id":23630,"geometry":{"type":"Point","coordinates":[-94.599999999700117,21.900000000399814]},"properties":{"objectid":23630,"stormname":"ISAIAS","stormtype":"TS","stormnum":9,"intensity":35,"basin":"al","mslp":1004,"dtg":2026100706,"year":2026,"month":"10","day":7,"hhmm":"0600","lat":22,"lon":-95,"ss":0,"idp_source":"AL092026_pts","idp_filedate":1791538099000,"idp_ingestdate":1791538208000,"binnumber":"AT4"}},{"type":"Feature","id":23631,"geometry":{"type":"Point","coordinates":[-93.900000000199725,22.199999999800298]},"properties":{"objectid":23631,"stormname":"ISAIAS","stormtype":"TS","stormnum":9,"intensity":40,"basin":"al","mslp":1002,"dtg":2026100712,"year":2026,"month":"10","day":7,"hhmm":"1200","lat":22,"lon":-94,"ss":0,"idp_source":"AL092026_pts","idp_filedate":1791538099000,"idp_ingestdate":1791538208000,"binnumber":"AT4"}},{"type":"Feature","id":23632,"geometry":{"type":"Point","coordinates":[-93.299999999600175,22.500000000100044]},"properties":{"objectid":23632,"stormname":"ISAIAS","stormtype":"TS","stormnum":9,"intensity":50,"basin":"al","mslp":995,"dtg":2026100718,"year":2026,"month":"10","day":7,"hhmm":"1800","lat":22,"lon":-93,"ss":0,"idp_source":"AL092026_pts","idp_filedate":1791538099000,"idp_ingestdate":1791538208000,"binnumber":"AT4"}},{"type":"Feature","id":23633,"geometry":{"type":"Point","coordinates":[-92.299999999800036,22.699999999700367]},"properties":{"objectid":23633,"stormname":"ISAIAS","stormtype":"TS","stormnum":9,"intensity":60,"basin":"al","mslp":988,"dtg":2026100800,"year":2026,"month":"10","day":8,"hhmm":"0000","lat":23,"lon":-92,"ss":0,"idp_source":"AL092026_pts","idp_filedate":1791538099000,"idp_ingestdate":1791538208000,"binnumber":"AT4"}},{"type":"Feature","id":23634,"geometry":{"type":"Point","coordinates":[-91.49999999960022,23.099999999800275]},"properties":{"objectid":23634,"stormname":"ISAIAS","stormtype":"HU","stormnum":9,"intensity":70,"basin":"al","mslp":981,"dtg":2026100806,"year":2026,"month":"10","day":8,"hhmm":"0600","lat":23,"lon":-92,"ss":1,"idp_source":"AL092026_pts","idp_filedate":1791538099000,"idp_ingestdate":1791538208000,"binnumber":"AT4"}},{"type":"Feature","id":23635,"geometry":{"type":"Point","coordinates":[-90.599999999600186,23.400000000100079]},"properties":{"objectid":23635,"stormname":"ISAIAS","stormtype":"HU","stormnum":9,"intensity":75,"basin":"al","mslp":977,"dtg":2026100812,"year":2026,"month":"10","day":8,"hhmm":"1200","lat":23,"lon":-91,"ss":1,"idp_source":"AL092026_pts","idp_filedate":1791538099000,"idp_ingestdate":1791538208000,"binnumber":"AT4"}},{"type":"Feature","id":23636,"geometry":{"type":"Point","coordinates":[-89.80000000029969,23.900000000000148]},"properties":{"objectid":23636,"stormname":"ISAIAS","stormtype":"HU","stormnum":9,"intensity":80,"basin":"al","mslp":975,"dtg":2026100818,"year":2026,"month":"10","day":8,"hhmm":"1800","lat":24,"lon":-90,"ss":1,"idp_source":"AL092026_pts","idp_filedate":1791538099000,"idp_ingestdate":1791538208000,"binnumber":"AT4"}},{"type":"Feature","id":23637,"geometry":{"type":"Point","coordinates":[-89.000000000099817,24.800000000000125]},"properties":{"objectid":23637,"stormname":"ISAIAS","stormtype":"HU","stormnum":9,"intensity":85,"basin":"al","mslp":974,"dtg":2026100900,"year":2026,"month":"10","day":9,"hhmm":"0000","lat":25,"lon":-89,"ss":2,"idp_source":"AL092026_pts","idp_filedate":1791538099000,"idp_ingestdate":1791538208000,"binnumber":"AT4"}},{"type":"Feature","id":23638,"geometry":{"type":"Point","coordinates":[-88.400000000399586,25.79999999980032]},"properties":{"objectid":23638,"stormname":"ISAIAS","stormtype":"HU","stormnum":9,"intensity":90,"basin":"al","mslp":970,"dtg":2026100906,"year":2026,"month":"10","day":9,"hhmm":"0600","lat":26,"lon":-88,"ss":2,"idp_source":"AL092026_pts","idp_filedate":1791538099000,"idp_ingestdate":1791538208000,"binnumber":"AT4"}}]}