{"type":"FeatureCollection","features":[{"type":"Feature","id":580,"geometry":{"type":"LineString","coordinates":[[-90.200000000399598,23.700000000399825],[-89.000000000099817,24.899999999800286],[-87.899999999600197,27.099999999900206],[-87.399999999700128,29.600000000299929],[-87.799999999800036,32.300000000299917],[-88.10000000009984,34.600000000199998],[-87.799999999800036,36.500000000000171]]},"properties":{"objectid":580,"stormname":"Isaias","stormtype":"HU","basin":"AL","advdate":"1000 AM CDT Thu Oct 08 2026","advisnum":"8","fcstprd":120,"stormnum":9,"idp_source":"al092026-008_5day_lin","idp_filedate":1791473297000,"idp_ingestdate":1791473363000,"st_length(shape)":13.678730727077797,"binnumber":"AT4"}}]}