{"type":"FeatureCollection","features":[{"type":"Feature","id":615,"geometry":{"type":"LineString","coordinates":[[-88.000000000299679,26.400000000399814],[-87.299999999899967,28.400000000000148],[-87.100000000299644,31.000000000199975],[-87.500000000399609,33.499999999700378],[-86.700000000199736,35.500000000199975],[-83.100000000199771,38.200000000200021]]},"properties":{"objectid":615,"stormname":"Isaias","stormtype":"HU","basin":"AL","advdate":"400 AM CDT Fri Oct 09 2026","advisnum":"11","fcstprd":120,"stormnum":9,"idp_source":"al092026-011_5day_lin","idp_filedate":1791538099000,"idp_ingestdate":1791538159000,"st_length(shape)":13.912506675194969,"binnumber":"AT4"}}]}