{"type":"FeatureCollection","features":[{"type":"Feature","id":585,"geometry":{"type":"Polygon","coordinates":[[[-89.845630000124288,23.734659999759344],[-89.822950000142271,23.732080000391818],[-89.799000000049887,23.732080000391818],[-89.774260000398613,23.734659999759344],[-89.749530000309164,23.739559999994128],[-89.725179999757074,23.746399999760342],[-89.701739999801021,23.754919999658398],[-89.679320000117798,23.764720000128023],[-89.657680000431583,23.775299999695392],[-89.636810000281173,23.786660000159031],[-89.616840000265711,23.798919999858242],[-89.597519999648171,23.811820000292926],[-89.578710000066337,23.825240000425822],[-89.551410000171245,23.846280000321883],[-89.542250000437093,23.853240000225981],[-89.514559999644177,23.873890000123538],[-89.505159999634145,23.880600000189986],[-89.486220000352603,23.893889999723854],[-89.467030000334148,23.906930000319392],[-89.447709999716608,23.919829999854755],[-89.428380000436562,23.932730000289439],[-89.409059999819021,23.945640000285948],[-89.389729999639655,23.958539999821255],[-89.370409999921435,23.971440000255939],[-89.351090000203271,23.984350000252448],[-89.331769999585731,23.997249999787812],[-89.31257999956722,24.010279999922204],[-89.293640000285677,24.023570000355392],[-89.265690000093343,24.043959999954154],[-89.256550000382106,24.050930000319397],[-89.229360000163751,24.072090000353398],[-89.220209999991425,24.079059999819265],[-89.192520000097829,24.099709999716879],[-89.173969999915471,24.113379999687368],[-89.164699999605205,24.120220000352901],[-89.136869999550754,24.14073999965143],[-89.127729999839516,24.147710000016616],[-89.100539999621162,24.168870000050617],[-89.091399999909981,24.175840000415803],[-89.06369999955524,24.196490000313418],[-89.054419999683148,24.203319999618429],[-89.026600000089843,24.223839999816278],[-89.008299999745077,24.237779999647387],[-88.9905199999979,24.25222999961494],[-88.973529999809557,24.267459999579444],[-88.956790000358126,24.282940000280917],[-88.940549999682617,24.298939999781282],[-88.924320000367629,24.314949999742851],[-88.908339999990915,24.331199999980129],[-88.892120000237696,24.347200000379871],[-88.876139999860982,24.363460000179032],[-88.859909999646675,24.379459999679398],[-88.84393000016928,24.395720000377878],[-88.827960000253711,24.411980000176982],[-88.812510000036355,24.428759999674412],[-88.797300000094822,24.445789999908698],[-88.782879999712122,24.463600000140048],[-88.762149999722624,24.491209999941702],[-88.748490000213224,24.509789999708858],[-88.741650000447066,24.519080000042095],[-88.72774999976258,24.537409999971658],[-88.713319999818054,24.555209999741862],[-88.69837000017526,24.572509999836768],[-88.683430000094347,24.589800000369848],[-88.668490000013378,24.607090000003666],[-88.64708999970361,24.634059999969168],[-88.633319999618209,24.652510000036614],[-88.626499999874966,24.661800000369851],[-88.612840000365622,24.680380000137063],[-88.598919999658165,24.698699999605424],[-88.584500000174785,24.716509999836774],[-88.56954999963267,24.733800000369854],[-88.554609999551758,24.751090000003614],[-88.539670000370108,24.768379999637432],[-88.525240000425583,24.786189999868725],[-88.504499999974939,24.813810000131525],[-88.497680000231696,24.823099999565443],[-88.477200000079847,24.850969999665892],[-88.470369999875516,24.86025999999913],[-88.449370000025397,24.887619999963192],[-88.44228000042159,24.896649999997635],[-88.421539999970946,24.92425999979929],[-88.407890000023372,24.942850000027647],[-88.40105999981904,24.952140000360885],[-88.387409999871466,24.97072000012804],[-88.373750000362122,24.989299999895195],[-88.359829999654664,25.007620000262932],[-88.345669999570703,25.0256899998937],[-88.33176000022371,25.044010000261437],[-88.318099999815047,25.062590000028592],[-88.304440000305647,25.081169999795804],[-88.283969999715623,25.109050000357399],[-88.277129999949409,25.118339999791317],[-88.263210000141271,25.136660000158997],[-88.249050000057366,25.154729999789822],[-88.235139999811054,25.173050000157502],[-88.214799999820059,25.201049999957661],[-88.208100000214756,25.210469999990664],[-88.194949999942423,25.229570000355352],[-88.175639999786085,25.258599999990167],[-88.169190000018375,25.268280000321909],[-88.149859999839009,25.297320000417812],[-88.136980000326673,25.31666999972083],[-88.130540000120789,25.326350000052628],[-88.117659999709133,25.345700000254965],[-88.10478000019674,25.365060000019128],[-88.091899999785085,25.384410000221465],[-88.078770000435043,25.403509999686889],[-88.05852999965964,25.431640000086077],[-88.044750000012414,25.450099999715349],[-88.037799999670142,25.459260000348877],[-88.016659999659169,25.486480000152028],[-88.009699999755071,25.495650000347382],[-87.996060000268699,25.514230000114537],[-87.982669999720599,25.533070000180487],[-87.969509999886498,25.552160000084086],[-87.956630000374105,25.571519999848249],[-87.937830000354154,25.601070000080597],[-87.931650000447064,25.611009999811756],[-87.919539999571214,25.631140000011158],[-87.901890000423066,25.661849999777814],[-87.896090000053334,25.672169999945709],[-87.878190000168274,25.702620000312891],[-87.872130000399068,25.712689999743816],[-87.859760000123799,25.732559999644423],[-87.847140000010882,25.752170000145554],[-87.834259999599226,25.771529999909717],[-87.821380000086833,25.79088999967388],[-87.808499999675121,25.810239999876217],[-87.795620000162785,25.829599999640436],[-87.782739999751072,25.848949999842773],[-87.763409999571707,25.877989999938677],[-87.756970000265198,25.887659999809273],[-87.744089999853486,25.907019999573436],[-87.73121000034115,25.926369999775829],[-87.712399999859997,25.95592000000812],[-87.700160000183757,25.975930000069582],[-87.694109999976433,25.985989999938681],[-87.68251000013629,26.006639999836239],[-87.671429999994416,26.02779999987024],[-87.660349999852485,26.048959999904241],[-87.649280000171757,26.070130000399331],[-87.638200000029883,26.091290000433332],[-87.620549999982416,26.122000000199989],[-87.614490000213209,26.132060000069089],[-87.602130000399086,26.151940000430841],[-87.583580000216728,26.181739999601461],[-87.577389999848492,26.191680000231941],[-87.565290000333164,26.211810000431342],[-87.553439999756051,26.232200000030105],[-87.541839999915965,26.252840000365893],[-87.529999999800054,26.273229999964656],[-87.517880000261698,26.293360000164],[-87.50550999998643,26.313230000064607],[-87.49315000017225,26.333099999965157],[-87.474729999689657,26.363040000196008],[-87.468669999920451,26.373109999626934],[-87.45707999964219,26.393749999962665],[-87.440449999867496,26.425500000025124],[-87.434920000257705,26.436079999592437],[-87.418819999743107,26.468339999791283],[-87.40812999959968,26.489889999823788],[-87.402709999666627,26.500599999990129],[-87.391900000284693,26.522020000322925],[-87.381330000279206,26.543689999593937],[-87.37051000043607,26.565120000387822],[-87.35970000015476,26.586539999821298],[-87.343719999778045,26.618929999719853],[-87.338310000306137,26.629630000324426],[-87.322200000229714,26.661900000085097],[-87.316930000019397,26.672730000389322],[-87.306110000176261,26.694149999822798],[-87.29527999987198,26.715570000155537],[-87.284720000327638,26.737249999887752],[-87.268490000113331,26.769380000386832],[-87.263079999742104,26.780100000115056],[-87.252520000197762,26.801770000285444],[-87.236280000421573,26.833899999885205],[-87.230870000050345,26.844619999613428],[-87.220569999905479,26.866550000082555],[-87.205250000287151,26.899590000278408],[-87.195580000416555,26.922170000145513],[-87.19093999958119,26.933649999847773],[-87.177280000071846,26.96835999971438],[-87.168140000360609,26.991460000179018],[-87.159119999887992,27.014690000343364],[-87.154609999651655,27.026299999745333],[-87.140310000306158,27.060369999775787],[-87.131039999995892,27.08333000007957],[-87.126529999759555,27.094949999942685],[-87.117519999748083,27.118169999645886],[-87.103729999639654,27.152760000273929],[-87.094710000066357,27.175990000438333],[-87.085430000194265,27.198949999842739],[-87.075910000046349,27.22166000030893],[-87.066639999736083,27.244630000174539],[-87.057620000162785,27.267860000338885],[-87.048460000428577,27.290959999904203],[-87.039319999818019,27.314060000368841],[-87.030300000244722,27.337280000072099],[-87.021029999934456,27.360249999937707],[-87.016260000298644,27.371599999940202],[-87.002220000352622,27.40593000026945],[-86.993329999579714,27.429290000133562],[-86.984570000305155,27.452770000135558],[-86.97607000043007,27.476510000436292],[-86.96795999965417,27.500639999836267],[-86.959840000215706,27.524779999697387],[-86.951340000340622,27.548519999998121],[-86.942580000166743,27.572000000000116],[-86.933690000293154,27.595359999864229],[-86.924419999982888,27.618329999729838],[-86.914890000273203,27.641040000195972],[-86.905610000401111,27.66401000006158],[-86.896710000066321,27.687360000363867],[-86.892339999990895,27.699100000364865],[-86.87945999957924,27.734590000228479],[-86.871340000140776,27.758719999628397],[-86.863350000402079,27.782979999627401],[-86.855239999626178,27.807109999926695],[-86.851109999826519,27.819110000226488],[-86.8391400000109,27.855500000224993],[-86.831150000272203,27.879760000223996],[-86.82302999993442,27.903889999623914],[-86.814909999596694,27.928019999923208],[-86.810930000419091,27.94014999992271],[-86.79895000014227,27.976539999921215],[-86.790960000403572,28.000799999920218],[-86.78323000006435,28.025309999756814],[-86.775889999723631,28.050220000053116],[-86.76880999968165,28.07538000018701],[-86.761980000376639,28.10079999972038],[-86.755279999872016,28.126349999852778],[-86.748449999667628,28.15177000028541],[-86.741369999625704,28.17693999998113],[-86.734019999723103,28.201839999816286],[-86.730290000383093,28.214230000114583],[-86.718829999804541,28.251130000249475],[-86.711479999901997,28.2760399996464],[-86.704399999860016,28.301199999780295],[-86.697569999655627,28.326620000212984],[-86.69099999975009,28.352300000045091],[-86.684560000443582,28.378109999576964],[-86.678120000237698,28.403910000446331],[-86.67168000003187,28.429719999978147],[-86.665239999826042,28.45553000040934],[-86.658799999620157,28.48133000037933],[-86.652360000313649,28.507139999911203],[-86.645909999646676,28.532950000342396],[-86.639470000340111,28.558759999874212],[-86.633030000134283,28.584570000305405],[-86.626589999928456,28.610370000275452],[-86.620149999722628,28.636179999807268],[-86.613710000416063,28.661990000238461],[-86.610490000313177,28.674889999773825],[-86.600820000442582,28.713599999740325],[-86.594380000236697,28.739410000171517],[-86.591160000133812,28.752320000168027],[-86.582020000422574,28.791540000270913],[-86.576220000052842,28.818000000100085],[-86.573389999948461,28.831289999633896],[-86.565400000209763,28.871679999732351],[-86.560109999976419,28.898649999697852],[-86.554699999605191,28.925489999963645],[-86.549430000294194,28.952459999929204],[-86.54440999992147,28.979679999732355],[-86.539640000285658,29.007170000295446],[-86.535259999749087,29.035040000395838],[-86.531129999949428,29.063169999895706],[-86.526750000312177,29.091039999996156],[-86.521990000238191,29.118529999659927],[-86.517099999565232,29.145889999623932],[-86.51232999992942,29.173369999725878],[-86.507950000292169,29.201239999826271],[-86.504209999591694,29.229760000223962],[-86.500990000388128,29.258789999858777],[-86.497770000285186,29.287820000392855],[-86.494029999584711,29.316339999891227],[-86.48964999994746,29.344219999553502],[-86.487340000440554,29.358020000123076],[-86.480129999799544,29.399190000218482],[-86.475879999862002,29.427190000018641],[-86.47265999975906,29.456219999653399],[-86.470470000390094,29.48628999958396],[-86.468790000258196,29.516869999650908],[-86.467099999665152,29.547449999717855],[-86.464919999858012,29.577519999648416],[-86.461699999755069,29.606550000182494],[-86.457449999817527,29.634549999982653],[-86.452680000181772,29.662039999646424],[-86.447920000107786,29.689519999748313],[-86.443670000170243,29.717520000447792],[-86.440439999606212,29.746559999644433],[-86.438390000398101,29.776749999712877],[-86.437229999964416,29.807850000377357],[-86.436710000266203,29.839600000439816],[-86.436579999667174,29.871730000039634],[-86.436579999667174,29.90399000023848],[-86.436579999667174,29.936239999976181],[-86.436579999667174,29.968509999736852],[-86.436579999667174,30.000760000373873],[-86.436579999667174,30.0330199996734],[-86.436579999667174,30.065279999872246],[-86.436579999667174,30.097540000071092],[-86.436579999667174,30.129800000269938],[-86.436579999667174,30.162059999569465],[-86.436579999667174,30.194319999768311],[-86.436579999667174,30.226579999967157],[-86.436579999667174,30.258840000166003],[-86.436579999667174,30.29110000036485],[-86.436579999667174,30.323359999664376],[-86.436579999667174,30.355619999863222],[-86.436579999667174,30.387880000062069],[-86.436579999667174,30.420140000260972],[-86.436579999667174,30.452399999560498],[-86.436579999667174,30.484659999759344],[-86.436579999667174,30.516919999958191],[-86.436710000266203,30.549049999557951],[-86.437229999964416,30.580790000058585],[-86.438390000398101,30.611889999823802],[-86.440439999606212,30.642079999892246],[-86.443659999709098,30.67111999998815],[-86.447920000107786,30.699119999788309],[-86.452680000181772,30.726599999890254],[-86.457460000278672,30.754089999553969],[-86.461699999755069,30.782090000253447],[-86.464919999858012,30.811130000349408],[-86.466999999550239,30.841320000417852],[-86.468150000422099,30.872420000183013],[-86.468659999659167,30.904159999784326],[-86.468790000258196,30.936290000283407],[-86.468919999957905,30.968419999883224],[-86.469439999656174,31.000169999945683],[-86.470589999628658,31.031269999710844],[-86.472650000197234,31.061459999779288],[-86.475879999862002,31.090490000313423],[-86.480129999799544,31.118499999675407],[-86.482569999905479,31.132180000107041],[-86.48964999994746,31.173470000340387],[-86.493910000346148,31.201470000140546],[-86.497119999987888,31.230499999775304],[-86.49919000011829,31.260700000304894],[-86.500469999790539,31.2916599999092],[-86.501510000086341,31.322890000273446],[-86.502789999758591,31.353860000338898],[-86.504850000327167,31.384050000407342],[-86.508070000430052,31.413089999603926],[-86.51232999992942,31.441090000303404],[-86.517110000026378,31.46857000040535],[-86.521870000100307,31.496060000069065],[-86.526120000037849,31.524059999869223],[-86.529340000140792,31.553090000403358],[-86.531390000248223,31.583290000033628],[-86.532549999782532,31.614389999798789],[-86.53320000007983,31.645999999700393],[-86.533839999915983,31.677620000063087],[-86.535000000349612,31.708719999828247],[-86.537060000018869,31.738909999896748],[-86.540280000121811,31.767940000430826],[-86.544530000059353,31.795940000230985],[-86.549290000133283,31.823429999894699],[-86.554059999769095,31.850909999996645],[-86.558309999706637,31.878920000257949],[-86.561540000270668,31.907949999892708],[-86.563599999939925,31.938150000422354],[-86.56476000037361,31.969250000187515],[-86.565280000071823,32.000989999788828],[-86.565400000209763,32.033120000287909],[-86.565400000209763,32.065379999587435],[-86.565400000209763,32.097639999786281],[-86.565400000209763,32.129899999985128],[-86.565400000209763,32.162160000184031],[-86.565400000209763,32.194420000382877],[-86.565529999909472,32.226549999982637],[-86.566049999607685,32.258289999583951],[-86.567210000041371,32.289390000248432],[-86.569260000148802,32.319589999878758],[-86.572489999813513,32.348620000412836],[-86.576739999751055,32.376620000212995],[-86.57917999985699,32.390299999745309],[-86.586259999898971,32.431589999978655],[-86.590520000297658,32.459589999778814],[-86.593729999939455,32.488620000312892],[-86.595789999608712,32.518819999943162],[-86.596950000042341,32.549919999708379],[-86.597469999740611,32.581669999770838],[-86.597600000339639,32.613789999808773],[-86.597600000339639,32.646050000007619],[-86.597600000339639,32.678310000206466],[-86.597600000339639,32.710570000405312],[-86.597600000339639,32.742829999704895],[-86.597600000339639,32.775089999903742],[-86.597600000339639,32.807350000102588],[-86.597600000339639,32.839610000301434],[-86.597600000339639,32.87186999960096],[-86.597600000339639,32.904129999799807],[-86.597600000339639,32.936389999998653],[-86.597600000339639,32.968650000197499],[-86.597600000339639,33.000910000396345],[-86.597600000339639,33.033160000134046],[-86.597600000339639,33.065429999894718],[-86.597600000339639,33.097690000093564],[-86.597600000339639,33.129939999831265],[-86.597600000339639,33.162209999591937],[-86.597600000339639,33.194469999790783],[-86.597600000339639,33.226720000427804],[-86.597600000339639,33.25897999972733],[-86.597600000339639,33.291239999926177],[-86.597600000339639,33.323509999686905],[-86.597600000339639,33.355760000323926],[-86.597600000339639,33.388019999623452],[-86.597600000339639,33.420279999822299],[-86.597600000339639,33.452540000021145],[-86.597600000339639,33.484800000219991],[-86.597600000339639,33.517060000418837],[-86.597600000339639,33.549319999718364],[-86.597600000339639,33.58157999991721],[-86.597600000339639,33.613840000116056],[-86.597600000339639,33.646100000314902],[-86.597600000339639,33.678359999614429],[-86.597600000339639,33.710619999813275],[-86.597600000339639,33.742880000012121],[-86.597600000339639,33.775140000210968],[-86.597600000339639,33.807400000409814],[-86.597600000339639,33.83965999970934],[-86.597600000339639,33.871910000346361],[-86.597600000339639,33.904169999645887],[-86.597600000339639,33.936429999844734],[-86.597600000339639,33.968699999605462],[-86.597600000339639,34.000950000242483],[-86.597600000339639,34.033210000441329],[-86.597600000339639,34.065469999740856],[-86.597469999740611,34.097609999801819],[-86.596950000042341,34.129350000302395],[-86.595800000069858,34.160450000067613],[-86.593729999939455,34.190640000136057],[-86.590520000297658,34.219680000231961],[-86.586270000360116,34.247680000032119],[-86.581510000286187,34.275160000134065],[-86.576610000051346,34.30252000009807],[-86.571840000415591,34.330000000200016],[-86.567459999878963,34.357870000300409],[-86.563330000079361,34.385999999800276],[-86.558950000442053,34.413880000361871],[-86.554059999769095,34.441229999864731],[-86.548650000297187,34.468070000130524],[-86.542729999789572,34.49440000025993],[-86.539640000285658,34.507430000394322],[-86.529850000277179,34.54600999976185],[-86.523020000072847,34.571430000194482],[-86.515940000030866,34.596599999890202],[-86.508590000128322,34.621499999725359],[-86.500850000227217,34.6460200000231],[-86.492870000050345,34.670280000022103],[-86.484889999873474,34.694540000021107],[-86.476900000134776,34.71880000002011],[-86.46877999979705,34.742930000319404],[-86.460660000358644,34.767050000157553],[-86.456669999820519,34.779180000157055],[-86.4447000000049,34.815570000155503],[-86.436579999667174,34.839710000016623],[-86.428469999790536,34.863840000315918],[-86.420480000051839,34.888089999853776],[-86.416490000413091,34.900219999853277],[-86.403859999839028,34.935970000015629],[-86.395099999665149,34.959459999579451],[-86.390720000027898,34.971199999580449],[-86.376419999783081,35.005260000049134],[-86.366250000237244,35.027329999779795],[-86.356070000230204,35.049389999948687],[-86.351040000295654,35.060490000113532],[-86.335710000216238,35.09351999984824],[-86.326049999907468,35.116099999715345],[-86.321409999971422,35.127589999878751],[-86.30776999958573,35.162299999745358],[-86.298609999851521,35.185400000209995],[-86.289470000140284,35.208499999775313],[-86.279800000269688,35.231079999642418],[-86.269640000285676,35.25313999981131],[-86.25934000014081,35.275079999842262],[-86.254179999607175,35.286050000307398],[-86.237939999831042,35.318179999907215],[-86.22726000014876,35.339729999939664],[-86.21657000000539,35.361270000410343],[-86.205739999701109,35.382700000304908],[-86.195180000156768,35.404380000037122],[-86.184880000011901,35.426320000068074],[-86.174700000004918,35.448380000236966],[-86.165039999696148,35.470960000104071],[-86.160399999760102,35.482439999806274],[-86.146740000250702,35.517149999672881],[-86.137590000078319,35.540259999699344],[-86.133090000303184,35.551870000000633],[-86.118790000058368,35.585929999569942],[-86.113769999685644,35.597029999734843],[-86.098300000344636,35.629940000230988],[-86.093150000272203,35.640909999796804],[-86.082339999990893,35.662330000129543],[-86.071500000124786,35.683740000001137],[-86.056060000368632,35.716649999597962],[-86.045880000361649,35.738720000228],[-86.036220000052879,35.761300000095048],[-86.031580000116833,35.772779999797308],[-86.017919999708113,35.80750000012506],[-86.008770000435049,35.830590000128552],[-86.004260000198769,35.842209999991667],[-85.990479999652166,35.876790000158508],[-85.980949999942425,35.899499999725379],[-85.971679999632158,35.92246999959093],[-85.962660000058861,35.945699999755334],[-85.953520000347623,35.968789999758826],[-85.94437000017524,35.991890000223464],[-85.935349999702623,36.015109999926722],[-85.92620000042956,36.038219999953185],[-85.917050000257177,36.061309999956677],[-85.908430000244209,36.084930000119527],[-85.900439999606192,36.109179999657385],[-85.892969999565707,36.133960000253978],[-85.886020000122812,36.159250000087582],[-85.879570000355102,36.185059999619455],[-85.873520000147778,36.211249999587949],[-85.867719999778046,36.237710000316383],[-85.862179999707109,36.264419999983147],[-85.856899999934967,36.291389999948706],[-85.851609999701623,36.318359999914207],[-85.84620999979154,36.34520000018],[-85.840919999558253,36.372170000145559],[-85.836029999784557,36.399519999648419],[-85.831779999847015,36.427529999909723],[-85.828570000205218,36.456560000443801],[-85.826629999774582,36.486630000374362],[-85.825980000376603,36.517199999980164],[-85.826620000212756,36.547789999608938],[-85.828570000205218,36.577849999977673],[-85.831770000285189,36.606890000073577],[-85.836029999784557,36.634889999873735],[-85.840930000019398,36.662240000275915],[-85.843630000424071,36.675669999970694],[-85.851620000162768,36.716049999607947],[-85.856899999934967,36.743019999573448],[-85.862179999707109,36.769990000438327],[-85.867719999778046,36.796700000105091],[-85.873520000147778,36.823159999934205],[-85.879570000355102,36.849349999902699],[-85.886020000122812,36.875160000333892],[-85.889619999763056,36.887680000331898],[-85.900439999606192,36.925220000302943],[-85.908550000382093,36.949360000164006],[-85.917569999955447,36.972579999867264],[-85.927359999963926,36.995030000034603],[-85.937539999970909,37.017099999765321],[-85.94810000041457,37.038780000396855],[-85.958920000257706,37.060199999830274],[-85.964200000029848,37.071039999696382],[-85.975019999872984,37.092460000029121],[-85.991259999649174,37.124589999628938],[-86.002330000229222,37.145749999662883],[-86.008129999699634,37.156069999830777],[-86.025529999909452,37.187039999896228],[-86.037769999585691,37.20704999995769],[-86.050250000437075,37.226779999697385],[-86.063000000249701,37.246270000060576],[-86.076019999922949,37.26550000012503],[-86.089279999872019,37.284469999890746],[-86.102809999681654,37.30318000025693],[-86.116610000251228,37.321630000324376],[-86.130650000197249,37.339820000093084],[-86.144679999682126,37.358020000322881],[-86.158460000228729,37.376470000390327],[-86.172119999738072,37.395050000157539],[-86.185780000146792,37.413629999924694],[-86.199550000232193,37.432089999553966],[-86.213730000339126,37.450149999622909],[-86.228550000282155,37.4675800003169],[-86.243999999600192,37.484350000252448],[-86.26010000011479,37.500480000351899],[-86.276850000027366,37.515960000154053],[-86.294239999776039,37.530800000120053],[-86.312270000260185,37.545000000249956],[-86.330689999843514,37.558799999920211],[-86.349240000025873,37.572480000351902],[-86.367659999609202,37.586289999583983],[-86.385699999655174,37.600480000152004],[-86.403210000441049,37.615199999980177],[-86.429109999626689,37.637650000147516],[-86.437740000100803,37.645129999749827],[-86.464159999883975,37.667060000218953],[-86.473299999595213,37.674029999684876],[-86.491849999777571,37.687710000116567],[-86.510789999958433,37.700999999650435],[-86.529979999976888,37.714040000245973],[-86.559220000302673,37.733130000149515],[-86.579059999719107,37.745520000447812],[-86.589099999565235,37.751589999778787],[-86.619759999724124,37.769259999849282],[-86.640879999712126,37.780360000014127],[-86.6620199997231,37.791460000179029],[-86.672700000304644,37.796880000112083],[-86.705039999696112,37.812879999612449],[-86.726430000444054,37.823720000377875],[-86.747809999831532,37.834560000243982],[-86.769450000417066,37.845139999811295],[-86.790829999804544,37.855979999677402],[-86.812219999653166,37.866820000442829],[-86.834119999638176,37.877139999711346],[-86.845059999619195,37.882300000244982],[-86.889639999586223,37.902179999707357],[-86.901100000164774,37.906819999643403],[-86.924549999682654,37.915599999840254],[-86.947980000076825,37.924369999575958],[-86.971950000192237,37.932619999613451],[-87.008280000121829,37.944630000374389],[-87.020390000098303,37.948629999574962],[-87.0564599997291,37.960890000173492],[-87.080670000120278,37.968890000373392],[-87.10489000007334,37.976889999673915],[-87.129110000026401,37.984889999873758],[-87.1535900002782,37.992629999774806],[-87.178450000067357,37.999979999677407],[-87.190950000042392,38.003600000239942],[-87.228940000080854,38.013920000407836],[-87.241700000354626,38.017279999772313],[-87.280470000390096,38.026830000404345],[-87.306750000012414,38.032759999574466],[-87.333659999908946,38.038060000268956],[-87.361360000263687,38.042569999605917],[-87.389839999716116,38.046310000306391],[-87.418819999743107,38.049539999971159],[-87.447799999770041,38.052760000074102],[-87.476269999660644,38.056499999875257],[-87.490320000067868,38.058570000005659],[-87.531539999771041,38.065670000070611],[-87.558979999827045,38.070439999706366],[-87.586930000019379,38.074700000105054],[-87.61591000004637,38.077929999769822],[-87.630720000427573,38.079219999903216],[-87.677099999765062,38.081149999872764],[-87.708789999758551,38.081669999570977],[-87.740860000188775,38.08178999970886],[-87.773069999880477,38.08178999970886],[-87.80527000001041,38.08178999970886],[-87.837479999702111,38.08178999970886],[-87.86969000029319,38.08178999970886],[-87.901759999824037,38.081669999570977],[-87.933460000278671,38.081149999872764],[-87.948790000358144,38.080380000336902],[-87.994640000435595,38.077929999769822],[-88.023619999563209,38.074700000105054],[-88.037409999671638,38.072380000137059],[-88.079020000272692,38.065670000070611],[-88.106320000167784,38.060760000273945],[-88.133769999785557,38.05598999973887],[-88.161579999817036,38.051599999640416],[-88.189670000170281,38.047469999840757],[-88.217489999763586,38.043090000203506],[-88.244929999819533,38.038310000106549],[-88.272109999576742,38.033280000171999],[-88.299029999934419,38.027989999938711],[-88.325839999716095,38.022570000005658],[-88.352749999612683,38.017279999772313],[-88.379549999832534,38.01185999983926],[-88.405819999892969,38.005920000207993],[-88.431590000278163,37.99947000044034],[-88.456840000065824,37.992500000075097],[-88.481450000017389,37.984889999873758],[-88.505660000408568,37.976889999673915],[-88.529880000361629,37.968890000373392],[-88.554089999853488,37.960879999712347],[-88.57818000010684,37.95276000027394],[-88.602270000360136,37.944630000374389],[-88.62649000031314,37.936630000174489],[-88.65057000010529,37.928500000274937],[-88.67429000038311,37.919980000376881],[-88.697719999877961,37.911209999741857],[-88.720919999558248,37.902179999707357],[-88.75454999998243,37.887459999879241],[-88.776440000405614,37.877139999711346],[-88.787389999948459,37.871980000077087],[-88.80904000009582,37.861399999610455],[-88.830409999921471,37.850559999744348],[-88.862750000212259,37.834560000243982],[-88.873440000355629,37.829140000310929],[-88.905249999587681,37.812620000212974],[-88.915819999593225,37.807080000142037],[-88.957049999757601,37.783840000415807],[-88.967089999603672,37.777779999747338],[-88.977010000211237,37.771579999817277],[-89.006500000374615,37.752750000212473],[-89.025829999654661,37.739849999777789],[-89.045150000272201,37.726939999781337],[-89.064469999990422,37.714040000245973],[-89.074130000299192,37.707589999578943],[-89.093459999579238,37.694679999582434],[-89.112780000196722,37.681780000047127],[-89.131970000215233,37.668749999912734],[-89.160310000406071,37.648739999851273],[-89.178600000289691,37.634800000020107],[-89.196380000036868,37.620350000052611],[-89.213390000248182,37.605129999649932],[-89.230129999699614,37.589649999847779],[-89.254489999813529,37.565639999686368],[-89.26259999969011,37.557640000385845],[-89.278560000043854,37.541379999687365],[-89.302800000019886,37.517250000287447],[-89.310780000196758,37.509120000387838],[-89.326999999949919,37.493119999988153],[-89.351099999765097,37.468859999989149],[-89.359209999641678,37.460870000250452],[-89.375179999557247,37.444599999990146],[-89.399400000409571,37.420469999690852],[-89.407379999687123,37.412350000252445],[-89.423360000063838,37.396079999992139],[-89.438810000281194,37.379310000056591],[-89.454020000222727,37.362279999822306],[-89.475399999610204,37.335309999856747],[-89.482360000413564,37.326150000122539],[-89.502319999967938,37.297760000323876],[-89.515339999641185,37.278530000259423],[-89.528209999591695,37.259180000057086],[-89.541099999565233,37.239820000292923],[-89.553979999976889,37.220470000090586],[-89.566860000388601,37.201110000326423],[-89.579739999900994,37.181760000124029],[-89.592500000174766,37.162269999760838],[-89.598820000242711,37.152459999729331],[-89.616709999666625,37.122010000261469],[-89.627920000407585,37.100979999927176],[-89.638230000114334,37.079039999896224],[-89.643130000349117,37.067810000031614],[-89.65703999969611,37.033359999564482],[-89.66167000007033,37.021870000300396],[-89.675190000318139,36.98702999983476],[-89.684339999591202,36.963939999831268],[-89.688980000426568,36.95244999966792],[-89.697999999999922,36.929220000402836],[-89.710109999976396,36.892969999665922],[-89.717580000016881,36.868189999968649],[-89.721190000118327,36.855669999970644],[-89.73096999966566,36.817089999703853],[-89.736910000196247,36.790759999574448],[-89.742180000406563,36.763789999608946],[-89.746569999605697,36.735920000407816],[-89.749780000146814,36.706889999873738],[-89.751850000277216,36.676699999805294],[-89.753009999811525,36.645600000040133],[-89.753519999947912,36.613860000438819],[-89.753649999647678,36.581729999939682],[-89.753649999647678,36.549469999740836],[-89.753649999647678,36.517199999980164],[-89.753649999647678,36.484950000242463],[-89.753649999647678,36.452690000043617],[-89.753649999647678,36.420429999844771],[-89.753649999647678,36.388160000084099],[-89.753649999647678,36.355910000346398],[-89.753649999647678,36.323650000147552],[-89.753649999647678,36.291389999948706],[-89.753649999647678,36.25912999974986],[-89.753649999647678,36.226869999550956],[-89.753649999647678,36.19461000025143],[-89.753649999647678,36.162350000052584],[-89.753649999647678,36.130089999853737],[-89.753649999647678,36.113959999754343],[-89.753649999647678,36.065570000355365],[-89.753649999647678,36.033310000156519],[-89.753649999647678,36.001049999957672],[-89.753649999647678,35.968789999758826],[-89.753649999647678,35.93652999955998],[-89.753649999647678,35.904270000260453],[-89.753649999647678,35.872010000061607],[-89.753649999647678,35.839760000323906],[-89.753649999647678,35.80750000012506],[-89.753649999647678,35.775239999926214],[-89.753649999647678,35.742970000165542],[-89.753649999647678,35.710720000427841],[-89.753649999647678,35.678460000228995],[-89.753649999647678,35.646200000030149],[-89.753649999647678,35.61393000026942],[-89.753649999647678,35.581679999632399],[-89.753649999647678,35.549420000332873],[-89.753649999647678,35.517160000134027],[-89.753649999647678,35.48489999993518],[-89.753519999947912,35.45277000033542],[-89.753009999811525,35.421020000272961],[-89.751850000277216,35.389930000069569],[-89.749789999708639,35.359730000439299],[-89.746569999605697,35.330699999905221],[-89.742310000106329,35.302700000105062],[-89.739860000438568,35.289019999673371],[-89.732769999935442,35.247719999878257],[-89.728529999559726,35.219720000078098],[-89.725299999894958,35.190690000443283],[-89.723240000225701,35.160489999913693],[-89.722079999792072,35.129390000148533],[-89.721569999655628,35.097660000109045],[-89.721439999955919,35.065529999609964],[-89.72131000025621,35.033390000448321],[-89.720789999658678,35.001649999947688],[-89.719639999686137,34.970550000182527],[-89.717580000016881,34.940349999652881],[-89.714359999913938,34.911320000018122],[-89.710109999976396,34.883320000217964],[-89.707669999870518,34.86963999978633],[-89.700580000266712,34.828349999552984],[-89.696199999730084,34.800480000351854],[-89.692459999928928,34.771959999954163],[-89.689230000264217,34.742930000319404],[-89.686019999723101,34.7138900002235],[-89.682279999921946,34.685380000286955],[-89.677900000284694,34.657510000186505],[-89.673140000210765,34.630019999623414],[-89.66825000043707,34.602659999659409],[-89.663479999901995,34.575179999557463],[-89.659100000264687,34.547299999895245],[-89.654969999565708,34.51917000039532],[-89.650589999928457,34.491300000294927],[-89.645829999854527,34.463809999731836],[-89.640940000080832,34.436460000228976],[-89.638490000413071,34.422779999797285],[-89.631270000210236,34.381620000163025],[-89.62690000013481,34.35373999960143],[-89.622770000335152,34.325610000101562],[-89.618389999798524,34.29774000000117],[-89.61348999956374,34.270389999598933],[-89.610660000358621,34.257100000065122],[-89.602159999584217,34.21722999966488],[-89.595849999977418,34.191290000433298],[-89.589400000209764,34.165480000002162],[-89.583089999703645,34.139539999871261],[-89.577040000395584,34.113349999902709],[-89.574210000291203,34.100060000368842],[-89.56853999962118,34.073469999940698],[-89.563130000149272,34.046629999674906],[-89.557719999778044,34.019790000308433],[-89.549589999878492,33.979529999909687],[-89.54379000040808,33.953079999642398],[-89.537749999762582,33.926889999673904],[-89.53452999965964,33.913979999677395],[-89.524870000250189,33.875269999710838],[-89.521389999848509,33.862629999574949],[-89.514429999944412,33.83733000017952],[-89.503619999663158,33.799790000208475],[-89.496019999922964,33.775140000210968],[-89.488420000182771,33.75049000021346],[-89.48107000028017,33.725590000378361],[-89.473990000238189,33.700419999783321],[-89.467160000033857,33.675000000249952],[-89.46059000012832,33.649320000417845],[-89.457370000025378,33.636419999983161],[-89.447709999716608,33.597710000016605],[-89.4412700004101,33.571899999585469],[-89.43481999974307,33.546090000053596],[-89.428249999837533,33.520419999783314],[-89.424770000335116,33.5077700000856],[-89.41433999959122,33.469829999654905],[-89.407000000149765,33.444929999819806],[-89.399269999810542,33.420410000421327],[-89.391289999633671,33.39615999998415],[-89.383299999894973,33.371890000423321],[-89.375310000156276,33.347630000424317],[-89.367200000279695,33.323500000125023],[-89.363200000179745,33.311370000125578],[-89.351090000203271,33.275120000287927],[-89.3431100000264,33.250849999827778],[-89.335120000287702,33.226589999828775],[-89.331379999587227,33.214209999991624],[-89.320049999607704,33.177169999695877],[-89.312960000003898,33.152009999561983],[-89.306140000260712,33.126590000028614],[-89.302779999996915,33.113820000193016],[-89.292609999551757,33.075620000362846],[-89.285530000409096,33.050460000228952],[-89.278179999607175,33.025549999932707],[-89.270450000167273,33.001040000096054],[-89.262469999990401,32.976780000097051],[-89.254469999790558,32.952520000098048],[-89.246489999613686,32.928260000099044],[-89.23837000017528,32.904129999799807],[-89.234379999637156,32.891999999800305],[-89.222269999660625,32.855740000400829],[-89.214279999921928,32.831480000401825],[-89.206179999607173,32.807350000102588],[-89.198060000168766,32.783219999803293],[-89.194069999630699,32.771089999803792],[-89.182079999792052,32.734699999805287],[-89.17409999961518,32.710439999806283],[-89.166370000175277,32.685920000407862],[-89.159029999834502,32.661019999673385],[-89.151949999792578,32.635860000438811],[-89.148590000428101,32.623080000142011],[-89.138410000421061,32.584880000311898],[-89.131589999778555,32.559459999879209],[-89.124500000174748,32.534299999745315],[-89.11715999983403,32.509399999910215],[-89.113170000195225,32.497269999910714],[-89.101439999756053,32.460619999613414],[-89.093459999579238,32.43635999961441],[-89.085469999840541,32.412110000076609],[-89.077480000101843,32.387850000077606],[-89.069749999762564,32.363329999779808],[-89.06615000012232,32.350809999781802],[-89.058929999919485,32.325780000246937],[-89.048500000074853,32.287839999816299],[-89.04179999957023,32.262289999683901],[-89.034970000265218,32.236870000150532],[-89.031360000163772,32.224359999714352],[-89.020549999882462,32.186810000181481],[-89.012939999681123,32.162160000184031],[-89.005339999940929,32.137510000186523],[-88.997999999600211,32.112610000351367],[-88.990909999996404,32.087450000217473],[-88.984090000253218,32.062029999784784],[-88.977520000347624,32.036349999952677],[-88.971080000141797,32.010540000420804],[-88.964639999935969,31.984729999989668],[-88.958190000168258,31.958919999558475],[-88.951749999962431,31.933119999588428],[-88.948409999721605,31.920340000191004],[-88.938360000313651,31.882020000222951],[-88.93128000027167,31.856849999627912],[-88.923930000369126,31.831949999792812],[-88.916340000190758,31.807299999795305],[-88.912600000389602,31.794910000396328],[-88.901380000086817,31.757749999962698],[-88.897899999685137,31.745109999826752],[-88.88748000030165,31.707170000295434],[-88.880779999797028,31.681620000163036],[-88.873949999592696,31.656199999730347],[-88.866869999550715,31.631030000034627],[-88.859519999648171,31.606130000199471],[-88.851790000208211,31.581620000362875],[-88.843810000031397,31.557360000363872],[-88.839809999931447,31.54523000036437],[-88.827829999654682,31.508840000365865],[-88.819719999778044,31.484699999605425],[-88.815719999678151,31.472580000067069],[-88.803620000162766,31.43631999976833],[-88.795619999962923,31.412059999769326],[-88.787639999786052,31.387799999770323],[-88.779919999907975,31.363280000371844],[-88.772579999567199,31.338379999637425],[-88.769100000064839,31.325729999939711],[-88.758670000220206,31.287790000408336],[-88.751960000153758,31.262249999837763],[-88.745129999949427,31.236819999843249],[-88.741530000309183,31.224310000306389],[-88.730709999566727,31.186759999874255],[-88.726719999927923,31.174629999874753],[-88.718980000026875,31.150109999576955],[-88.70699999975011,31.11371999957845],[-88.699019999573238,31.089459999579447],[-88.690900000134775,31.065330000179529],[-88.682790000258194,31.041199999880234],[-88.674799999620177,31.016939999881231],[-88.66680999988148,30.992679999882228],[-88.658829999704608,30.96843000034437],[-88.655089999903453,30.95604000004613],[-88.643750000362104,30.918999999750326],[-88.63667000032018,30.893839999616432],[-88.629840000115792,30.868420000083063],[-88.626499999874966,30.85563999978632],[-88.616319999867983,30.817450000417352],[-88.609230000264176,30.792290000283458],[-88.601880000361632,30.767379999987156],[-88.598020000422594,30.755120000287945],[-88.58669000044307,30.718089999553968],[-88.583080000341624,30.705569999555962],[-88.572259999599225,30.668020000023148],[-88.565430000294157,30.642599999590459],[-88.558729999789534,30.617050000357381],[-88.551910000046348,30.591629999924692],[-88.544820000442542,30.566469999790797],[-88.537480000101823,30.541560000393872],[-88.533620000162784,30.529299999795285],[-88.522279999722116,30.492269999960683],[-88.51494000028066,30.467370000125527],[-88.507840000215708,30.442209999991633],[-88.501019999573202,30.416789999559001],[-88.494449999667665,30.391109999726837],[-88.488010000361101,30.36530000019502],[-88.481570000155273,30.339489999763828],[-88.475129999949445,30.313680000231955],[-88.468689999743617,30.287880000261964],[-88.462250000437052,30.262069999830771],[-88.455939999930933,30.23612999969987],[-88.45296999966564,30.222969999865768],[-88.444090000253198,30.183479999902204],[-88.438550000182261,30.15677000023544],[-88.433259999948916,30.129800000269938],[-88.427980000176774,30.102830000304436],[-88.422580000266692,30.075990000038587],[-88.417160000333638,30.049149999772794],[-88.411760000423556,30.022310000406321],[-88.406339999591182,29.995470000140529],[-88.40105999981904,29.968500000175027],[-88.395769999585696,29.941530000209468],[-88.390369999675613,29.914700000404821],[-88.385089999903471,29.887730000439319],[-88.380070000430067,29.860500000175023],[-88.375310000356137,29.833020000073077],[-88.370920000257684,29.805149999972684],[-88.366789999558705,29.777010000011614],[-88.362409999921454,29.749139999911222],[-88.359960000253693,29.735460000378851],[-88.352749999612683,29.694299999845271],[-88.347990000438074,29.666819999743325],[-88.343730000039386,29.638810000381341],[-88.340520000397589,29.609779999847262],[-88.338459999829013,29.579589999778818],[-88.337300000294647,29.548479999552455],[-88.336779999697114,29.516739999951199],[-88.336649999997405,29.484610000351381],[-88.336649999997405,29.452350000152535],[-88.336649999997405,29.420089999953689],[-88.336649999997405,29.387829999754842],[-88.336649999997405,29.355569999555996],[-88.336649999997405,29.32331000025647],[-88.336649999997405,29.291050000057623],[-88.336649999997405,29.258789999858777],[-88.336649999997405,29.226540000121076],[-88.336649999997405,29.194270000360348],[-88.336649999997405,29.162010000161501],[-88.336649999997405,29.129760000423801],[-88.336649999997405,29.097489999763809],[-88.336649999997405,29.065240000026108],[-88.336649999997405,29.032979999827262],[-88.336649999997405,29.000719999628416],[-88.336649999997405,28.968460000328889],[-88.336649999997405,28.936200000130043],[-88.336649999997405,28.903939999931197],[-88.336649999997405,28.871679999732351],[-88.336779999697114,28.839550000132533],[-88.337300000294647,28.807800000070074],[-88.338459999829013,28.776709999866739],[-88.340520000397589,28.746510000236469],[-88.343730000039386,28.717479999702391],[-88.347990000438074,28.689479999902233],[-88.352749999612683,28.661990000238461],[-88.357509999686613,28.634510000136515],[-88.361770000085357,28.606499999875211],[-88.364979999727097,28.577470000240453],[-88.367169999995383,28.547400000309892],[-88.368850000127281,28.516820000242944],[-88.37053000025918,28.486240000175997],[-88.372719999628202,28.456170000245436],[-88.375930000169262,28.427139999711358],[-88.38018999966863,28.399139999911199],[-88.384960000203762,28.371650000247485],[-88.3898499999774,28.344299999845248],[-88.394619999613212,28.316810000181533],[-88.399000000149783,28.288940000081084],[-88.403120000387617,28.260809999681896],[-88.407500000024868,28.232939999581447],[-88.41226999966068,28.205449999917732],[-88.417160000333638,28.178100000414815],[-88.419619999563224,28.164419999983181],[-88.426819999743088,28.123260000348864],[-88.431200000279659,28.095379999787326],[-88.435330000079318,28.067250000287402],[-88.439709999716626,28.039380000187009],[-88.444469999790556,28.011889999623918],[-88.449499999725106,27.984669999820767],[-88.454780000396624,27.957699999855265],[-88.460189999868476,27.930859999589472],[-88.465469999640675,27.903889999623914],[-88.470759999874019,27.876919999658412],[-88.47617000024519,27.850080000291939],[-88.4788699997506,27.836660000159043],[-88.486979999627181,27.796399999760297],[-88.492399999560234,27.769560000393824],[-88.497669999770551,27.742590000428322],[-88.502960000003895,27.715630000024646],[-88.508359999913978,27.688780000196971],[-88.513779999847031,27.661950000392324],[-88.519179999757057,27.635110000126531],[-88.524599999690111,27.608260000298912],[-88.527309999656666,27.594840000166016],[-88.532459999729099,27.567750000062574],[-88.540700000204765,27.527609999801768],[-88.546490000113295,27.501160000433799],[-88.552540000320676,27.474969999565985],[-88.555629999824532,27.461940000330912],[-88.565299999695128,27.42321999990321],[-88.571750000362101,27.39741999993322],[-88.578189999668666,27.371610000401347],[-88.584629999874494,27.345799999970154],[-88.591059999619176,27.319990000438338],[-88.597499999825004,27.294189999568971],[-88.603949999592714,27.268380000037098],[-88.610389999798542,27.242569999605962],[-88.61683000000437,27.216760000074089],[-88.623270000210255,27.190949999642896],[-88.629710000416082,27.165149999672906],[-88.636149999722591,27.139340000141033],[-88.642589999928475,27.11352999970984],[-88.649030000134303,27.087720000178024],[-88.655470000340131,27.061920000207976],[-88.66204999980755,27.036240000375869],[-88.668869999550736,27.010810000381355],[-88.675960000053863,26.98565000024746],[-88.683300000394581,26.960750000412304],[-88.690900000134775,26.936100000414854],[-88.698499999874969,26.911450000417346],[-88.705840000215744,26.88654999968287],[-88.712920000257725,26.861390000448296],[-88.719760000023882,26.835970000015607],[-88.726459999629185,26.810419999883209],[-88.733280000271691,26.785000000349896],[-88.736759999774051,26.772349999752805],[-88.747710000216216,26.7349299999197],[-88.75543000009435,26.710409999621902],[-88.763430000294193,26.686160000084101],[-88.771409999571745,26.661889999623952],[-88.779400000209762,26.637640000086094],[-88.783389999848509,26.625510000086592],[-88.795619999962923,26.58936999992568],[-88.803620000162766,26.565120000387822],[-88.811730000039347,26.540990000088584],[-88.820240000375634,26.517240000225968],[-88.828990000088311,26.493760000223972],[-88.837890000423101,26.470400000359859],[-88.847170000295193,26.447440000056076],[-88.851930000369123,26.436079999592437],[-88.865970000315144,26.401750000162508],[-88.874860000188733,26.378399999860221],[-88.883609999901466,26.3549100002964],[-88.892120000237696,26.331169999995666],[-88.89623999957621,26.319169999695873],[-88.908339999990915,26.282910000296397],[-88.916850000327145,26.259169999995663],[-88.925609999601704,26.235680000431842],[-88.934489999913467,26.212330000129555],[-88.943769999785559,26.189360000263946],[-88.953289999933475,26.166649999797812],[-88.962589999828538,26.143679999932203],[-88.971599999840009,26.1204499997678],[-88.980739999551247,26.097350000202482],[-88.989880000161747,26.074249999737845],[-88.99439999995991,26.062640000335875],[-89.008179999607194,26.028060000169035],[-89.01771999977808,26.005349999702844],[-89.026990000088347,25.982379999837292],[-89.036000000099818,25.959149999672888],[-89.045150000272201,25.936050000107571],[-89.054300000444584,25.912960000104079],[-89.063449999717591,25.889859999639441],[-89.068080000091811,25.878370000375355],[-89.07811999993794,25.856179999607434],[-89.093450000017356,25.823149999872726],[-89.098479999951905,25.812049999707881],[-89.1088000001198,25.790109999676872],[-89.123470000340149,25.756429999644922],[-89.132610000051329,25.733330000079604],[-89.141749999762567,25.710240000076112],[-89.150910000396095,25.687139999611418],[-89.160059999669159,25.6640400000461],[-89.169719999977929,25.641460000178995],[-89.179890000423086,25.619390000448277],[-89.190059999968923,25.597330000279442],[-89.200259999998877,25.575259999649404],[-89.205410000071367,25.564290000083588],[-89.220089999853485,25.530610000051581],[-89.229229999564723,25.507520000048089],[-89.23837000017528,25.484419999583451],[-89.247529999909489,25.461320000018134],[-89.256669999620669,25.438219999553496],[-89.266340000390585,25.415639999686391],[-89.271350000302164,25.404540000420809],[-89.281650000447087,25.382609999951683],[-89.291719999878012,25.360409999621936],[-89.307040000395602,25.327379999887228],[-89.316699999805053,25.304800000020123],[-89.32584000041561,25.281699999555485],[-89.334989999688617,25.258599999990167],[-89.344130000299174,25.23550000042485],[-89.353290000033383,25.212410000421301],[-89.357920000407603,25.200920000257952],[-89.37311999988799,25.167759999924215],[-89.378269999960423,25.156790000358399],[-89.388579999667172,25.13485000032739],[-89.399400000409571,25.113429999994651],[-89.410220000252707,25.092009999661911],[-89.426190000168276,25.059619999763299],[-89.437010000011412,25.03820000032988],[-89.447709999716608,25.016650000297432],[-89.452990000388127,25.00581999999315],[-89.469219999703114,24.973679999932187],[-89.474630000074342,24.962969999765846],[-89.490599999989911,24.93059000032838],[-89.496010000361139,24.919880000162038],[-89.507080000041867,24.898709999666892],[-89.523959999654153,24.867230000364373],[-89.535810000231209,24.846839999866233],[-89.541870000000415,24.836770000435308],[-89.560549999882483,24.807100000065077],[-89.573299999695109,24.787609999701885],[-89.586180000106822,24.768260000398868],[-89.599059999619158,24.748899999735329],[-89.611949999592696,24.729550000432312],[-89.618389999798524,24.71987000010057],[-89.631270000210236,24.700510000336408],[-89.650719999628166,24.671610000401358],[-89.663990000038382,24.652639999736323],[-89.670680000081859,24.643219999703376],[-89.684350000052348,24.624639999936164],[-89.69826000029866,24.606310000006658],[-89.712429999944447,24.588249999937716],[-89.72634000019076,24.569920000008153],[-89.739990000138278,24.551340000240941],[-89.753649999647678,24.532759999574466],[-89.774129999799527,24.504890000373337],[-89.787919999907956,24.48644000030589],[-89.794879999812053,24.477279999672362],[-89.815999999800056,24.450050000307385],[-89.822959999704096,24.440880000112031],[-89.836609999651671,24.422300000344876],[-89.85708999980352,24.394430000244483],[-89.870879999911949,24.37598000017698],[-89.877830000254221,24.366820000442829],[-89.892260000198746,24.349010000211479],[-89.907200000279659,24.331719999678398],[-89.922129999899482,24.314430000044581],[-89.93708000044154,24.29714000041082],[-89.951510000386122,24.279330000179527],[-89.965419999733115,24.26100999981179],[-89.97881999984304,24.24216999974584],[-89.998399999859998,24.213389999948674],[-90.004849999627652,24.203709999616933],[-90.01746999974057,24.184100000015121],[-90.0295799997171,24.163969999815777],[-90.045939999631173,24.131969999915725],[-90.055089999803556,24.10887000035035],[-90.059210000041389,24.096870000050615],[-90.067839999616183,24.057380000087051],[-90.071059999719125,24.029380000286949],[-90.072089999553725,24.000480000351899],[-90.071059999719125,23.971569999955648],[-90.067839999616183,23.943570000155546],[-90.062419999683129,23.916990000188491],[-90.054949999642645,23.892209999591955],[-90.045299999795077,23.86962999972485],[-90.033450000117284,23.849240000126031],[-90.019530000309146,23.830919999758351],[-90.003560000393577,23.81465999995919],[-89.976629999574698,23.79337000022548],[-89.947129999849494,23.775439999856246],[-89.93735000030216,23.769890000223484],[-89.917509999986407,23.759559999594444],[-89.897800000269683,23.750270000160526],[-89.877699999655135,23.742659999959187],[-89.845630000124288,23.734659999759344]]]},"properties":{"objectid":585,"stormname":"Isaias","stormtype":"HU","basin":"AL","advdate":"100 PM CDT Thu Oct 08 2026","advisnum":"8A","fcstprd":120,"stormnum":9,"idp_source":"al092026-008A_5day_pgn","idp_filedate":1791483482000,"idp_ingestdate":1791483495000,"st_area(shape)":32.23110307512254,"st_perimeter(shape)":33.126979847093068,"binnumber":"AT4"}}]}