{"type":"FeatureCollection","features":[{"type":"Feature","id":4718,"geometry":{"type":"LineString","coordinates":[[-96.500000000399609,22.000000000199975],[-96.299999999899967,22.199999999800298],[-96.100000000299644,22.299999999600459],[-95.99999999960022,22.199999999800298],[-95.99999999960022,22.000000000199975],[-95.700000000199736,21.900000000399814]]},"properties":{"objectid":4718,"stormtype":"DB","stormnum":9,"ss":0,"idp_source":"AL092026_lin","idp_filedate":1791364088000,"idp_ingestdate":1791364225000,"st_length(shape)":1.1640986314242154,"binnumber":"AT4"}},{"type":"Feature","id":4719,"geometry":{"type":"LineString","coordinates":[[-95.700000000199736,21.900000000399814],[-95.300000000099828,21.79999999970039],[-94.499999999899956,21.79999999970039]]},"properties":{"objectid":4719,"stormtype":"TD","stormnum":9,"ss":0,"idp_source":"AL092026_lin","idp_filedate":1791364088000,"idp_ingestdate":1791364225000,"st_length(shape)":1.2123105630281992,"binnumber":"AT4"}},{"type":"Feature","id":4720,"geometry":{"type":"LineString","coordinates":[[-95.700000000199736,21.900000000399814],[-95.300000000099828,21.79999999970039],[-94.499999999899956,21.79999999970039]]},"properties":{"objectid":4720,"stormtype":"TD","stormnum":9,"ss":0,"idp_source":"AL092026_lin","idp_filedate":1791364088000,"idp_ingestdate":1791364225000,"st_length(shape)":1.2123105630281992,"binnumber":"AT4"}}]}