{"type":"FeatureCollection","features":[{"type":"Feature","id":619,"geometry":{"type":"Polygon","coordinates":[[[-88.09948000040157,26.151499999925193],[-88.076099999615167,26.147080000241942],[-88.050250000037352,26.144600000090065],[-88.02219000016828,26.143829999654884],[-87.99296000030364,26.144470000390356],[-87.963610000301173,26.14655999964441],[-87.935160000433541,26.150329999929681],[-87.908269999660661,26.155919999608443],[-87.883209999641679,26.163340000041103],[-87.849040000395576,26.177910000146539],[-87.828529999759553,26.189879999962159],[-87.809299999695099,26.203159999934201],[-87.791370000225243,26.217730000039637],[-87.77501000031117,26.233860000139032],[-87.759680000231697,26.251040000096054],[-87.745910000146296,26.269780000047092],[-87.728249999637683,26.300870000250427],[-87.72278999965863,26.311670000070592],[-87.707590000178243,26.34524999998763],[-87.702790000058371,26.356689999643891],[-87.693180000256689,26.379600000339906],[-87.683040000295648,26.401979999977186],[-87.672649999597695,26.424100000214992],[-87.662250000237236,26.446209999991652],[-87.651339999841014,26.46782000009307],[-87.635100000064824,26.500339999691391],[-87.629780000246683,26.511270000110585],[-87.618869999850517,26.532869999750858],[-87.602630000074328,26.565399999810268],[-87.591859999839016,26.587139999611452],[-87.586399999860021,26.597929999869734],[-87.575490000363118,26.619530000409327],[-87.55938999984852,26.652190000168503],[-87.553929999869467,26.662989999988667],[-87.543009999911476,26.68458999962894],[-87.532359999814048,26.706449999567951],[-87.521450000317145,26.728050000107544],[-87.505209999641693,26.76058000016701],[-87.499880000261726,26.771509999686884],[-87.488969999865503,26.793110000226477],[-87.472730000089314,26.825640000285944],[-87.461950000292177,26.847369999625926],[-87.4510500003571,26.868970000165518],[-87.445590000378104,26.879760000423801],[-87.42948000030168,26.912429999744859],[-87.418580000366603,26.934019999823249],[-87.413120000387607,26.94483000010456],[-87.397010000311184,26.977489999863735],[-87.391559999893957,26.9882899996839],[-87.375320000117824,27.020810000181484],[-87.370000000299683,27.031739999701358],[-87.353620000362639,27.064140000061116],[-87.348160000383587,27.074939999881224],[-87.337519999847984,27.096799999820291],[-87.32113999991094,27.129200000179992],[-87.310360000113803,27.150930000419351],[-87.305040000295662,27.161859999939168],[-87.288669999920444,27.194260000298925],[-87.283220000402594,27.205060000119033],[-87.26711000032617,27.237719999878209],[-87.261659999908943,27.248519999698374],[-87.24542000013281,27.28104999975784],[-87.234640000335617,27.302779999997142],[-87.229189999918447,27.313579999817307],[-87.218280000421601,27.3351800003569],[-87.207630000324173,27.35704000029591],[-87.19671999992795,27.378639999936183],[-87.185799999969902,27.400230000014631],[-87.175149999872474,27.422100000414844],[-87.158780000396575,27.454490000313399],[-87.147990000138293,27.476219999653381],[-87.142670000320152,27.487150000072575],[-87.131759999923929,27.508749999712848],[-87.115649999847506,27.541410000371343],[-87.110459999729073,27.552469999590926],[-87.094999999949948,27.5857799996474],[-87.085270000010382,27.608550000182504],[-87.076039999746115,27.631840000415821],[-87.066819999942936,27.655129999749818],[-87.062150000422093,27.66670999956699],[-87.048510000036345,27.701850000377362],[-87.043959999754065,27.713559999894244],[-87.029540000270686,27.747910000246463],[-87.020189999868478,27.771069999880751],[-87.011219999902949,27.794620000412806],[-87.00239000009833,27.818299999745307],[-86.993810000131305,27.842240000275922],[-86.985629999724608,27.866569999905721],[-86.977450000217232,27.890909999996666],[-86.968870000250206,27.914849999627904],[-86.960040000445588,27.938529999859725],[-86.951080000041884,27.962080000391836],[-86.941860000238705,27.985369999725833],[-86.937180000256717,27.996950000442325],[-86.923929999869472,28.032469999890736],[-86.915880000061861,28.056930000119564],[-86.908340000390581,28.081919999608431],[-86.901200000279687,28.107290000433295],[-86.894180000306676,28.132790000058606],[-86.887040000195725,28.15815999998415],[-86.879639999786036,28.183280000072102],[-86.871839999816018,28.207999999700348],[-86.863780000446582,28.232459999929176],[-86.855729999739594,28.25692999971983],[-86.847690000393072,28.281389999948658],[-86.839489999963405,28.305719999578457],[-86.831309999556709,28.330050000107576],[-86.823259999749098,28.354510000336404],[-86.815200000379605,28.378980000127058],[-86.807149999672617,28.403440000355886],[-86.799349999702599,28.428159999984132],[-86.79195000019223,28.453269999610939],[-86.784810000081336,28.478649999997629],[-86.77793000026918,28.504280000221968],[-86.771180000156789,28.530040000146016],[-86.764289999883488,28.555679999932181],[-86.760779999896954,28.568429999744808],[-86.749730000239197,28.606160000383852],[-86.74207000043009,28.631009999711864],[-86.734409999721606,28.655870000400341],[-86.727010000211237,28.680980000027148],[-86.723369999625675,28.693600000140066],[-86.712970000265216,28.731980000177032],[-86.706340000290652,28.757880000261935],[-86.699860000038882,28.783899999585458],[-86.693359999764084,28.809919999808301],[-86.686869999950432,28.83594999959297],[-86.680369999675634,28.861969999815756],[-86.673870000300155,28.887990000038599],[-86.667519999748095,28.914150000422353],[-86.661419999932946,28.940559999744323],[-86.658429999644682,28.953830000154539],[-86.649980000276685,28.99416999974585],[-86.644649999997398,29.02137000042535],[-86.639330000179257,29.048559999744327],[-86.633750000062321,29.075489999663887],[-86.627900000084821,29.102169999745854],[-86.621800000269673,29.128579999967144],[-86.618680000281699,29.141719999778331],[-86.608930000319162,29.180759999674365],[-86.602579999767045,29.206909999596974],[-86.599459999779071,29.220050000307424],[-86.590629999974396,29.259999999900231],[-86.585040000295692,29.28692999981979],[-86.579710000016405,29.31412999959997],[-86.574379999737118,29.341319999818268],[-86.568930000219211,29.368389999898739],[-86.563479999802041,29.395450000417327],[-86.55801000026122,29.422519999598421],[-86.552570000305138,29.449580000117066],[-86.547229999564706,29.476770000335364],[-86.541909999746565,29.503970000115544],[-86.536449999767569,29.531029999734869],[-86.531129999949428,29.558230000414312],[-86.526059999968936,29.585680000032141],[-86.521259999849008,29.613400000409854],[-86.516849999727583,29.641500000324925],[-86.512679999881982,29.669870000100559],[-86.508269999760557,29.697979999577456],[-86.50346000007886,29.725690000393342],[-86.49851999979802,29.753269999710881],[-86.49358999997844,29.780860000388827],[-86.491129999849534,29.794649999597937],[-86.484379999737087,29.836679999782291],[-86.480209999891485,29.865039999996156],[-86.478130000199258,29.879229999664915],[-86.470990000088307,29.92086000028894],[-86.466049999807524,29.948450000067567],[-86.461240000125827,29.976159999984134],[-86.456830000004402,30.00427000036035],[-86.45305999971913,30.0330199996734],[-86.449819999593217,30.062300000045127],[-86.446560000343652,30.091580000416855],[-86.442790000058324,30.120329999729847],[-86.438390000398101,30.148440000106064],[-86.433579999817027,30.176159999584456],[-86.428770000135273,30.203870000400343],[-86.42434999955276,30.23197999987724],[-86.420589999728577,30.260730000089552],[-86.417340000040838,30.29000999956196],[-86.414090000353156,30.319280000371862],[-86.410320000067827,30.348040000146057],[-86.405909999946459,30.376140000061071],[-86.401109999826531,30.40386000043884],[-86.396300000144777,30.431579999917233],[-86.392010000161292,30.459810000431332],[-86.388759999574233,30.48908999990374],[-86.386539999721094,30.519400000110068],[-86.384859999589196,30.55023999957649],[-86.383169999895472,30.581079999942176],[-86.380970000065361,30.611399999710386],[-86.377729999939447,30.640669999620911],[-86.373439999955906,30.668909999696893],[-86.368619999813063,30.696619999613461],[-86.363819999693135,30.724339999991173],[-86.359540000170739,30.752569999605953],[-86.356289999583737,30.78184999997768],[-86.354200000329627,30.812289999883717],[-86.353030000334115,30.843649999947672],[-86.352520000197728,30.875669999870752],[-86.352389999598699,30.908059999769307],[-86.352389999598699,30.940589999828774],[-86.352389999598699,30.97311999988824],[-86.352389999598699,31.005649999947707],[-86.352389999598699,31.038180000007117],[-86.352389999598699,31.070710000066583],[-86.352389999598699,31.10324000012605],[-86.352389999598699,31.135770000185516],[-86.352389999598699,31.168300000244983],[-86.352389999598699,31.200830000304393],[-86.352389999598699,31.233360000363859],[-86.352389999598699,31.265879999962181],[-86.352389999598699,31.298410000021647],[-86.352389999598699,31.330940000081057],[-86.352389999598699,31.363470000140524],[-86.352389999598699,31.39600000019999],[-86.352520000197728,31.428399999660428],[-86.353039999895998,31.460410000021625],[-86.354209999891452,31.49177000008558],[-86.356289999583737,31.522219999553499],[-86.359540000170739,31.551490000363344],[-86.363819999693135,31.579730000439326],[-86.368630000274209,31.607440000355894],[-86.37343000039408,31.635159999834286],[-86.377720000377622,31.663390000348386],[-86.381090000203244,31.692540000121028],[-86.38370000005483,31.722469999890734],[-86.386029999584707,31.752659999959178],[-86.388629999874468,31.782580000167002],[-86.392010000161292,31.811729999939701],[-86.394350000152258,31.825649999747839],[-86.401109999826531,31.867679999932193],[-86.405909999946459,31.89538999984876],[-86.410320000067827,31.923500000224976],[-86.414090000353156,31.952250000437289],[-86.417340000040838,31.981529999909696],[-86.420589999728577,32.010810000281424],[-86.42434999955276,32.039570000055619],[-86.428770000135273,32.06766999997069],[-86.433579999817027,32.095379999887257],[-86.438390000398101,32.123100000264969],[-86.442799999620206,32.151200000179983],[-86.446560000343652,32.179950000392353],[-86.449810000031391,32.209240000325906],[-86.45305999971913,32.238510000236488],[-86.456830000004402,32.267270000010626],[-86.461240000125827,32.295369999925697],[-86.466049999807524,32.323090000303409],[-86.470990000088307,32.350669999620948],[-86.475799999770061,32.37838999999866],[-86.480209999891485,32.406489999913731],[-86.484359999714115,32.434859999689365],[-86.488780000296686,32.462970000065582],[-86.49358999997844,32.490679999982149],[-86.49851999979802,32.518260000199007],[-86.503330000379094,32.5459799996774],[-86.507750000062344,32.57407999959247],[-86.511509999886471,32.602840000265928],[-86.51475999957421,32.632119999738336],[-86.518010000161269,32.661389999648918],[-86.521769999985395,32.690150000322376],[-86.52618000010682,32.718250000237447],[-86.531000000249719,32.74596999971584],[-86.535800000369591,32.773690000093552],[-86.540090000353132,32.801919999708389],[-86.543329999579726,32.831200000080059],[-86.545430000194244,32.861639999986153],[-86.54658999972861,32.893009999611934],[-86.547099999864997,32.925010000411362],[-86.547229999564706,32.957409999871743],[-86.547229999564706,32.98993999993121],[-86.547229999564706,33.022469999990676],[-86.547229999564706,33.055000000050086],[-86.547229999564706,33.087530000109552],[-86.547229999564706,33.120060000169019],[-86.547229999564706,33.152590000228486],[-86.547229999564706,33.18510999982675],[-86.547099999864997,33.217510000186508],[-86.54658999972861,33.249519999648385],[-86.545410000171273,33.28087999971234],[-86.543329999579726,33.311330000079579],[-86.540079999891987,33.340609999551987],[-86.535680000231707,33.368710000366377],[-86.53320000007983,33.382499999575487],[-86.524370000275212,33.422450000067613],[-86.518010000161269,33.448599999990165],[-86.511509999886471,33.474620000213008],[-86.505140000210758,33.500779999697386],[-86.49904000039561,33.527189999918733],[-86.493190000418053,33.553870000000643],[-86.487610000301174,33.580799999920202],[-86.482280000021888,33.607990000138557],[-86.476960000203746,33.63518999991868],[-86.474239999776046,33.648719999728371],[-86.465530000109311,33.688799999920207],[-86.459430000294162,33.715210000141553],[-86.45305999971913,33.741360000064105],[-86.446440000205712,33.767260000149008],[-86.439560000393612,33.792890000373347],[-86.436039999945933,33.805640000186031],[-86.424999999850002,33.843380000386844],[-86.42122999956473,33.855869999900733],[-86.413190000218208,33.880330000129561],[-86.401109999826531,33.917019999573483],[-86.392930000319154,33.941350000102545],[-86.384350000352129,33.965289999733841],[-86.375510000086308,33.988980000426807],[-86.366549999682661,34.012530000059598],[-86.357189999718628,34.035689999693886],[-86.352400000059845,34.047139999811293],[-86.338099999815029,34.081619999863221],[-86.328619999713112,34.1046499997978],[-86.318740000050866,34.127289999733819],[-86.308490000413087,34.14953999967139],[-86.297700000154805,34.171269999910692],[-86.28627000006037,34.192349999852752],[-86.274460000428576,34.213039999796308],[-86.268479999851991,34.223319999918203],[-86.250550000382134,34.254160000283946],[-86.23873999985102,34.274850000227445],[-86.226790000058372,34.295409999571973],[-86.214310000106309,34.315439999656405],[-86.207940000430597,34.325329999779797],[-86.187810000231195,34.353959999854283],[-86.18091999995795,34.363330000279461],[-86.166639999736105,34.381540000071084],[-86.145730000439073,34.409390000148505],[-86.131960000353615,34.428119999638398],[-86.118190000268214,34.446859999589435],[-86.104289999583727,34.465469999840764],[-86.097269999610717,34.474700000105088],[-86.082729999989397,34.492660000059118],[-86.059599999939962,34.518299999845283],[-86.05181000043109,34.526750000112543],[-86.035709999916435,34.543139999611412],[-86.011409999871489,34.567610000301443],[-86.003230000364113,34.575680000132024],[-85.978939999880993,34.600140000360852],[-85.970760000373616,34.608210000191491],[-85.954650000297192,34.624599999690361],[-85.930239999676132,34.64893000021948],[-85.922180000306639,34.657129999749827],[-85.905820000392623,34.673259999849279],[-85.889710000316143,34.689659999809294],[-85.873339999940924,34.705789999908689],[-85.849039999895979,34.730259999699399],[-85.840869999950428,34.738319999968155],[-85.816569999905482,34.762789999758809],[-85.808399999959931,34.770850000027622],[-85.792020000022887,34.786989999688899],[-85.775140000410602,34.802600000090081],[-85.757999999600202,34.817959999754351],[-85.740070000130288,34.83252999985973],[-85.721620000062842,34.846580000266954],[-85.702920000157803,34.860370000375383],[-85.693569999755596,34.86727000021051],[-85.665770000185262,34.888209999991659],[-85.647839999816028,34.902789999658921],[-85.63043999960621,34.91788000036189],[-85.613029999834509,34.932979999727365],[-85.595629999624691,34.948070000430334],[-85.577700000154778,34.962639999636394],[-85.559250000087332,34.976690000043618],[-85.540539999721091,34.990489999713873],[-85.521839999816052,35.004279999822302],[-85.512479999852019,35.011179999657429],[-85.484680000281685,35.032129999899723],[-85.466489999613714,35.046439999706365],[-85.448070000030384,35.060490000113532],[-85.429359999664143,35.074280000221961],[-85.420010000161255,35.081180000057088],[-85.391950000292184,35.101870000000645],[-85.382599999889976,35.108760000273946],[-85.354800000319642,35.129709999616921],[-85.336609999651671,35.144029999884708],[-85.318159999584225,35.158080000291932],[-85.308819999643163,35.164969999665914],[-85.289979999577213,35.178639999636403],[-85.270889999673614,35.192039999746328],[-85.241790000408059,35.211690000293402],[-85.222309999606694,35.224700000404823],[-85.202820000142765,35.237709999616925],[-85.183329999779573,35.250719999728346],[-85.163849999877471,35.263740000300913],[-85.154110000376136,35.270239999676392],[-85.124879999612176,35.289759999624437],[-85.115140000110785,35.296259999899235],[-85.095660000208738,35.309279999572482],[-85.07616999984549,35.322289999683903],[-85.046939999980907,35.341800000070066],[-85.027460000078861,35.354819999743313],[-85.01771999967815,35.361320000018111],[-84.98848999981351,35.380839999966156],[-84.969009999911464,35.393850000077578],[-84.949520000447535,35.406860000188999],[-84.930039999646169,35.419879999862246],[-84.910550000182241,35.432880000411842],[-84.891070000280195,35.445900000085089],[-84.881329999879483,35.452409999921713],[-84.8521000000149,35.471920000307932],[-84.832609999651652,35.484930000419354],[-84.822879999712086,35.491440000255977],[-84.793649999847503,35.510960000203966],[-84.774160000383631,35.523970000315387],[-84.754679999582208,35.536980000426809],[-84.73519000011828,35.550000000100056],[-84.715710000216234,35.563010000211477],[-84.705960000253697,35.569509999586955],[-84.686480000351651,35.582519999698377],[-84.657260000048836,35.602039999646422],[-84.63778000014679,35.615049999757844],[-84.628039999746079,35.621559999594467],[-84.608550000282207,35.634569999705889],[-84.579320000417567,35.654089999653934],[-84.559839999616202,35.667099999765298],[-84.540089999853478,35.679849999577982],[-84.530090000053349,35.686100000015131],[-84.509959999854004,35.698459999829254],[-84.489570000255185,35.710560000243959],[-84.458520000097849,35.728250000337368],[-84.437999999899944,35.740220000153045],[-84.41774000000089,35.752459999829284],[-84.397720000377603,35.764950000242436],[-84.377980000176763,35.77770000005512],[-84.35850000027466,35.790710000166541],[-84.34875000031218,35.797210000441339],[-84.319530000009365,35.816730000389327],[-84.309780000046885,35.823240000225951],[-84.290180000006899,35.836119999738344],[-84.260299999845017,35.85499000028841],[-84.250170000345122,35.861099999665385],[-84.229779999846983,35.873200000080089],[-84.198729999689647,35.890899999735325],[-84.188460000028897,35.896889999873736],[-84.157940000030862,35.915099999665415],[-84.137940000430547,35.927590000078567],[-84.127939999731097,35.933839999616453],[-84.097920000307681,35.95257999956749],[-84.077669999970396,35.964809999681904],[-84.067400000309647,35.970790000258432],[-84.046750000412089,35.982639999936168],[-84.015840000415608,36.000459999729344],[-84.005710000016393,36.006579999567464],[-83.975569999555717,36.025180000256967],[-83.965700000354616,36.031560000393824],[-83.946089999853484,36.044439999906217],[-83.926609999951438,36.057450000017639],[-83.897380000086855,36.076969999965684],[-83.887630000124318,36.083470000240482],[-83.868019999623186,36.096360000213963],[-83.83814999992245,36.115220000302941],[-83.828020000422555,36.121340000141061],[-83.807620000362647,36.133439999656389],[-83.776570000205254,36.151129999749855],[-83.766299999645184,36.157119999888209],[-83.745910000046365,36.169220000302914],[-83.715769999585689,36.187829999654923],[-83.695780000446575,36.200320000068075],[-83.685779999747069,36.206569999605961],[-83.655500000024858,36.225039999696378],[-83.64525000038708,36.231029999834789],[-83.624599999590203,36.242869999950699],[-83.603940000130819,36.254710000066609],[-83.583540000070855,36.266809999581938],[-83.563420000332655,36.279170000295437],[-83.543539999970903,36.291790000408355],[-83.514180000406611,36.311179999757314],[-83.5044400000059,36.317680000032112],[-83.47521000014126,36.337199999980157],[-83.465469999740606,36.343700000254955],[-83.445849999677648,36.356590000228493],[-83.415979999976912,36.37545999987924],[-83.405849999577697,36.381570000155534],[-83.385450000417052,36.393669999670919],[-83.36481000008132,36.405520000247975],[-83.344149999722617,36.41734999990274],[-83.313629999724583,36.435570000155508],[-83.303620000362628,36.441810000131568],[-83.273620000062863,36.460559999644431],[-83.263609999801531,36.466799999620434],[-83.233350000102291,36.485280000171997],[-83.212829999904443,36.497249999987673],[-83.20244000010581,36.503099999965173],[-83.171519999648183,36.520930000219494],[-83.161390000148288,36.527050000057613],[-83.131249999687611,36.54564999984774],[-83.121249999887482,36.551900000284945],[-83.091240000025891,36.570629999774837],[-83.070980000126781,36.582859999889251],[-83.060709999566711,36.588850000027605],[-83.029680000331666,36.606540000121072],[-83.019420000232742,36.612530000259426],[-82.999020000172777,36.624629999774811],[-82.968890000173246,36.64324000002614],[-82.959009999611681,36.649609999701852],[-82.939390000448043,36.662490000113564],[-82.910170000145285,36.682010000061609],[-82.890679999782037,36.695020000173031],[-82.871199999879991,36.708030000284452],[-82.841450000317138,36.727029999634908],[-82.831449999617689,36.733280000072114],[-82.821320000117794,36.739390000348408],[-82.790659999958905,36.757480000002147],[-82.780270000160272,36.763340000440792],[-82.74936000016379,36.781169999795793],[-82.72910000026468,36.793390000348381],[-82.709090000203219,36.805890000323416],[-82.68908999970364,36.818379999837248],[-82.679089999903454,36.824619999813308],[-82.648819999743068,36.843100000364871],[-82.62830000044454,36.85507000018049],[-82.617900000184761,36.860920000158046],[-82.58699000018828,36.87875000041231],[-82.576859999789065,36.884859999789285],[-82.546729999789534,36.903470000040613],[-82.526980000026867,36.91621999985324],[-82.507489999663676,36.929240000425807],[-82.49775999972411,36.935750000262431],[-82.468529999859527,36.95525999974933],[-82.449040000395598,36.968269999860752],[-82.439299999994887,36.974779999697375],[-82.410070000130304,36.994290000083595],[-82.400329999729593,37.000799999920218],[-82.361360000363618,37.026820000143061],[-82.351619999962907,37.033329999979685],[-82.331879999762066,37.046079999792312],[-82.321879999961936,37.052319999768315],[-82.301740000200766,37.06469000004364],[-82.281360000163772,37.076789999558969],[-82.25031000000638,37.094490000113581],[-82.24004000034563,37.100469999790789],[-82.209520000347652,37.118690000043614],[-82.189510000286191,37.131179999557503],[-82.169759999624205,37.143930000269449],[-82.150279999722102,37.156940000380871],[-82.14054000022071,37.163439999756349],[-82.111310000356127,37.182959999704394],[-82.091829999554705,37.195980000276961],[-82.08209000005337,37.202479999652383],[-82.04325999994893,37.228629999574991],[-82.033650000147304,37.235270000010644],[-82.014669999920443,37.248799999820278],[-81.996230000314142,37.262859999789328],[-81.978310000406111,37.277429999894707],[-81.952190000068356,37.300069999830782],[-81.943500000424592,37.307619999963151],[-81.917119999788042,37.329990000038606],[-81.908160000283658,37.337279999872237],[-81.889719999778038,37.351330000279461],[-81.871010000311173,37.365129999949659],[-81.843599999840023,37.386470000190513],[-81.834629999874494,37.393760000024145],[-81.817759999824034,37.409370000425326],[-81.794890000073337,37.435260000049084],[-81.787620000262677,37.444239999576439],[-81.766710000066325,37.472080000092092],[-81.759830000254226,37.481449999617951],[-81.73853000005937,37.508900000135043],[-81.731249999787565,37.517879999662398],[-81.716170000445061,37.535319999918215],[-81.701099999765063,37.552760000174032],[-81.68604000044553,37.570189999968647],[-81.671749999762596,37.588410000221472],[-81.651870000300164,37.617290000133551],[-81.639540000070838,37.637460000378837],[-81.627980000276693,37.658409999721869],[-81.616809999581733,37.679749999962667],[-81.605759999923976,37.70121999990323],[-81.594989999688607,37.722950000142532],[-81.58420999989147,37.744680000381834],[-81.573289999933422,37.766280000022107],[-81.567829999954427,37.777079999842272],[-81.55237999973707,37.810389999898746],[-81.54250999963665,37.833029999834764],[-81.533420000432557,37.856449999767847],[-81.525220000002889,37.880780000296909],[-81.517689999893491,37.905769999785832],[-81.510680000381626,37.931270000310406],[-81.504180000106828,37.957289999633929],[-81.498200000429563,37.98384000001613],[-81.492879999712102,38.011030000234484],[-81.488460000028851,38.039130000149555],[-81.485219999902995,38.068409999621906],[-81.48314000021071,38.098859999989145],[-81.481970000215256,38.1302200000531],[-81.481449999617666,38.162230000414354],[-81.481319999917957,38.194620000312909],[-81.481319999917957,38.227150000372376],[-81.481449999617666,38.259549999832757],[-81.481970000215256,38.291560000194011],[-81.48314000021071,38.322920000257966],[-81.485210000341112,38.353369999725828],[-81.488460000028851,38.38263999963641],[-81.490929999719583,38.396440000205985],[-81.498209999991388,38.437940000230981],[-81.504180000106828,38.464489999713862],[-81.510680000381626,38.490509999936705],[-81.517700000354637,38.516009999561959],[-81.525220000002889,38.540990000388376],[-81.533420000432557,38.565329999579944],[-81.54250999963665,38.588750000412347],[-81.547579999617199,38.599940000230959],[-81.562639999835994,38.633640000285936],[-81.568099999815047,38.644440000106044],[-81.58433999959118,38.676970000165511],[-81.595499999825051,38.698310000406366],[-81.60692999991943,38.719390000348369],[-81.618879999712135,38.739949999692897],[-81.631229999964432,38.760110000376358],[-81.643830000054379,38.780020000322907],[-81.656679999981918,38.799669999970661],[-81.669799999770078,38.819060000218997],[-81.683179999856975,38.838190000168538],[-81.696949999942433,38.85691999965843],[-81.711239999726104,38.875139999911198],[-81.726179999807016,38.892709999866725],[-81.749429999994391,38.918210000391355],[-81.757479999802058,38.926409999921702],[-81.773589999878482,38.942800000319892],[-81.789829999654671,38.959060000119052],[-81.806059999868978,38.975330000379358],[-81.822299999645168,38.991590000178519],[-81.838540000320677,39.007860000438825],[-81.854769999635664,39.024120000237986],[-81.871019999872999,39.040389999598972],[-81.887250000087306,39.056650000297395],[-81.903619999563205,39.072780000396847],[-81.920239999776072,39.088659999759329],[-81.937260000448532,39.104139999561482],[-81.954799999919942,39.119110000126568],[-81.982199999929946,39.140450000367366],[-81.991680000031863,39.147210000041639],[-82.010780000396608,39.160610000151507],[-82.03014000016077,39.173749999962695],[-82.049749999762582,39.186639999936176],[-82.069630000124278,39.199260000049094],[-82.099889999823517,39.217739999701394],[-82.131320000417588,39.235050000257445],[-82.141969999615696,39.240639999936207],[-82.152619999713124,39.246229999614911],[-82.195739999801049,39.268089999553979],[-82.217439999556234,39.278890000273464],[-82.228229999814516,39.284359999814285],[-82.249790000308167,39.295290000233479],[-82.282909999696642,39.310899999735341],[-82.293949999792574,39.316100000314918],[-82.316290000283175,39.32626000029893],[-82.339420000332666,39.335620000262963],[-82.363050000057342,39.344470000090553],[-82.398769999735578,39.357480000201974],[-82.410859999689137,39.361639999586487],[-82.447489999963409,39.373740000001135],[-82.459689999593706,39.377780000147027],[-82.484120000237738,39.385849999977665],[-82.521649999747581,39.397039999796277],[-82.534260000298673,39.40068000038184],[-82.559719999877984,39.407709999916733],[-82.598420000282658,39.417720000178008],[-82.624530000159268,39.424100000314922],[-82.650900000334616,39.430209999691897],[-82.677529999909439,39.436070000130542],[-82.690900000434567,39.438929999819777],[-82.731569999955411,39.446999999650416],[-82.758709999666621,39.452340000390848],[-82.785739999701093,39.457800000369843],[-82.799239999925931,39.46053000035937],[-82.840419999583219,39.468079999592476],[-82.868610000051376,39.47236999957596],[-82.897830000354134,39.475620000163019],[-82.928219999753082,39.477710000316392],[-82.959530000209213,39.478880000311904],[-82.991490000063322,39.479400000010116],[-83.02383000035411,39.479529999709882],[-83.056300000344606,39.479529999709882],[-83.088779999896985,39.479529999709882],[-83.121249999887482,39.479529999709882],[-83.153719999877978,39.479529999709882],[-83.186069999730591,39.479400000010116],[-83.218029999584701,39.478880000311904],[-83.249329999579686,39.477710000316392],[-83.279719999878012,39.475629999724845],[-83.308949999742595,39.47236999957596],[-83.337140000210752,39.468079999592476],[-83.36481000008132,39.463260000348896],[-83.392350000252179,39.458320000068113],[-83.420009999661659,39.453510000386359],[-83.44807000043005,39.449080000241963],[-83.476380000136771,39.444919999958188],[-83.5044400000059,39.440500000274938],[-83.531980000176759,39.435550000432329],[-83.55899000018826,39.430079999992131],[-83.585490000063373,39.424100000314922],[-83.611599999939926,39.417720000178008],[-83.637450000417061,39.411090000203501],[-83.663039999696139,39.404190000368374],[-83.688369999575741,39.397039999796277],[-83.713319999917928,39.389489999663908],[-83.737610000401105,39.381290000133561],[-83.761380000286692,39.372570000005624],[-83.784880000311659,39.363600000040094],[-83.808010000361151,39.354229999614915],[-83.830869999650645,39.344599999790319],[-83.85399000013831,39.33523000026446],[-83.877370000025394,39.326129999699845],[-83.900620000212712,39.316889999873752],[-83.923870000400086,39.307650000047602],[-83.947119999688141,39.298410000221452],[-83.969859999739072,39.288649999797826],[-84.002850000327157,39.272900000135053],[-84.034810000181267,39.25611999973836],[-84.0451999999799,39.250269999760803],[-84.055330000379115,39.244149999922683],[-84.085460000378589,39.225539999671412],[-84.10519999968011,39.212789999858728],[-84.124679999582213,39.199779999747363],[-84.144169999945461,39.186769999635942],[-84.153919999907941,39.180259999799318],[-84.173399999810044,39.167249999687897],[-84.202620000112802,39.147729999739852],[-84.212370000075339,39.141230000364374],[-84.250819999743101,39.114690000443318],[-84.260299999845017,39.107920000307899],[-84.278749999912463,39.093860000338907],[-84.305240000225751,39.071610000401336],[-84.322269999560717,39.056129999699863],[-84.330699999805063,39.048320000168019],[-84.347070000180281,39.032190000068567],[-84.36343999965618,39.016059999969173],[-84.379810000031398,38.999920000307895],[-84.396680000081858,38.984309999906714],[-84.413829999554707,38.968950000242444],[-84.431759999923941,38.954380000137064],[-84.450209999991387,38.94032999972984],[-84.468920000357627,38.926539999621411],[-84.478269999860515,38.919639999786284],[-84.515029999834496,38.891399999710359],[-84.5239900002382,38.884120000337873],[-84.541400000009901,38.869020000073078],[-84.558800000219719,38.853930000269429],[-84.585170000395124,38.831549999732829],[-84.60334999970263,38.817239999926187],[-84.621930000369105,38.803309999656904],[-84.631290000333138,38.796420000282922],[-84.649979999777088,38.782619999713347],[-84.668429999844534,38.7685700002055],[-84.694929999719591,38.746320000267929],[-84.703509999686617,38.738640000435794],[-84.720379999737077,38.723030000034612],[-84.745450000217204,38.699349999802791],[-84.753890000023375,38.691540000270948],[-84.771040000395601,38.676190000168504],[-84.788969999865515,38.661609999601922],[-84.798189999668637,38.654589999628911],[-84.826119999837999,38.633769999985645],[-84.84483000020424,38.619979999877216],[-84.872230000214245,38.598639999636418],[-84.881200000179774,38.591349999802787],[-84.898609999951418,38.576259999999138],[-84.916010000161293,38.561159999734343],[-84.933410000371111,38.546069999930694],[-84.951339999841025,38.531499999825257],[-84.969789999908471,38.51745000031741],[-84.98848999981351,38.503649999747836],[-84.997849999777543,38.496760000373854],[-85.034609999751581,38.468520000297929],[-85.043559999694139,38.461240000026123],[-85.060970000365103,38.446139999761328],[-85.078380000136804,38.431049999957679],[-85.095780000346622,38.415949999692884],[-85.113709999816535,38.401379999587448],[-85.132159999883982,38.387330000079601],[-85.150859999789077,38.373539999971172],[-85.178919999658149,38.35283999956647],[-85.188279999622182,38.345950000192488],[-85.215810000231215,38.324739999651399],[-85.224900000334628,38.317580000416854],[-85.252699999904962,38.296639999736328],[-85.26205000030717,38.289739999901201],[-85.271399999810058,38.282840000066074],[-85.308689999943454,38.255130000149506],[-85.317909999746576,38.24809999971535],[-85.326870000150279,38.240809999881719],[-85.353240000325627,38.218439999806264],[-85.370639999636182,38.203350000002672],[-85.388050000307146,38.18824999973782],[-85.415190000018356,38.166650000097547],[-85.42442000028268,38.159619999663391],[-85.452480000151809,38.138940000181037],[-85.461840000115785,38.13204000034591],[-85.48027000016026,38.117989999938686],[-85.498199999630174,38.10341999983325],[-85.515610000301194,38.088319999568455],[-85.541709999716602,38.065679999632437],[-85.550420000282656,38.058130000399331],[-85.568340000190744,38.043560000293951],[-85.586790000258191,38.029509999886727],[-85.596150000222224,38.0226100000516],[-85.624190000068324,38.001920000108043],[-85.642640000135771,37.987869999700877],[-85.660569999605684,37.97329999959544],[-85.686680000381614,37.950650000097596],[-85.695379999587203,37.943110000426316],[-85.721749999762551,37.920729999889716],[-85.730710000166255,37.913440000056085],[-85.749160000233701,37.899389999648918],[-85.767869999700622,37.885600000439808],[-85.786580000066863,37.871799999870234],[-85.805279999971901,37.858009999761805],[-85.823730000039347,37.843960000253958],[-85.841919999808056,37.829639999986171],[-85.860340000290648,37.815589999578947],[-85.888409999721603,37.794899999635447],[-85.888400000159777,37.794899999635447],[-85.925690000293173,37.76718999971888],[-85.934910000096295,37.760160000183987],[-85.952839999566208,37.745590000078607],[-85.978939999880993,37.722950000142532],[-85.987650000447047,37.715400000010163],[-86.005049999757603,37.700310000206514],[-86.022969999665634,37.685740000101077],[-86.041430000194225,37.671680000132028],[-86.060130000099321,37.657890000023656],[-86.088040000245712,37.637070000380334],[-86.097269999610717,37.630039999946177],[-86.115199999979893,37.615469999840741],[-86.132609999751594,37.600380000037092],[-86.150009999961412,37.585290000233442],[-86.167419999733113,37.570189999968647],[-86.185350000102346,37.555619999863268],[-86.203800000169792,37.541559999894218],[-86.222500000074831,37.527769999785789],[-86.241199999979926,37.513979999677417],[-86.259639999586227,37.499930000169513],[-86.277569999955404,37.485360000064077],[-86.294720000327629,37.470000000399864],[-86.311599999939915,37.454389999998625],[-86.328229999714608,37.438509999736823],[-86.345119999788039,37.422900000234961],[-86.36225999969912,37.407550000132574],[-86.380190000068353,37.392969999565992],[-86.398640000135799,37.378920000058088],[-86.417340000040838,37.365120000387833],[-86.445270000210257,37.344310000306393],[-86.454499999575205,37.337279999872237],[-86.472420000382613,37.322709999766801],[-86.489560000293693,37.307350000102588],[-86.506450000367124,37.291739999701349],[-86.523069999680615,37.275869999900749],[-86.539959999754103,37.260249999937685],[-86.557110000126272,37.244899999835297],[-86.575039999596186,37.230320000168035],[-86.602829999604694,37.20938000038683],[-86.612180000006902,37.202479999652383],[-86.640110000176264,37.181660000009117],[-86.649329999979386,37.174640000036106],[-86.667249999887474,37.160060000368844],[-86.6844000002597,37.144710000266457],[-86.701290000333131,37.129099999865275],[-86.717650000247204,37.112960000203998],[-86.742200000129799,37.088760000273965],[-86.750390000098321,37.080690000443326],[-86.767269999710606,37.065080000042087],[-86.784420000082832,37.049720000377874],[-86.811570000255188,37.028119999838282],[-86.820799999620192,37.021099999865271],[-86.8301500000224,37.014200000030144],[-86.867420000132768,36.986479999652431],[-86.876650000397092,36.979459999679364],[-86.894579999867005,36.964889999573984],[-86.911719999778086,36.949529999909714],[-86.936779999797068,36.925849999677894],[-86.953159999734112,36.909710000016617],[-86.961340000140808,36.90164999974786],[-86.977450000217232,36.885249999787789],[-86.99381999969313,36.869119999688394],[-87.009920000207728,36.852730000189524],[-87.026289999683627,36.836589999628927],[-87.04239999976005,36.820200000130058],[-87.058759999674123,36.804059999569461],[-87.0830500001573,36.779600000239952],[-87.091240000125822,36.771530000409314],[-87.107600000039838,36.755400000309919],[-87.124499999675152,36.739780000346911],[-87.141369999725612,36.724169999945673],[-87.167619999763076,36.701659999709364],[-87.176449999567694,36.694240000176023],[-87.194110000076364,36.679409999771792],[-87.211519999848008,36.664310000406317],[-87.229189999918447,36.649480000002143],[-87.24685000042706,36.634649999597968],[-87.264249999737615,36.619559999794319],[-87.281910000246228,36.604719999828262],[-87.308149999822547,36.582209999591953],[-87.316729999789573,36.574540000220964],[-87.333089999703645,36.558399999660423],[-87.34894999994242,36.541749999862759],[-87.363749999862478,36.524059999769293],[-87.384669999620655,36.496200000130045],[-87.398439999706113,36.477469999740833],[-87.412329999929455,36.458860000388825],[-87.41934000034064,36.449619999663412],[-87.433890000423105,36.431670000170527],[-87.45701999957322,36.406039999946188],[-87.464809999981412,36.397580000117046],[-87.48090999959669,36.38118000015703],[-87.497019999673114,36.364789999758841],[-87.521450000317145,36.340449999667896],[-87.529500000124813,36.332259999699374],[-87.553920000307642,36.30791999960843],[-87.561970000115309,36.299720000078082],[-87.578350000052353,36.283589999978688],[-87.594440000105806,36.267199999580441],[-87.618350000152304,36.242350000252429],[-87.633800000369604,36.225299999995173],[-87.641460000178768,36.216709999566945],[-87.656019999823002,36.198760000074117],[-87.670039999746109,36.180280000421817],[-87.683820000292656,36.16153999957146],[-87.697590000378113,36.142810000081568],[-87.71161999986299,36.124330000429325],[-87.726169999945455,36.10638000003712],[-87.741230000164251,36.088939999781303],[-87.756299999944929,36.071500000424805],[-87.771369999725607,36.054069999730871],[-87.785919999808016,36.036109999776841],[-87.806820000442542,36.008259999699362],[-87.820600000089826,35.989519999748325],[-87.834370000175284,35.970790000258432],[-87.841249999987383,35.961419999833254],[-87.855280000371636,35.942940000181011],[-87.869570000155306,35.924730000389332],[-87.890469999890456,35.89688000031191],[-87.897360000163758,35.887520000347877],[-87.917499999924928,35.858890000273448],[-87.930619999713088,35.839500000025112],[-87.93711000042606,35.829739999601429],[-87.956590000328163,35.800469999690904],[-87.969580000416556,35.780949999742859],[-87.982569999605687,35.761429999794814],[-87.995559999694137,35.741920000307914],[-88.008549999782588,35.722400000359869],[-88.021550000332127,35.702880000411824],[-88.034529999959432,35.683359999564459],[-88.047520000047882,35.663850000077559],[-88.054009999861478,35.654089999653934],[-88.073360000063872,35.62467999958244],[-88.085969999715587,35.604769999635892],[-88.098310000406116,35.584600000289925],[-88.110260000198764,35.564040000046134],[-88.121690000293199,35.5429699996659],[-88.127270000410078,35.53230000044482],[-88.138449999767545,35.510960000203966],[-88.154690000443054,35.478430000144556],[-88.165470000240191,35.456699999905197],[-88.170919999758098,35.445900000085089],[-88.18183999971609,35.424300000444816],[-88.197940000230744,35.391639999786321],[-88.20884999972759,35.370040000146048],[-88.21963999998593,35.348309999906689],[-88.224959999804071,35.337380000386872],[-88.241319999718087,35.30498999958894],[-88.25198000027666,35.283120000088104],[-88.26237000007535,35.261010000311387],[-88.267560000193726,35.249950000192484],[-88.282380000136811,35.215980000276943],[-88.291599999939933,35.192690000043626],[-88.300810000181286,35.16939999981031],[-88.310040000445554,35.14610000001511],[-88.314580000266687,35.134389999598966],[-88.328480000051854,35.099530000009622],[-88.333300000194754,35.08807000033039],[-88.347460000278659,35.053470000140521],[-88.356410000221217,35.029910000046584],[-88.365110000326126,35.006100000115055],[-88.373309999856531,34.981769999585936],[-88.380839999965929,34.956789999658895],[-88.387980000076823,34.93141999973335],[-88.394859999888979,34.905779999947185],[-88.398240000175747,34.892900000434793],[-88.407979999677138,34.853870000100585],[-88.414470000390111,34.827840000315916],[-88.420969999765589,34.801820000093073],[-88.427459999579241,34.775790000308405],[-88.433959999853982,34.749770000085562],[-88.440319999967926,34.72362000016301],[-88.446299999645191,34.697069999780808],[-88.451629999924478,34.669879999562454],[-88.456180000206757,34.641910000246469],[-88.459940000030883,34.613149999572954],[-88.463189999718622,34.583870000100546],[-88.466429999844536,34.554600000190021],[-88.470200000129807,34.525840000415826],[-88.47227000026021,34.511660000308893],[-88.479419999932929,34.470020000123043],[-88.484229999614683,34.442310000206476],[-88.48853000005937,34.41407000013055],[-88.491759999724081,34.384800000219968],[-88.493849999877511,34.35434999985273],[-88.495019999872966,34.322980000226949],[-88.495539999571236,34.290980000326897],[-88.495670000170264,34.258579999967196],[-88.495670000170264,34.22604999990773],[-88.495670000170264,34.193519999848263],[-88.495670000170264,34.160989999788796],[-88.495670000170264,34.12845999972933],[-88.495670000170264,34.095940000131066],[-88.495670000170264,34.063399999610454],[-88.495670000170264,34.030880000012132],[-88.495670000170264,33.99834000039084],[-88.495670000170264,33.965819999893199],[-88.495670000170264,33.933280000271964],[-88.495670000170264,33.900759999774323],[-88.495670000170264,33.868229999714856],[-88.495670000170264,33.83569999965539],[-88.495670000170264,33.803169999595923],[-88.495670000170264,33.770640000435833],[-88.495670000170264,33.738110000376366],[-88.49553000000941,33.705719999578434],[-88.49501000031114,33.673710000116557],[-88.493840000315686,33.642350000052602],[-88.491770000185284,33.611899999685363],[-88.488519999598225,33.582620000213012],[-88.484240000075829,33.554389999698856],[-88.479430000394075,33.526670000220463],[-88.474619999813058,33.49894999984275],[-88.470340000290662,33.470720000227971],[-88.467089999703603,33.441439999856243],[-88.465010000011375,33.410999999950207],[-88.463840000015864,33.379639999886251],[-88.463320000317651,33.347630000424317],[-88.463060000018856,33.315359999764325],[-88.462540000320644,33.283359999864274],[-88.461359999863987,33.251999999800319],[-88.459289999733585,33.2215500003324],[-88.456040000045846,33.192269999960672],[-88.451750000062361,33.164029999884747],[-88.446949999942433,33.13631999996818],[-88.442020000122795,33.108730000189496],[-88.437210000441041,33.081020000272929],[-88.432800000319673,33.052909999896713],[-88.428629999574696,33.024549999682904],[-88.424220000352648,32.996440000206007],[-88.419280000071865,32.968859999989149],[-88.413829999654638,32.941800000369881],[-88.407849999977429,32.91524999998768],[-88.401489999863486,32.889100000065071],[-88.395000000049833,32.863079999842284],[-88.388499999775092,32.837050000057616],[-88.382000000399614,32.811029999834773],[-88.375520000147787,32.785000000050104],[-88.36901999987299,32.758979999827261],[-88.362519999598192,32.732959999604418],[-88.356029999784539,32.706929999819806],[-88.349530000409061,32.680909999596963],[-88.34303000013432,32.654879999812294],[-88.336549999882493,32.628859999589451],[-88.329919999907986,32.602969999965694],[-88.323029999634684,32.577339999741355],[-88.315890000423053,32.551960000253928],[-88.308479999552219,32.526849999727858],[-88.304449999867472,32.514619999613444],[-88.29262999977459,32.477660000308902],[-88.284579999966923,32.453200000080074],[-88.276530000159255,32.428739999851246],[-88.268469999890499,32.404279999622418],[-88.260680000381626,32.379550000432346],[-88.257039999796064,32.366939999881254],[-88.246130000299161,32.329069999980675],[-88.239240000025859,32.303439999756336],[-88.232480000351643,32.277670000270462],[-88.225599999640167,32.252040000046122],[-88.218460000428593,32.226670000120578],[-88.211060000018904,32.201559999594451],[-88.207030000334157,32.189330000379357],[-88.195210000241218,32.152370000175495],[-88.187160000433551,32.127909999946667],[-88.183140000310686,32.115679999832253],[-88.17495999990399,32.09135000020251],[-88.162729999789576,32.054789999558977],[-88.154679999981909,32.030330000229469],[-88.146499999575212,32.00599999970035],[-88.137919999608187,31.982049999607966],[-88.129100000264714,31.958370000275409],[-88.124549999982435,31.946659999859264],[-88.11090000003486,31.911530000409357],[-88.101680000231738,31.888240000175983],[-88.092989999688655,31.864430000244454],[-88.084930000319162,31.839970000015626],[-88.077389999748561,31.81497999962744],[-88.070249999637667,31.789609999701895],[-88.063240000125802,31.764110000076585],[-88.056089999553706,31.738729999689895],[-88.048690000043337,31.713620000063088],[-88.040890000073318,31.688900000434842],[-88.032840000265708,31.664429999744812],[-88.028820000142787,31.652199999630398],[-88.01673999975111,31.615510000186475],[-88.008560000243733,31.591179999657413],[-88.000370000275211,31.566839999566469],[-87.992310000006398,31.54238000023696],[-87.984269999760556,31.517920000008132],[-87.97621000039112,31.493459999779304],[-87.968410000421102,31.468729999689856],[-87.961010000011413,31.443629999624932],[-87.953869999900462,31.418250000137562],[-87.94697999962716,31.392619999913222],[-87.943740000400567,31.379609999801801],[-87.933870000300146,31.340710000066622],[-87.930619999713088,31.327690000393375],[-87.920880000211753,31.28866000005911],[-87.914379999936955,31.262630000274441],[-87.907879999662157,31.236610000051598],[-87.904770000135272,31.223470000240468],[-87.89555000033215,31.183909999746845],[-87.89009999991498,31.15685000012752],[-87.885150000072315,31.129260000348893],[-87.880739999950947,31.101160000433822],[-87.876590000128317,31.072789999758811],[-87.872180000006892,31.04468999984374],[-87.867370000325138,31.016970000365347],[-87.862430000044355,30.989390000148546],[-87.857620000362601,30.961669999770834],[-87.853199999780088,30.933569999855763],[-87.849430000394079,30.904810000081568],[-87.846190000268166,30.87552999970984],[-87.842939999681164,30.846259999799315],[-87.839170000295155,30.81750000002512],[-87.836839999866015,30.803580000216982],[-87.829960000053859,30.761679999732337],[-87.825150000372105,30.73396999981577],[-87.82086000038862,30.705729999739845],[-87.817480000101796,30.676579999967146],[-87.814879999812035,30.646659999759322],[-87.812550000282158,30.616469999690878],[-87.809940000430572,30.586539999921229],[-87.806560000143804,30.557399999710356],[-87.802279999722089,30.52915999963443],[-87.797470000040391,30.501449999717863],[-87.792660000358637,30.47373000023947],[-87.788379999936922,30.445499999725371],[-87.785139999811065,30.416220000252963],[-87.783069999680663,30.385769999885724],[-87.781899999685152,30.354420000282914],[-87.781239999826028,30.322539999621426],[-87.780590000428049,30.290659999859258],[-87.779420000432594,30.259299999795303],[-87.77733999984099,30.228850000327384],[-87.774090000153308,30.199580000416802],[-87.769809999731592,30.171340000340876],[-87.765000000049838,30.143630000424309],[-87.760190000368141,30.115910000046597],[-87.755909999946425,30.087680000431817],[-87.752669999820512,30.058400000060089],[-87.75059999969011,30.027949999692851],[-87.749429999694598,29.996589999628895],[-87.74890000043456,29.964580000167018],[-87.748760000273705,29.932179999807261],[-87.748760000273705,29.899649999747851],[-87.748760000273705,29.86713000014953],[-87.748760000273705,29.834589999628918],[-87.748760000273705,29.802070000030596],[-87.748760000273705,29.769539999971187],[-87.748760000273705,29.73700999991172],[-87.748760000273705,29.704479999852254],[-87.748760000273705,29.671949999792787],[-87.748760000273705,29.63941999973332],[-87.748760000273705,29.606889999673911],[-87.748760000273705,29.574359999614444],[-87.748760000273705,29.541829999554977],[-87.748760000273705,29.50930000039483],[-87.748760000273705,29.476770000335364],[-87.748760000273705,29.444240000275954],[-87.748760000273705,29.411719999778313],[-87.748760000273705,29.379189999718847],[-87.748760000273705,29.34665999965938],[-87.748760000273705,29.31412999959997],[-87.748760000273705,29.281600000439823],[-87.748760000273705,29.249070000380357],[-87.748760000273705,29.21654000032089],[-87.748760000273705,29.184010000261424],[-87.748760000273705,29.151480000202014],[-87.748760000273705,29.118950000142547],[-87.748760000273705,29.086420000083081],[-87.748760000273705,29.053890000023614],[-87.748760000273705,29.021359999964147],[-87.748760000273705,28.988829999904738],[-87.748760000273705,28.956299999845271],[-87.748760000273705,28.92378000024695],[-87.748760000273705,28.891250000187483],[-87.748760000273705,28.858720000128073],[-87.748760000273705,28.826190000068607],[-87.748760000273705,28.79366000000914],[-87.748760000273705,28.761129999949674],[-87.748760000273705,28.728599999890207],[-87.748889999973414,28.696200000429826],[-87.749409999671627,28.664190000068572],[-87.750579999667139,28.632839999566443],[-87.752660000258686,28.60239000009858],[-87.755909999946425,28.573109999726853],[-87.760190000368141,28.544880000112073],[-87.765000000049838,28.517159999734361],[-87.769809999731592,28.489440000255968],[-87.774090000153308,28.461209999741811],[-87.77733999984099,28.43193000026946],[-87.779559999694129,28.401620000063076],[-87.781230000264202,28.37077999969739],[-87.782919999957926,28.339940000230968],[-87.785130000249183,28.309619999563495],[-87.788379999936922,28.280349999652913],[-87.792660000358637,28.252109999576987],[-87.797610000201246,28.224530000259449],[-87.802930000019387,28.197329999579949],[-87.808380000436557,28.170269999960681],[-87.813709999816524,28.143070000180501],[-87.816310000106341,28.129409999771838],[-87.824620000212747,28.088939999581441],[-87.830470000190246,28.062269999960677],[-87.836579999567221,28.03585999973933],[-87.842939999681164,28.009700000254952],[-87.849439999955905,27.983680000032109],[-87.855929999769558,27.957659999809266],[-87.862430000044355,27.931630000024597],[-87.868919999858008,27.905609999801811],[-87.87540999967166,27.879589999578968],[-87.881909999946458,27.8535599997943],[-87.888399999760054,27.827539999571457],[-87.894900000034852,27.801509999786788],[-87.901389999848504,27.775489999563945],[-87.907879999662157,27.749470000240478],[-87.914379999936955,27.723450000017635],[-87.920869999750607,27.697420000232967],[-87.927370000025348,27.671400000010124],[-87.933859999839001,27.645379999787281],[-87.940349999652653,27.619350000002669],[-87.94697999962716,27.593460000378855],[-87.953869999900462,27.567830000154515],[-87.961010000011413,27.542449999767825],[-87.968410000421102,27.517340000141019],[-87.97621000039112,27.492619999613453],[-87.980229999614664,27.480390000398359],[-87.992310000006398,27.443700000055117],[-88.000370000275211,27.419230000264463],[-88.008420000082822,27.394770000035635],[-88.016209999591695,27.370050000407332],[-88.023619999563209,27.34493000031938],[-88.027260000148772,27.332310000206462],[-88.037640000385579,27.293930000169496],[-88.044400000059852,27.268170000245448],[-88.051279999872008,27.242529999559963],[-88.058430000444048,27.217159999634418],[-88.065829999954417,27.192050000007612],[-88.073629999924435,27.16731999991822],[-88.081679999732103,27.142859999689392],[-88.089740000000916,27.118400000359884],[-88.097789999808526,27.093940000131056],[-88.105970000215223,27.069609999601937],[-88.114149999722599,27.045279999972138],[-88.122209999991412,27.020810000181484],[-88.130259999799023,26.996349999952656],[-88.138449999767545,26.972020000322914],[-88.142610000051377,26.959919999908209],[-88.154679999981909,26.923229999564967],[-88.162729999789576,26.898759999774313],[-88.170790000058332,26.874300000444805],[-88.17859000002835,26.849579999917182],[-88.185990000438039,26.824470000290432],[-88.19312999964967,26.799089999903742],[-88.200030000384118,26.773459999679403],[-88.206779999597188,26.747699999755355],[-88.21366999987049,26.72205999996919],[-88.220809999981384,26.696690000043588],[-88.224440000105801,26.684069999930671],[-88.235870000200237,26.646730000189507],[-88.2435300000094,26.621870000400349],[-88.250930000419089,26.596759999874223],[-88.258080000091809,26.571389999948678],[-88.264970000365111,26.545750000162514],[-88.271589999878472,26.519859999639436],[-88.277829999854532,26.493840000315913],[-88.280559999844002,26.481089999603967],[-88.287450000117303,26.441790000308401],[-88.28847999995196,26.429429999594959],[-88.289250000387085,26.403929999969648],[-88.285749999962434,26.365409999771828],[-88.27991000044608,26.341080000142028],[-88.271710000016355,26.317789999908712],[-88.261579999617197,26.295669999670906],[-88.250150000422082,26.274589999728846],[-88.237430000194252,26.254810000381383],[-88.215730000439066,26.227879999562447],[-88.208069999730583,26.219680000032099],[-88.183650000447074,26.196650000097577],[-88.15742000043258,26.177520000148036],[-88.139619999763056,26.166729999889753],[-88.130649999797527,26.161780000047088],[-88.09948000040157,26.151499999925193]]]},"properties":{"objectid":619,"stormname":"Isaias","stormtype":"HU","basin":"AL","advdate":"400 AM CDT Fri Oct 09 2026","advisnum":"11","fcstprd":120,"stormnum":9,"idp_source":"al092026-011_5day_pgn","idp_filedate":1791541673000,"idp_ingestdate":1791541687000,"st_area(shape)":28.99904065780342,"st_perimeter(shape)":33.57808509524024,"binnumber":"AT4"}}]}