{"type":"FeatureCollection","features":[{"type":"Feature","id":561,"geometry":{"type":"LineString","coordinates":[[-91.899999999700128,22.900000000200009],[-90.700000000299667,23.400000000100079],[-89.099999999899978,24.700000000199964],[-87.899999999600197,26.799999999600459],[-87.299999999899967,29.600000000299929],[-87.500000000399609,32.49999999990024],[-88.000000000299679,35.100000000100067]]},"properties":{"objectid":561,"stormname":"Isaias","stormtype":"TS","basin":"AL","advdate":"1000 PM CDT Wed Oct 07 2026","advisnum":"6","fcstprd":120,"stormnum":9,"idp_source":"al092026-006_5day_lin","idp_filedate":1791430091000,"idp_ingestdate":1791430156000,"st_length(shape)":14.198323179521818,"binnumber":"AT4"}}]}