{"type":"FeatureCollection","features":[{"type":"Feature","id":5232,"geometry":{"type":"Point","coordinates":[-86.499999999700094,30.79999999970039]},"properties":{"objectid":5232,"stormname":"Hurricane Isaias","stormtype":"HU","dvlbl":"H","basin":"AL","advdate":"1000 PM CDT Fri Oct 09 2026","advisnum":"14","fcstprd":120,"gust":105,"maxwind":80,"mslp":982,"ssnum":1,"datelbl":"10:00 PM Fri","tcdvlp":"Hurricane","tcdir":5,"tcspd":17,"fldatelbl":"2026-10-09 7:00 PM Fri CDT","lat":31,"lon":-86,"stormnum":9,"stormsrc":"Tropical Cyclone","tau":0,"timezone":"CDT","validtime":"10/0000","idp_source":"al092026-014_5day_pts","idp_filedate":1791602904000,"idp_ingestdate":1791602966000,"binnumber":"AT4"}},{"type":"Feature","id":5233,"geometry":{"type":"Point","coordinates":[-86.700000000199736,32.700000000399825]},"properties":{"objectid":5233,"stormname":"Hurricane Isaias","stormtype":"STS","dvlbl":"S","basin":"AL","advdate":"1000 PM CDT Fri Oct 09 2026","advisnum":"14","fcstprd":120,"gust":65,"maxwind":50,"mslp":9999,"ssnum":0,"datelbl":"7:00 AM Sat","tcdvlp":"Subtropical Storm","tcdir":9999,"tcspd":9999,"fldatelbl":"2026-10-10 7:00 AM Sat CDT","lat":33,"lon":-87,"stormnum":9,"stormsrc":"Post-Tropical Cyclone","tau":12,"timezone":"CDT","validtime":"10/1200","idp_source":"al092026-014_5day_pts","idp_filedate":1791602904000,"idp_ingestdate":1791602966000,"binnumber":"AT4"}},{"type":"Feature","id":5234,"geometry":{"type":"Point","coordinates":[-86.700000000199736,34.700000000000159]},"properties":{"objectid":5234,"stormname":"Hurricane Isaias","stormtype":"STD","dvlbl":"D","basin":"AL","advdate":"1000 PM CDT Fri Oct 09 2026","advisnum":"14","fcstprd":120,"gust":45,"maxwind":30,"mslp":9999,"ssnum":0,"datelbl":"7:00 PM Sat","tcdvlp":"Subtropical Depression","tcdir":9999,"tcspd":9999,"fldatelbl":"2026-10-10 7:00 PM Sat CDT","lat":35,"lon":-87,"stormnum":9,"stormsrc":"Post-Tropical Cyclone","tau":24,"timezone":"CDT","validtime":"11/0000","idp_source":"al092026-014_5day_pts","idp_filedate":1791602904000,"idp_ingestdate":1791602966000,"binnumber":"AT4"}},{"type":"Feature","id":5235,"geometry":{"type":"Point","coordinates":[-84.400000000299656,36.900000000100079]},"properties":{"objectid":5235,"stormname":"Hurricane Isaias","stormtype":"STD","dvlbl":"D","basin":"AL","advdate":"1000 PM CDT Fri Oct 09 2026","advisnum":"14","fcstprd":120,"gust":40,"maxwind":30,"mslp":9999,"ssnum":0,"datelbl":"7:00 AM Sun","tcdvlp":"Subtropical Depression","tcdir":9999,"tcspd":9999,"fldatelbl":"2026-10-11 7:00 AM Sun CDT","lat":37,"lon":-84,"stormnum":9,"stormsrc":"Post-Tropical Cyclone","tau":36,"timezone":"CDT","validtime":"11/1200","idp_source":"al092026-014_5day_pts","idp_filedate":1791602904000,"idp_ingestdate":1791602966000,"binnumber":"AT4"}},{"type":"Feature","id":5236,"geometry":{"type":"Point","coordinates":[-80.499999999999886,39.000000000399837]},"properties":{"objectid":5236,"stormname":"Hurricane Isaias","stormtype":"STD","dvlbl":"D","basin":"AL","advdate":"1000 PM CDT Fri Oct 09 2026","advisnum":"14","fcstprd":120,"gust":35,"maxwind":25,"mslp":9999,"ssnum":0,"datelbl":"7:00 PM Sun","tcdvlp":"Subtropical Depression","tcdir":9999,"tcspd":9999,"fldatelbl":"2026-10-11 7:00 PM Sun CDT","lat":39,"lon":-80,"stormnum":9,"stormsrc":"Post-Tropical Cyclone","tau":48,"timezone":"CDT","validtime":"12/0000","idp_source":"al092026-014_5day_pts","idp_filedate":1791602904000,"idp_ingestdate":1791602966000,"binnumber":"AT4"}}]}