{"type":"FeatureCollection","features":[{"type":"Feature","id":564,"geometry":{"type":"LineString","coordinates":[[-91.700000000099806,23.099999999800275],[-90.700000000299667,23.400000000100079],[-89.099999999899978,24.700000000199964],[-87.899999999600197,26.799999999600459],[-87.299999999899967,29.600000000299929],[-87.500000000399609,32.49999999990024],[-88.000000000299679,35.100000000100067]]},"properties":{"objectid":564,"stormname":"Isaias","stormtype":"HU","basin":"AL","advdate":"100 AM CDT Thu Oct 08 2026","advisnum":"6A","fcstprd":120,"stormnum":9,"idp_source":"al092026-006A_5day_lin","idp_filedate":1791439725000,"idp_ingestdate":1791439744000,"st_length(shape)":13.942353830899444,"binnumber":"AT4"}}]}