{"type":"FeatureCollection","features":[{"type":"Feature","id":665,"geometry":{"type":"LineString","coordinates":[[-86.499999999700094,30.79999999970039],[-86.700000000199736,32.700000000399825],[-86.700000000199736,34.700000000000159],[-84.400000000299656,36.900000000100079],[-80.499999999999886,39.000000000399837]]},"properties":{"objectid":665,"stormname":"Isaias","stormtype":"HU","basin":"AL","advdate":"1000 PM CDT Fri Oct 09 2026","advisnum":"14","fcstprd":120,"stormnum":9,"idp_source":"al092026-014_5day_lin","idp_filedate":1791602904000,"idp_ingestdate":1791602971000,"st_length(shape)":11.522710328843356,"binnumber":"AT4"}}]}