{"type":"FeatureCollection","features":[{"type":"Feature","id":4780,"geometry":{"type":"Point","coordinates":[-89.300000000399621,24.399999999900217]},"properties":{"objectid":4780,"stormname":"Hurricane Isaias","stormtype":"HU","dvlbl":"H","basin":"AL","advdate":"400 PM CDT Thu Oct 08 2026","advisnum":"9","fcstprd":120,"gust":105,"maxwind":85,"mslp":975,"ssnum":2,"datelbl":"4:00 PM Thu","tcdvlp":"Hurricane","tcdir":50,"tcspd":10,"fldatelbl":"2026-10-08 1:00 PM Thu CDT","lat":24,"lon":-89,"stormnum":9,"stormsrc":"Tropical Cyclone","tau":0,"timezone":"CDT","validtime":"08/1800","idp_source":"al092026-009_5day_pts","idp_filedate":1791494888000,"idp_ingestdate":1791494910000,"binnumber":"AT4"}},{"type":"Feature","id":4781,"geometry":{"type":"Point","coordinates":[-88.400000000399586,25.700000000000159]},"properties":{"objectid":4781,"stormname":"Hurricane Isaias","stormtype":"HU","dvlbl":"H","basin":"AL","advdate":"400 PM CDT Thu Oct 08 2026","advisnum":"9","fcstprd":120,"gust":115,"maxwind":95,"mslp":9999,"ssnum":2,"datelbl":"1:00 AM Fri","tcdvlp":"Hurricane","tcdir":9999,"tcspd":9999,"fldatelbl":"2026-10-09 1:00 AM Fri CDT","lat":26,"lon":-88,"stormnum":9,"stormsrc":"Tropical Cyclone","tau":12,"timezone":"CDT","validtime":"09/0600","idp_source":"al092026-009_5day_pts","idp_filedate":1791494888000,"idp_ingestdate":1791494910000,"binnumber":"AT4"}},{"type":"Feature","id":4782,"geometry":{"type":"Point","coordinates":[-87.399999999700128,28.200000000399825]},"properties":{"objectid":4782,"stormname":"Hurricane Isaias","stormtype":"HU","dvlbl":"H","basin":"AL","advdate":"400 PM CDT Thu Oct 08 2026","advisnum":"9","fcstprd":120,"gust":105,"maxwind":85,"mslp":9999,"ssnum":2,"datelbl":"1:00 PM Fri","tcdvlp":"Hurricane","tcdir":9999,"tcspd":9999,"fldatelbl":"2026-10-09 1:00 PM Fri CDT","lat":28,"lon":-87,"stormnum":9,"stormsrc":"Tropical Cyclone","tau":24,"timezone":"CDT","validtime":"09/1800","idp_source":"al092026-009_5day_pts","idp_filedate":1791494888000,"idp_ingestdate":1791494910000,"binnumber":"AT4"}},{"type":"Feature","id":4783,"geometry":{"type":"Point","coordinates":[-87.200000000099806,31.000000000199975]},"properties":{"objectid":4783,"stormname":"Hurricane Isaias","stormtype":"HU","dvlbl":"H","basin":"AL","advdate":"400 PM CDT Thu Oct 08 2026","advisnum":"9","fcstprd":120,"gust":80,"maxwind":65,"mslp":9999,"ssnum":1,"datelbl":"1:00 AM Sat","tcdvlp":"Hurricane","tcdir":9999,"tcspd":9999,"fldatelbl":"2026-10-10 1:00 AM Sat CDT","lat":31,"lon":-87,"stormnum":9,"stormsrc":"Tropical Cyclone","tau":36,"timezone":"CDT","validtime":"10/0600","idp_source":"al092026-009_5day_pts","idp_filedate":1791494888000,"idp_ingestdate":1791494910000,"binnumber":"AT4"}},{"type":"Feature","id":4784,"geometry":{"type":"Point","coordinates":[-87.799999999800036,33.200000000299895]},"properties":{"objectid":4784,"stormname":"Hurricane Isaias","stormtype":"TD","dvlbl":"D","basin":"AL","advdate":"400 PM CDT Thu Oct 08 2026","advisnum":"9","fcstprd":120,"gust":40,"maxwind":30,"mslp":9999,"ssnum":0,"datelbl":"1:00 PM Sat","tcdvlp":"Tropical Depression","tcdir":9999,"tcspd":9999,"fldatelbl":"2026-10-10 1:00 PM Sat CDT","lat":33,"lon":-88,"stormnum":9,"stormsrc":"Tropical Cyclone","tau":48,"timezone":"CDT","validtime":"10/1800","idp_source":"al092026-009_5day_pts","idp_filedate":1791494888000,"idp_ingestdate":1791494910000,"binnumber":"AT4"}},{"type":"Feature","id":4785,"geometry":{"type":"Point","coordinates":[-87.799999999800036,35.000000000299906]},"properties":{"objectid":4785,"stormname":"Hurricane Isaias","stormtype":"STD","dvlbl":"D","basin":"AL","advdate":"400 PM CDT Thu Oct 08 2026","advisnum":"9","fcstprd":120,"gust":35,"maxwind":25,"mslp":9999,"ssnum":0,"datelbl":"1:00 AM Sun","tcdvlp":"Subtropical Depression","tcdir":9999,"tcspd":9999,"fldatelbl":"2026-10-11 1:00 AM Sun CDT","lat":35,"lon":-88,"stormnum":9,"stormsrc":"Post-Tropical Cyclone","tau":60,"timezone":"CDT","validtime":"11/0600","idp_source":"al092026-009_5day_pts","idp_filedate":1791494888000,"idp_ingestdate":1791494910000,"binnumber":"AT4"}},{"type":"Feature","id":4786,"geometry":{"type":"Point","coordinates":[-84.999999999999886,36.99999999990024]},"properties":{"objectid":4786,"stormname":"Hurricane Isaias","stormtype":"STD","dvlbl":"D","basin":"AL","advdate":"400 PM CDT Thu Oct 08 2026","advisnum":"9","fcstprd":120,"gust":30,"maxwind":20,"mslp":9999,"ssnum":0,"datelbl":"1:00 PM Sun","tcdvlp":"Subtropical Depression","tcdir":9999,"tcspd":9999,"fldatelbl":"2026-10-11 1:00 PM Sun CDT","lat":37,"lon":-85,"stormnum":9,"stormsrc":"Post-Tropical Cyclone","tau":72,"timezone":"CDT","validtime":"11/1800","idp_source":"al092026-009_5day_pts","idp_filedate":1791494888000,"idp_ingestdate":1791494910000,"binnumber":"AT4"}}]}