{"type":"FeatureCollection","features":[{"type":"Feature","id":573,"geometry":{"type":"LineString","coordinates":[[-90.599999999600186,23.700000000399825],[-89.999999999899956,24.200000000299895],[-88.599999999999909,25.899999999600425],[-87.600000000199771,28.400000000000148],[-87.600000000199771,31.000000000199975],[-88.500000000199748,33.700000000200021],[-88.69999999980007,36.000000000100044]]},"properties":{"objectid":573,"stormname":"Isaias","stormtype":"HU","basin":"AL","advdate":"700 AM CDT Thu Oct 08 2026","advisnum":"7A","fcstprd":120,"stormnum":9,"idp_source":"al092026-007A_5day_lin","idp_filedate":1791461318000,"idp_ingestdate":1791461382000,"st_length(shape)":13.43060809545182,"binnumber":"AT4"}}]}