{"type":"FeatureCollection","features":[{"type":"Feature","id":22157,"geometry":{"type":"Point","coordinates":[-96.500000000399609,22.000000000199975]},"properties":{"objectid":22157,"stormname":"GENESIS022","stormtype":"DB","stormnum":9,"intensity":15,"basin":"al","mslp":0,"dtg":2026100418,"year":2026,"month":"10","day":4,"hhmm":"1800","lat":22,"lon":-96,"ss":0,"idp_source":"AL092026_pts","idp_filedate":1791439725000,"idp_ingestdate":1791439792000,"binnumber":"AT4"}},{"type":"Feature","id":22158,"geometry":{"type":"Point","coordinates":[-96.500000000399609,22.000000000199975]},"properties":{"objectid":22158,"stormname":"GENESIS022","stormtype":"DB","stormnum":9,"intensity":20,"basin":"al","mslp":0,"dtg":2026100500,"year":2026,"month":"10","day":5,"hhmm":"0000","lat":22,"lon":-96,"ss":0,"idp_source":"AL092026_pts","idp_filedate":1791439725000,"idp_ingestdate":1791439792000,"binnumber":"AT4"}},{"type":"Feature","id":22159,"geometry":{"type":"Point","coordinates":[-96.500000000399609,22.000000000199975]},"properties":{"objectid":22159,"stormname":"GENESIS022","stormtype":"DB","stormnum":9,"intensity":25,"basin":"al","mslp":0,"dtg":2026100506,"year":2026,"month":"10","day":5,"hhmm":"0600","lat":22,"lon":-96,"ss":0,"idp_source":"AL092026_pts","idp_filedate":1791439725000,"idp_ingestdate":1791439792000,"binnumber":"AT4"}},{"type":"Feature","id":22160,"geometry":{"type":"Point","coordinates":[-96.500000000399609,22.000000000199975]},"properties":{"objectid":22160,"stormname":"INVEST","stormtype":"DB","stormnum":9,"intensity":25,"basin":"al","mslp":1010,"dtg":2026100512,"year":2026,"month":"10","day":5,"hhmm":"1200","lat":22,"lon":-96,"ss":0,"idp_source":"AL092026_pts","idp_filedate":1791439725000,"idp_ingestdate":1791439792000,"binnumber":"AT4"}},{"type":"Feature","id":22161,"geometry":{"type":"Point","coordinates":[-96.299999999899967,22.199999999800298]},"properties":{"objectid":22161,"stormname":"INVEST","stormtype":"DB","stormnum":9,"intensity":25,"basin":"al","mslp":1010,"dtg":2026100518,"year":2026,"month":"10","day":5,"hhmm":"1800","lat":22,"lon":-96,"ss":0,"idp_source":"AL092026_pts","idp_filedate":1791439725000,"idp_ingestdate":1791439792000,"binnumber":"AT4"}},{"type":"Feature","id":22162,"geometry":{"type":"Point","coordinates":[-96.100000000299644,22.299999999600459]},"properties":{"objectid":22162,"stormname":"INVEST","stormtype":"DB","stormnum":9,"intensity":25,"basin":"al","mslp":1009,"dtg":2026100600,"year":2026,"month":"10","day":6,"hhmm":"0000","lat":22,"lon":-96,"ss":0,"idp_source":"AL092026_pts","idp_filedate":1791439725000,"idp_ingestdate":1791439792000,"binnumber":"AT4"}},{"type":"Feature","id":22163,"geometry":{"type":"Point","coordinates":[-95.99999999960022,22.199999999800298]},"properties":{"objectid":22163,"stormname":"INVEST","stormtype":"DB","stormnum":9,"intensity":25,"basin":"al","mslp":1009,"dtg":2026100606,"year":2026,"month":"10","day":6,"hhmm":"0600","lat":22,"lon":-96,"ss":0,"idp_source":"AL092026_pts","idp_filedate":1791439725000,"idp_ingestdate":1791439792000,"binnumber":"AT4"}},{"type":"Feature","id":22164,"geometry":{"type":"Point","coordinates":[-95.99999999960022,22.000000000199975]},"properties":{"objectid":22164,"stormname":"INVEST","stormtype":"DB","stormnum":9,"intensity":25,"basin":"al","mslp":1008,"dtg":2026100612,"year":2026,"month":"10","day":6,"hhmm":"1200","lat":22,"lon":-96,"ss":0,"idp_source":"AL092026_pts","idp_filedate":1791439725000,"idp_ingestdate":1791439792000,"binnumber":"AT4"}},{"type":"Feature","id":22165,"geometry":{"type":"Point","coordinates":[-95.700000000199736,21.900000000399814]},"properties":{"objectid":22165,"stormname":"NINE","stormtype":"TD","stormnum":9,"intensity":30,"basin":"al","mslp":1007,"dtg":2026100618,"year":2026,"month":"10","day":6,"hhmm":"1800","lat":22,"lon":-96,"ss":0,"idp_source":"AL092026_pts","idp_filedate":1791439725000,"idp_ingestdate":1791439792000,"binnumber":"AT4"}},{"type":"Feature","id":22166,"geometry":{"type":"Point","coordinates":[-95.300000000099828,21.699999999900228]},"properties":{"objectid":22166,"stormname":"NINE","stormtype":"TD","stormnum":9,"intensity":30,"basin":"al","mslp":1006,"dtg":2026100700,"year":2026,"month":"10","day":7,"hhmm":"0000","lat":22,"lon":-95,"ss":0,"idp_source":"AL092026_pts","idp_filedate":1791439725000,"idp_ingestdate":1791439792000,"binnumber":"AT4"}},{"type":"Feature","id":22167,"geometry":{"type":"Point","coordinates":[-94.599999999700117,21.900000000399814]},"properties":{"objectid":22167,"stormname":"ISAIAS","stormtype":"TS","stormnum":9,"intensity":35,"basin":"al","mslp":1004,"dtg":2026100706,"year":2026,"month":"10","day":7,"hhmm":"0600","lat":22,"lon":-95,"ss":0,"idp_source":"AL092026_pts","idp_filedate":1791439725000,"idp_ingestdate":1791439792000,"binnumber":"AT4"}},{"type":"Feature","id":22168,"geometry":{"type":"Point","coordinates":[-93.900000000199725,22.199999999800298]},"properties":{"objectid":22168,"stormname":"ISAIAS","stormtype":"TS","stormnum":9,"intensity":40,"basin":"al","mslp":1002,"dtg":2026100712,"year":2026,"month":"10","day":7,"hhmm":"1200","lat":22,"lon":-94,"ss":0,"idp_source":"AL092026_pts","idp_filedate":1791439725000,"idp_ingestdate":1791439792000,"binnumber":"AT4"}},{"type":"Feature","id":22169,"geometry":{"type":"Point","coordinates":[-93.299999999600175,22.500000000100044]},"properties":{"objectid":22169,"stormname":"ISAIAS","stormtype":"TS","stormnum":9,"intensity":50,"basin":"al","mslp":995,"dtg":2026100718,"year":2026,"month":"10","day":7,"hhmm":"1800","lat":22,"lon":-93,"ss":0,"idp_source":"AL092026_pts","idp_filedate":1791439725000,"idp_ingestdate":1791439792000,"binnumber":"AT4"}},{"type":"Feature","id":22170,"geometry":{"type":"Point","coordinates":[-92.299999999800036,22.699999999700367]},"properties":{"objectid":22170,"stormname":"ISAIAS","stormtype":"TS","stormnum":9,"intensity":60,"basin":"al","mslp":988,"dtg":2026100800,"year":2026,"month":"10","day":8,"hhmm":"0000","lat":23,"lon":-92,"ss":0,"idp_source":"AL092026_pts","idp_filedate":1791439725000,"idp_ingestdate":1791439792000,"binnumber":"AT4"}}]}