{"type":"FeatureCollection","features":[{"type":"Feature","id":4369,"geometry":{"type":"Point","coordinates":[-93.599999999899978,22.40000000029994]},"properties":{"objectid":4369,"stormname":"Tropical Storm Isaias","stormtype":"TS","dvlbl":"S","basin":"AL","advdate":"1000 AM CDT Wed Oct 07 2026","advisnum":"4","fcstprd":120,"gust":50,"maxwind":40,"mslp":1000,"ssnum":0,"datelbl":"10:00 AM Wed","tcdvlp":"Tropical Storm","tcdir":70,"tcspd":7,"fldatelbl":"2026-10-07 7:00 AM Wed CDT","lat":22,"lon":-94,"stormnum":9,"stormsrc":"Tropical Cyclone","tau":0,"timezone":"CDT","validtime":"07/1200","idp_source":"al092026-004_5day_pts","idp_filedate":1791386890000,"idp_ingestdate":1791386978000,"binnumber":"AT4"}},{"type":"Feature","id":4370,"geometry":{"type":"Point","coordinates":[-92.399999999600197,22.699999999700367]},"properties":{"objectid":4370,"stormname":"Tropical Storm Isaias","stormtype":"TS","dvlbl":"S","basin":"AL","advdate":"1000 AM CDT Wed Oct 07 2026","advisnum":"4","fcstprd":120,"gust":60,"maxwind":50,"mslp":9999,"ssnum":0,"datelbl":"7:00 PM Wed","tcdvlp":"Tropical Storm","tcdir":9999,"tcspd":9999,"fldatelbl":"2026-10-07 7:00 PM Wed CDT","lat":23,"lon":-92,"stormnum":9,"stormsrc":"Tropical Cyclone","tau":12,"timezone":"CDT","validtime":"08/0000","idp_source":"al092026-004_5day_pts","idp_filedate":1791386890000,"idp_ingestdate":1791386978000,"binnumber":"AT4"}},{"type":"Feature","id":4371,"geometry":{"type":"Point","coordinates":[-90.800000000099828,23.400000000100079]},"properties":{"objectid":4371,"stormname":"Tropical Storm Isaias","stormtype":"HU","dvlbl":"H","basin":"AL","advdate":"1000 AM CDT Wed Oct 07 2026","advisnum":"4","fcstprd":120,"gust":80,"maxwind":65,"mslp":9999,"ssnum":1,"datelbl":"7:00 AM Thu","tcdvlp":"Hurricane","tcdir":9999,"tcspd":9999,"fldatelbl":"2026-10-08 7:00 AM Thu CDT","lat":23,"lon":-91,"stormnum":9,"stormsrc":"Tropical Cyclone","tau":24,"timezone":"CDT","validtime":"08/1200","idp_source":"al092026-004_5day_pts","idp_filedate":1791386890000,"idp_ingestdate":1791386978000,"binnumber":"AT4"}},{"type":"Feature","id":4372,"geometry":{"type":"Point","coordinates":[-89.19999999970014,24.600000000399859]},"properties":{"objectid":4372,"stormname":"Tropical Storm Isaias","stormtype":"HU","dvlbl":"H","basin":"AL","advdate":"1000 AM CDT Wed Oct 07 2026","advisnum":"4","fcstprd":120,"gust":100,"maxwind":80,"mslp":9999,"ssnum":1,"datelbl":"7:00 PM Thu","tcdvlp":"Hurricane","tcdir":9999,"tcspd":9999,"fldatelbl":"2026-10-08 7:00 PM Thu CDT","lat":25,"lon":-89,"stormnum":9,"stormsrc":"Tropical Cyclone","tau":36,"timezone":"CDT","validtime":"09/0000","idp_source":"al092026-004_5day_pts","idp_filedate":1791386890000,"idp_ingestdate":1791386978000,"binnumber":"AT4"}},{"type":"Feature","id":4373,"geometry":{"type":"Point","coordinates":[-88.10000000009984,26.600000000000136]},"properties":{"objectid":4373,"stormname":"Tropical Storm Isaias","stormtype":"HU","dvlbl":"H","basin":"AL","advdate":"1000 AM CDT Wed Oct 07 2026","advisnum":"4","fcstprd":120,"gust":115,"maxwind":95,"mslp":9999,"ssnum":2,"datelbl":"7:00 AM Fri","tcdvlp":"Hurricane","tcdir":9999,"tcspd":9999,"fldatelbl":"2026-10-09 7:00 AM Fri CDT","lat":27,"lon":-88,"stormnum":9,"stormsrc":"Tropical Cyclone","tau":48,"timezone":"CDT","validtime":"09/1200","idp_source":"al092026-004_5day_pts","idp_filedate":1791386890000,"idp_ingestdate":1791386978000,"binnumber":"AT4"}},{"type":"Feature","id":4374,"geometry":{"type":"Point","coordinates":[-87.500000000399609,29.200000000200021]},"properties":{"objectid":4374,"stormname":"Tropical Storm Isaias","stormtype":"HU","dvlbl":"H","basin":"AL","advdate":"1000 AM CDT Wed Oct 07 2026","advisnum":"4","fcstprd":120,"gust":110,"maxwind":90,"mslp":9999,"ssnum":2,"datelbl":"7:00 PM Fri","tcdvlp":"Hurricane","tcdir":9999,"tcspd":9999,"fldatelbl":"2026-10-09 7:00 PM Fri CDT","lat":29,"lon":-88,"stormnum":9,"stormsrc":"Tropical Cyclone","tau":60,"timezone":"CDT","validtime":"10/0000","idp_source":"al092026-004_5day_pts","idp_filedate":1791386890000,"idp_ingestdate":1791386978000,"binnumber":"AT4"}},{"type":"Feature","id":4375,"geometry":{"type":"Point","coordinates":[-87.600000000199771,32.199999999600436]},"properties":{"objectid":4375,"stormname":"Tropical Storm Isaias","stormtype":"TS","dvlbl":"S","basin":"AL","advdate":"1000 AM CDT Wed Oct 07 2026","advisnum":"4","fcstprd":120,"gust":55,"maxwind":45,"mslp":9999,"ssnum":0,"datelbl":"7:00 AM Sat","tcdvlp":"Tropical Storm","tcdir":9999,"tcspd":9999,"fldatelbl":"2026-10-10 7:00 AM Sat CDT","lat":32,"lon":-88,"stormnum":9,"stormsrc":"Tropical Cyclone","tau":72,"timezone":"CDT","validtime":"10/1200","idp_source":"al092026-004_5day_pts","idp_filedate":1791386890000,"idp_ingestdate":1791386978000,"binnumber":"AT4"}},{"type":"Feature","id":4376,"geometry":{"type":"Point","coordinates":[-87.500000000399609,37.999999999700378]},"properties":{"objectid":4376,"stormname":"Tropical Storm Isaias","stormtype":"STD","dvlbl":"D","basin":"AL","advdate":"1000 AM CDT Wed Oct 07 2026","advisnum":"4","fcstprd":120,"gust":30,"maxwind":20,"mslp":9999,"ssnum":0,"datelbl":"7:00 AM Sun","tcdvlp":"Subtropical Depression","tcdir":9999,"tcspd":9999,"fldatelbl":"2026-10-11 7:00 AM Sun CDT","lat":38,"lon":-88,"stormnum":9,"stormsrc":"Post-Tropical Cyclone","tau":96,"timezone":"CDT","validtime":"11/1200","idp_source":"al092026-004_5day_pts","idp_filedate":1791386890000,"idp_ingestdate":1791386978000,"binnumber":"AT4"}}]}