{"type":"FeatureCollection","features":[{"type":"Feature","id":633,"geometry":{"type":"Polygon","coordinates":[[[-87.410800000419556,27.456019999823297],[-87.387450000117326,27.451439999956165],[-87.361369999825513,27.448830000104579],[-87.332819999843025,27.447649999647922],[-87.302830000004406,27.447649999647922],[-87.272319999568197,27.448700000404813],[-87.242200000029868,27.450920000257952],[-87.213389999748586,27.454709999666875],[-87.18639000019823,27.460320000267927],[-87.161359999764102,27.46789999998515],[-87.138550000082319,27.477699999555455],[-87.10815999978405,27.496240000175987],[-87.090689999943436,27.511390000048607],[-87.07529999979505,27.528639999636425],[-87.061480000101824,27.547439999656376],[-87.048969999665644,27.567560000293895],[-87.037489999963441,27.588720000327896],[-87.026280000121801,27.610139999761316],[-87.010120000437553,27.642919999658375],[-86.999680000131775,27.665130000449324],[-86.989379999986909,27.68745999957946],[-86.984300000444534,27.69869000034339],[-86.970470000290163,27.733830000254443],[-86.961610000001372,27.75760000014003],[-86.952999999550229,27.781630000324412],[-86.944789999558736,27.806049999607922],[-86.936570000005418,27.830480000251953],[-86.927959999554218,27.854510000436335],[-86.919089999703601,27.878280000321922],[-86.910099999715101,27.901919999608424],[-86.90553000030917,27.913679999632393],[-86.895890000023371,27.936659999959147],[-86.881680000331642,27.971409999871753],[-86.87255000018223,27.994920000357865],[-86.863299999894991,28.018300000244949],[-86.854029999584725,28.041680000132033],[-86.849469999740563,28.053440000156002],[-86.83499000018827,28.087909999746842],[-86.824699999605173,28.110250000237443],[-86.819479999901944,28.121350000402344],[-86.809310000356106,28.143819999693392],[-86.793789999608691,28.177249999887749],[-86.788710000066374,28.188490000213505],[-86.774759999774062,28.223489999963647],[-86.765499999924941,28.24686999985073],[-86.756260000098848,28.270249999737814],[-86.751689999793541,28.282000000200014],[-86.737210000241191,28.316480000251943],[-86.726910000096325,28.338819999843281],[-86.716600000389576,28.361149999872737],[-86.711519999947939,28.372390000198493],[-86.701090000103306,28.39458999962892],[-86.686230000114335,28.428679999682402],[-86.676970000265214,28.452059999569485],[-86.667710000416093,28.475440000355889],[-86.658449999667653,28.498820000242972],[-86.653880000261722,28.510569999805796],[-86.644759999674136,28.534080000291908],[-86.635120000287657,28.557070000180488],[-86.620900000134782,28.591809999631948],[-86.611769999985427,28.615320000118061],[-86.607210000141265,28.62708000014203],[-86.597819999693115,28.650330000329404],[-86.584129999699599,28.68559000037834],[-86.574749999712594,28.708839999666395],[-86.569920000007869,28.720340000290946],[-86.555710000316139,28.75507999974235],[-86.546709999866493,28.778719999928171],[-86.537860000038847,28.802489999813758],[-86.529249999587705,28.826519999998141],[-86.521030000034386,28.850940000181026],[-86.512940000180777,28.875499999625447],[-86.504710000166256,28.899930000269421],[-86.496509999736588,28.924349999552987],[-86.488430000344124,28.948900000334902],[-86.48035000005234,28.973459999779323],[-86.47226000019873,28.998009999661917],[-86.464429999744596,29.022830000304396],[-86.45699999975011,29.048029999584969],[-86.449830000054362,29.073510000086571],[-86.442919999758089,29.099240000425823],[-86.436260000198729,29.125230000164493],[-86.429750000362105,29.151360000064074],[-86.423230000064336,29.177480000401829],[-86.416720000227713,29.203599999840264],[-86.410199999929944,29.22972000017802],[-86.403670000070349,29.255839999616455],[-86.397160000233725,29.281959999954154],[-86.390639999935956,29.308089999853735],[-86.384119999638187,29.33421000019149],[-86.380860000388623,29.347269999910736],[-86.371079999941912,29.386449999967681],[-86.364690000243229,29.412700000005145],[-86.358689999643673,29.439349999602939],[-86.355820000392612,29.452800000219952],[-86.348259999799041,29.494200000130036],[-86.343829999654645,29.52242000018299],[-86.339659999809044,29.550890000073593],[-86.335220000102822,29.579099999665402],[-86.330399999959923,29.606920000158027],[-86.325439999656169,29.634610000051623],[-86.320620000412589,29.662429999644928],[-86.316310000406077,29.690780000296911],[-86.312930000119309,29.720030000184522],[-86.310320000267666,29.750080000092055],[-86.307969999815555,29.780379999837294],[-86.305359999963912,29.810420000183001],[-86.301970000115318,29.839670000070612],[-86.297669999670632,29.868019999823275],[-86.295329999679609,29.881990000138558],[-86.288019999823007,29.923659999909205],[-86.283720000277697,29.952000000100043],[-86.280460000128812,29.981379999687363],[-86.278380000436584,30.011950000192485],[-86.277210000441073,30.043430000394324],[-86.276669999820513,30.075559999994141],[-86.276549999682629,30.108079999592462],[-86.276549999682629,30.140740000250958],[-86.276549999682629,30.173390000448308],[-86.276549999682629,30.206039999746338],[-86.276549999682629,30.238689999943688],[-86.276549999682629,30.271349999702863],[-86.276549999682629,30.303999999900213],[-86.276549999682629,30.336650000097563],[-86.276549999682629,30.369300000294913],[-86.276549999682629,30.401960000054089],[-86.276549999682629,30.434610000251439],[-86.276549999682629,30.467260000448789],[-86.276549999682629,30.499909999746819],[-86.276549999682629,30.532570000405315],[-86.276549999682629,30.565219999703345],[-86.276549999682629,30.597869999900695],[-86.276549999682629,30.630520000098045],[-86.276549999682629,30.663179999857277],[-86.276549999682629,30.695830000054627],[-86.276669999820513,30.728349999652892],[-86.277210000441073,30.760489999713855],[-86.278369999975439,30.791960000353868],[-86.280460000128812,30.82252999995967],[-86.283720000277697,30.85191000044631],[-86.288019999823007,30.880249999737828],[-86.292850000427052,30.908079999792278],[-86.297669999670632,30.935889999823758],[-86.301970000115318,30.964239999576478],[-86.305230000264203,30.993629999624943],[-86.307309999956431,31.02418999966892],[-86.308490000413087,31.055660000308933],[-86.3090100001113,31.087800000369839],[-86.309139999811066,31.12031999996816],[-86.309139999811066,31.15297000016551],[-86.309139999811066,31.185629999924686],[-86.309139999811066,31.218280000122036],[-86.309139999811066,31.250930000319386],[-86.309270000410095,31.283449999917707],[-86.309799999670133,31.315580000416844],[-86.310969999665645,31.347059999719363],[-86.313059999819018,31.37761999976334],[-86.316310000406077,31.407009999811805],[-86.320620000412589,31.435350000002643],[-86.325439999656169,31.463169999595948],[-86.330270000260214,31.490990000088573],[-86.334560000243698,31.51933000027941],[-86.337820000392583,31.548720000327876],[-86.33990000008481,31.579280000371853],[-86.341079999642147,31.610759999674372],[-86.341609999801562,31.642890000173509],[-86.341740000400591,31.675420000232975],[-86.341740000400591,31.708070000430325],[-86.341740000400591,31.740719999728356],[-86.341740000400591,31.773380000386851],[-86.341740000400591,31.806029999684881],[-86.341740000400591,31.838679999882231],[-86.341740000400591,31.871330000079581],[-86.341740000400591,31.903989999838757],[-86.341740000400591,31.936640000036107],[-86.341740000400591,31.969290000233457],[-86.341740000400591,32.001949999992632],[-86.341740000400591,32.034600000189982],[-86.341740000400591,32.067250000387332],[-86.341740000400591,32.099899999685363],[-86.341740000400591,32.132560000343858],[-86.341740000400591,32.165209999641888],[-86.341740000400591,32.197859999839238],[-86.341740000400591,32.230510000036588],[-86.341740000400591,32.263169999795821],[-86.341740000400591,32.295819999993171],[-86.341740000400591,32.328479999752346],[-86.3418700001003,32.361000000249931],[-86.34238999979857,32.393120000287922],[-86.343570000255227,32.424599999590441],[-86.3456600004086,32.455170000095563],[-86.348919999658165,32.484549999682883],[-86.353209999641649,32.512889999873721],[-86.358029999784549,32.540719999928172],[-86.362860000388594,32.568529999959651],[-86.367159999933961,32.596879999712371],[-86.3705600002437,32.626140000061071],[-86.373159999634197,32.656180000406835],[-86.375499999625163,32.686480000152017],[-86.378130000399096,32.716519999598461],[-86.38152000024769,32.745770000385335],[-86.383849999777567,32.759750000262443],[-86.390630000374131,32.80193999973136],[-86.395460000078856,32.82976999978581],[-86.399759999624166,32.858100000414822],[-86.403019999773051,32.887489999563968],[-86.405230000064364,32.917919999908236],[-86.406930000219234,32.948880000411862],[-86.408630000374103,32.979829999554966],[-86.410850000227242,33.010270000360379],[-86.414110000376127,33.039649999947699],[-86.418400000359611,33.067990000138536],[-86.423230000064336,33.095809999731841],[-86.428050000207236,33.123630000224466],[-86.432349999752603,33.151979999977186],[-86.435609999901487,33.181370000025652],[-86.437700000054861,33.211930000069572],[-86.438870000050372,33.243410000271467],[-86.439389999748585,33.275539999871228],[-86.439529999909439,33.308060000368869],[-86.439529999909439,33.340709999666899],[-86.43940000020973,33.37323000016454],[-86.438879999612197,33.4053599997643],[-86.437709999616686,33.436839999966196],[-86.435620000362633,33.467400000010116],[-86.432360000213748,33.496790000058581],[-86.427930000069352,33.52499999965039],[-86.422579999767095,33.552300000444802],[-86.416580000066858,33.578950000042596],[-86.410059999769089,33.605070000380351],[-86.403030000234196,33.630670000120574],[-86.399380000086808,33.64333999984126],[-86.387250000087306,33.680170000345356],[-86.378110000376125,33.703679999932206],[-86.368209999791532,33.726410000421311],[-86.357909999646665,33.748739999551503],[-86.352689999943436,33.759839999716348],[-86.336140000260684,33.792240000076106],[-86.324919999957899,33.813660000408845],[-86.319319999818049,33.824360000114041],[-86.301450000417105,33.855450000317433],[-86.289060000118809,33.875690000193515],[-86.276410000421095,33.895680000231948],[-86.263500000424585,33.915400000409818],[-86.256989999688642,33.92519999998018],[-86.236909999996385,33.95405999986923],[-86.230119999837996,33.963600000040117],[-86.216289999683625,33.98240999962195],[-86.202220000152806,34.000950000242483],[-86.180850000327155,34.028510000436313],[-86.173799999869971,34.037790000308405],[-86.153080000341618,34.065990000338388],[-86.139250000187246,34.084799999920222],[-86.125290000333166,34.103479999802289],[-86.110950000042351,34.12176999968591],[-86.103649999747574,34.130779999697381],[-86.088259999599188,34.148019999723374],[-86.0645299997596,34.173230000364356],[-86.056450000367136,34.181449999917731],[-86.032070000230249,34.206010000261472],[-86.015770000385089,34.222339999691371],[-86.00767999963216,34.230569999705892],[-85.983169999795564,34.254989999888721],[-85.975079999941954,34.263219999903242],[-85.958659999958911,34.279410000071607],[-85.934279999822024,34.303970000415347],[-85.917979999976922,34.320299999845247],[-85.909899999685138,34.328529999859768],[-85.893459999679123,34.344720000028133],[-85.877299999994875,34.361180000057118],[-85.860859999988918,34.377370000225483],[-85.84470000030467,34.393830000254468],[-85.828269999860481,34.410029999984658],[-85.81211000017629,34.426479999552498],[-85.795679999732101,34.442680000182008],[-85.779509999586708,34.459140000210994],[-85.763080000041839,34.475330000379358],[-85.738690000343126,34.499889999823779],[-85.722400000059849,34.516209999691853],[-85.71431000020624,34.524439999706374],[-85.697879999762051,34.540640000335884],[-85.673490000063339,34.565190000218479],[-85.665280000071846,34.573289999633914],[-85.648849999627657,34.589490000263424],[-85.631900000384633,34.605159999834257],[-85.614700000404582,34.620570000005614],[-85.596689999943464,34.635200000180021],[-85.578190000268194,34.649300000195012],[-85.559410000271214,34.663150000372354],[-85.540630000274177,34.676990000088551],[-85.522120000137818,34.691099999665425],[-85.504120000137789,34.705729999839775],[-85.486920000157795,34.721140000011133],[-85.461749999562699,34.74490999989672],[-85.453539999571205,34.753010000211475],[-85.437099999565248,34.769209999941666],[-85.42067000002038,34.785400000110087],[-85.395119999887982,34.808779999997171],[-85.386519999897985,34.816490000313422],[-85.368519999897956,34.831119999588452],[-85.35926999961066,34.838170000045636],[-85.33122999976456,34.859069999780786],[-85.31244999976758,34.872919999958185],[-85.293939999631164,34.887019999973177],[-85.275950000092337,34.901650000147526],[-85.258469999790577,34.916800000020146],[-85.232270000260201,34.939520000048105],[-85.223530000109292,34.947099999765328],[-85.205539999671146,34.961729999939678],[-85.187030000434049,34.975840000415815],[-85.168239999975924,34.989680000132068],[-85.149459999978887,35.003519999848265],[-85.130690000443053,35.017370000025608],[-85.112169999845491,35.031479999602425],[-85.09392000000787,35.045850000377357],[-85.075400000309685,35.059950000392348],[-85.056629999874474,35.073799999670371],[-85.047240000325644,35.080720000427846],[-85.01908000034166,35.101489999563967],[-85.000309999906449,35.115330000179483],[-84.981790000208264,35.129430000194475],[-84.96352999990944,35.143800000070087],[-84.945019999773081,35.157909999646904],[-84.935639999786076,35.164830000404322],[-84.916850000227214,35.178670000120576],[-84.88869000024323,35.199440000156017],[-84.879299999795023,35.206360000014115],[-84.851389999648632,35.227390000348407],[-84.833150000272212,35.241760000223962],[-84.814629999674651,35.255860000238954],[-84.795849999677614,35.269710000416353],[-84.77708000014178,35.28355000013255],[-84.7583000001448,35.297400000309892],[-84.748920000157796,35.304320000167991],[-84.721010000011404,35.325360000064109],[-84.702760000173782,35.339720000377838],[-84.684250000037366,35.35382000039283],[-84.665470000040386,35.367669999670909],[-84.655940000330645,35.374459999829298],[-84.627119999588217,35.394579999567497],[-84.617349999602709,35.401110000326412],[-84.588010000061331,35.420699999905196],[-84.578229999614678,35.427229999764847],[-84.549150000372094,35.447079999642426],[-84.530119999638146,35.46067000042035],[-84.511339999641166,35.474510000136547],[-84.50209000025319,35.481559999694355],[-84.474579999667128,35.502980000027151],[-84.456070000430088,35.517080000042085],[-84.446690000443084,35.524010000361386],[-84.418239999676132,35.544509999636944],[-84.39896000000391,35.557840000116073],[-84.379390000448041,35.570899999835262],[-84.369610000001387,35.577429999694857],[-84.340269999560746,35.597020000173018],[-84.330630000174267,35.603679999732321],[-84.301940000030868,35.623930000069606],[-84.283160000033888,35.637769999785803],[-84.264660000358617,35.65188000026194],[-84.24640000005985,35.666239999676407],[-84.227889999923434,35.680350000152544],[-84.209109999926454,35.69418999986874],[-84.190060000068854,35.707779999747345],[-84.180419999783055,35.714440000205968],[-84.151209999941443,35.734160000383838],[-84.131389999648661,35.74695999980429],[-84.121349999802533,35.753230000264466],[-84.090969999965409,35.771780000446824],[-84.070380000136765,35.783790000308386],[-84.05995000029219,35.789669999870739],[-84.028909999696623,35.807569999755856],[-84.008569999705628,35.819850000377357],[-83.9985299998595,35.826119999938214],[-83.968669999720589,35.84518000025696],[-83.949109999726602,35.858250000437295],[-83.939330000179268,35.864780000296946],[-83.909989999738571,35.88436999987573],[-83.890429999744583,35.897429999594976],[-83.870880000211741,35.910490000213485],[-83.851320000217754,35.923549999932675],[-83.83176000022371,35.936609999651921],[-83.812200000229723,35.949679999832256],[-83.802419999783069,35.956200000130025],[-83.772830000404099,35.975530000309391],[-83.752749999812522,35.988070000330424],[-83.732409999821527,36.000350000052606],[-83.722109999676661,36.006360000213988],[-83.70137000012528,36.01824000037584],[-83.67033000042909,36.036140000260957],[-83.660170000445078,36.042269999660903],[-83.639969999715618,36.05467999998217],[-83.619879999562215,36.067220000003147],[-83.589769999585712,36.08602999958498],[-83.56940999957169,36.098310000206482],[-83.559110000326143,36.104320000367863],[-83.527960000053838,36.122080000092069],[-83.507359999764049,36.134100000414833],[-83.487010000211228,36.146369999675869],[-83.4769700003651,36.152640000136046],[-83.446849999927451,36.171460000179025],[-83.436810000081323,36.177720000177999],[-83.416610000251183,36.190129999599947],[-83.38582999995441,36.208289999783801],[-83.375400000109835,36.214159999784329],[-83.354670000120279,36.226039999946181],[-83.334200000429576,36.238189999968654],[-83.303959999853987,36.256869999850778],[-83.293910000446033,36.263140000310898],[-83.263790000008385,36.281940000330906],[-83.24345000001739,36.294220000053087],[-83.233020000172758,36.300099999615441],[-83.211900000184755,36.311589999778789],[-83.179820000192763,36.328450000267424],[-83.169130000049336,36.334059999969156],[-83.137050000057343,36.350909999996645],[-83.116190000368135,36.362670000020614],[-83.106019999922978,36.368800000319879],[-83.085820000092838,36.381220000202973],[-83.065729999939435,36.393749999762804],[-83.035610000401107,36.412560000243957],[-83.02543999995595,36.418700000105048],[-82.994400000259702,36.436590000428339],[-82.983719999678158,36.442209999691897],[-82.962329999829535,36.453450000017654],[-82.940950000442058,36.464679999882208],[-82.908869999550745,36.481529999909696],[-82.888009999861481,36.49328000037184],[-82.877840000315643,36.499420000232988],[-82.847599999740112,36.51808999965391],[-82.827509999586709,36.530629999674886],[-82.807429999894453,36.543169999695863],[-82.787089999903458,36.555439999856276],[-82.776660000058826,36.561320000317892],[-82.755540000070823,36.572809999581978],[-82.72346000007883,36.589670000070612],[-82.71264999979752,36.595150000072579],[-82.679920000407606,36.611349999802769],[-82.658259999799043,36.622320000267962],[-82.647580000116818,36.62794000043084],[-82.626190000268195,36.639170000295451],[-82.605070000280193,36.650670000020625],[-82.574300000444566,36.668819999743334],[-82.554210000291164,36.681359999764311],[-82.524089999853516,36.700159999784319],[-82.514050000007387,36.706439999806264],[-82.503890000023375,36.712570000105586],[-82.48328000017176,36.72459000042835],[-82.462169999745583,36.736079999692379],[-82.430080000191765,36.752929999719868],[-82.408450000067319,36.763900000185004],[-82.397490000063328,36.769260000049087],[-82.364890000373123,36.785579999917218],[-82.343510000086326,36.796809999781829],[-82.332819999942956,36.802429999944707],[-82.311690000393071,36.813929999669881],[-82.280919999658124,36.83208000029191],[-82.250800000119796,36.850889999873743],[-82.240749999812522,36.85716000033392],[-82.21051000013631,36.875840000215987],[-82.20033000012927,36.881980000077078],[-82.18990999984652,36.887859999639431],[-82.158099999715091,36.904960000403833],[-82.147409999571721,36.910579999667391],[-82.125899999585215,36.921679999832293],[-82.104110000176263,36.932530000159545],[-82.082339999890962,36.943370000025652],[-82.049869999900466,36.959819999593435],[-82.038929999919446,36.965180000356895],[-82.01715000007232,36.976020000223002],[-81.995640000085814,36.987120000387847],[-81.974239999776046,36.998350000252458],[-81.932529999959399,37.021870000300396],[-81.922349999952417,37.027999999700398],[-81.892230000414088,37.046810000181495],[-81.88218999966864,37.053079999742351],[-81.86210999997644,37.065610000201502],[-81.841780000446533,37.07790000038483],[-81.831340000140813,37.083770000385357],[-81.799530000009383,37.100879999812264],[-81.788839999866013,37.106499999975142],[-81.767329999879507,37.117600000140044],[-81.745550000032381,37.128440000006151],[-81.712950000342119,37.14477000033537],[-81.691309999756584,37.155739999901243],[-81.680360000213739,37.161090000203501],[-81.658580000366612,37.171939999631434],[-81.636930000219252,37.18291000009657],[-81.604199999929961,37.199100000264934],[-81.593380000086825,37.204589999828784],[-81.561179999956948,37.221310000156507],[-81.550489999813522,37.226919999858239],[-81.529369999825519,37.238410000021645],[-81.498590000428067,37.2565700002055],[-81.478520000297692,37.269110000226476],[-81.468479999552244,37.275379999787333],[-81.428180000006876,37.300319999668375],[-81.418009999561718,37.306460000428842],[-81.407590000178232,37.312339999991138],[-81.386459999729084,37.323830000154544],[-81.354390000198237,37.340680000182033],[-81.343570000355101,37.346169999745825],[-81.321789999608711,37.357009999611932],[-81.30002000022273,37.367850000377359],[-81.278370000075313,37.378819999943175],[-81.245639999786079,37.395019999673366],[-81.234819999942943,37.400510000136535],[-81.213300000394611,37.411610000301437],[-81.19192999966964,37.422840000166048],[-81.160370000275179,37.440209999891749],[-81.150190000268196,37.44634999975284],[-81.129990000438056,37.458760000074108],[-81.099870000000408,37.477569999655884],[-81.079790000308151,37.490100000115035],[-81.059450000317156,37.502379999837274],[-81.038589999728572,37.514130000299417],[-81.027890000023376,37.519749999562976],[-81.006509999736579,37.530980000326906],[-80.984990000188247,37.542079999592431],[-80.963210000341121,37.552929999919684],[-80.941440000055877,37.563769999785791],[-80.919800000369605,37.574740000250983],[-80.898030000084304,37.585580000117034],[-80.865430000394099,37.60191000044631],[-80.854740000250729,37.607520000148043],[-80.833359999963932,37.618750000012653],[-80.801799999670152,37.636130000199501],[-80.781459999679157,37.648400000359857],[-80.771419999833029,37.654669999920714],[-80.741300000294643,37.673480000401867],[-80.721210000141298,37.686020000422843],[-80.700879999712129,37.698300000145025],[-80.680009999561719,37.710049999707849],[-80.669320000317668,37.715669999870727],[-80.647940000030871,37.726910000196483],[-80.626430000044365,37.738010000361385],[-80.604659999759065,37.748839999766346],[-80.582870000350113,37.759690000093599],[-80.561229999764578,37.770659999659415],[-80.539449999917451,37.781489999963696],[-80.517670000070325,37.792340000290949],[-80.496160000083819,37.803439999556474],[-80.474779999797022,37.814670000320405],[-80.45365999980902,37.826159999584434],[-80.422889999973393,37.844319999768345],[-80.402819999843018,37.856859999789322],[-80.392770000435064,37.863130000249441],[-80.362659999559241,37.881939999831275],[-80.342300000444538,37.894209999991631],[-80.321450000317157,37.905970000015657],[-80.300059999569214,37.917199999880211],[-80.278680000181737,37.928440000205967],[-80.267849999877512,37.933920000207991],[-80.246079999592212,37.944760000074098],[-80.224299999745085,37.955599999940205],[-80.192099999615209,37.972320000267928],[-80.181410000371102,37.977940000430806],[-80.1602900003831,37.989429999694892],[-80.139679999632165,38.001450000017655],[-80.109439999955953,38.020129999899723],[-80.089360000263696,38.032660000358874],[-80.079320000417567,38.038929999919731],[-80.059099999665136,38.051340000240941],[-80.028340000290655,38.069500000424853],[-80.017899999984877,38.075370000425323],[-79.986860000288686,38.09327000031044],[-79.966529999859517,38.105539999571477],[-79.956499999575215,38.111810000031596],[-79.926620000312653,38.130879999912224],[-79.907069999880491,38.143939999631414],[-79.887770000185242,38.157259999649398],[-79.868740000350613,38.170850000427322],[-79.850219999753051,38.184960000004139],[-79.832230000214224,38.199590000178489],[-79.815019999773085,38.215000000349903],[-79.798069999630684,38.230669999920678],[-79.78162999962467,38.2468600000891],[-79.765209999641684,38.263059999819291],[-79.74904000039561,38.279519999848276],[-79.732609999951421,38.295710000016641],[-79.716450000267173,38.312170000045626],[-79.691929999969432,38.336590000228455],[-79.683849999677648,38.344829999804801],[-79.667409999671634,38.361019999973166],[-79.643169999695601,38.38569999955547],[-79.635090000303137,38.393929999569991],[-79.611740000000907,38.419530000209477],[-79.604049999707627,38.428150000222502],[-79.589439999556248,38.446179999807271],[-79.575359999564228,38.464729999989629],[-79.555150000172262,38.493460000179027],[-79.541979999876958,38.512920000058102],[-79.529080000341651,38.532649999797798],[-79.51642999974456,38.552630000274462],[-79.510169999745585,38.562690000143562],[-79.492029999584702,38.593509999586956],[-79.480580000366615,38.614669999620958],[-79.474960000203737,38.625379999787299],[-79.458279999921956,38.657639999986145],[-79.447589999778586,38.679580000017154],[-79.437150000372128,38.701789999908726],[-79.426850000227205,38.724119999938182],[-79.421769999785568,38.735349999802793],[-79.407939999631196,38.77048000015202],[-79.399220000402579,38.794390000198518],[-79.39112999964965,38.818940000081113],[-79.384080000091842,38.844539999821279],[-79.378080000391606,38.871190000318393],[-79.373129999649677,38.898880000211989],[-79.369220000102814,38.92761000040133],[-79.365970000415075,38.956999999550476],[-79.362830000404074,38.986259999899232],[-79.359570000255189,39.01460000009007],[-79.356310000106305,39.041639999686367],[-79.353569999655633,39.067370000025619],[-79.352009999661675,39.091919999908214],[-79.352009999661675,39.115950000092596],[-79.353569999655633,39.140510000436336],[-79.356310000106305,39.166239999876268],[-79.359570000255189,39.193280000371885],[-79.362830000404074,39.221619999663403],[-79.36595999995393,39.25088000001216],[-79.369220000102814,39.280259999599423],[-79.373120000087852,39.308989999788821],[-79.378080000391606,39.336690000143562],[-79.384080000091842,39.363330000179531],[-79.390999999949941,39.389059999619406],[-79.398679999782075,39.41400999996165],[-79.406769999635685,39.43857000030539],[-79.414990000088324,39.462989999588956],[-79.42359000007832,39.487019999773338],[-79.432849999927441,39.510399999660422],[-79.437930000369136,39.521639999986178],[-79.453450000217231,39.555070000180535],[-79.464920000357608,39.57623000021448],[-79.476790000058372,39.596989999788832],[-79.488779999896963,39.617630000124564],[-79.500780000196755,39.638269999560976],[-79.506650000197226,39.648709999866753],[-79.52463999973611,39.679670000370379],[-79.531019999872967,39.689599999640393],[-79.550319999568217,39.719249999987653],[-79.564280000321673,39.737920000307895],[-79.579009999711616,39.755809999731866],[-79.594129999999382,39.773319999618423],[-79.609270000310175,39.79081999994321],[-79.631420000132778,39.817600000140033],[-79.638600000289671,39.82673999985127],[-79.652939999681109,39.845020000173008],[-79.667540000270662,39.863040000196008],[-79.68279999982002,39.880420000382856],[-79.699099999665123,39.896740000250929],[-79.716450000267173,39.91203000028446],[-79.734439999806057,39.92665999955949],[-79.761830000254179,39.948209999591938],[-79.770809999781534,39.955529999909743],[-79.788539999920943,39.970409999921685],[-79.806020000222702,39.98557000025545],[-79.823490000063373,40.000720000128069],[-79.841220000202725,40.015609999701894],[-79.859479999602172,40.029970000015624],[-79.878250000037383,40.043820000193023],[-79.907069999880491,40.063930000369396],[-79.926620000312653,40.076990000088585],[-79.946439999706115,40.089790000408357],[-79.956479999552243,40.096059999969157],[-79.976700000304675,40.108470000290424],[-80.007740000000865,40.126359999714339],[-80.029109999826517,40.13758999957895],[-80.050490000113314,40.148829999904706],[-80.072140000260674,40.159800000369842],[-80.094049999807567,40.17050999963692],[-80.126510000236237,40.186969999665905],[-80.137339999641142,40.192449999667872],[-80.159499999924947,40.202900000434795],[-80.181669999770577,40.213350000302398],[-80.215710000216234,40.228239999876223],[-80.227310000056377,40.232939999881239],[-80.25103000033414,40.241829999754827],[-80.274769999735611,40.25071000006659],[-80.311270000310174,40.263109999926712],[-80.323530000009384,40.267170000095575],[-80.348050000307182,40.275259999949185],[-80.385069999680638,40.28714999967292],[-80.397589999678644,40.290930000419337],[-80.435670000270193,40.30177999984727],[-80.448440000105791,40.305300000294949],[-80.474260000098809,40.312100000015164],[-80.500340000390622,40.318629999874759],[-80.526680000081853,40.324889999873733],[-80.553269999610677,40.330900000035115],[-80.593699999755074,40.339390000348374],[-80.620939999581196,40.344750000212514],[-80.634640000035859,40.3473600000641],[-80.661759999724097,40.352840000066124],[-80.688880000311656,40.358329999629916],[-80.716260000298689,40.363550000232465],[-80.758509999836519,40.370209999791825],[-80.787839999816015,40.373480000401855],[-80.818350000252224,40.375569999655909],[-80.849779999946918,40.37673999965142],[-80.881850000377085,40.377269999810778],[-80.914320000367638,40.377400000409864],[-80.946909999596699,40.377400000409864],[-80.979519999748106,40.377400000409864],[-81.012109999876486,40.377400000409864],[-81.044720000027894,40.377400000409864],[-81.077310000156274,40.377400000409864],[-81.109769999685625,40.377269999810778],[-81.141849999677618,40.376750000112565],[-81.173280000271689,40.375569999655909],[-81.203780000246695,40.373480000401855],[-81.233119999788073,40.370209999791825],[-81.261410000371086,40.365899999785313],[-81.289180000356623,40.361070000080588],[-81.31683000020422,40.356109999776834],[-81.344600000189757,40.351269999610963],[-81.372769999735567,40.346829999904742],[-81.401190000018403,40.342660000059084],[-81.429220000302678,40.338089999753834],[-81.456469999690626,40.33272999988975],[-81.482939999980886,40.326590000028602],[-81.508639999836021,40.319670000170504],[-81.533670000270206,40.312100000015164],[-81.558579999667131,40.304389999698856],[-81.583739999801026,40.296939999681399],[-81.609160000233715,40.289760000423826],[-81.634719999927938,40.282709999966698],[-81.660140000360627,40.27552000024798],[-81.685180000356638,40.267950000092583],[-81.709559999594205,40.259720000078062],[-81.744509999736579,40.245749999762836],[-81.755719999578218,40.24065000019749],[-81.789089999703606,40.225110000326424],[-81.799929999569713,40.219619999863255],[-81.832380000436558,40.203170000295415],[-81.843340000440548,40.197810000431332],[-81.865109999826529,40.186969999665905],[-81.88675999997389,40.175989999638944],[-81.919490000263181,40.159800000369842],[-81.930310000106317,40.154309999906729],[-81.951949999792532,40.143340000340913],[-81.984680000081823,40.127139999711346],[-81.995499999924959,40.121659999709379],[-82.038410000221234,40.099329999679867],[-82.038399999760088,40.099329999679867],[-82.059390000048381,40.087700000254927],[-82.079609999901493,40.075289999933716],[-82.09916999989548,40.06223000021447],[-82.127590000178259,40.041730000039593],[-82.14584000001588,40.027360000164038],[-82.164350000152297,40.013260000149046],[-82.183130000149276,39.999409999971647],[-82.201899999685111,39.98557000025545],[-82.220679999682147,39.971720000078108],[-82.239459999679127,39.957869999900709],[-82.257969999815543,39.943769999885717],[-82.27623000011431,39.929400000010162],[-82.294749999812552,39.915290000433345],[-82.313520000247706,39.901449999817771],[-82.342210000391105,39.881200000379863],[-82.351849999777585,39.874539999921183],[-82.371409999771572,39.861480000201993],[-82.400759999774039,39.841889999723833],[-82.410529999759603,39.835359999864238],[-82.439349999602712,39.815249999687865],[-82.448869999750571,39.808460000428852],[-82.467640000185781,39.794610000251453],[-82.486150000322141,39.780510000236461],[-82.504409999721588,39.766140000360849],[-82.513669999570709,39.759089999903722],[-82.541699999854984,39.73817999970737],[-82.560470000290195,39.724339999991173],[-82.569859999839025,39.717420000133075],[-82.60727999967213,39.689599999640393],[-82.616540000420571,39.68253999962144],[-82.634799999820018,39.668169999745828],[-82.662689999943439,39.647149999872738],[-82.672080000391588,39.640219999553494],[-82.691119999788043,39.626640000136035],[-82.710420000382612,39.613320000118051],[-82.729980000376599,39.600260000398862],[-82.739759999923933,39.593729999639891],[-82.769100000364631,39.574140000061107],[-82.798430000344126,39.554549999582946],[-82.80820999989146,39.548019999723351],[-82.827769999885504,39.534960000004162],[-82.847340000340637,39.521900000284916],[-82.876539999721103,39.502169999645901],[-82.886180000006902,39.495510000086597],[-82.905229999864503,39.481929999769818],[-82.933260000148778,39.461030000034611],[-82.942510000436073,39.453970000015659],[-82.96076999983552,39.439609999701872],[-82.979290000433082,39.425500000125055],[-83.007580000116832,39.404870000250469],[-83.026750000112315,39.391410000071573],[-83.036390000398114,39.38474999961295],[-83.046169999945448,39.378219999753355],[-83.065729999939435,39.365160000034109],[-83.095070000380133,39.345569999556005],[-83.11435999961418,39.332239999976139],[-83.133399999909955,39.318659999659417],[-83.152179999906991,39.304819999943163],[-83.170690000043351,39.290710000366346],[-83.188950000342118,39.276339999591471],[-83.20747000004036,39.262239999576479],[-83.23575999972411,39.241600000140068],[-83.245279999871968,39.234809999981678],[-83.274349999552726,39.214960000104043],[-83.284129999999379,39.208430000244448],[-83.303699999555249,39.195369999625939],[-83.323249999987411,39.182300000344867],[-83.342809999981398,39.169239999726358],[-83.352579999966906,39.162709999866763],[-83.372150000422096,39.149650000147517],[-83.411250000387099,39.123529999809762],[-83.421040000395578,39.116999999950167],[-83.440600000389622,39.103940000230978],[-83.46016000038361,39.090870000050586],[-83.479720000377597,39.077810000331397],[-83.509059999918975,39.058219999853236],[-83.518829999904483,39.051689999993641],[-83.528490000213253,39.045030000434338],[-83.566560000343657,39.017860000238954],[-83.575940000330661,39.010940000380856],[-83.594449999567701,38.996840000365864],[-83.612709999866468,38.982469999590933],[-83.631220000002884,38.968360000014115],[-83.640609999551714,38.961440000156017],[-83.669040000295695,38.94093999998114],[-83.678699999705088,38.934269999960691],[-83.707899999984932,38.914549999782821],[-83.727459999978919,38.901490000063575],[-83.737240000425572,38.89496000020398],[-83.776349999952458,38.868839999866225],[-83.795909999946446,38.85576999968589],[-83.805690000393099,38.849239999826295],[-83.825239999925941,38.836180000107049],[-83.844799999919928,38.82312000038786],[-83.864090000053352,38.809800000369876],[-83.892519999897956,38.789289999733853],[-83.911159999734082,38.775309999856745],[-83.920430000044348,38.768260000298937],[-83.938670000320144,38.753899999985151],[-83.966579999567216,38.732869999650916],[-83.966579999567216,38.73286000008909],[-83.99501000031114,38.712359999914213],[-84.01431000000639,38.699039999896229],[-84.033860000438551,38.68598000017704],[-84.063199999979929,38.666389999698879],[-84.072980000426583,38.659859999839284],[-84.101789999808545,38.639740000101085],[-84.111309999956404,38.632949999942696],[-84.130089999953441,38.619110000226499],[-84.148609999651683,38.604999999750362],[-84.166849999927422,38.590640000335895],[-84.185380000086809,38.576529999859758],[-84.194760000073813,38.56961000000166],[-84.223189999918475,38.549100000264957],[-84.242489999613667,38.535780000246973],[-84.252270000060321,38.529250000387378],[-84.281600000039873,38.509659999909218],[-84.30116000003386,38.496600000190028],[-84.320450000167284,38.483280000172044],[-84.339489999563739,38.46969000029344],[-84.358269999560719,38.455840000116041],[-84.37679000015828,38.441729999639904],[-84.395030000434076,38.427370000225494],[-84.422939999681148,38.406339999891202],[-84.432330000129298,38.399420000033103],[-84.441710000116302,38.392500000175005],[-84.469879999662169,38.371730000139564],[-84.488659999659149,38.357879999962165],[-84.507169999795565,38.343770000385348],[-84.525430000094332,38.329410000071618],[-84.543929999769546,38.315299999595425],[-84.562709999766582,38.301459999879228],[-84.581759999624182,38.287879999562449],[-84.601060000218752,38.274560000443785],[-84.620609999751593,38.261499999825276],[-84.640169999745581,38.248440000106086],[-84.659729999739568,38.235369999925695],[-84.679030000334137,38.222049999907711],[-84.698060000168766,38.208469999590932],[-84.716840000165746,38.194629999874735],[-84.735350000302162,38.180520000297918],[-84.753609999701609,38.166150000422306],[-84.772130000299171,38.152050000407314],[-84.800290000283155,38.131269999910728],[-84.809679999832042,38.12435000005263],[-84.837839999816026,38.103580000017132],[-84.847230000264176,38.096660000159034],[-84.865740000400592,38.082560000144042],[-84.883990000238214,38.06819000026843],[-84.911900000384605,38.047159999934195],[-84.930680000381585,38.033320000217998],[-84.940060000368589,38.026400000359899],[-84.968229999914456,38.005630000324402],[-84.977620000362606,37.998700000005158],[-84.996120000037877,37.984599999990166],[-85.014389999898469,37.970230000114555],[-85.03288999957374,37.956130000099563],[-85.051680000031865,37.942279999922221],[-85.0704499995677,37.928440000205967],[-85.098479999852032,37.907539999571497],[-85.116740000150799,37.893169999695886],[-85.125739999701125,37.885850000277458],[-85.143210000441059,37.870700000404838],[-85.160680000281673,37.855549999632899],[-85.178150000122287,37.840399999760336],[-85.196150000122316,37.825780000047132],[-85.224049999807562,37.804740000151014],[-85.233440000255712,37.797820000292916],[-85.252209999791546,37.783970000115573],[-85.270739999950933,37.769870000100582],[-85.297449999617697,37.747669999770835],[-85.306200000229694,37.740090000053613],[-85.332399999760071,37.717370000025653],[-85.341139999910979,37.709790000308431],[-85.359130000349126,37.695160000134024],[-85.377639999586222,37.681049999657887],[-85.396419999583202,37.66720999994169],[-85.415199999580238,37.653370000225493],[-85.433720000177743,37.639259999749356],[-85.460429999844507,37.617049999857727],[-85.469179999557241,37.609479999702387],[-85.495390000448083,37.586750000112545],[-85.504129999699614,37.579179999957205],[-85.531370000425056,37.557500000224991],[-85.540630000274177,37.550449999767807],[-85.568799999820044,37.529679999732366],[-85.596689999943464,37.508650000297393],[-85.614689999943437,37.494029999684869],[-85.623309999956405,37.486320000267938],[-85.648860000088803,37.462940000380854],[-85.673499999625164,37.438640000335909],[-85.68172000007786,37.430549999582979],[-85.698140000060846,37.414349999852732],[-85.715099999765073,37.398669999820754],[-85.732319999768094,37.383259999649397],[-85.750299999745096,37.368639999936192],[-85.768809999881512,37.354530000359375],[-85.787589999878492,37.340689999743859],[-85.806369999875471,37.326839999566459],[-85.824869999550742,37.312729999989642],[-85.851480000001914,37.290399999960187],[-85.86007999999191,37.282689999643935],[-85.877030000134312,37.267020000073103],[-85.901669999670617,37.2427200000281],[-85.909890000123312,37.234630000174491],[-85.926060000268706,37.218170000145562],[-85.950579999667127,37.193749999962677],[-85.958659999958911,37.185519999948212],[-85.975079999941954,37.169320000217965],[-85.991259999649174,37.152869999750806],[-86.015900000084855,37.12856999970586],[-86.032589999928462,37.11263999983629],[-86.041060000218749,37.104799999820273],[-86.058269999760569,37.089389999648915],[-86.085529999609662,37.067700000354876],[-86.094790000358103,37.060649999897748],[-86.122950000342144,37.039879999862251],[-86.122959999903969,37.039890000323396],[-86.159849999577716,37.011539999671413],[-86.168850000027362,37.004229999814811],[-86.186059999569238,36.988819999643397],[-86.203000000149757,36.973139999611419],[-86.227650000147264,36.948850000027619],[-86.235860000138814,36.940749999712864],[-86.243940000430598,36.932530000159545],[-86.26845999982902,36.908100000414834],[-86.284629999974413,36.891640000385848],[-86.301060000418602,36.875450000217484],[-86.317220000102793,36.858990000188498],[-86.341740000400591,36.834560000443787],[-86.358029999784549,36.818239999676393],[-86.366250000237244,36.810140000260958],[-86.382420000382581,36.793680000231973],[-86.406939999781059,36.769260000049087],[-86.415020000072843,36.761030000034623],[-86.431440000055829,36.744830000304432],[-86.447619999763049,36.728379999837273],[-86.472120000037876,36.703950000092561],[-86.480209999891485,36.695720000078097],[-86.504730000189227,36.671299999895211],[-86.512820000042836,36.663069999880747],[-86.529240000025879,36.646879999712382],[-86.545410000171273,36.630419999683397],[-86.569920000007869,36.606000000399831],[-86.578000000299653,36.597770000385367],[-86.602519999698131,36.573339999741336],[-86.610599999989915,36.565109999726872],[-86.627030000434047,36.548919999558507],[-86.643199999680121,36.532460000428841],[-86.659619999663164,36.516270000260477],[-86.684010000261196,36.491709999916736],[-86.692209999791544,36.48362000006307],[-86.708390000398083,36.467160000034141],[-86.732900000234736,36.44273000028943],[-86.740990000088345,36.434500000274966],[-86.765499999924941,36.41008000009208],[-86.773580000216725,36.401850000077559],[-86.798099999615204,36.37742999989473],[-86.806179999906988,36.369190000318383],[-86.822610000351119,36.353000000150018],[-86.846980000026861,36.328450000267424],[-86.863290000333166,36.312119999938204],[-86.87136999972563,36.303889999923683],[-86.887800000169761,36.287699999755318],[-86.903979999876981,36.271230000164508],[-86.928480000151808,36.246809999981679],[-86.944789999558736,36.230479999652403],[-86.952999999550229,36.222389999798793],[-86.977390000148262,36.197830000354372],[-86.985600000139812,36.189739999601443],[-87.001770000285205,36.173279999572458],[-87.018199999830017,36.157090000303413],[-87.042439999806049,36.132400000259963],[-87.050520000097833,36.124170000245442],[-87.06618000010684,36.107189999618925],[-87.088869999650683,36.08093999958146],[-87.096169999945459,36.071929999569988],[-87.117160000233696,36.043980000276918],[-87.124069999630649,36.034569999805797],[-87.137890000223251,36.015760000223963],[-87.159269999610672,35.988200000030133],[-87.166580000366594,35.979190000018605],[-87.189789999608706,35.95345999967941],[-87.197609999601696,35.944970000265471],[-87.221860000038873,35.92028999978379],[-87.229940000330657,35.912059999769326],[-87.246109999576731,35.895599999740341],[-87.261760000023855,35.878620000013143],[-87.284449999567698,35.852369999975679],[-87.291749999862475,35.843350000402324],[-87.312740000150768,35.815400000209991],[-87.319660000008867,35.806000000200015],[-87.333479999702092,35.787189999718862],[-87.347559999694113,35.768649999997649],[-87.362160000283666,35.750620000412823],[-87.377290000133314,35.733120000088093],[-87.39241000042108,35.71561000020148],[-87.414839999666128,35.689110000326423],[-87.422139999960905,35.680089999853749],[-87.443130000249198,35.65215000012256],[-87.456940000380598,35.633339999641407],[-87.463849999777551,35.623930000069606],[-87.477679999931922,35.605119999588453],[-87.491759999923943,35.586570000305414],[-87.506100000214758,35.568289999983676],[-87.52710000006482,35.540339999791286],[-87.540919999758103,35.521530000209509],[-87.547839999616201,35.512119999738331],[-87.568560000043874,35.483910000146523],[-87.575470000340147,35.474510000136547],[-87.596729999589684,35.446820000242951],[-87.603900000184751,35.437679999632451],[-87.617980000176772,35.419130000349355],[-87.638590000028387,35.390790000158518],[-87.652019999723109,35.371589999678861],[-87.658669999720587,35.361919999808265],[-87.671710000316182,35.342330000229481],[-87.691259999849024,35.312940000181015],[-87.704300000444562,35.293349999702855],[-87.717329999679635,35.273760000124071],[-87.730379999836998,35.25416999964591],[-87.736889999673622,35.244370000075605],[-87.756449999667666,35.21498000002714],[-87.769490000263204,35.195390000448299],[-87.782529999959422,35.175799999970195],[-87.79556999965564,35.156210000391354],[-87.808470000090324,35.136490000213485],[-87.821130000249184,35.116500000174995],[-87.82737999978707,35.106449999867721],[-87.845510000386128,35.07561999996318],[-87.851380000386598,35.065170000095577],[-87.868190000368145,35.03303999959644],[-87.879269999610699,35.011489999563992],[-87.884749999612666,35.000649999697885],[-87.900919999758059,34.967860000238943],[-87.911870000200224,34.946190000068611],[-87.917350000202248,34.935339999741359],[-87.933529999909467,34.902559999844243],[-87.944469999890487,34.880880000112086],[-87.955289999733623,34.859069999780786],[-87.966120000037847,34.837260000348863],[-87.977080000041838,34.815570000155503],[-87.987890000323148,34.79375999982426],[-87.99871999972811,34.771950000392337],[-88.009670000170274,34.750269999760803],[-88.015150000172241,34.739429999894696],[-88.031309999856489,34.706640000435812],[-88.04226999986048,34.684959999804278],[-88.052960000003907,34.663019999773326],[-88.063389999848482,34.640820000342899],[-88.073689999993405,34.618479999852241],[-88.083470000440059,34.595630000124572],[-88.088170000445075,34.583999999800312],[-88.10197000011533,34.548870000350405],[-88.111240000425596,34.525489999564002],[-88.120369999675631,34.501979999977152],[-88.129619999962927,34.478600000090069],[-88.138890000273193,34.455220000202985],[-88.147619999962899,34.431310000156543],[-88.155709999816509,34.406760000273948],[-88.16327000041008,34.381680000231995],[-88.170429999644682,34.356219999753307],[-88.173950000092304,34.343409999871767],[-88.184649999797557,34.305149999972684],[-88.192079999792043,34.279940000230965],[-88.19585999963914,34.267400000209989],[-88.20734000024072,34.229909999846768],[-88.214369999775556,34.204319999668371],[-88.220890000073325,34.178189999768847],[-88.226880000211736,34.151549999732822],[-88.232369999775585,34.124380000436815],[-88.234979999627171,34.110659999959182],[-88.243189999618664,34.069919999908223],[-88.248539999920979,34.04262000001313],[-88.253489999763588,34.014930000119534],[-88.257790000208217,33.986589999928697],[-88.261050000357102,33.957199999880231],[-88.263139999611212,33.926639999836254],[-88.264309999606667,33.895159999634416],[-88.264830000204256,33.863030000034598],[-88.264970000365111,33.830510000436334],[-88.264970000365111,33.797849999777839],[-88.264970000365111,33.765199999580489],[-88.264970000365111,33.732539999821256],[-88.264970000365111,33.699889999623906],[-88.264970000365111,33.667240000325876],[-88.264970000365111,33.63457999966738],[-88.264970000365111,33.601939999931176],[-88.264839999766082,33.569409999871766],[-88.264320000067869,33.537280000271949],[-88.263150000072358,33.505809999631936],[-88.261059999918984,33.475240000026133],[-88.257799999770043,33.445849999977668],[-88.253489999763588,33.41750999978683],[-88.248539999920979,33.389819999893234],[-88.245800000369627,33.376239999576455],[-88.237720000077843,33.335360000263961],[-88.23236000021376,33.308060000368869],[-88.229630000224233,33.294469999590945],[-88.22415000022221,33.267309999856764],[-88.215550000232213,33.226950000242482],[-88.209410000371122,33.200430000344397],[-88.206159999784063,33.187369999725831],[-88.196520000397584,33.148059999969178],[-88.189989999638669,33.121939999631422],[-88.18347000024022,33.095820000192987],[-88.176960000403596,33.069690000293406],[-88.170440000105827,33.04356999995565],[-88.163790000108293,33.017580000216981],[-88.15687999981202,32.991849999877729],[-88.153229999664632,32.979180000157044],[-88.142269999660641,32.941170000095553],[-88.134449999667652,32.916350000352395],[-88.13041000042108,32.904080000191982],[-88.122330000129296,32.879519999848242],[-88.114240000275686,32.854969999965647],[-88.101990000138301,32.818270000060579],[-88.093769999685605,32.793840000315924],[-88.085690000293198,32.76929000043333],[-88.077610000001414,32.744730000089589],[-88.069379999986893,32.720309999906704],[-88.0611699999954,32.695880000162049],[-88.053089999703616,32.671330000279454],[-88.044999999850006,32.646769999935714],[-88.036789999858513,32.622349999752828],[-88.028570000305137,32.597920000008116],[-88.02049000001341,32.573370000125522],[-88.012409999721626,32.548809999781781],[-88.004190000168251,32.524389999598952],[-88.000139999561213,32.512120000337916],[-87.987879999862002,32.475409999971646],[-87.979799999570218,32.450860000089051],[-87.971600000039871,32.426430000344396],[-87.963379999587232,32.402010000161511],[-87.95934000034066,32.389730000439329],[-87.947199999880013,32.352910000396321],[-87.939119999588229,32.328350000052581],[-87.931299999595183,32.303530000309422],[-87.923869999600697,32.278319999668383],[-87.920350000052338,32.265520000247932],[-87.909800000069822,32.227120000187995],[-87.903150000072344,32.201130000449325],[-87.896620000212749,32.174999999650424],[-87.890110000376126,32.148880000211989],[-87.883590000078357,32.122759999874233],[-87.877060000218705,32.096640000435798],[-87.870539999920936,32.070520000098043],[-87.864150000222253,32.044270000060578],[-87.858030000384133,32.017750000162494],[-87.852160000383606,31.990969999965671],[-87.846549999782553,31.963939999931199],[-87.841209999941441,31.936640000036107],[-87.835859999639183,31.909340000141015],[-87.83024999993745,31.882310000106543],[-87.824370000375097,31.85552999990972],[-87.818260000098803,31.829019999573461],[-87.81187000040012,31.802759999974171],[-87.808490000113295,31.789829999954691],[-87.798310000106312,31.75103999989625],[-87.794659999958924,31.738370000175507],[-87.783710000416079,31.700360000114074],[-87.776000000099828,31.675420000232975],[-87.768320000267693,31.650469999890731],[-87.760879999812062,31.625260000149012],[-87.753710000116314,31.599790000108555],[-87.746810000281187,31.574059999769304],[-87.740160000283709,31.548070000030634],[-87.733630000424057,31.521949999692879],[-87.727110000126288,31.495819999793298],[-87.720600000289664,31.469700000354862],[-87.714079999991895,31.443580000017107],[-87.707429999994417,31.417590000278437],[-87.703910000446058,31.404789999958666],[-87.693340000440571,31.366389999898729],[-87.685910000446086,31.34118000015701],[-87.67808999955372,31.316360000413852],[-87.670010000161255,31.291809999631937],[-87.661929999869471,31.267259999749342],[-87.657880000161754,31.254980000027103],[-87.645750000162252,31.218139999961181],[-87.637930000169263,31.193329999779792],[-87.630500000174777,31.16812000003813],[-87.623320000017884,31.142649999997673],[-87.616420000182757,31.116919999658421],[-87.609639999586193,31.091059999619404],[-87.602719999728095,31.065330000179529],[-87.595550000032347,31.039860000139015],[-87.588120000037861,31.014659999959179],[-87.580300000044872,30.989840000215963],[-87.572210000191262,30.965279999872223],[-87.56817000004537,30.953009999711867],[-87.556049999607694,30.91618000010709],[-87.547959999754084,30.89161999976335],[-87.540130000199269,30.86680999958196],[-87.532700000204727,30.841599999840241],[-87.52919000021825,30.828800000419847],[-87.518620000212763,30.790389999898707],[-87.511850000077345,30.764529999859747],[-87.504939999781072,30.738800000419815],[-87.497759999624179,30.713330000379358],[-87.490329999629694,30.688130000199521],[-87.482640000235733,30.663179999857277],[-87.474940000380627,30.638230000414353],[-87.467510000386085,30.613019999773314],[-87.460339999791074,30.587549999732857],[-87.453439999955947,30.561820000292926],[-87.446789999958412,30.535829999654879],[-87.440260000098817,30.509710000216501],[-87.433750000262194,30.483589999878745],[-87.427229999964425,30.457459999979164],[-87.42070000010483,30.431339999641409],[-87.414179999807061,30.405220000202974],[-87.410930000119322,30.392159999584464],[-87.401140000110786,30.35298000042684],[-87.394630000274162,30.326849999627939],[-87.388109999976393,30.300730000189503],[-87.381580000116799,30.274609999851748],[-87.375190000418058,30.248359999814284],[-87.369060000118793,30.221839999916199],[-87.363199999680148,30.195059999719376],[-87.357589999978416,30.168029999684904],[-87.352250000137303,30.140729999789812],[-87.346899999835045,30.11342999989472],[-87.341419999833022,30.086270000160539],[-87.3359500002922,30.059099999965156],[-87.330470000290177,30.031929999769829],[-87.324999999850036,30.004759999574446],[-87.319639999985895,29.977470000140556],[-87.314300000144783,29.950170000245464],[-87.308820000142816,29.923000000050081],[-87.303480000301647,29.895709999716871],[-87.298519999997893,29.868019999823275],[-87.294230000014409,29.839679999632438],[-87.290960000303642,29.810289999583972],[-87.288879999712094,29.77971999997817],[-87.287700000154757,29.748250000237476],[-87.287179999557225,29.716119999738339],[-87.287049999857516,29.683589999678873],[-87.287049999857516,29.650940000380842],[-87.287049999857516,29.618290000183492],[-87.287049999857516,29.585630000424317],[-87.287049999857516,29.552980000226967],[-87.287049999857516,29.520319999568471],[-87.287049999857516,29.487670000270441],[-87.287049999857516,29.455020000073091],[-87.287049999857516,29.422369999875741],[-87.287049999857516,29.389719999678391],[-87.28719000001837,29.357189999618925],[-87.287700000154757,29.325069999580933],[-87.288879999712094,29.293590000278414],[-87.290969999865524,29.263030000234494],[-87.294230000014409,29.233640000186028],[-87.296189999568696,29.219270000310416],[-87.303340000140793,29.177469999940683],[-87.308169999845518,29.149650000347378],[-87.312609999551739,29.12143999985625],[-87.316390000298156,29.092579999967143],[-87.319639999985895,29.063189999918677],[-87.322909999696606,29.033799999870268],[-87.326690000443079,29.004930000419336],[-87.331250000287184,28.976860000089061],[-87.336590000128297,28.949560000193969],[-87.342589999828533,28.922909999696856],[-87.348980000426593,28.896659999659391],[-87.355510000286188,28.870540000220956],[-87.361890000423102,28.844290000183491],[-87.368030000284193,28.817770000285407],[-87.373889999823518,28.79099999965041],[-87.379500000424571,28.763960000054112],[-87.382239999975923,28.750379999737333],[-87.390200000129823,28.709369999825753],[-87.39568000013179,28.682199999630427],[-87.401149999672668,28.655030000334364],[-87.40662000011281,28.627860000139037],[-87.412100000114833,28.600689999943711],[-87.417450000417091,28.573390000048619],[-87.420060000268677,28.559680000032131],[-87.428410000421081,28.519060000119055],[-87.434269999960406,28.492290000383377],[-87.440400000259672,28.465769999585973],[-87.446780000396586,28.439520000447828],[-87.45329000023321,28.413400000110073],[-87.459820000092805,28.387270000210492],[-87.466340000390574,28.361149999872737],[-87.472850000227197,28.335030000434301],[-87.479369999625703,28.308910000096546],[-87.482629999774588,28.295850000377357],[-87.492279999622156,28.256530000159501],[-87.498409999921478,28.230019999823298],[-87.504290000383094,28.203239999626419],[-87.509880000061855,28.176200000030121],[-87.515230000364113,28.148909999696855],[-87.520579999767051,28.121609999801819],[-87.526190000368103,28.094570000205465],[-87.532060000368631,28.067799999570468],[-87.538180000206751,28.041279999672383],[-87.544569999905491,28.015029999634919],[-87.55109000020326,27.988910000196483],[-87.557490000363146,27.962660000159019],[-87.56347999960218,27.936009999661906],[-87.568950000042378,27.908849999927725],[-87.573919999907957,27.881160000034129],[-87.578350000052353,27.85295000044232],[-87.582519999897954,27.824470000090571],[-87.586809999881496,27.796390000198471],[-87.591110000326125,27.769090000303436],[-87.594910000196251,27.742579999967177],[-87.597509999586691,27.716980000226954],[-87.598030000184281,27.692419999883214],[-87.595670000170287,27.668649999997626],[-87.590330000329175,27.645530000409337],[-87.582120000337625,27.6234599997793],[-87.571430000194255,27.602560000044093],[-87.558910000196249,27.582710000166514],[-87.537919999907956,27.554759999974181],[-87.530349999752559,27.546139999961156],[-87.507279999772095,27.520799999620408],[-87.491499999625205,27.50511999958843],[-87.483810000231244,27.497809999731828],[-87.467640000085851,27.48409999971534],[-87.441439999656154,27.466990000288433],[-87.410800000419556,27.456019999823297]]]},"properties":{"objectid":633,"stormname":"Isaias","stormtype":"HU","basin":"AL","advdate":"1000 AM CDT Fri Oct 09 2026","advisnum":"12","fcstprd":120,"stormnum":9,"idp_source":"al092026-012_5day_pgn","idp_filedate":1791559694000,"idp_ingestdate":1791559739000,"st_area(shape)":30.561511187529366,"st_perimeter(shape)":34.847511716032855,"binnumber":"AT4"}}]}