{"type":"FeatureCollection","features":[{"type":"Feature","id":22714,"geometry":{"type":"Point","coordinates":[-96.500000000399609,22.000000000199975]},"properties":{"objectid":22714,"stormname":"GENESIS022","stormtype":"DB","stormnum":9,"intensity":15,"basin":"al","mslp":0,"dtg":2026100418,"year":2026,"month":"10","day":4,"hhmm":"1800","lat":22,"lon":-96,"ss":0,"idp_source":"AL092026_pts","idp_filedate":1791483482000,"idp_ingestdate":1791483528000,"binnumber":"AT4"}},{"type":"Feature","id":22715,"geometry":{"type":"Point","coordinates":[-96.500000000399609,22.000000000199975]},"properties":{"objectid":22715,"stormname":"GENESIS022","stormtype":"DB","stormnum":9,"intensity":20,"basin":"al","mslp":0,"dtg":2026100500,"year":2026,"month":"10","day":5,"hhmm":"0000","lat":22,"lon":-96,"ss":0,"idp_source":"AL092026_pts","idp_filedate":1791483482000,"idp_ingestdate":1791483528000,"binnumber":"AT4"}},{"type":"Feature","id":22716,"geometry":{"type":"Point","coordinates":[-96.500000000399609,22.000000000199975]},"properties":{"objectid":22716,"stormname":"GENESIS022","stormtype":"DB","stormnum":9,"intensity":25,"basin":"al","mslp":0,"dtg":2026100506,"year":2026,"month":"10","day":5,"hhmm":"0600","lat":22,"lon":-96,"ss":0,"idp_source":"AL092026_pts","idp_filedate":1791483482000,"idp_ingestdate":1791483528000,"binnumber":"AT4"}},{"type":"Feature","id":22717,"geometry":{"type":"Point","coordinates":[-96.500000000399609,22.000000000199975]},"properties":{"objectid":22717,"stormname":"INVEST","stormtype":"DB","stormnum":9,"intensity":25,"basin":"al","mslp":1010,"dtg":2026100512,"year":2026,"month":"10","day":5,"hhmm":"1200","lat":22,"lon":-96,"ss":0,"idp_source":"AL092026_pts","idp_filedate":1791483482000,"idp_ingestdate":1791483528000,"binnumber":"AT4"}},{"type":"Feature","id":22718,"geometry":{"type":"Point","coordinates":[-96.299999999899967,22.199999999800298]},"properties":{"objectid":22718,"stormname":"INVEST","stormtype":"DB","stormnum":9,"intensity":25,"basin":"al","mslp":1010,"dtg":2026100518,"year":2026,"month":"10","day":5,"hhmm":"1800","lat":22,"lon":-96,"ss":0,"idp_source":"AL092026_pts","idp_filedate":1791483482000,"idp_ingestdate":1791483528000,"binnumber":"AT4"}},{"type":"Feature","id":22719,"geometry":{"type":"Point","coordinates":[-96.100000000299644,22.299999999600459]},"properties":{"objectid":22719,"stormname":"INVEST","stormtype":"DB","stormnum":9,"intensity":25,"basin":"al","mslp":1009,"dtg":2026100600,"year":2026,"month":"10","day":6,"hhmm":"0000","lat":22,"lon":-96,"ss":0,"idp_source":"AL092026_pts","idp_filedate":1791483482000,"idp_ingestdate":1791483528000,"binnumber":"AT4"}},{"type":"Feature","id":22720,"geometry":{"type":"Point","coordinates":[-95.99999999960022,22.199999999800298]},"properties":{"objectid":22720,"stormname":"INVEST","stormtype":"DB","stormnum":9,"intensity":25,"basin":"al","mslp":1009,"dtg":2026100606,"year":2026,"month":"10","day":6,"hhmm":"0600","lat":22,"lon":-96,"ss":0,"idp_source":"AL092026_pts","idp_filedate":1791483482000,"idp_ingestdate":1791483528000,"binnumber":"AT4"}},{"type":"Feature","id":22721,"geometry":{"type":"Point","coordinates":[-95.99999999960022,22.000000000199975]},"properties":{"objectid":22721,"stormname":"INVEST","stormtype":"DB","stormnum":9,"intensity":25,"basin":"al","mslp":1008,"dtg":2026100612,"year":2026,"month":"10","day":6,"hhmm":"1200","lat":22,"lon":-96,"ss":0,"idp_source":"AL092026_pts","idp_filedate":1791483482000,"idp_ingestdate":1791483528000,"binnumber":"AT4"}},{"type":"Feature","id":22722,"geometry":{"type":"Point","coordinates":[-95.700000000199736,21.900000000399814]},"properties":{"objectid":22722,"stormname":"NINE","stormtype":"TD","stormnum":9,"intensity":30,"basin":"al","mslp":1007,"dtg":2026100618,"year":2026,"month":"10","day":6,"hhmm":"1800","lat":22,"lon":-96,"ss":0,"idp_source":"AL092026_pts","idp_filedate":1791483482000,"idp_ingestdate":1791483528000,"binnumber":"AT4"}},{"type":"Feature","id":22723,"geometry":{"type":"Point","coordinates":[-95.300000000099828,21.699999999900228]},"properties":{"objectid":22723,"stormname":"NINE","stormtype":"TD","stormnum":9,"intensity":30,"basin":"al","mslp":1006,"dtg":2026100700,"year":2026,"month":"10","day":7,"hhmm":"0000","lat":22,"lon":-95,"ss":0,"idp_source":"AL092026_pts","idp_filedate":1791483482000,"idp_ingestdate":1791483528000,"binnumber":"AT4"}},{"type":"Feature","id":22724,"geometry":{"type":"Point","coordinates":[-94.599999999700117,21.900000000399814]},"properties":{"objectid":22724,"stormname":"ISAIAS","stormtype":"TS","stormnum":9,"intensity":35,"basin":"al","mslp":1004,"dtg":2026100706,"year":2026,"month":"10","day":7,"hhmm":"0600","lat":22,"lon":-95,"ss":0,"idp_source":"AL092026_pts","idp_filedate":1791483482000,"idp_ingestdate":1791483528000,"binnumber":"AT4"}},{"type":"Feature","id":22725,"geometry":{"type":"Point","coordinates":[-93.900000000199725,22.199999999800298]},"properties":{"objectid":22725,"stormname":"ISAIAS","stormtype":"TS","stormnum":9,"intensity":40,"basin":"al","mslp":1002,"dtg":2026100712,"year":2026,"month":"10","day":7,"hhmm":"1200","lat":22,"lon":-94,"ss":0,"idp_source":"AL092026_pts","idp_filedate":1791483482000,"idp_ingestdate":1791483528000,"binnumber":"AT4"}},{"type":"Feature","id":22726,"geometry":{"type":"Point","coordinates":[-93.299999999600175,22.500000000100044]},"properties":{"objectid":22726,"stormname":"ISAIAS","stormtype":"TS","stormnum":9,"intensity":50,"basin":"al","mslp":995,"dtg":2026100718,"year":2026,"month":"10","day":7,"hhmm":"1800","lat":22,"lon":-93,"ss":0,"idp_source":"AL092026_pts","idp_filedate":1791483482000,"idp_ingestdate":1791483528000,"binnumber":"AT4"}},{"type":"Feature","id":22727,"geometry":{"type":"Point","coordinates":[-92.299999999800036,22.699999999700367]},"properties":{"objectid":22727,"stormname":"ISAIAS","stormtype":"TS","stormnum":9,"intensity":60,"basin":"al","mslp":988,"dtg":2026100800,"year":2026,"month":"10","day":8,"hhmm":"0000","lat":23,"lon":-92,"ss":0,"idp_source":"AL092026_pts","idp_filedate":1791483482000,"idp_ingestdate":1791483528000,"binnumber":"AT4"}},{"type":"Feature","id":22728,"geometry":{"type":"Point","coordinates":[-91.49999999960022,23.099999999800275]},"properties":{"objectid":22728,"stormname":"ISAIAS","stormtype":"HU","stormnum":9,"intensity":70,"basin":"al","mslp":981,"dtg":2026100806,"year":2026,"month":"10","day":8,"hhmm":"0600","lat":23,"lon":-92,"ss":1,"idp_source":"AL092026_pts","idp_filedate":1791483482000,"idp_ingestdate":1791483528000,"binnumber":"AT4"}},{"type":"Feature","id":22729,"geometry":{"type":"Point","coordinates":[-90.599999999600186,23.400000000100079]},"properties":{"objectid":22729,"stormname":"ISAIAS","stormtype":"HU","stormnum":9,"intensity":70,"basin":"al","mslp":976,"dtg":2026100812,"year":2026,"month":"10","day":8,"hhmm":"1200","lat":23,"lon":-91,"ss":1,"idp_source":"AL092026_pts","idp_filedate":1791483482000,"idp_ingestdate":1791483528000,"binnumber":"AT4"}}]}