{"type":"FeatureCollection","features":[{"type":"Feature","id":604,"geometry":{"type":"LineString","coordinates":[[-88.400000000399586,25.399999999700356],[-87.600000000199771,27.099999999900206],[-87.100000000299644,29.899999999700356],[-87.299999999899967,32.199999999600436],[-87.500000000399609,34.100000000299929],[-86.099999999600186,36.099999999900206],[-83.000000000399609,37.999999999700378]]},"properties":{"objectid":604,"stormname":"Isaias","stormtype":"HU","basin":"AL","advdate":"1000 PM CDT Thu Oct 08 2026","advisnum":"10","fcstprd":120,"stormnum":9,"idp_source":"al092026-010_5day_lin","idp_filedate":1791516480000,"idp_ingestdate":1791516505000,"st_length(shape)":15.019541462745163,"binnumber":"AT4"}}]}