{"type":"FeatureCollection","features":[{"type":"Feature","id":4453,"geometry":{"type":"Point","coordinates":[-92.900000000399586,22.699999999700367]},"properties":{"objectid":4453,"stormname":"Tropical Storm Isaias","stormtype":"TS","dvlbl":"S","basin":"AL","advdate":"400 PM CDT Wed Oct 07 2026","advisnum":"5","fcstprd":120,"gust":65,"maxwind":55,"mslp":994,"ssnum":0,"datelbl":"4:00 PM Wed","tcdvlp":"Tropical Storm","tcdir":65,"tcspd":7,"fldatelbl":"2026-10-07 1:00 PM Wed CDT","lat":23,"lon":-93,"stormnum":9,"stormsrc":"Tropical Cyclone","tau":0,"timezone":"CDT","validtime":"07/1800","idp_source":"al092026-005_5day_pts","idp_filedate":1791408473000,"idp_ingestdate":1791408502000,"binnumber":"AT4"}},{"type":"Feature","id":4454,"geometry":{"type":"Point","coordinates":[-91.799999999899967,23.099999999800275]},"properties":{"objectid":4454,"stormname":"Tropical Storm Isaias","stormtype":"HU","dvlbl":"H","basin":"AL","advdate":"400 PM CDT Wed Oct 07 2026","advisnum":"5","fcstprd":120,"gust":85,"maxwind":70,"mslp":9999,"ssnum":1,"datelbl":"1:00 AM Thu","tcdvlp":"Hurricane","tcdir":9999,"tcspd":9999,"fldatelbl":"2026-10-08 1:00 AM Thu CDT","lat":23,"lon":-92,"stormnum":9,"stormsrc":"Tropical Cyclone","tau":12,"timezone":"CDT","validtime":"08/0600","idp_source":"al092026-005_5day_pts","idp_filedate":1791408473000,"idp_ingestdate":1791408502000,"binnumber":"AT4"}},{"type":"Feature","id":4455,"geometry":{"type":"Point","coordinates":[-90.099999999700117,24.09999999960047]},"properties":{"objectid":4455,"stormname":"Tropical Storm Isaias","stormtype":"HU","dvlbl":"H","basin":"AL","advdate":"400 PM CDT Wed Oct 07 2026","advisnum":"5","fcstprd":120,"gust":100,"maxwind":80,"mslp":9999,"ssnum":1,"datelbl":"1:00 PM Thu","tcdvlp":"Hurricane","tcdir":9999,"tcspd":9999,"fldatelbl":"2026-10-08 1:00 PM Thu CDT","lat":24,"lon":-90,"stormnum":9,"stormsrc":"Tropical Cyclone","tau":24,"timezone":"CDT","validtime":"08/1800","idp_source":"al092026-005_5day_pts","idp_filedate":1791408473000,"idp_ingestdate":1791408502000,"binnumber":"AT4"}},{"type":"Feature","id":4456,"geometry":{"type":"Point","coordinates":[-88.69999999980007,25.79999999980032]},"properties":{"objectid":4456,"stormname":"Tropical Storm Isaias","stormtype":"HU","dvlbl":"H","basin":"AL","advdate":"400 PM CDT Wed Oct 07 2026","advisnum":"5","fcstprd":120,"gust":110,"maxwind":90,"mslp":9999,"ssnum":2,"datelbl":"1:00 AM Fri","tcdvlp":"Hurricane","tcdir":9999,"tcspd":9999,"fldatelbl":"2026-10-09 1:00 AM Fri CDT","lat":26,"lon":-89,"stormnum":9,"stormsrc":"Tropical Cyclone","tau":36,"timezone":"CDT","validtime":"09/0600","idp_source":"al092026-005_5day_pts","idp_filedate":1791408473000,"idp_ingestdate":1791408502000,"binnumber":"AT4"}},{"type":"Feature","id":4457,"geometry":{"type":"Point","coordinates":[-87.600000000199771,28.099999999700344]},"properties":{"objectid":4457,"stormname":"Tropical Storm Isaias","stormtype":"HU","dvlbl":"H","basin":"AL","advdate":"400 PM CDT Wed Oct 07 2026","advisnum":"5","fcstprd":120,"gust":115,"maxwind":95,"mslp":9999,"ssnum":2,"datelbl":"1:00 PM Fri","tcdvlp":"Hurricane","tcdir":9999,"tcspd":9999,"fldatelbl":"2026-10-09 1:00 PM Fri CDT","lat":28,"lon":-88,"stormnum":9,"stormsrc":"Tropical Cyclone","tau":48,"timezone":"CDT","validtime":"09/1800","idp_source":"al092026-005_5day_pts","idp_filedate":1791408473000,"idp_ingestdate":1791408502000,"binnumber":"AT4"}},{"type":"Feature","id":4458,"geometry":{"type":"Point","coordinates":[-87.299999999899967,31.000000000199975]},"properties":{"objectid":4458,"stormname":"Tropical Storm Isaias","stormtype":"TS","dvlbl":"S","basin":"AL","advdate":"400 PM CDT Wed Oct 07 2026","advisnum":"5","fcstprd":120,"gust":75,"maxwind":60,"mslp":9999,"ssnum":0,"datelbl":"1:00 AM Sat","tcdvlp":"Tropical Storm","tcdir":9999,"tcspd":9999,"fldatelbl":"2026-10-10 1:00 AM Sat CDT","lat":31,"lon":-87,"stormnum":9,"stormsrc":"Tropical Cyclone","tau":60,"timezone":"CDT","validtime":"10/0600","idp_source":"al092026-005_5day_pts","idp_filedate":1791408473000,"idp_ingestdate":1791408502000,"binnumber":"AT4"}},{"type":"Feature","id":4459,"geometry":{"type":"Point","coordinates":[-87.500000000399609,33.999999999600448]},"properties":{"objectid":4459,"stormname":"Tropical Storm Isaias","stormtype":"STD","dvlbl":"D","basin":"AL","advdate":"400 PM CDT Wed Oct 07 2026","advisnum":"5","fcstprd":120,"gust":40,"maxwind":30,"mslp":9999,"ssnum":0,"datelbl":"1:00 PM Sat","tcdvlp":"Subtropical Depression","tcdir":9999,"tcspd":9999,"fldatelbl":"2026-10-10 1:00 PM Sat CDT","lat":34,"lon":-88,"stormnum":9,"stormsrc":"Post-Tropical Cyclone","tau":72,"timezone":"CDT","validtime":"10/1800","idp_source":"al092026-005_5day_pts","idp_filedate":1791408473000,"idp_ingestdate":1791408502000,"binnumber":"AT4"}},{"type":"Feature","id":4460,"geometry":{"type":"Point","coordinates":[-84.500000000099817,37.499999999800309]},"properties":{"objectid":4460,"stormname":"Tropical Storm Isaias","stormtype":"STD","dvlbl":"D","basin":"AL","advdate":"400 PM CDT Wed Oct 07 2026","advisnum":"5","fcstprd":120,"gust":20,"maxwind":15,"mslp":9999,"ssnum":0,"datelbl":"1:00 PM Sun","tcdvlp":"Subtropical Depression","tcdir":9999,"tcspd":9999,"fldatelbl":"2026-10-11 1:00 PM Sun CDT","lat":38,"lon":-84,"stormnum":9,"stormsrc":"Post-Tropical Cyclone","tau":96,"timezone":"CDT","validtime":"11/1800","idp_source":"al092026-005_5day_pts","idp_filedate":1791408473000,"idp_ingestdate":1791408502000,"binnumber":"AT4"}}]}