{"type":"FeatureCollection","features":[{"type":"Feature","id":570,"geometry":{"type":"LineString","coordinates":[[-91.200000000199736,23.300000000299917],[-89.999999999899956,24.200000000299895],[-88.599999999999909,25.899999999600425],[-87.600000000199771,28.400000000000148],[-87.600000000199771,31.000000000199975],[-88.500000000199748,33.700000000200021],[-88.69999999980007,36.000000000100044]]},"properties":{"objectid":570,"stormname":"Isaias","stormtype":"HU","basin":"AL","advdate":"400 AM CDT Thu Oct 08 2026","advisnum":"7","fcstprd":120,"stormnum":9,"idp_source":"al092026-007_5day_lin","idp_filedate":1791451699000,"idp_ingestdate":1791451763000,"st_length(shape)":14.149583128395228,"binnumber":"AT4"}}]}