{"type":"FeatureCollection","features":[{"type":"Feature","id":598,"geometry":{"type":"Polygon","coordinates":[[[-88.888109999676658,24.646270000060611],[-88.864299999745072,24.642639999936193],[-88.838550000282169,24.640950000242469],[-88.811110000226222,24.640959999804295],[-88.783039999895948,24.642639999936193],[-88.755340000440583,24.646270000060611],[-88.728680000381587,24.651710000016635],[-88.703320000017868,24.658709999966675],[-88.679639999786048,24.667399999610438],[-88.646770000235222,24.683090000103562],[-88.636539999721094,24.689049999757799],[-88.616870000050369,24.701749999962658],[-88.590080000291664,24.723529999809784],[-88.573520000147766,24.739350000002617],[-88.558000000299671,24.756200000030105],[-88.542980000126818,24.773569999755807],[-88.52797000041511,24.790940000380829],[-88.512440000105812,24.807790000408318],[-88.496909999796571,24.824640000435807],[-88.480859999789061,24.840980000326908],[-88.464820000242696,24.857309999756808],[-88.448509999936448,24.873379999787289],[-88.432470000390083,24.889719999678391],[-88.416160000083835,24.905789999708873],[-88.40011999963815,24.922120000038092],[-88.383799999770076,24.938199999630399],[-88.367769999785537,24.954529999959675],[-88.351719999778084,24.970869999850777],[-88.336190000368106,24.987719999878209],[-88.320920000357603,25.004830000204493],[-88.306419999882962,25.022719999628407],[-88.292430000444085,25.041120000088085],[-88.271870000200238,25.069119999888244],[-88.25816000018375,25.087790000208486],[-88.251300000394622,25.097130000149548],[-88.237319999618194,25.11552999970985],[-88.223080000341611,25.133680000331879],[-88.2022500002372,25.161419999833242],[-88.195390000448072,25.170759999774305],[-88.181930000269176,25.189679999932196],[-88.162259999699131,25.21859000032839],[-88.15578999990845,25.228309999806811],[-88.136889999773587,25.258000000200013],[-88.1306800002817,25.267979999977172],[-88.112560000143787,25.298439999906236],[-88.106610000051376,25.308679999982132],[-88.094959999704145,25.329420000432833],[-88.083049999957439,25.349899999685363],[-88.070879999911938,25.370129999999619],[-88.05226000009884,25.400070000230471],[-88.046049999707634,25.410050000007629],[-88.027539999571218,25.440130000399336],[-88.015500000124803,25.460479999952156],[-88.009550000032391,25.470720000028109],[-87.997910000146305,25.491459999579433],[-87.986009999961425,25.511939999731339],[-87.967619999962949,25.542140000260929],[-87.955200000079856,25.562110000276448],[-87.948989999688649,25.572090000053606],[-87.936569999805556,25.592049999607923],[-87.918449999667644,25.622519999998133],[-87.906680000081849,25.643129999849748],[-87.900859999689146,25.65349999962541],[-87.882870000150263,25.684090000153503],[-87.876790000358142,25.694199999630428],[-87.858149999622697,25.724150000322425],[-87.845720000177778,25.744109999876741],[-87.839509999786571,25.7540899996539],[-87.821400000109804,25.784549999582964],[-87.809620000062864,25.805169999895725],[-87.803790000108336,25.815539999671387],[-87.791889999923455,25.836019999823293],[-87.773510000386125,25.866220000352882],[-87.761080000041886,25.886190000368344],[-87.75486999965068,25.89617000014556],[-87.742449999767587,25.916129999699876],[-87.730290000183231,25.936349999552988],[-87.718380000436582,25.956840000166039],[-87.706739999651177,25.977579999717364],[-87.688750000112293,26.008170000245457],[-87.682659999859027,26.018279999722324],[-87.664029999584727,26.048230000414321],[-87.65782000009284,26.058199999730334],[-87.63932000041757,26.08828000012204],[-87.633239999726129,26.098389999598965],[-87.615500000024895,26.129240000425796],[-87.603730000439043,26.149859999839236],[-87.591690000093308,26.170210000291434],[-87.585619999863013,26.180319999768301],[-87.566980000026888,26.210259999999153],[-87.554560000143795,26.230219999553469],[-87.548340000190763,26.240209999791773],[-87.536170000145262,26.260429999644884],[-87.524519999798031,26.281170000095585],[-87.513399999610215,26.302430000244442],[-87.502269999860516,26.323690000393356],[-87.491129999649672,26.344949999642893],[-87.480019999922945,26.366209999791806],[-87.468369999575714,26.38695000024245],[-87.456189999968444,26.407170000095562],[-87.437559999694145,26.437110000326413],[-87.431350000202258,26.447099999665397],[-87.418930000319165,26.467060000119034],[-87.406760000273664,26.487279999972145],[-87.395120000387578,26.508020000422846],[-87.378429999644652,26.53990999974684],[-87.372859999988918,26.550539999821297],[-87.361989999638695,26.572060000268948],[-87.34595000009233,26.60459999989024],[-87.340519999698131,26.615359999664406],[-87.324339999990912,26.647769999585933],[-87.319029999734596,26.658659999959184],[-87.308169999845518,26.68016999994569],[-87.297029999634674,26.701439999656429],[-87.285899999884975,26.72269000024346],[-87.268169999745567,26.753540000171029],[-87.262089999953446,26.763649999647896],[-87.249659999609207,26.783619999663415],[-87.237239999726114,26.803580000117051],[-87.224819999843021,26.823539999671368],[-87.21264999979752,26.843769999985625],[-87.201000000349609,26.864510000436326],[-87.184309999606683,26.89639999976032],[-87.178750000412094,26.907029999834776],[-87.167880000061871,26.928550000282428],[-87.157270000010385,26.950319999668409],[-87.146390000098336,26.97184000011606],[-87.130219999952942,27.004250000037587],[-87.124920000157772,27.015140000410838],[-87.114040000245723,27.03665999995917],[-87.103169999895499,27.058180000406821],[-87.087130000349134,27.090709999566968],[-87.076259999998911,27.11223000001462],[-87.070820000042886,27.122989999788786],[-87.054770000035376,27.155530000309398],[-87.049330000079351,27.166290000083563],[-87.033159999933957,27.198700000005147],[-87.022420000182763,27.220339999691362],[-87.016980000226738,27.231100000364847],[-87.000930000219228,27.26363999998614],[-86.990590000028362,27.285680000132061],[-86.985410000371132,27.296700000204964],[-86.970660000058842,27.330529999959651],[-86.961469999840517,27.353729999639938],[-86.952290000083337,27.376939999781314],[-86.943090000303187,27.400140000360864],[-86.933909999646687,27.42334999960292],[-86.929240000125787,27.434879999812267],[-86.919140000210746,27.457180000256926],[-86.903629999924476,27.490230000014606],[-86.898450000267189,27.501259999649392],[-86.882139999960941,27.533530000309383],[-86.876700000004917,27.544290000083606],[-86.866350000252226,27.56633000022947],[-86.855999999600215,27.588370000375335],[-86.841250000187244,27.622200000130022],[-86.832059999968919,27.645399999810309],[-86.82288000021174,27.668609999951684],[-86.813689999993414,27.691809999631914],[-86.804630000374118,27.71513999991123],[-86.795299999994882,27.738220000352896],[-86.785739999801024,27.761030000034623],[-86.776419999882989,27.78410999957697],[-86.767489999963402,27.807569999555994],[-86.758680000181755,27.831160000134048],[-86.754279999622156,27.842960000204016],[-86.741999999899974,27.879259999649435],[-86.73397999967716,27.903630000224496],[-86.725809999731609,27.927859999739326],[-86.71765999980903,27.952110000176503],[-86.709639999586216,27.976479999852245],[-86.701629999824547,28.000850000427306],[-86.693470000340142,28.025090000403338],[-86.689319999618192,28.037149999872724],[-86.677280000171777,28.073700000055112],[-86.669270000410108,28.098069999730853],[-86.661239999726092,28.122440000305915],[-86.653470000240191,28.147070000280451],[-86.646100000314675,28.172090000253434],[-86.638980000226752,28.197369999625948],[-86.632129999999393,28.222899999735318],[-86.625520000047857,28.248699999705366],[-86.619050000257175,28.274630000274442],[-86.612579999567231,28.300559999944198],[-86.60610999977655,28.326480000052129],[-86.599639999985925,28.352409999721829],[-86.593170000195244,28.378329999829759],[-86.586700000404562,28.404260000398835],[-86.580229999714618,28.430190000068592],[-86.573759999923936,28.456110000176523],[-86.567290000133312,28.482039999846279],[-86.56082000034263,28.507959999954153],[-86.554349999652629,28.533889999623909],[-86.547879999862005,28.55980999973184],[-86.541410000071323,28.585740000300916],[-86.538180000406612,28.598710000366339],[-86.528469999590698,28.637590000078603],[-86.522130000399102,28.663650000347388],[-86.516040000145779,28.689959999554503],[-86.510219999753076,28.716540000420821],[-86.504650000097342,28.743370000225468],[-86.499339999841027,28.770469999890736],[-86.494040000045857,28.797559999994121],[-86.488600000089832,28.824520000397854],[-86.483169999695633,28.851490000363356],[-86.477740000200754,28.878449999867769],[-86.472300000244729,28.905410000271445],[-86.466999999550239,28.932500000374887],[-86.461690000193244,28.959600000040098],[-86.456250000237219,28.986560000443831],[-86.453540000270664,29.000039999746321],[-86.445390000348141,29.040489999913689],[-86.439950000392116,29.067450000317422],[-86.434649999697626,29.094540000420807],[-86.42934000034063,29.121629999624929],[-86.423900000384606,29.148599999590431],[-86.421190000418108,29.162079999792297],[-86.413680000331624,29.203169999795819],[-86.409290000233227,29.23116999959592],[-86.405530000409101,29.259819999693377],[-86.402299999845013,29.288990000388367],[-86.3990599997191,29.31816000018398],[-86.395310000356119,29.346799999820291],[-86.390900000234694,29.37479999962045],[-86.386109999676648,29.402410000321424],[-86.381199999879982,29.429899999985139],[-86.376410000221256,29.457509999786794],[-86.372009999661657,29.485509999586952],[-86.367870000300172,29.513769999685906],[-86.363460000178748,29.541770000385327],[-86.358669999620702,29.569380000186982],[-86.353759999824035,29.596860000288927],[-86.348970000165252,29.624470000090582],[-86.344700000204739,29.65259999959045],[-86.341339999940942,29.681639999686354],[-86.338759999674153,29.711450000217496],[-86.336430000144276,29.741529999709883],[-86.333829999854515,29.771340000240968],[-86.330469999590719,29.800380000336872],[-86.326199999630148,29.82850999983674],[-86.321409999971422,29.856119999638395],[-86.316620000312639,29.883730000339369],[-86.312350000352126,29.911859999839237],[-86.309110000226212,29.941029999634907],[-86.307049999657636,29.971359999864262],[-86.305760000423561,30.002479999652394],[-86.304720000127816,30.033839999716349],[-86.303429999994421,30.064960000403858],[-86.301359999864019,30.095289999733836],[-86.298130000199251,30.124460000428826],[-86.293849999777535,30.152589999928693],[-86.289060000118809,30.180199999730348],[-86.284269999560706,30.207810000431323],[-86.279999999600193,30.23593999993119],[-86.276760000373599,30.265100000165035],[-86.274699999805023,30.295439999956159],[-86.273540000270714,30.326679999882231],[-86.273010000111299,30.358570000105544],[-86.272889999973415,30.390850000327418],[-86.272889999973415,30.423249999787799],[-86.272889999973415,30.455659999709383],[-86.272889999973415,30.488069999630909],[-86.272749999812561,30.520349999852726],[-86.272230000114291,30.552240000076097],[-86.271069999680662,30.583480000002169],[-86.26900000044958,30.613810000231467],[-86.265760000323667,30.642980000027137],[-86.261510000386124,30.671110000426324],[-86.259170000395102,30.684979999727375],[-86.251919999708093,30.726330000029634],[-86.24764999974758,30.754460000428821],[-86.244420000082812,30.783630000224491],[-86.242340000390584,30.81395999955447],[-86.241179999956955,30.845200000379862],[-86.240660000258686,30.877089999703855],[-86.240520000097831,30.909369999925673],[-86.240520000097831,30.941779999847256],[-86.240520000097831,30.974180000207014],[-86.240520000097831,31.00659000012854],[-86.240520000097831,31.039000000050123],[-86.240520000097831,31.07140999997165],[-86.240520000097831,31.103819999893233],[-86.240520000097831,31.136220000252933],[-86.240660000258686,31.168499999575488],[-86.241170000395073,31.200389999798801],[-86.242340000390584,31.231629999724873],[-86.244420000082812,31.261959999954172],[-86.24764999974758,31.291129999749842],[-86.251919999708093,31.319260000149029],[-86.256710000266196,31.346869999950684],[-86.259039999796073,31.360740000151054],[-86.265760000323667,31.402610000151526],[-86.269010000011406,31.431779999947196],[-86.269780000446531,31.447199999680379],[-86.272370000275203,31.493229999964683],[-86.273400000109802,31.524599999590464],[-86.274690000243197,31.55570999981677],[-86.276760000373599,31.586040000046125],[-86.279999999600193,31.615209999841738],[-86.284269999560706,31.643340000240983],[-86.289060000118809,31.670950000042637],[-86.293980000376621,31.698430000144526],[-86.298770000035347,31.726039999946181],[-86.303160000133801,31.75403999974634],[-86.307300000394605,31.782299999845236],[-86.309640000385627,31.796170000045606],[-86.316500000174756,31.837910000346369],[-86.321409999971422,31.865390000448315],[-86.326319999768089,31.892869999650884],[-86.33111999988796,31.920489999913684],[-86.335509999986414,31.948489999713843],[-86.339650000247218,31.976749999812796],[-86.341990000238241,31.990620000013109],[-86.348979999727078,32.032229999714843],[-86.354410000121277,32.059190000118576],[-86.360360000213745,32.085640000385865],[-86.366700000304661,32.111690000193505],[-86.373170000095342,32.137619999863261],[-86.376270000060345,32.150710000066567],[-86.385589999978436,32.189990000238481],[-86.391419999932964,32.216559999744334],[-86.396989999588698,32.243390000448301],[-86.402299999845013,32.270479999652423],[-86.407599999640183,32.297580000216954],[-86.413159999734091,32.324410000021601],[-86.418980000126794,32.350989999988656],[-86.425059999918972,32.37730000009509],[-86.431409999571713,32.403360000363875],[-86.437880000261714,32.429279999572486],[-86.44422000035263,32.455350000302417],[-86.450300000144807,32.481660000408851],[-86.456130000099336,32.508229999914704],[-86.461690000193244,32.535059999719351],[-86.466999999550239,32.562160000283939],[-86.472309999806555,32.589250000387381],[-86.477740000200754,32.616209999891737],[-86.483169999695633,32.643179999857239],[-86.488609999651658,32.670140000260972],[-86.494029999584711,32.697110000226473],[-86.499339999841027,32.724200000329915],[-86.504650000097342,32.751290000433301],[-86.507380000086812,32.764769999735847],[-86.515530000009392,32.80521000034139],[-86.520969999965416,32.832180000306892],[-86.526400000359615,32.85915000027245],[-86.531700000154785,32.88622999991469],[-86.537010000411101,32.913329999579958],[-86.542450000367126,32.940289999983634],[-86.545029999734595,32.953899999885209],[-86.552670000420051,32.994869999750847],[-86.556940000380621,33.022989999688889],[-86.560170000045389,33.052160000383878],[-86.562240000175791,33.082500000175003],[-86.563410000171245,33.113740000101075],[-86.563929999869515,33.145630000324388],[-86.564059999569224,33.177909999646886],[-86.564059999569224,33.210310000006643],[-86.564059999569224,33.242719999928227],[-86.564059999569224,33.275129999849753],[-86.564059999569224,33.30753000020951],[-86.564059999569224,33.339940000131037],[-86.564190000168253,33.372220000352854],[-86.56470000030464,33.404109999676905],[-86.565870000300151,33.43534999960292],[-86.567940000430553,33.465679999832275],[-86.571170000095321,33.494849999627945],[-86.575449999617661,33.522980000027133],[-86.580229999714618,33.550589999828787],[-86.585009999811518,33.578199999630442],[-86.589290000233234,33.606330000029629],[-86.592519999897945,33.635499999825299],[-86.594590000028347,33.665830000054598],[-86.595760000023859,33.69706999998067],[-86.596279999722128,33.728960000203983],[-86.596529999559721,33.761109999826772],[-86.597050000157253,33.793000000050085],[-86.598220000152764,33.824239999976157],[-86.600290000283167,33.854579999767338],[-86.603519999947935,33.883740000001126],[-86.607800000369593,33.91187000040037],[-86.612579999567231,33.939480000201968],[-86.617229999964422,33.966960000303914],[-86.620989999788549,33.994579999667394],[-86.623059999918951,34.022580000366872],[-86.622930000219242,34.050700000304914],[-86.62188999992344,34.065090000203497],[-86.615299999994875,34.104500000075063],[-86.608059999769068,34.129390000348394],[-86.603909999946438,34.14144999981778],[-86.593560000193747,34.163480000401819],[-86.575050000057331,34.193559999894205],[-86.561210000341134,34.212090000053593],[-86.553970000115328,34.221039999996151],[-86.53816999994541,34.237629999724845],[-86.512809999581691,34.260830000304395],[-86.504010000261189,34.268229999814764],[-86.494820000042864,34.275229999764804],[-86.466740000150764,34.295700000354884],[-86.447590000178252,34.308929999819782],[-86.428179999906945,34.321890000323378],[-86.408769999635695,34.334849999927712],[-86.3990599997191,34.341339999741365],[-86.369929999969429,34.360779999597469],[-86.350519999698122,34.373740000101066],[-86.33111999988796,34.386710000166545],[-86.311450000217235,34.399410000371347],[-86.301480000001902,34.405630000324379],[-86.271340000440546,34.424040000345883],[-86.250889999873493,34.43597000011556],[-86.240540000120802,34.441800000070089],[-86.219959999853984,34.453600000140057],[-86.19963999988596,34.465650000047617],[-86.169610000001398,34.48418999976883],[-86.149680000031879,34.49664000013604],[-86.139720000277691,34.502860000089072],[-86.119670000170288,34.515170000295427],[-86.099210000041353,34.527100000065104],[-86.078250000237233,34.538510000136569],[-86.057039999696144,34.549659999909238],[-86.035799999570202,34.560800000120082],[-86.014580000366607,34.571949999892752],[-85.98326000034865,34.589189999918688],[-85.963070000080336,34.601379999987159],[-85.953090000303177,34.607599999940192],[-85.933180000356629,34.620039999846256],[-85.913250000387109,34.63247999975232],[-85.893200000279705,34.644800000419821],[-85.872749999712596,34.656730000189498],[-85.85178000034665,34.668140000260962],[-85.830560000243736,34.679290000033632],[-85.80919999997991,34.69029999964539],[-85.787600000339637,34.701060000318932],[-85.765990000238219,34.711820000093098],[-85.744509999836509,34.722709999566973],[-85.722899999735091,34.733470000240459],[-85.701289999633673,34.744219999553479],[-85.679799999670138,34.755120000387876],[-85.658189999568719,34.765880000162042],[-85.625830000154281,34.782079999892233],[-85.615099999964912,34.787530000309403],[-85.593489999863493,34.798290000083568],[-85.571879999762075,34.809040000295909],[-85.539659999609171,34.82538000018701],[-85.517910000246218,34.836010000261467],[-85.507169999595703,34.841450000217492],[-85.485690000093314,34.852339999691367],[-85.46407000043007,34.863100000364852],[-85.431719999678137,34.8793000000951],[-85.421109999626651,34.884880000211979],[-85.389269999910482,34.901599999640439],[-85.3685700004051,34.913270000010641],[-85.358469999590682,34.919360000263964],[-85.338409999921453,34.931680000032145],[-85.308520000197746,34.950339999891241],[-85.288590000228226,34.962790000258451],[-85.27849999987501,34.968879999612454],[-85.258059999769046,34.980810000281451],[-85.2370900004031,34.992209999891713],[-85.215870000300185,35.003359999664383],[-85.18377999984699,35.019819999693368],[-85.162029999584718,35.030449999767825],[-85.151289999833523,35.035900000184995],[-85.129810000331133,35.046780000097044],[-85.108200000229715,35.057539999871267],[-85.075850000377102,35.073750000062603],[-85.065109999726587,35.079190000018627],[-85.03261999971312,35.095260000049109],[-85.01114000021073,35.106159999984129],[-85.000399999560216,35.111599999940211],[-84.978790000358117,35.122359999714376],[-84.946430000044359,35.138569999905712],[-84.924949999642649,35.149449999817762],[-84.914080000191746,35.154769999635903],[-84.892470000090327,35.165530000309388],[-84.870989999688618,35.17641999978332],[-84.838510000136296,35.192489999813802],[-84.827770000385101,35.197940000230972],[-84.795550000232197,35.214269999660928],[-84.784679999881973,35.219579999917187],[-84.763060000218729,35.230339999691353],[-84.74157999981702,35.241230000064604],[-84.719969999715602,35.25198999983877],[-84.698359999614183,35.262749999612936],[-84.676880000111794,35.273639999986131],[-84.644399999660152,35.289710000016612],[-84.622920000157762,35.300609999951689],[-84.612169999945422,35.306049999907714],[-84.590559999844004,35.31680999968188],[-84.558209999991391,35.33301000031139],[-84.547470000240196,35.338459999829297],[-84.525860000138778,35.349219999603463],[-84.504239999576214,35.359969999815803],[-84.48276999963565,35.370860000188998],[-84.450290000083328,35.386939999781305],[-84.439539999870988,35.392379999737329],[-84.418179999607219,35.40339999981029],[-84.396969999965393,35.41454999958296],[-84.375999999700127,35.425959999654424],[-84.355550000032395,35.437879999862275],[-84.335490000363109,35.450199999630399],[-84.305599999740082,35.468860000388872],[-84.285680000231707,35.481309999856762],[-84.27556999985552,35.487400000110085],[-84.244779999996922,35.505159999834291],[-84.234160000383611,35.510730000389344],[-84.20233000022921,35.52746000027895],[-84.191589999578696,35.532900000234974],[-84.169980000376597,35.54366000000914],[-84.137629999624664,35.559859999739331],[-84.12688999987347,35.565310000156501],[-84.105290000233197,35.576069999930723],[-84.083660000108807,35.586820000143064],[-84.062319999868009,35.597840000215967],[-84.041079999742067,35.608989999988637],[-84.009770000185256,35.62623000001463],[-83.99967999983204,35.632320000267953],[-83.969649999947421,35.650859999989166],[-83.959690000193234,35.657090000403343],[-83.929790000008381,35.67575000026244],[-83.909610000201269,35.687940000330912],[-83.899379999687142,35.693899999985149],[-83.878809999881469,35.705700000055117],[-83.848009999561725,35.723459999779323],[-83.837920000107829,35.729550000032646],[-83.807899999785036,35.748089999753859],[-83.788219999653165,35.760789999958661],[-83.778520000197773,35.767270000210488],[-83.749400000009871,35.786719999628417],[-83.739699999655159,35.793199999880244],[-83.710589999928459,35.812639999736348],[-83.700869999550719,35.819119999988175],[-83.681460000178788,35.832079999592452],[-83.652600000289681,35.851790000208496],[-83.633709999716586,35.865270000410362],[-83.615330000179256,35.879270000310385],[-83.597470000340138,35.893789999908734],[-83.580400000059853,35.909090000403353],[-83.555420000132813,35.932689999643912],[-83.547270000210233,35.940720000327872],[-83.530959999903985,35.956790000358353],[-83.514909999896474,35.973130000249455],[-83.498610000051372,35.989200000279936],[-83.482560000043861,36.005540000171038],[-83.466260000198758,36.02161000020152],[-83.450199999730103,36.037939999631419],[-83.433899999885,36.054020000123046],[-83.40969999995491,36.078380000236962],[-83.401550000032387,36.086419999583484],[-83.377479999802063,36.110919999858254],[-83.361690000093347,36.127520000048094],[-83.346299999944961,36.144499999775292],[-83.338669999720594,36.153050000157521],[-83.317170000195233,36.180149999822788],[-83.310190000268165,36.189349999602939],[-83.296730000089326,36.20826999976083],[-83.277049999957399,36.237180000157025],[-83.264240000075858,36.25676000017404],[-83.25168999959368,36.276590000028648],[-83.245480000101793,36.286569999805806],[-83.233310000056349,36.306800000120063],[-83.21609999961521,36.338169999745844],[-83.204969999865511,36.359429999894701],[-83.193980000276667,36.380819999743323],[-83.188540000320643,36.391580000416809],[-83.177930000269214,36.41334999980279],[-83.161619999962909,36.445630000024607],[-83.150880000211714,36.467280000172025],[-83.1401399995612,36.48891999985824],[-83.134699999605175,36.499690000093551],[-83.118649999597721,36.532220000153018],[-83.108440000005885,36.554389999998648],[-83.103390000048364,36.565539999771318],[-83.093809999831535,36.588359999914189],[-83.085280000371597,36.612209999891718],[-83.073890000323161,36.649410000371347],[-83.066890000373121,36.674809999881745],[-83.063530000109324,36.687639999786313],[-83.054469999590708,36.727189999818791],[-83.049160000233712,36.754279999922232],[-83.044770000135316,36.782279999722334],[-83.041400000309636,36.811319999818295],[-83.038820000042847,36.841130000349381],[-83.036489999613707,36.871209999841767],[-83.034030000384121,36.900889999773824],[-83.031169999795566,36.929410000171515],[-83.028080000291652,36.956380000137017],[-83.025350000302183,36.981910000246444],[-83.023799999869993,37.006279999922185],[-83.023799999869993,37.030140000360859],[-83.025359999864008,37.054499999575455],[-83.028080000291652,37.080040000146028],[-83.031189999818537,37.106999999650384],[-83.034030000384121,37.135520000048132],[-83.036480000051881,37.165210000441334],[-83.038820000042847,37.195280000371838],[-83.041400000309636,37.225099999565487],[-83.044899999835025,37.254009999961681],[-83.049679999931925,37.281619999763336],[-83.055639999586219,37.30805999956948],[-83.059269999710637,37.320630000074573],[-83.070129999599715,37.358359999814297],[-83.078160000283674,37.382730000389358],[-83.082169999945449,37.394909999996628],[-83.094330000429068,37.431340000041132],[-83.098730000089347,37.443129999649898],[-83.107270000010374,37.466990000088572],[-83.120730000189269,37.502109999976653],[-83.130429999644662,37.524800000419816],[-83.140660000158789,37.546970000265446],[-83.15100999991148,37.569010000411311],[-83.161619999962909,37.590779999797292],[-83.172490000313132,37.612300000244943],[-83.177799999670128,37.623189999718875],[-83.188670000020352,37.644710000166526],[-83.204980000326657,37.676990000388344],[-83.21609999961521,37.698249999637937],[-83.227620000262675,37.71911999978829],[-83.239910000446059,37.739209999941693],[-83.252850000027365,37.758660000258942],[-83.266310000206261,37.777580000416833],[-83.280290000083312,37.795990000438337],[-83.294399999660129,37.814269999860755],[-83.308240000275703,37.832809999581968],[-83.321979999876987,37.851470000340385],[-83.335680000331649,37.870139999761307],[-83.349529999609672,37.888680000381839],[-83.371010000011381,37.915769999585962],[-83.378649999797574,37.924319999968191],[-83.39403999994596,37.941299999695389],[-83.409840000115821,37.957899999885228],[-83.425879999662129,37.97423999977633],[-83.450210000191248,37.99847000019048],[-83.458360000113828,38.006510000436322],[-83.483340000040869,38.030109999676881],[-83.491879999961895,38.037750000362394],[-83.518290000183242,38.059920000207967],[-83.536660000158747,38.073920000108046],[-83.545969999615693,38.080790000358377],[-83.573919999808027,38.101400000209992],[-83.583239999726118,38.108269999561003],[-83.601749999862477,38.122139999761316],[-83.619999999700099,38.136270000260424],[-83.647419999733074,38.157399999810309],[-83.656739999651165,38.164270000060583],[-83.675510000086319,38.177879999962158],[-83.713810000031344,38.204319999768302],[-83.723519999947939,38.210809999581954],[-83.742939999781072,38.223770000085608],[-83.752640000135784,38.230250000337378],[-83.772050000407091,38.243220000402857],[-83.791459999779079,38.256180000007134],[-83.810870000050329,38.269139999611411],[-83.840249999637649,38.288329999629923],[-83.850219999852982,38.294549999582955],[-83.880360000313658,38.312959999604459],[-83.901070000280185,38.324620000412835],[-83.922549999782575,38.33550999988671],[-83.955409999771575,38.351200000379833],[-83.966549999982419,38.356250000337411],[-83.989579999916941,38.365590000278416],[-84.012890000173286,38.374660000358858],[-84.035909999646663,38.38400000029992],[-84.070859999789036,38.397610000201496],[-84.082499999675122,38.402139999561484],[-84.116669999820544,38.416530000359387],[-84.139690000193241,38.425870000300392],[-84.151350000102298,38.430399999660381],[-84.186679999782086,38.443630000024655],[-84.21048000015179,38.452180000406827],[-84.222519999598205,38.456330000229457],[-84.246839999666122,38.464360000014153],[-84.283340000240742,38.476420000382859],[-84.295510000286185,38.48043999960646],[-84.332910000096319,38.491579999817304],[-84.345459999679122,38.495220000402867],[-84.383640000385583,38.505590000178529],[-84.409389999848486,38.512200000130065],[-84.435399999610183,38.518549999782806],[-84.461789999808559,38.52451000033642],[-84.475129999849514,38.527370000025655],[-84.516139999761094,38.534889999673908],[-84.544100000414574,38.53929000023345],[-84.572319999568208,38.54344000005608],[-84.600269999760599,38.547850000177505],[-84.627840000415574,38.552639999836288],[-84.655270000010375,38.557569999655925],[-84.682830000204262,38.562369999775797],[-84.710910000096305,38.566650000197512],[-84.740019999823005,38.569890000323426],[-84.75491000029615,38.571179999557501],[-84.801500000324666,38.573130000449282],[-84.833329999579689,38.573650000147552],[-84.865549999732593,38.573779999847261],[-84.897899999585206,38.573779999847261],[-84.930259999898965,38.573779999847261],[-84.962609999751578,38.573779999847261],[-84.994959999604191,38.573779999847261],[-85.02731999991795,38.573779999847261],[-85.059669999770563,38.573779999847261],[-85.092019999623176,38.573779999847261],[-85.124370000375109,38.573779999847261],[-85.156600000089838,38.573650000147552],[-85.188430000244239,38.573130000449282],[-85.219610000101341,38.571959999554508],[-85.234499999675165,38.570659999859231],[-85.279019999573222,38.566639999736367],[-85.307100000364642,38.562369999775797],[-85.334659999659152,38.557569999655925],[-85.362099999715099,38.552639999836288],[-85.389670000370131,38.547850000177505],[-85.417619999663145,38.54344000005608],[-85.445830000154274,38.53929000023345],[-85.459669999870471,38.53695999980431],[-85.501209999941466,38.52995999985427],[-85.528130000299143,38.52451000033642],[-85.554530000059344,38.518549999782806],[-85.580539999821042,38.512200000130065],[-85.60629999974509,38.505579999717384],[-85.631789999808518,38.498719999928198],[-85.657030000034354,38.491579999817304],[-85.682000000399569,38.484200000329906],[-85.706590000328163,38.476420000382859],[-85.730910000396079,38.468380000137017],[-85.755249999587704,38.460350000352378],[-85.779569999655678,38.452310000106593],[-85.803769999585711,38.444149999722868],[-85.827970000415064,38.435970000215491],[-85.852289999583718,38.427940000430794],[-85.876499999974897,38.419780000047126],[-85.900309999906483,38.411220000103071],[-85.923860000438538,38.402399999860279],[-85.947160000233737,38.393329999779837],[-85.969800000169755,38.383610000301417],[-86.002939999581201,38.368180000107088],[-86.013930000069365,38.362999999550482],[-86.035680000331638,38.352359999914199],[-86.067890000023397,38.33602999958498],[-86.100380000036864,38.319959999554499],[-86.10038999959869,38.319959999554499],[-86.132339999890974,38.303369999825804],[-86.142960000403605,38.297789999708868],[-86.174280000421561,38.280549999682876],[-86.184369999875514,38.274460000328872],[-86.21439000019825,38.25591999970834],[-86.224229999814554,38.249570000055598],[-86.263050000357111,38.223640000385842],[-86.272629999674621,38.217030000434306],[-86.282069999730595,38.210289999883742],[-86.310149999622695,38.18980000017001],[-86.337589999678642,38.168680000182007],[-86.355829999954437,38.154549999682899],[-86.365009999711617,38.147540000171034],[-86.374329999629651,38.140680000381849],[-86.411610000201222,38.11320000027996],[-86.420919999658167,38.106319999568484],[-86.439300000094818,38.092319999668405],[-86.465699999855019,38.07016000028392],[-86.474239999776046,38.062510000036639],[-86.482659999559246,38.054730000089592],[-86.507640000385607,38.031140000410858],[-86.524459999928922,38.015579999617444],[-86.541550000232235,38.00028999958397],[-86.559399999610207,37.985769999985678],[-86.577769999585712,37.971770000085598],[-86.596410000321157,37.958029999584937],[-86.615039999696137,37.944289999983653],[-86.642350000052375,37.923029999834796],[-86.651279999971905,37.915769999585962],[-86.66862000011281,37.9007300002894],[-86.685960000253715,37.885699999655401],[-86.703309999956446,37.870660000358896],[-86.721169999795563,37.856139999861227],[-86.730349999552743,37.849139999911188],[-86.748859999689103,37.835269999710874],[-86.776789999858522,37.814659999859259],[-86.795179999856998,37.80065999995918],[-86.81303000013429,37.786140000360888],[-86.830379999837021,37.771100000165006],[-86.847719999977926,37.756059999969182],[-86.865069999680657,37.741030000234446],[-86.892110000176274,37.719509999786794],[-86.901289999933454,37.712509999836755],[-86.910609999851488,37.705639999586481],[-86.947879999961913,37.678149999922709],[-86.957199999880004,37.671290000133524],[-86.975569999855509,37.6572799997723],[-86.993689999993421,37.643030000034628],[-87.012070000430072,37.629019999673403],[-87.030719999828023,37.615289999633944],[-87.049339999641177,37.601550000032603],[-87.067969999915476,37.587810000431318],[-87.086350000352127,37.573800000070094],[-87.104199999730099,37.559279999572482],[-87.121539999871004,37.54424000027592],[-87.138889999573735,37.529209999641921],[-87.156229999714583,37.514170000345359],[-87.174089999553757,37.499660000308893],[-87.201780000346616,37.478779999697394],[-87.220420000182742,37.465040000096053],[-87.257559999694138,37.437430000294398],[-87.266749999912463,37.430439999906241],[-87.284870000050375,37.416179999707367],[-87.30324000002588,37.402179999807288],[-87.321879999862006,37.388440000206003],[-87.340510000136305,37.374690000143516],[-87.368460000328639,37.354080000291901],[-87.37778000024673,37.347210000041628],[-87.396159999784061,37.333210000141548],[-87.414270000360148,37.318949999942674],[-87.423450000117327,37.311949999992635],[-87.441960000253687,37.298079999792321],[-87.479230000364112,37.270599999690376],[-87.488550000282203,37.263730000339365],[-87.497859999739092,37.256860000089091],[-87.525560000093833,37.235980000376856],[-87.543689999793571,37.221729999739864],[-87.562059999769076,37.207729999839785],[-87.580699999605201,37.193979999777298],[-87.599329999879501,37.180240000176013],[-87.617960000153801,37.166499999675409],[-87.636599999989926,37.152760000074068],[-87.654969999965431,37.138760000173988],[-87.673090000103343,37.124499999975171],[-87.691469999640674,37.110500000075092],[-87.710099999914974,37.096759999574488],[-87.738050000107307,37.076149999722873],[-87.765749999562729,37.055279999572463],[-87.783619999862992,37.040759999974171],[-87.809620000062864,37.018209999691862],[-87.826960000203769,37.003170000395357],[-87.835629999824505,36.995649999847785],[-87.86269000034315,36.974130000299397],[-87.87187000010033,36.967130000349357],[-87.89050000037463,36.953389999848753],[-87.899809999831518,36.946519999598422],[-87.918319999967935,36.932650000297429],[-87.945370000025378,36.911129999849777],[-87.962719999728108,36.896100000115041],[-87.988719999927923,36.873540000270964],[-87.997390000448036,36.866019999723335],[-88.015239999826008,36.851500000125043],[-88.033620000262715,36.837500000224964],[-88.042940000180749,36.83062999997469],[-88.07089000037314,36.810020000123075],[-88.089280000371616,36.796020000222995],[-88.107129999749588,36.781499999725327],[-88.124209999591699,36.766200000130027],[-88.141039999596217,36.750649999797815],[-88.157610000201259,36.734829999604926],[-88.182969999665659,36.711629999924696],[-88.191509999586685,36.703979999677415],[-88.209370000325123,36.689460000079066],[-88.227740000300685,36.675460000178987],[-88.237060000218719,36.668589999928713],[-88.26501000041111,36.647980000077098],[-88.28338999994844,36.633980000177019],[-88.301249999787558,36.619459999679407],[-88.318329999629668,36.604160000084107],[-88.335159999634186,36.588609999751839],[-88.351460000378609,36.572539999721357],[-88.367760000223711,36.556469999690876],[-88.391969999715627,36.532089999553989],[-88.40011999963815,36.524059999769293],[-88.416160000083835,36.507719999878248],[-88.440489999713634,36.483479999902215],[-88.448509999936448,36.47532000041781],[-88.464820000242696,36.459239999926183],[-88.480859999789061,36.442909999596964],[-88.497170000095309,36.426830000004657],[-88.513209999641674,36.41049999967538],[-88.537540000170793,36.386259999699348],[-88.553719999878012,36.370059999969158],[-88.561869999800535,36.362019999723373],[-88.586069999730626,36.337650000047631],[-88.594219999653149,36.329609999801789],[-88.610280000121804,36.313269999910688],[-88.626579999966907,36.297199999880263],[-88.642620000412592,36.280859999989161],[-88.658940000280666,36.26478999995868],[-88.67497999982703,36.248459999629404],[-88.691279999672133,36.232380000037097],[-88.715479999602223,36.208019999923181],[-88.723630000424066,36.199979999677396],[-88.739689999993402,36.183639999786294],[-88.755980000276679,36.167569999755813],[-88.77203000028419,36.151240000325913],[-88.796359999913989,36.127000000349881],[-88.804380000136803,36.11883000040433],[-88.820690000443051,36.102760000373848],[-88.836750000012387,36.086419999583484],[-88.852779999996926,36.070090000153527],[-88.868319999867992,36.053240000126038],[-88.890839999666127,36.027179999857253],[-88.90507999984203,36.009030000134544],[-88.912059999769042,35.999830000354393],[-88.932629999574715,35.971829999654915],[-88.939479999802018,35.962500000174998],[-88.960189999768545,35.934630000074606],[-88.974300000244739,35.916340000190985],[-88.988409999821556,35.898070000330392],[-89.002259999998898,35.87952999970986],[-89.015970000015386,35.860860000288937],[-89.022829999804571,35.851529999909701],[-89.043399999610187,35.823530000109542],[-89.057240000225704,35.804990000388329],[-89.064229999714598,35.795789999708859],[-89.08532999967963,35.76830999960697],[-89.098789999858525,35.749379999887253],[-89.111730000339151,35.729929999569947],[-89.124159999784069,35.70997000001563],[-89.136059999968893,35.689489999863724],[-89.14784000001589,35.668880000012109],[-89.153790000108302,35.658639999936213],[-89.172169999645689,35.628440000305943],[-89.178389999598721,35.618459999629408],[-89.197019999872964,35.588509999836788],[-89.209299999595203,35.568419999683385],[-89.221210000241228,35.547940000430799],[-89.232600000289665,35.52693999968136],[-89.243730000039363,35.505680000431823],[-89.249299999695154,35.495050000357367],[-89.265469999840491,35.46264000043584],[-89.276209999591686,35.440990000288423],[-89.281650000447087,35.430229999614937],[-89.297699999555221,35.397699999555471],[-89.308050000207231,35.375660000308926],[-89.318270000260213,35.353489999563976],[-89.327989999738577,35.330809999581959],[-89.337039999796048,35.307469999740817],[-89.345840000015869,35.283880000062084],[-89.354379999936953,35.260030000084555],[-89.362529999859476,35.23579000010858],[-89.366549999982396,35.223600000040108],[-89.378709999566695,35.18716999999566],[-89.382849999827499,35.1751200000881],[-89.394879999712089,35.138569999905712],[-89.402910000396105,35.114200000229971],[-89.410929999719599,35.089820000093084],[-89.418559999943966,35.065060000418839],[-89.422199999630152,35.052489999913689],[-89.432020000122805,35.013730000339365],[-89.437970000215216,34.987289999633902],[-89.440820000342626,34.973929999569975],[-89.448720000427556,34.933229999564958],[-89.451430000394112,34.919750000262468],[-89.459460000178751,34.879170000395334],[-89.464369999975418,34.851690000293445],[-89.468639999935931,34.823559999894201],[-89.47188999962367,34.794399999660413],[-89.473950000192247,34.764059999869232],[-89.475120000187758,34.73281999994316],[-89.475639999885971,34.700929999719847],[-89.475769999585737,34.668650000397349],[-89.475769999585737,34.636250000037592],[-89.475769999585737,34.603840000116065],[-89.475769999585737,34.571430000194482],[-89.475769999585737,34.539020000272956],[-89.475769999585737,34.506610000351372],[-89.475769999585737,34.474209999991672],[-89.475769999585737,34.441800000070089],[-89.475769999585737,34.409390000148505],[-89.475630000324145,34.377109999926688],[-89.475109999726612,34.345219999703374],[-89.473950000192247,34.313979999777303],[-89.471880000061844,34.283650000447324],[-89.468639999935931,34.25449000021348],[-89.464389999998389,34.226359999814292],[-89.461789999708628,34.212749999912717],[-89.454149999922436,34.171780000047136],[-89.451439999955937,34.158299999845269],[-89.446129999699622,34.131209999741827],[-89.438099999914982,34.090640000335895],[-89.432539999821017,34.063800000070103],[-89.42672999988946,34.037220000103048],[-89.420639999636194,34.01090999999667],[-89.414289999983396,33.98486000018903],[-89.410929999719599,33.97201999982326],[-89.400829999804557,33.933519999648411],[-89.393709999716634,33.908240000275953],[-89.389829999754568,33.895930000069598],[-89.378069999730599,33.859110000026647],[-89.369380000086835,33.835389999748827],[-89.360450000167248,33.811920000207976],[-89.351139999811039,33.788850000227455],[-89.341570000055356,33.766039999646409],[-89.332239999676119,33.742960000104063],[-89.323189999618705,33.719629999824804],[-89.314000000299643,33.696430000144517],[-89.304810000081318,33.673220000003141],[-89.295749999562702,33.649889999723825],[-89.286440000105813,33.626819999743361],[-89.281650000447087,33.615409999671897],[-89.267550000432095,33.580920000058086],[-89.258480000351653,33.557589999778827],[-89.249299999695154,33.534390000098597],[-89.240110000376092,33.511179999957164],[-89.230920000157766,33.487980000276934],[-89.221219999803054,33.465289999833772],[-89.210979999727101,33.443119999988141],[-89.200640000435556,33.421090000303423],[-89.190030000384127,33.399309999556976],[-89.179149999572701,33.377790000008645],[-89.168409999821506,33.356139999861227],[-89.157670000070368,33.334500000175012],[-89.146799999720088,33.312979999727361],[-89.136050000407067,33.291329999579943],[-89.125320000217755,33.269680000331903],[-89.114449999867475,33.248159999884251],[-89.103839999816046,33.226380000037125],[-89.093490000063355,33.204350000352406],[-89.083270000010373,33.182179999607456],[-89.073560000093835,33.159490000063613],[-89.06436999987551,33.136290000383383],[-89.055179999657128,33.113089999803776],[-89.045990000338122,33.089890000123546],[-89.036929999819506,33.066550000282405],[-89.027739999601181,33.043340000141029],[-89.018550000282175,33.020139999561479],[-89.009890000223209,32.996420000182979],[-89.001870000000395,32.972049999607918],[-88.994230000214259,32.947289999933673],[-88.986720000127775,32.922399999660399],[-88.982849999727591,32.910090000353364],[-88.974949999642661,32.885579999617448],[-88.962389999598713,32.849550000032593],[-88.953220000302679,32.826350000352363],[-88.944019999623208,32.803140000210988],[-88.935089999703621,32.779669999770817],[-88.926279999921974,32.756080000092084],[-88.922150000122315,32.744030000184523],[-88.909610000101338,32.707990000138523],[-88.901440000155787,32.683750000162547],[-88.892900000234704,32.659900000185019],[-88.884089999553737,32.636309999606965],[-88.879440000055865,32.624769999835792],[-88.865340000040874,32.590289999783806],[-88.860149999922442,32.579269999710846],[-88.844890000373141,32.545950000092603],[-88.834659999859014,32.523789999808798],[-88.824439999806032,32.501619999963168],[-88.814740000350639,32.478939999981151],[-88.805550000132314,32.455729999839775],[-88.796359999913989,32.432530000159545],[-88.787169999695607,32.409320000018113],[-88.777980000376601,32.386120000337883],[-88.77293000041908,32.374969999665893],[-88.758059999968907,32.341269999610915],[-88.747710000216216,32.319230000364371],[-88.731660000208763,32.286689999843759],[-88.726229999814564,32.275930000069593],[-88.720919999558248,32.265050000157544],[-88.704739999851029,32.232640000235961],[-88.699310000356149,32.221879999562475],[-88.683120000187728,32.189480000102094],[-88.672389999998416,32.167820000392851],[-88.661510000086309,32.146310000406345],[-88.650770000335172,32.124660000258928],[-88.640029999684657,32.103010000111567],[-88.629160000233696,32.081489999663916],[-88.618419999583239,32.059840000415818],[-88.607679999832044,32.038190000268457],[-88.602239999875962,32.027440000056117],[-88.586069999730626,31.995030000134534],[-88.575329999979431,31.973379999987174],[-88.56445999962915,31.951860000438842],[-88.553719999878012,31.930210000291424],[-88.542980000126818,31.908560000144064],[-88.532109999776537,31.887039999696356],[-88.521359999564197,31.865390000448315],[-88.510630000274205,31.843740000300897],[-88.499759999923981,31.822230000314391],[-88.494449999667665,31.811339999941197],[-88.483580000216705,31.789820000392865],[-88.467410000071368,31.757409999571962],[-88.456670000320173,31.735760000323921],[-88.445920000107833,31.71411999973833],[-88.440489999713634,31.703350000402338],[-88.429749999962439,31.681709999816803],[-88.41357000025522,31.64929999989522],[-88.402699999904939,31.627780000346888],[-88.392089999853511,31.605999999600442],[-88.38174000010082,31.583969999915723],[-88.366470000090317,31.550650000297424],[-88.361819999693125,31.539120000088076],[-88.35263000037412,31.5159099999467],[-88.343429999694649,31.49271000026647],[-88.334240000375587,31.469500000125038],[-88.325179999857028,31.446169999845779],[-88.315870000400082,31.423099999865258],[-88.306290000183253,31.400279999722329],[-88.296970000265219,31.377200000179982],[-88.287909999746603,31.353869999900724],[-88.278720000427597,31.330670000220493],[-88.269530000209215,31.307460000079061],[-88.260480000151802,31.284129999799802],[-88.25116000023371,31.261059999819281],[-88.241580000016882,31.238239999676409],[-88.232269999660673,31.215169999695888],[-88.223339999741086,31.191700000155038],[-88.214679999682119,31.167979999877218],[-88.20652000019777,31.143739999901243],[-88.202899999635179,31.131170000295413],[-88.191890000023363,31.09357999981728],[-88.185039999796061,31.068040000146027],[-88.181799999670147,31.055070000080605],[-88.172100000214755,31.01619000036834],[-88.166020000422577,30.989869999800817],[-88.160189999568729,30.963289999833762],[-88.157470000040348,30.949809999631896],[-88.14930999965668,30.909369999925673],[-88.14400999986151,30.882270000260462],[-88.138569999905485,30.855309999856729],[-88.133270000110315,30.828219999753344],[-88.128360000313648,30.800739999651398],[-88.123950000192224,30.77273999985124],[-88.120190000368098,30.744089999753839],[-88.116970000265212,30.71491999995817],[-88.113719999678153,30.685759999724326],[-88.109970000315172,30.657109999626925],[-88.105569999755573,30.629109999826767],[-88.100780000096847,30.601500000025112],[-88.09599999999989,30.573879999762312],[-88.091730000039377,30.54575999982427],[-88.088489999913463,30.5165900000286],[-88.086410000221235,30.486250000237476],[-88.085120000087841,30.455140000011113],[-88.084090000253184,30.423770000385332],[-88.082789999658644,30.392660000159026],[-88.080720000427561,30.362329999929671],[-88.077480000301648,30.333160000134058],[-88.07321999990296,30.30502999973487],[-88.06843999980606,30.277419999933215],[-88.063650000147277,30.249810000131561],[-88.059380000186763,30.221679999732373],[-88.05614000006085,30.192509999936703],[-88.054060000368622,30.162179999707348],[-88.052899999934937,30.130939999781333],[-88.052380000236724,30.099049999557963],[-88.05226000009884,30.066770000235465],[-88.05226000009884,30.034360000313882],[-88.05226000009884,30.001950000392355],[-88.05226000009884,29.969550000032598],[-88.05226000009884,29.937140000111071],[-88.05226000009884,29.904730000189488],[-88.05226000009884,29.872329999829788],[-88.05226000009884,29.839919999908204],[-88.05226000009884,29.807509999986678],[-88.05226000009884,29.775100000065095],[-88.05226000009884,29.742690000143511],[-88.05226000009884,29.710289999783811],[-88.05226000009884,29.677879999862228],[-88.05226000009884,29.645469999940701],[-88.05226000009884,29.613060000019118],[-88.05226000009884,29.580659999659417],[-88.05226000009884,29.548249999737834],[-88.05226000009884,29.515839999816308],[-88.05226000009884,29.483429999894724],[-88.05226000009884,29.451030000434343],[-88.05226000009884,29.418619999613441],[-88.05226000009884,29.386209999691857],[-88.05226000009884,29.353799999770331],[-88.05226000009884,29.321400000309893],[-88.05226000009884,29.288990000388367],[-88.05226000009884,29.256579999567464],[-88.05226000009884,29.224169999645937],[-88.05226000009884,29.191759999724354],[-88.05226000009884,29.159360000263916],[-88.05226000009884,29.12695000034239],[-88.05226000009884,29.094540000420807],[-88.05226000009884,29.062129999599961],[-88.05226000009884,29.029719999678377],[-88.05238999979855,28.997449999917706],[-88.052910000396082,28.965559999694392],[-88.054080000391593,28.93431999976832],[-88.05614000006085,28.903990000438284],[-88.059369999725618,28.874819999743352],[-88.063639999686131,28.846690000243484],[-88.068430000244234,28.819080000441829],[-88.07321999990296,28.791460000179029],[-88.077480000301648,28.763329999779785],[-88.080720000427561,28.734170000445317],[-88.082789999658644,28.703829999754817],[-88.084090000253184,28.67272000042783],[-88.085129999649666,28.641349999902729],[-88.086430000244206,28.610239999676367],[-88.088500000374609,28.579910000346388],[-88.091730000039377,28.550739999651398],[-88.096009999561716,28.522610000151531],[-88.098330000429087,28.50873999995116],[-88.105580000216719,28.467389999648901],[-88.109970000315172,28.439389999848743],[-88.113719999678153,28.410739999751343],[-88.116959999804067,28.381569999955673],[-88.120199999929923,28.352409999721829],[-88.123950000192224,28.323759999624428],[-88.126020000322626,28.30963000002464],[-88.133149999972431,28.268150000022615],[-88.137930000069332,28.24054000022096],[-88.142329999729611,28.212540000420802],[-88.146079999991912,28.183890000323402],[-88.149320000117825,28.154719999628412],[-88.152560000243739,28.125549999832742],[-88.156309999606719,28.096899999735342],[-88.160710000166262,28.068899999935184],[-88.165630000424073,28.041419999833295],[-88.170930000219244,28.014329999729853],[-88.176370000175268,27.987370000225496],[-88.181669999970438,27.960269999660909],[-88.186980000226697,27.933179999557467],[-88.192540000320662,27.90634999975282],[-88.198359999814045,27.879780000246967],[-88.204439999606166,27.853459999679387],[-88.210779999697138,27.827400000309922],[-88.214019999823051,27.814439999806268],[-88.223720000177764,27.775549999632915],[-88.230189999968445,27.749619999963159],[-88.233430000094302,27.736660000358881],[-88.243130000449071,27.697770000185528],[-88.249729999939461,27.671979999777307],[-88.25658999972859,27.646440000106054],[-88.263720000277715,27.621159999834276],[-88.271099999765056,27.596139999861236],[-88.278720000427597,27.571380000186991],[-88.286360000213733,27.546630000074572],[-88.293750000162277,27.521610000101589],[-88.297380000286694,27.509030000034613],[-88.304360000213762,27.48362000006307],[-88.314449999667659,27.445130000349366],[-88.321299999894961,27.419589999778793],[-88.328410000421059,27.394310000406335],[-88.335800000369602,27.369290000433296],[-88.343569999855504,27.344659999559497],[-88.351579999617172,27.320289999883755],[-88.359599999840043,27.295920000208014],[-88.367629999624683,27.271549999632896],[-88.375660000308642,27.247179999957154],[-88.383420000232718,27.222549999982675],[-88.387180000056844,27.210099999615409],[-88.397919999808039,27.172249999737858],[-88.404779999597224,27.146719999628431],[-88.411500000124818,27.121050000257469],[-88.418370000375091,27.095509999686897],[-88.425480000001869,27.070230000314382],[-88.432849999927441,27.045219999903225],[-88.440609999851517,27.020580000366863],[-88.448639999636157,26.996220000252947],[-88.456670000320173,26.97184000011606],[-88.464689999643667,26.947470000440319],[-88.472839999566247,26.923229999564967],[-88.48099000038809,26.898989999588935],[-88.489009999711641,26.874619999913193],[-88.497159999634164,26.850379999937218],[-88.505710000016393,26.826529999959689],[-88.514499999775069,26.802929999819753],[-88.523440000155801,26.779469999840785],[-88.532760000073836,26.756390000298438],[-88.542329999829519,26.733579999717335],[-88.551640000185728,26.710509999736814],[-88.560579999667141,26.687040000196021],[-88.569379999886962,26.66344999961791],[-88.577930000269191,26.639599999640438],[-88.586069999730626,26.615359999664406],[-88.594089999953439,26.590989999988665],[-88.602250000337165,26.566750000012632],[-88.610400000259688,26.5425100000366],[-88.618419999583239,26.518140000360859],[-88.626430000244227,26.493760000223972],[-88.634600000189778,26.46952000024794],[-88.642750000112301,26.445280000271964],[-88.650790000358143,26.420909999696846],[-88.658800000119811,26.396540000021105],[-88.666950000042391,26.372300000045129],[-88.675099999964914,26.348060000069097],[-88.683140000210756,26.323690000393356],[-88.69116000043357,26.299319999818294],[-88.699310000356149,26.275079999842262],[-88.707460000278672,26.25083999986623],[-88.715479999602223,26.226470000190488],[-88.723510000286183,26.202099999615427],[-88.731660000208763,26.177859999639395],[-88.739810000131286,26.153610000101594],[-88.747830000354156,26.129240000425796],[-88.755860000138796,26.104869999850735],[-88.764010000061376,26.080640000335904],[-88.772159999983899,26.056389999898727],[-88.776169999645674,26.0442100002914],[-88.788209999991409,26.007649999647924],[-88.796230000214223,25.983279999972183],[-88.803999999700125,25.958649999997647],[-88.811380000086842,25.933630000024607],[-88.818500000174765,25.908349999752829],[-88.825350000402068,25.882819999643402],[-88.832079999592224,25.857150000272441],[-88.838929999819527,25.831609999701868],[-88.84604999990745,25.80633000032941],[-88.853439999855993,25.78131000035637],[-88.861210000241215,25.75668999994366],[-88.869220000002883,25.732320000267919],[-88.877240000225754,25.707949999692858],[-88.881260000348618,25.695759999624443],[-88.893299999795033,25.659199999880229],[-88.901050000157284,25.634569999905693],[-88.908429999644682,25.60954999993271],[-88.91556000019375,25.584280000122078],[-88.922410000421053,25.558739999551506],[-88.929139999611209,25.533070000180487],[-88.932499999875006,25.520240000275919],[-88.943109999926435,25.482259999799282],[-88.946729999589706,25.469679999732364],[-88.958130000099345,25.432480000152054],[-88.965769999885481,25.407719999578433],[-88.973139999811053,25.38269999960545],[-88.980259999898976,25.357429999794817],[-88.987110000126279,25.331890000123565],[-88.993709999616669,25.306090000153517],[-89.000180000306671,25.280159999584441],[-89.006650000097295,25.25424000037583],[-89.013119999887977,25.228309999806811],[-89.019589999678658,25.20238999969888],[-89.026190000068368,25.176589999728833],[-89.033049999857496,25.15105000005758],[-89.036539999821059,25.138349999852778],[-89.047539999870992,25.100760000273908],[-89.055179999657128,25.075999999700343],[-89.062680000181786,25.051110000326389],[-89.069550000432059,25.025569999755817],[-89.075490000063326,24.999120000387848],[-89.0801500000224,24.971640000285902],[-89.083009999711635,24.943119999888211],[-89.083909999846526,24.913959999654423],[-89.082869999550724,24.884919999558463],[-89.079639999885956,24.856790000058595],[-89.074199999929931,24.830089999953657],[-89.066830000004416,24.805069999980674],[-89.057510000086324,24.781990000438327],[-89.046249999737597,24.760859999989123],[-89.033310000156291,24.741420000133019],[-89.011310000056369,24.71496999986573],[-89.003160000133789,24.707319999618448],[-88.967960000153766,24.679840000415822],[-88.95917000039509,24.673750000162499],[-88.93030999960672,24.659229999664888],[-88.909989999638697,24.651839999716344],[-88.888109999676658,24.646270000060611]]]},"properties":{"objectid":598,"stormname":"Isaias","stormtype":"HU","basin":"AL","advdate":"700 PM CDT Thu Oct 08 2026","advisnum":"9A","fcstprd":120,"stormnum":9,"idp_source":"al092026-009A_5day_pgn","idp_filedate":1791505098000,"idp_ingestdate":1791505106000,"st_area(shape)":34.721208425977984,"st_perimeter(shape)":34.741649896957334,"binnumber":"AT4"}}]}