{"type":"FeatureCollection","features":[{"type":"Feature","id":4762,"geometry":{"type":"LineString","coordinates":[[-96.500000000399609,22.000000000199975],[-96.299999999899967,22.199999999800298],[-96.100000000299644,22.299999999600459],[-95.99999999960022,22.199999999800298],[-95.99999999960022,22.000000000199975],[-95.700000000199736,21.900000000399814]]},"properties":{"objectid":4762,"stormtype":"DB","stormnum":9,"ss":0,"idp_source":"AL092026_lin","idp_filedate":1791386891000,"idp_ingestdate":1791386998000,"st_length(shape)":1.1640986314242154,"binnumber":"AT4"}},{"type":"Feature","id":4763,"geometry":{"type":"LineString","coordinates":[[-95.700000000199736,21.900000000399814],[-95.300000000099828,21.79999999970039],[-94.499999999899956,21.79999999970039]]},"properties":{"objectid":4763,"stormtype":"TD","stormnum":9,"ss":0,"idp_source":"AL092026_lin","idp_filedate":1791386891000,"idp_ingestdate":1791386998000,"st_length(shape)":1.2123105630281992,"binnumber":"AT4"}},{"type":"Feature","id":4764,"geometry":{"type":"LineString","coordinates":[[-94.499999999899956,21.79999999970039],[-93.900000000199725,22.000000000199975]]},"properties":{"objectid":4764,"stormtype":"TD","stormnum":9,"ss":0,"idp_source":"AL092026_lin","idp_filedate":1791386891000,"idp_ingestdate":1791386998000,"st_length(shape)":0.63245553190727233,"binnumber":"AT4"}}]}