{"type":"FeatureCollection","features":[{"type":"Feature","id":570,"geometry":{"type":"Polygon","coordinates":[[[-91.280239999776086,23.044089999853725],[-91.25603000028417,23.04041000012154],[-91.229849999877501,23.038689999943699],[-91.201970000215226,23.038689999943699],[-91.173409999771593,23.040399999660394],[-91.145249999787552,23.044089999853725],[-91.118150000122284,23.049629999924719],[-91.09235999971412,23.056739999551496],[-91.068150000222204,23.065439999656405],[-91.045260000448536,23.075460000378882],[-91.023160000233702,23.08626000019899],[-91.001719999877992,23.097730000339368],[-90.980929999819523,23.10986000033887],[-90.960529999759558,23.122380000336875],[-90.94028000032165,23.13503000003459],[-90.920009999961451,23.147679999732361],[-90.899609999901486,23.160199999730366],[-90.878830000304163,23.172329999729868],[-90.857519999648162,23.183929999569955],[-90.83594000003086,23.195260000448798],[-90.814220000252703,23.206459999829292],[-90.792260000198723,23.217399999810311],[-90.770280000121829,23.228339999791274],[-90.748440000205733,23.239410000371379],[-90.72648000015181,23.250350000352398],[-90.704509999636684,23.261290000333418],[-90.682660000158762,23.272360000014146],[-90.660700000104839,23.28329000043334],[-90.638720000027888,23.294239999976185],[-90.616880000111792,23.305309999656913],[-90.594900000034897,23.316240000076107],[-90.572939999980917,23.327180000057126],[-90.551089999603676,23.338249999737855],[-90.529110000426101,23.349189999718874],[-90.507159999933947,23.360129999699893],[-90.485309999556705,23.371200000279941],[-90.463339999940956,23.382140000260961],[-90.441359999864005,23.39308000024198],[-90.419649999647675,23.404279999622418],[-90.398070000030373,23.415620000063086],[-90.376769999835517,23.427210000341404],[-90.355990000238194,23.439340000340906],[-90.335590000178286,23.451860000338911],[-90.31531999981803,23.464510000036626],[-90.295070000380122,23.47715999973434],[-90.274670000320157,23.489679999732346],[-90.254009999961454,23.501940000330876],[-90.233090000203219,23.513930000169523],[-90.212170000445042,23.525920000008114],[-90.191519999648165,23.538179999707381],[-90.171130000049345,23.550699999705387],[-90.150999999850001,23.563489999563956],[-90.131129999949451,23.576530000159494],[-90.111400000209755,23.589710000016623],[-90.091660000008915,23.602889999873753],[-90.071930000269219,23.616069999730826],[-90.052190000068322,23.629249999587955],[-90.032460000328626,23.642430000344405],[-90.012720000127786,23.655610000201477],[-89.992979999926945,23.668790000058607],[-89.973250000187249,23.68196999991568],[-89.953520000447554,23.695149999772809],[-89.923919999708119,23.714919999558447],[-89.914180000206727,23.721640000086097],[-89.885240000225735,23.742069999730859],[-89.875760000123819,23.749049999657927],[-89.847600000139778,23.770269999760842],[-89.838389999898482,23.777520000447794],[-89.810499999775061,23.798999999950183],[-89.791550000032373,23.812970000265466],[-89.782069999930457,23.819959999754303],[-89.76314000021074,23.833930000069586],[-89.734969999765553,23.855139999711355],[-89.716820000042844,23.869899999585471],[-89.699190000018405,23.885189999618945],[-89.681559999993908,23.900479999652418],[-89.663940000430557,23.915769999685892],[-89.65485999988897,23.92315000007261],[-89.63644000030564,23.937649999647931],[-89.617620000262718,23.951749999662923],[-89.598669999620654,23.965719999978148],[-89.570259999799021,23.986670000220499],[-89.560919999858015,23.993790000308422],[-89.542369999675657,24.008160000183977],[-89.523820000392618,24.022519999598444],[-89.505000000349639,24.036619999613436],[-89.486049999707632,24.050589999928718],[-89.467099999964944,24.064560000243944],[-89.438950000442048,24.085780000346858],[-89.420790000258194,24.100540000220974],[-89.403430000094318,24.116089999653923],[-89.386319999768091,24.131909999846755],[-89.369480000201747,24.147990000338382],[-89.352380000336666,24.163800000070069],[-89.335009999711588,24.179350000402337],[-89.316850000427053,24.194110000276453],[-89.298169999645665,24.208349999552979],[-89.279230000364123,24.222319999868262],[-89.260279999722115,24.236290000183487],[-89.241599999839991,24.250519999898245],[-89.223439999656136,24.265279999772304],[-89.206069999930435,24.280830000104572],[-89.188979999627179,24.296650000297404],[-89.17212999959969,24.312729999889712],[-89.155029999734609,24.328539999621455],[-89.137660000008907,24.344100000414812],[-89.119499999825052,24.358860000288928],[-89.100810000381102,24.373090000003629],[-89.08187000020024,24.387060000318911],[-89.062930000019378,24.401029999734817],[-89.044239999676165,24.415260000348894],[-89.026080000391573,24.430020000222953],[-89.00872999978958,24.445569999655902],[-88.991620000362616,24.461389999848734],[-88.975040000195747,24.477729999739836],[-88.958469999590704,24.494069999630938],[-88.942149999722631,24.510680000281923],[-88.925580000016907,24.527020000173025],[-88.909260000148777,24.54362999992469],[-88.892679999981908,24.559969999815792],[-88.876360000113834,24.576579999567457],[-88.859790000408111,24.592920000357879],[-88.843480000101806,24.609519999648398],[-88.826899999934938,24.625870000000646],[-88.810589999628689,24.642470000190485],[-88.794010000361141,24.658819999643413],[-88.77768999959369,24.675419999833252],[-88.761119999887967,24.691759999724354],[-88.744800000019893,24.708370000375339],[-88.72823000031417,24.724710000266441],[-88.711910000446039,24.741320000018106],[-88.695330000279171,24.757659999909208],[-88.679019999972923,24.774269999660874],[-88.662439999806054,24.790609999551975],[-88.646119999937923,24.807209999741815],[-88.6295500002322,24.823549999632917],[-88.613239999925952,24.840160000283902],[-88.596659999759083,24.856500000175004],[-88.580339999890953,24.873109999926669],[-88.563770000185229,24.889449999817771],[-88.54743999985601,24.906059999569493],[-88.530870000150287,24.922400000359858],[-88.514559999844039,24.93901000011158],[-88.497990000138316,24.955350000002625],[-88.481670000270185,24.971950000192521],[-88.465099999665142,24.988299999645392],[-88.448779999797068,25.004899999835288],[-88.432210000091345,25.021239999726333],[-88.415879999762069,25.037850000377375],[-88.399310000056346,25.05419000026842],[-88.382990000188272,25.070800000020142],[-88.366410000021403,25.087139999911187],[-88.350099999715098,25.103749999662909],[-88.333779999847025,25.120360000313894],[-88.310230000214233,25.146189999868739],[-88.302470000290157,25.154880000411822],[-88.287730000439069,25.17307000018053],[-88.27351999984802,25.19179000010854],[-88.259580000016911,25.210770000335401],[-88.245640000185745,25.22974000010106],[-88.231429999594695,25.248460000029127],[-88.216689999743608,25.266640000235952],[-88.20143000019425,25.284299999845246],[-88.186169999745573,25.301960000353859],[-88.17089999973507,25.319630000424297],[-88.156170000345128,25.33780999973186],[-88.141959999754079,25.356529999659926],[-88.128010000361144,25.375500000324905],[-88.114060000068832,25.39447999965239],[-88.100120000237723,25.413459999879251],[-88.085909999646674,25.432170000245435],[-88.07143999965615,25.450629999874764],[-88.057240000425566,25.469340000240948],[-88.04327000011034,25.488319999568489],[-88.029330000279174,25.507299999795293],[-88.015379999986919,25.526280000022098],[-88.001440000155753,25.545249999787814],[-87.987229999564704,25.56396999971588],[-87.972759999574237,25.582419999783326],[-87.958560000343653,25.601139999711336],[-87.937759999824038,25.629729999739823],[-87.930920000057824,25.639350000002651],[-87.917499999924928,25.65886000038887],[-87.897899999884999,25.688640000435839],[-87.88513999961117,25.708809999781806],[-87.878820000442545,25.718949999742847],[-87.860399999959952,25.749930000269444],[-87.854349999752571,25.760340000091048],[-87.836460000328657,25.791840000315915],[-87.830410000121276,25.802250000137519],[-87.811719999778063,25.832959999904233],[-87.798969999965436,25.853119999688374],[-87.785939999831044,25.873020000073097],[-87.779360000363624,25.882910000196489],[-87.759629999724609,25.912559999644429],[-87.746460000328625,25.932330000329387],[-87.739879999961943,25.942209999991633],[-87.72066999992046,25.972400000060077],[-87.708180000406571,25.992820000143013],[-87.701999999600218,26.003100000264965],[-87.689900000084833,26.023930000369376],[-87.672000000199773,26.05542000013304],[-87.659759999624157,26.076110000076596],[-87.653579999717124,26.086399999760317],[-87.634629999974436,26.116839999666411],[-87.622009999861518,26.137130000049581],[-87.609509999886484,26.157559999694399],[-87.597399999909953,26.17838999979881],[-87.585820000092838,26.199739999601434],[-87.574510000136286,26.221349999702852],[-87.568849999927465,26.232159999984162],[-87.557530000409088,26.253770000085581],[-87.540299999944921,26.285930000169515],[-87.528200000429592,26.30674999981278],[-87.521999999600212,26.317029999934675],[-87.503069999880495,26.347480000301914],[-87.490429999744606,26.367769999785821],[-87.484120000137807,26.377920000208007],[-87.471749999862482,26.398479999552478],[-87.459920000207717,26.419569999955684],[-87.448590000228251,26.441180000057102],[-87.437289999833524,26.46279000015852],[-87.420840000265684,26.495739999801287],[-87.415440000355602,26.506810000381336],[-87.398860000188733,26.539630000324394],[-87.387940000230742,26.561639999986141],[-87.382549999882485,26.57270999966687],[-87.371489999763583,26.594589999628909],[-87.355040000195743,26.62752999970985],[-87.349649999847486,26.638609999851781],[-87.332939999980908,26.671289999633927],[-87.327290000233234,26.682090000353355],[-87.315980000276681,26.703710000016656],[-87.29794000023071,26.735079999642437],[-87.291760000323677,26.745359999764332],[-87.279129999749557,26.765659999709385],[-87.260309999706635,26.796230000214507],[-87.24821000019125,26.817049999857772],[-87.236769999635669,26.838539999821251],[-87.226239999676125,26.860940000380879],[-87.216509999736616,26.884140000061109],[-87.211780000146803,26.895860000039136],[-87.202300000044886,26.919320000018104],[-87.193080000241707,26.943049999857749],[-87.183609999701616,26.966509999836774],[-87.168089999853521,27.000379999637403],[-87.157559999893977,27.022780000196974],[-87.146769999635694,27.044919999558488],[-87.135730000439082,27.066800000419846],[-87.130199999929971,27.077740000400865],[-87.11388000006184,27.110819999743342],[-87.108349999552729,27.121759999724361],[-87.097310000356117,27.143630000124574],[-87.081519999748082,27.177239999626408],[-87.071120000387623,27.199780000346891],[-87.065990000338161,27.211110000326414],[-87.051919999907966,27.24643000044432],[-87.047320000017862,27.258300000145027],[-87.033229999564696,27.293620000262933],[-87.023889999623691,27.317209999941667],[-87.019149999572733,27.32894000038084],[-87.003629999724581,27.36279999972038],[-86.998369999975409,27.374009999561963],[-86.98810000031466,27.396679999982155],[-86.972449999867479,27.430420000083075],[-86.967319999818017,27.441750000062598],[-86.953250000287198,27.477070000180504],[-86.943890000323165,27.500659999859238],[-86.934559999943929,27.524250000437291],[-86.929949999592679,27.53610999967691],[-86.915880000061861,27.571440000255961],[-86.90613999966115,27.594630000374366],[-86.896659999559233,27.618090000353391],[-86.887590000378111,27.641940000330919],[-86.878649999997378,27.665929999569983],[-86.869949999892469,27.69018000000716],[-86.861659999809035,27.714820000442785],[-86.853520000347658,27.739600000140058],[-86.845219999803021,27.764250000137565],[-86.836940000180732,27.78888999967387],[-86.828779999797064,27.813670000270463],[-86.820620000312658,27.838449999967679],[-86.812330000229224,27.863090000403361],[-86.804049999707615,27.887740000400868],[-86.799970000415101,27.900129999799788],[-86.787729999839542,27.937290000233475],[-86.779439999756107,27.961940000230982],[-86.771149999672616,27.986579999767343],[-86.762999999750093,28.011360000363879],[-86.754840000265688,28.03612999959995],[-86.746550000182253,28.060779999597457],[-86.738269999660645,28.085429999594965],[-86.730099999715094,28.110199999730355],[-86.721949999792571,28.134980000326891],[-86.713790000308165,28.159760000024107],[-86.705890000223235,28.184800000020118],[-86.698389999698634,28.210230000014633],[-86.691159999933973,28.235929999869768],[-86.68418999956873,28.261899999585467],[-86.677349999802516,28.287990000338368],[-86.670360000313678,28.313949999592978],[-86.666819999843028,28.326870000050633],[-86.655639999586185,28.365089999903716],[-86.64787000010034,28.390259999599436],[-86.640110000176264,28.415430000194476],[-86.632609999651663,28.440869999750817],[-86.628920000357652,28.453659999609442],[-86.618390000398108,28.492529999759824],[-86.611689999893485,28.518759999774318],[-86.605260000148803,28.545250000087549],[-86.599060000218742,28.571999999800312],[-86.593139999711127,28.599020000272958],[-86.58748000040157,28.626300000145022],[-86.58209000005337,28.653849999877707],[-86.576690000143287,28.681390000048623],[-86.571029999934467,28.708669999920687],[-86.565110000326172,28.735690000393333],[-86.558930000419082,28.762440000106039],[-86.552490000213254,28.788930000419327],[-86.549199999580196,28.802110000276457],[-86.539469999640687,28.841780000446818],[-86.533420000332626,28.868670000320378],[-86.527880000261689,28.896079999892208],[-86.522890000373138,28.924019999623454],[-86.518420000182743,28.95249000041332],[-86.5142100002912,28.981219999703342],[-86.50972999963966,29.009689999593945],[-86.504870000350138,29.037759999924219],[-86.499860000438559,29.065699999655408],[-86.494860000088806,29.093640000285916],[-86.489990000338139,29.12170999971687],[-86.487630000324145,29.135809999731862],[-86.481310000256201,29.178909999796815],[-86.476840000065863,29.207379999687362],[-86.471970000315139,29.235450000017636],[-86.466980000426588,29.263389999748824],[-86.462100000214718,29.291460000079098],[-86.45763000002438,29.319929999969645],[-86.453810000131284,29.349050000157547],[-86.450520000397603,29.378699999605431],[-86.447240000225747,29.408360000413836],[-86.443409999871506,29.437479999702362],[-86.438939999681111,29.465949999592965],[-86.436579999667174,29.480060000069102],[-86.429209999741602,29.522099999815282],[-86.424870000150293,29.550689999843769],[-86.421589999978437,29.580349999752855],[-86.419479999802036,29.61119000011854],[-86.418289999783553,29.642949999742825],[-86.417629999924429,29.675240000425845],[-86.416979999627188,29.707530000209488],[-86.415789999608705,29.739289999833773],[-86.413680000331624,29.770130000199515],[-86.410389999698623,29.799779999647399],[-86.408419999683133,29.814280000122039],[-86.401180000356646,29.856449999567985],[-86.398689999743567,29.870430000344356],[-86.391970000115293,29.913120000387835],[-86.388689999943438,29.942780000296921],[-86.386579999767093,29.973619999763343],[-86.385389999748611,30.005380000286948],[-86.384870000050341,30.0377999997703],[-86.384740000350632,30.070619999713358],[-86.384740000350632,30.103570000255445],[-86.384740000350632,30.136510000336386],[-86.384740000350632,30.169459999979154],[-86.384740000350632,30.202409999621921],[-86.384740000350632,30.235360000164007],[-86.384740000350632,30.268309999806775],[-86.384740000350632,30.301260000348861],[-86.384740000350632,30.334200000429803],[-86.384740000350632,30.36715000007257],[-86.384740000350632,30.400099999715337],[-86.384740000350632,30.433050000257424],[-86.384740000350632,30.465990000338365],[-86.384740000350632,30.498939999981133],[-86.384740000350632,30.5318899996239],[-86.384740000350632,30.564840000166043],[-86.384740000350632,30.597789999808811],[-86.384740000350632,30.630740000350897],[-86.384740000350632,30.663680000431839],[-86.384740000350632,30.696630000074606],[-86.384740000350632,30.729579999717373],[-86.384740000350632,30.76253000025946],[-86.384740000350632,30.795479999902227],[-86.384740000350632,30.828430000444314],[-86.384740000350632,30.861380000087081],[-86.384740000350632,30.894320000168022],[-86.384870000050341,30.927140000111081],[-86.385389999748611,30.959559999594433],[-86.386180000206764,30.97523999962641],[-86.388689999943438,31.02215999958446],[-86.391979999677119,31.051820000392865],[-86.394350000152258,31.065920000407857],[-86.401180000356646,31.108490000313395],[-86.406050000107314,31.13655999974435],[-86.410400000159768,31.165160000233982],[-86.413680000331624,31.194809999681866],[-86.415789999608705,31.225650000047608],[-86.417099999765071,31.257279999972184],[-86.418149999622699,31.289170000195497],[-86.41947000024021,31.320800000120073],[-86.421580000416554,31.351639999586439],[-86.424870000150293,31.381300000394845],[-86.429209999741602,31.409890000423331],[-86.434080000391589,31.437970000315431],[-86.439070000280196,31.46591000004662],[-86.443949999592689,31.493980000376837],[-86.448410000221202,31.52245000026744],[-86.452640000135773,31.551179999557462],[-86.457099999865022,31.57963999988624],[-86.461980000076835,31.60771999977834],[-86.467099999665152,31.635529999809762],[-86.472499999575234,31.663069999980678],[-86.478030000084345,31.690479999552508],[-86.4834099999714,31.718030000184513],[-86.488809999881482,31.745570000355372],[-86.494340000390594,31.772979999927202],[-86.499860000438559,31.800399999960177],[-86.505390000048351,31.827810000431327],[-86.510930000119288,31.855220000003158],[-86.516310000006399,31.882769999735842],[-86.521700000354656,31.910309999906701],[-86.527359999664156,31.937600000239968],[-86.533280000171771,31.964610000251469],[-86.539460000078861,31.991359999964175],[-86.545900000284689,32.017859999839288],[-86.54919000001837,32.031039999696361],[-86.559069999680617,32.070580000167013],[-86.56563999958621,32.096930000319389],[-86.572219999952949,32.123290000033592],[-86.575509999686631,32.136469999890721],[-86.585370000225225,32.176010000361373],[-86.591949999692645,32.202370000075575],[-86.598539999621153,32.228720000227952],[-86.605110000426066,32.255079999942211],[-86.611689999893485,32.281439999656413],[-86.618259999799022,32.307800000269935],[-86.624849999727587,32.334159999984138],[-86.631419999633181,32.360519999698397],[-86.63799999999992,32.386880000311919],[-86.641300000194747,32.400049999707846],[-86.651150000272196,32.439590000178498],[-86.657729999739615,32.4659499998927],[-86.664310000106298,32.49230999960696],[-86.670900000034862,32.518670000220482],[-86.677469999940456,32.545020000372858],[-86.68418999956873,32.571250000387352],[-86.691159999933973,32.597209999641905],[-86.698389999698634,32.622919999958185],[-86.705890000223235,32.6483499999527],[-86.713650000147311,32.673530000109565],[-86.721419999633156,32.698699999805285],[-86.728909999696612,32.7241299997998],[-86.73616000038362,32.749829999654878],[-86.743129999849486,32.775789999808808],[-86.746419999583225,32.788980000127026],[-86.756420000282674,32.828380000436823],[-86.762999999750093,32.854740000151025],[-86.769580000116832,32.881099999865228],[-86.776150000022369,32.907459999579487],[-86.782869999650643,32.933689999593923],[-86.789840000015886,32.959649999747853],[-86.797069999780547,32.985340000041106],[-86.804570000305148,33.010779999597446],[-86.808519999897953,33.023299999595451],[-86.81615000012232,33.048610000351403],[-86.82378000034663,33.073909999746832],[-86.834839999566213,33.112260000199001],[-86.841809999931456,33.138229999914699],[-86.848510000436079,33.164450000367367],[-86.851669999570731,33.177759999924206],[-86.861149999672648,33.217699999955187],[-86.867070000180263,33.244709999966688],[-86.872730000389083,33.272000000299897],[-86.87811999983802,33.299539999571493],[-86.883510000186277,33.327090000203498],[-86.886280000221745,33.34078999975884],[-86.894559999844034,33.381910000246478],[-86.900090000353146,33.409319999818308],[-86.902849999927469,33.423029999834796],[-86.911010000311137,33.464280000022143],[-86.916410000221219,33.491829999754827],[-86.921939999831011,33.519240000225977],[-86.927319999718122,33.546780000396836],[-86.932449999767584,33.574590000428316],[-86.937320000417571,33.60265999985927],[-86.941800000169792,33.631129999749817],[-86.943910000346136,33.645490000063603],[-86.950489999813556,33.688320000267936],[-86.955350000002397,33.716400000160036],[-86.957859999739071,33.730369999575942],[-86.965209999641672,33.772419999783324],[-86.969550000132301,33.801009999811811],[-86.972839999865982,33.83066999972084],[-86.974939999581238,33.861499999625437],[-86.976120000037895,33.893269999710867],[-86.976650000197253,33.925690000093596],[-86.976790000358108,33.958499999575452],[-86.976790000358108,33.991450000117538],[-86.976790000358108,34.02439000019848],[-86.976659999759079,34.057210000141538],[-86.976140000060866,34.089640000086092],[-86.974950000042384,34.121399999710377],[-86.972839999865982,34.152240000076063],[-86.969550000132301,34.181890000423323],[-86.965209999641672,34.210490000013635],[-86.960339999891005,34.238560000343909],[-86.955470000140281,34.266629999774807],[-86.951140000110797,34.295230000264439],[-86.947850000377116,34.324890000173525],[-86.945740000200772,34.355729999639891],[-86.944550000182232,34.387490000163496],[-86.943890000323165,34.419779999947195],[-86.943240000025867,34.452060000169013],[-86.94205999956921,34.483830000254443],[-86.939959999854011,34.514669999720866],[-86.936659999659128,34.544320000068069],[-86.932329999629701,34.572919999658382],[-86.927450000317151,34.600989999988656],[-86.922579999667164,34.62906000031893],[-86.918110000376089,34.657530000209476],[-86.914300000044875,34.686659999959204],[-86.911010000311137,34.716310000306407],[-86.907719999678136,34.745959999754348],[-86.903910000246185,34.775090000403338],[-86.899429999594702,34.803560000293942],[-86.894559999844034,34.831629999724839],[-86.88969000009331,34.859700000055113],[-86.885219999902972,34.88816999994566],[-86.881400000009876,34.917290000133562],[-86.878110000276195,34.946950000042591],[-86.874819999643137,34.976600000389851],[-86.873120000387587,34.991360000263967],[-86.86654999958273,35.03418999956898],[-86.86167000027018,35.062259999899197],[-86.856799999620193,35.090339999791297],[-86.854430000044374,35.104439999806289],[-86.848510000436079,35.147929999869746],[-86.845219999803021,35.177589999778831],[-86.84193000006934,35.207240000126035],[-86.838119999738069,35.236360000313937],[-86.836009999561725,35.250730000189492],[-86.828779999797064,35.292899999635438],[-86.82391000004634,35.3209800004268],[-86.819439999856002,35.349439999856259],[-86.815630000424051,35.378569999605929],[-86.812330000229224,35.408219999953189],[-86.809039999596223,35.437879999862275],[-86.805219999703127,35.46700000005012],[-86.800759999973934,35.495469999940667],[-86.795899999785036,35.523540000270941],[-86.793390000048362,35.537509999686904],[-86.786679999981914,35.580210000191528],[-86.783259999649147,35.609729999939702],[-86.780620000212707,35.640049999707855],[-86.77826000019877,35.670620000212978],[-86.775619999863011,35.700939999981188],[-86.772200000429564,35.730450000167536],[-86.76787000040008,35.759060000218994],[-86.762999999750093,35.787120000088066],[-86.758129999999369,35.815199999980166],[-86.753779999946914,35.843799999570479],[-86.750499999775059,35.873449999917682],[-86.74840000005986,35.904290000283424],[-86.747210000041377,35.936049999907709],[-86.746679999881962,35.968479999852264],[-86.746550000182253,36.001290000233496],[-86.746679999881962,36.034110000176497],[-86.747210000041377,36.066529999659906],[-86.74840000005986,36.098290000183511],[-86.750499999775059,36.129129999649933],[-86.75379000040806,36.158779999997137],[-86.758129999999369,36.187379999587449],[-86.760770000335128,36.201220000202966],[-86.765889999923445,36.229030000234445],[-86.771289999833527,36.256570000405361],[-86.779450000217253,36.297819999693388],[-86.784970000265218,36.325230000164538],[-86.788130000299191,36.338550000182522],[-86.797590000378136,36.378479999752358],[-86.804840000165768,36.404179999607436],[-86.812999999650174,36.428960000203972],[-86.821810000331141,36.453080000042121],[-86.831010000111291,36.476800000319884],[-86.840880000211712,36.499859999839259],[-86.851270000010402,36.522399999660422],[-86.861799999969946,36.544800000219993],[-86.872590000228229,36.56693999958145],[-86.883650000347131,36.588820000442809],[-86.889039999796069,36.599890000123537],[-86.905490000263171,36.632839999766304],[-86.916669999620694,36.654579999567488],[-86.927990000038392,36.676200000130052],[-86.939560000293682,36.697549999932676],[-86.951659999809067,36.718369999575941],[-86.964159999784044,36.738800000120079],[-86.976909999596671,36.758959999904221],[-86.989939999731121,36.778860000288944],[-87.003230000164251,36.798500000374872],[-87.016789999558739,36.817880000162006],[-87.03783000035412,36.846209999891755],[-87.052570000205264,36.864399999660407],[-87.060330000129284,36.87309000020349],[-87.075999999700116,36.890359999814279],[-87.100199999630149,36.915530000409319],[-87.108360000013874,36.923839999616462],[-87.124800000019889,36.940310000106592],[-87.141249999587728,36.956790000158549],[-87.157700000054831,36.973259999749359],[-87.174140000060845,36.98973000023949],[-87.190580000066859,37.006210000291446],[-87.207040000095844,37.022679999882257],[-87.223480000101802,37.039150000372388],[-87.240049999807525,37.055499999825258],[-87.256899999835014,37.071580000316885],[-87.282819999942944,37.09504000029591],[-87.300969999665654,37.109800000170026],[-87.310320000067861,37.116909999796803],[-87.338609999751611,37.138000000200009],[-87.3480699998305,37.144989999688903],[-87.367019999573245,37.158960000004129],[-87.395179999557229,37.180180000107043],[-87.413589999578733,37.194670000120539],[-87.43254000022074,37.208640000435821],[-87.442279999722132,37.215360000064095],[-87.472019999723102,37.235000000150023],[-87.482279999822026,37.241200000080084],[-87.513599999840039,37.259249999687881],[-87.534380000336625,37.271379999687383],[-87.544629999974404,37.277570000055618],[-87.575160000433584,37.296410000121568],[-87.595420000332638,37.309070000280428],[-87.605689999993388,37.315259999749344],[-87.647920000407566,37.338850000327398],[-87.658840000365615,37.344390000398334],[-87.693450000117309,37.35915000027245],[-87.705150000072365,37.363899999885234],[-87.740419999683127,37.377999999900226],[-87.752259999799037,37.382610000251475],[-87.775940000030857,37.391830000054597],[-87.79909000010332,37.40158999957896],[-87.822249999737608,37.411340000440816],[-87.857899999785047,37.425039999996159],[-87.869869999600724,37.429519999748322],[-87.893810000131282,37.438480000152026],[-87.918290000383081,37.446919999958197],[-87.95540000030968,37.459179999657408],[-87.967760000123803,37.463259999849242],[-88.005130000349141,37.475260000149035],[-88.030520000297656,37.482770000235462],[-88.056180000106792,37.490020000023151],[-88.06907000008033,37.493579999617452],[-88.108279999722129,37.503730000039639],[-88.134739999551243,37.510190000268437],[-88.161430000094299,37.516379999737353],[-88.188400000059858,37.522309999806794],[-88.21563999988598,37.52797999957744],[-88.229320000317671,37.530749999612965],[-88.270629999674668,37.538780000296924],[-88.298000000099819,37.544320000367861],[-88.325500000224736,37.549720000277944],[-88.353390000348156,37.554730000189522],[-88.381940000330644,37.559069999780831],[-88.41154000017076,37.562369999975658],[-88.426679999582234,37.56368999969385],[-88.474040000045875,37.565670000170542],[-88.506389999898488,37.566189999868755],[-88.539160000233721,37.566330000029609],[-88.572060000268721,37.566330000029609],[-88.604940000280692,37.566330000029609],[-88.637829999854489,37.566330000029609],[-88.670729999889488,37.566330000029609],[-88.703620000362605,37.566330000029609],[-88.736520000397604,37.566330000029609],[-88.769409999971401,37.566330000029609],[-88.802300000444575,37.566330000029609],[-88.835190000018372,37.566330000029609],[-88.868079999592226,37.566330000029609],[-88.900849999927459,37.5662000003299],[-88.933199999780072,37.565670000170542],[-88.964909999796532,37.564480000152059],[-88.980039999646181,37.563169999995637],[-89.010169999645655,37.560390000398343],[-89.053859999938936,37.554730000189522],[-89.081739999601211,37.549729999839769],[-89.109250000187274,37.544320000367861],[-89.136610000151279,37.538780000296924],[-89.164110000276196,37.533380000386842],[-89.191599999939967,37.52797999957744],[-89.218839999766089,37.522309999806794],[-89.245800000169766,37.516379999737353],[-89.272509999836529,37.510190000268437],[-89.298960000103818,37.503719999578436],[-89.325150000072369,37.496999999950162],[-89.351059999719098,37.490020000023151],[-89.376720000427554,37.482770000235462],[-89.402110000376126,37.475260000149035],[-89.427110000326138,37.467349999602959],[-89.451849999977412,37.459179999657408],[-89.476580000066861,37.451000000150032],[-89.513420000132783,37.438489999713852],[-89.525389999948459,37.434009999961688],[-89.549329999579697,37.425039999996159],[-89.573009999811518,37.41582000019298],[-89.607349999702649,37.400789999558981],[-89.618529999959435,37.395520000247984],[-89.64090000003489,37.384979999827294],[-89.66300999981155,37.374180000007129],[-89.684849999727589,37.363110000326401],[-89.70682999980454,37.352170000345382],[-89.728800000319666,37.341219999903217],[-89.761549999732608,37.324619999713377],[-89.772609999851511,37.319219999803295],[-89.794580000366636,37.30827000026045],[-89.827070000380104,37.29140000020999],[-89.848649999997406,37.280079999792292],[-89.85917999995695,37.274140000161026],[-89.890230000114286,37.255819999793289],[-89.910490000013397,37.243170000095574],[-89.930489999613712,37.230260000099065],[-89.960090000353148,37.210490000313428],[-89.99956999985551,37.184129999699849],[-90.009430000394104,37.177539999771341],[-90.029169999695625,37.164359999914211],[-90.03903000023422,37.157769999985646],[-90.068369999775541,37.137739999901214],[-90.087579999817024,37.124029999884726],[-90.106270000160293,37.109800000170026],[-90.124430000344148,37.09504000029591],[-90.141780000046879,37.079480000401816],[-90.16717999955722,37.055499999825258],[-90.183759999724089,37.039159999934213],[-90.192049999807523,37.030989999988662],[-90.216639999736117,37.006210000291446],[-90.224940000280696,36.998040000345895],[-90.24126000014877,36.981429999694853],[-90.265990000238219,36.956790000158549],[-90.274149999722624,36.948489999613912],[-90.298360000113803,36.923310000356366],[-90.306260000198733,36.914750000412312],[-90.329140000410575,36.888260000099081],[-90.336499999875002,36.879160000433842],[-90.350720000027877,36.860450000067601],[-90.364399999560248,36.841199999980176],[-90.384400000059827,36.811820000392856],[-90.39755000033216,36.792049999707842],[-90.410710000166262,36.772279999922205],[-90.42387000000042,36.752510000136567],[-90.437029999834522,36.732740000350873],[-90.450180000106798,36.712969999665916],[-90.46321000024119,36.693070000180512],[-90.475980000076845,36.672899999935169],[-90.488460000028851,36.652470000290407],[-90.500570000005382,36.631649999747822],[-90.506480000051852,36.621110000226452],[-90.522929999619691,36.588159999684365],[-90.533459999579236,36.565760000024113],[-90.538589999628698,36.55443000004459],[-90.552539999920953,36.518969999765829],[-90.561489999863511,36.494979999627446],[-90.565960000053849,36.482989999788799],[-90.578460000028883,36.446089999653907],[-90.586620000412609,36.421309999956691],[-90.590699999705123,36.408919999658394],[-90.602539999821033,36.371359999664378],[-90.606219999553218,36.358580000266954],[-90.613069999780578,36.332490000413316],[-90.622280000021874,36.292290000083597],[-90.627789999608694,36.264870000050621],[-90.633190000418097,36.237329999879762],[-90.638720000027888,36.209920000307932],[-90.644099999914943,36.182369999675871],[-90.649109999826521,36.154429999944682],[-90.65345000031715,36.125839999916195],[-90.656740000050831,36.096180000007166],[-90.658839999766087,36.065339999641424],[-90.65990000008486,36.033709999716848],[-90.65990000008486,36.001820000392854],[-90.658850000227233,35.970180000007133],[-90.656740000050831,35.939350000102593],[-90.65345000031715,35.909690000193507],[-90.649109999826521,35.88110000016502],[-90.644110000376088,35.853149999972686],[-90.638720000027888,35.82560999980177],[-90.633179999956951,35.798189999768795],[-90.627789999608694,35.770649999597936],[-90.622409999721583,35.743099999865251],[-90.616739999950937,35.715829999554956],[-90.610820000342642,35.688809999981686],[-90.604640000435552,35.662060000268923],[-90.59820999979155,35.635569999955692],[-90.591610000301159,35.60921000024149],[-90.588319999668158,35.59603000038436],[-90.578460000028883,35.556489999913708],[-90.575159999834,35.543310000056579],[-90.568600000389608,35.516950000342376],[-90.558730000289188,35.477409999871725],[-90.552149999922449,35.451050000157522],[-90.548860000188768,35.437870000300393],[-90.542279999822028,35.411509999686871],[-90.535709999916435,35.385149999972668],[-90.529130000449072,35.358799999820292],[-90.522550000082333,35.332440000106089],[-90.512679999981913,35.292899999635438],[-90.506099999615174,35.266539999921179],[-90.499529999709637,35.240180000206976],[-90.496239999975899,35.227009999911729],[-90.486369999875478,35.187470000340397],[-90.483089999703623,35.174289999583948],[-90.476499999775058,35.147929999869746],[-90.469909999846493,35.121570000155543],[-90.460050000207218,35.082040000146037],[-90.456890000173246,35.068729999689879],[-90.4474300000943,35.028789999658898],[-90.44150000002486,35.001770000085571],[-90.435839999816039,34.974490000213507],[-90.430450000367102,34.946950000042591],[-90.42768999989346,34.933240000026103],[-90.4193900002482,34.892120000437842],[-90.416370000375139,34.878680000281918],[-90.410309999706612,34.851790000408357],[-90.404009999661639,34.82517000039536],[-90.394270000160247,34.785500000224999],[-90.391110000126275,34.772189999768841],[-90.381639999586184,34.732260000199005],[-90.378739999851007,34.718679999882227],[-90.372960000403566,34.691529999709871],[-90.364650000297161,34.650410000121553],[-90.359259999948961,34.622860000388869],[-90.356369999775552,34.609289999633916],[-90.347689999693614,34.568569999605927],[-90.344529999659642,34.555260000049088],[-90.338209999591697,34.528640000036091],[-90.331770000285189,34.50214999972286],[-90.321900000184769,34.462610000151528],[-90.318620000012913,34.449430000294399],[-90.312039999646174,34.423069999680877],[-90.305449999717609,34.396709999966674],[-90.298750000112307,34.370490000413326],[-90.288490000013383,34.331339999941179],[-90.281249999787576,34.3056400000861],[-90.27375999972412,34.280210000091586],[-90.265990000238219,34.255040000395866],[-90.258219999852997,34.229869999800769],[-90.250720000227716,34.204430000244486],[-90.24348000000191,34.178730000389351],[-90.236520000097812,34.152759999774332],[-90.233230000364131,34.139590000378348],[-90.223240000125827,34.100179999607462],[-90.216639999736117,34.073819999893203],[-90.213359999564204,34.06064000003613],[-90.206789999658668,34.034280000321928],[-90.200070000030394,34.008059999869261],[-90.189820000392615,33.968910000296432],[-90.182569999705606,33.943210000441297],[-90.175070000080325,33.917780000446783],[-90.16717999955722,33.892739999551509],[-90.163100000264706,33.880350000152532],[-90.150870000150292,33.84318000015702],[-90.142720000227712,33.818410000021629],[-90.138499999874966,33.806150000322418],[-90.126129999599698,33.76911999958844],[-90.117979999677118,33.744339999891224],[-90.109820000192769,33.719569999755834],[-90.105610000301169,33.707310000056623],[-90.093249999587727,33.670269999760819],[-90.085079999642176,33.645499999625429],[-90.076929999719596,33.620719999928212],[-90.072719999828053,33.608460000228945],[-90.060349999552727,33.571430000394344],[-90.052190000068322,33.546649999797808],[-90.043899999984887,33.5219999998003],[-90.03942999979455,33.510009999961653],[-90.026280000421593,33.473769999685885],[-90.01719000031818,33.449910000146531],[-90.007719999778089,33.426459999729332],[-89.997980000276698,33.403260000049102],[-89.988509999736607,33.379800000070077],[-89.979430000094339,33.355950000092548],[-89.970489999713607,33.331959999954165],[-89.961809999631669,33.307710000416307],[-89.953520000447554,33.283060000418857],[-89.94523000036412,33.258419999983175],[-89.936550000282182,33.234170000445317],[-89.927600000339623,33.21018999986876],[-89.918379999637182,33.186460000029115],[-89.908519999997907,33.163399999610419],[-89.898119999738071,33.140859999789313],[-89.887729999939438,33.118319999968151],[-89.87732999967966,33.09578999970887],[-89.866939999880969,33.073249999887707],[-89.857069999780549,33.050190000368389],[-89.847729999839544,33.026599999790278],[-89.838389999898482,33.003010000111544],[-89.829060000418565,32.97942000043281],[-89.819699999555212,32.955829999854757],[-89.809839999915937,32.932759999874236],[-89.799450000117304,32.91022000005313],[-89.794190000368133,32.899019999773316],[-89.778140000360622,32.865680000132045],[-89.76708000024172,32.843800000170006],[-89.756160000283671,32.821789999608939],[-89.745240000325623,32.799779999947191],[-89.734189999768546,32.777899999985152],[-89.723269999810555,32.755890000323404],[-89.712340000290681,32.733890000223482],[-89.701289999733604,32.712010000261444],[-89.690369999775555,32.689999999700376],[-89.679460000278709,32.667990000038628],[-89.66840000015975,32.64611000007659],[-89.657489999763584,32.624100000414842],[-89.64656000024371,32.602089999853774],[-89.635509999686633,32.580220000352881],[-89.62460000018973,32.558200000229988],[-89.613680000231739,32.53618999966892],[-89.602620000112836,32.514320000168027],[-89.591709999716613,32.49230999960696],[-89.580780000196739,32.470299999945212],[-89.569729999639662,32.448430000444318],[-89.558809999681614,32.426410000321425],[-89.547889999723623,32.404410000221503],[-89.53682999960472,32.382530000259464],[-89.525909999646672,32.360519999698397],[-89.509469999640658,32.32757000005563],[-89.503940000030866,32.316630000074611],[-89.493029999634643,32.294620000412806],[-89.482100000114826,32.272609999851738],[-89.471049999557749,32.2507299998897],[-89.465649999647667,32.239660000208971],[-89.449200000079827,32.206709999666884],[-89.438159999983895,32.184840000165991],[-89.42724999958773,32.162829999604924],[-89.416320000067856,32.140819999943176],[-89.405270000410098,32.118939999981137],[-89.39434999955273,32.096930000319389],[-89.383420000032856,32.074919999758322],[-89.36657999956725,32.042369999675884],[-89.360929999819518,32.03156000029395],[-89.349350000002403,32.01020999959195],[-89.337249999587698,31.989389999948685],[-89.324749999612663,31.968960000303923],[-89.305799999869976,31.938509999936684],[-89.299490000263177,31.928369999975644],[-89.286990000288199,31.907940000330882],[-89.274889999873494,31.887119999788297],[-89.263310000056379,31.865769999985673],[-89.251989999638681,31.844150000322429],[-89.235279999772047,31.811469999640906],[-89.229890000323167,31.800399999960177],[-89.218970000365118,31.77839000029843],[-89.207919999808041,31.756510000336391],[-89.196990000288167,31.734499999775323],[-89.186070000330119,31.712490000113576],[-89.175030000234244,31.690610000151537],[-89.164110000276196,31.668610000051615],[-89.153179999857002,31.646600000389867],[-89.136610000151279,31.613780000446809],[-89.131210000241197,31.602709999866761],[-89.120290000283205,31.580700000205013],[-89.109239999726128,31.558820000242974],[-89.098330000229225,31.536809999681907],[-89.087399999810032,31.514800000020102],[-89.076350000152274,31.49292000005812],[-89.065430000194226,31.470919999958198],[-89.054499999775089,31.448910000296394],[-89.043459999679158,31.427030000334412],[-89.032530000159284,31.405019999773288],[-89.021610000201235,31.38301000011154],[-89.010559999644158,31.361130000149558],[-88.999650000147312,31.339119999588434],[-88.988719999728119,31.317120000387831],[-88.977670000070361,31.295240000425849],[-88.966890000273168,31.27308999970387],[-88.95636000031368,31.250690000043619],[-88.94596999961567,31.228150000222456],[-88.936100000414569,31.205089999803818],[-88.92677000003539,31.181500000125027],[-88.917419999633182,31.157910000446293],[-88.90807999969212,31.134319999868239],[-88.898870000350144,31.110599999590477],[-88.889399999810053,31.087130000049626],[-88.879669999870487,31.063939999931222],[-88.87018999976857,31.040479999952197],[-88.865589999878466,31.028619999813259],[-88.851639999586212,30.993169999995644],[-88.837679999732075,30.957709999716883],[-88.833079999842028,30.945849999577945],[-88.823750000362111,30.922259999899211],[-88.814399999959903,30.898670000220477],[-88.805590000178256,30.874550000382328],[-88.797429999794531,30.849780000246938],[-88.789790000008395,30.824470000390363],[-88.782560000243734,30.798769999635908],[-88.775449999717637,30.772940000081064],[-88.771769999985395,30.760159999784321],[-88.764400000059879,30.734589999628952],[-88.752960000403618,30.696630000074606],[-88.745190000018397,30.671460000378886],[-88.737699999954941,30.646030000384371],[-88.734149999922465,30.633109999926717],[-88.723479999802066,30.594359999914218],[-88.716780000196763,30.568129999899725],[-88.71021000029117,30.541779999747348],[-88.703620000362605,30.515420000033146],[-88.697039999995923,30.489060000318887],[-88.69375999982401,30.475879999562494],[-88.683880000161764,30.436339999991162],[-88.677439999955936,30.409849999677874],[-88.671249999587701,30.383099999965168],[-88.665329999979406,30.356080000391842],[-88.659669999770585,30.328799999620458],[-88.654280000321648,30.301260000348861],[-88.648889999973392,30.273709999716857],[-88.6433600003636,30.246300000145027],[-88.637829999854489,30.218880000112051],[-88.632309999806523,30.191469999640901],[-88.626769999735586,30.164060000069071],[-88.621380000286706,30.136510000336386],[-88.616000000399595,30.108970000165527],[-88.610469999890483,30.081559999694377],[-88.605080000441546,30.054009999961693],[-88.599950000392084,30.026210000391359],[-88.595070000180272,29.998129999599939],[-88.590590000428051,29.969670000170538],[-88.586390000098334,29.94093999998114],[-88.581910000346113,29.912470000090593],[-88.577050000157271,29.884399999760319],[-88.572040000245693,29.856460000029131],[-88.567180000056851,29.828380000137031],[-88.562839999566222,29.799790000108544],[-88.559420000132775,29.770259999899224],[-88.556790000258218,29.739949999692897],[-88.554430000244224,29.709380000087094],[-88.551789999908465,29.679060000318884],[-88.548369999575698,29.64953999967139],[-88.544040000445534,29.620940000081077],[-88.539160000233721,29.592869999750803],[-88.534289999583734,29.564800000319906],[-88.529949999992425,29.536199999830274],[-88.526660000258687,29.506550000382333],[-88.524570000105314,29.475710000016647],[-88.523380000086831,29.443939999931217],[-88.522840000365647,29.411520000447808],[-88.522720000227707,29.378699999605431],[-88.522580000066853,29.345890000123575],[-88.522049999907438,29.313469999740846],[-88.520870000350158,29.281710000116561],[-88.518769999735582,29.250869999750819],[-88.515480000001901,29.221220000302935],[-88.511140000410592,29.192619999813303],[-88.506269999760605,29.164539999921203],[-88.50140000000988,29.136469999590929],[-88.497060000418571,29.107879999562499],[-88.49376999978557,29.078219999653413],[-88.491679999632197,29.04738000018699],[-88.490489999613715,29.015619999663386],[-88.489960000353619,28.983200000180034],[-88.489820000192765,28.950380000236976],[-88.489949999892474,28.917560000293918],[-88.490480000051832,28.885139999911189],[-88.491659999609169,28.853380000286904],[-88.49376999978557,28.822539999921219],[-88.497060000418571,28.792889999573958],[-88.50140000000988,28.764289999983646],[-88.5037699995857,28.750189999968654],[-88.511140000410592,28.708150000222474],[-88.515470000440075,28.679549999732842],[-88.518769999735582,28.649900000284902],[-88.520870000350158,28.619059999919216],[-88.52206000036864,28.587289999833786],[-88.522589999628678,28.554870000350377],[-88.522849999927473,28.52218999966891],[-88.523380000086831,28.489770000185501],[-88.524550000082343,28.458000000100071],[-88.526669999820513,28.427159999734329],[-88.529949999992425,28.397510000286445],[-88.53430000004488,28.368909999796813],[-88.539160000233721,28.340840000365858],[-88.544159999684155,28.31289999973535],[-88.549030000334142,28.284830000304396],[-88.553510000086305,28.256360000413849],[-88.557719999977905,28.227630000224451],[-88.562190000168243,28.199160000333904],[-88.567180000056851,28.171219999703339],[-88.572720000127788,28.143810000131566],[-88.578770000335169,28.116920000257949],[-88.581919999907939,28.10360999980179],[-88.591780000446533,28.064079999792284],[-88.598219999753098,28.037590000378373],[-88.604419999683159,28.010830000204464],[-88.610340000190774,27.983809999731818],[-88.616000000399595,27.956529999859754],[-88.621380000286706,27.928989999688895],[-88.626920000357643,27.901580000117065],[-88.632969999665647,27.874690000243447],[-88.639539999571241,27.848329999629925],[-88.646650000097338,27.822500000075081],[-88.654280000321648,27.797199999780332],[-88.66204999980755,27.77201999962341],[-88.669539999871006,27.746589999628895],[-88.676769999635667,27.720889999773817],[-88.683760000023881,27.694920000058119],[-88.690599999790038,27.66883000020448],[-88.697570000155281,27.642859999589461],[-88.704799999919942,27.617159999734326],[-88.712300000444543,27.591729999739812],[-88.720060000368619,27.566560000044092],[-88.727829999854521,27.541390000348372],[-88.735319999917976,27.515949999892712],[-88.742569999705609,27.490250000037634],[-88.749540000070851,27.464289999883704],[-88.756379999837009,27.438189999568976],[-88.763350000202252,27.412230000314423],[-88.770579999966913,27.386529999559968],[-88.778090000053339,27.361090000003628],[-88.785979999677124,27.336050000007617],[-88.79414000006085,27.311279999872227],[-88.802300000444575,27.28650000017501],[-88.810589999628689,27.261850000177503],[-88.819269999710627,27.237599999740326],[-88.828219999653186,27.213620000063088],[-88.837289999733571,27.189759999624414],[-88.84190000008482,27.177900000384852],[-88.851630000024386,27.154710000266448],[-88.865970000315144,27.11965000044728],[-88.875049999957412,27.095790000008662],[-88.88399999989997,27.071810000331368],[-88.892679999981908,27.047559999894247],[-88.900970000065342,27.02290999989674],[-88.905039999796031,27.010519999598444],[-88.917940000230715,26.9740199999232],[-88.926890000173273,26.950029999784817],[-88.931369999925437,26.93803999994617],[-88.940569999705644,26.914310000106582],[-88.950299999645154,26.891119999988177],[-88.960040000045865,26.86792000030789],[-88.973859999739091,26.832339999891246],[-88.978459999629194,26.820479999752308],[-88.987930000169285,26.79701999977334],[-88.997149999972407,26.77330000039484],[-89.00636000021376,26.749580000117078],[-89.020959999903994,26.714779999697384],[-89.025829999654661,26.703190000318386],[-89.035030000334132,26.679459999579478],[-89.048990000188269,26.644009999761806],[-89.053730000239227,26.632280000221954],[-89.062930000019378,26.608559999944191],[-89.077540000170757,26.573760000423817],[-89.087940000430592,26.551230000164537],[-89.093189999718618,26.540020000322897],[-89.103460000278687,26.517360000363851],[-89.113979999777087,26.494950000242454],[-89.124239999876011,26.472279999822263],[-89.138319999867974,26.436959999704357],[-89.142930000219224,26.425099999565475],[-89.152399999859995,26.40163999958645],[-89.166339999691104,26.366189999768835],[-89.171070000180237,26.354460000228983],[-89.181339999841043,26.331789999808791],[-89.197130000449079,26.2981800003069],[-89.207919999808041,26.276040000046123],[-89.213450000317152,26.265109999626929],[-89.22449999997491,26.243229999664891],[-89.235290000233192,26.221079999842289],[-89.251859999938915,26.188270000360376],[-89.257390000448083,26.177330000379357],[-89.267909999946426,26.154929999819785],[-89.283569999955432,26.121189999718865],[-89.293440000055853,26.09813000019949],[-89.298169999645665,26.086399999760317],[-89.307379999886962,26.062669999920729],[-89.316850000427053,26.039209999941704],[-89.326070000230231,26.015489999663885],[-89.335539999871003,25.99202999968486],[-89.351059999719098,25.958159999884231],[-89.356320000367646,25.946959999604417],[-89.372379999936925,25.91361000040132],[-89.377899999984891,25.902679999982183],[-89.389209999941443,25.881060000318882],[-89.406449999967435,25.848900000234948],[-89.412369999575731,25.838359999814259],[-89.424750000312144,25.817799999570468],[-89.443689999593687,25.787359999664375],[-89.450009999661631,25.777210000141508],[-89.468809999681639,25.74663000007456],[-89.475000000049874,25.736349999952665],[-89.486840000165785,25.715270000010662],[-89.49815000012228,25.693650000347361],[-89.509469999640658,25.672040000245943],[-89.52643999980603,25.639619999863271],[-89.532100000014907,25.628809999581961],[-89.550129999599676,25.59743999995618],[-89.56262999957471,25.577010000311418],[-89.575389999848483,25.5568499996279],[-89.581830000054367,25.5468299998048],[-89.594989999888469,25.527069999580931],[-89.614719999628164,25.497409999671902],[-89.621309999556729,25.487530000009656],[-89.634459999829005,25.467760000223961],[-89.647349999802543,25.447730000139529],[-89.659989999938432,25.427430000194477],[-89.672360000213757,25.406869999950686],[-89.690369999775555,25.375500000324905],[-89.69629000028317,25.364959999904215],[-89.715119999887975,25.334379999837267],[-89.728270000160251,25.314619999613456],[-89.734980000226699,25.304860000089093],[-89.748929999619691,25.285879999862232],[-89.763399999610215,25.267429999794786],[-89.777599999740119,25.248720000327921],[-89.791559999594199,25.22974000010106],[-89.80524000002589,25.210499999575461],[-89.818660000158786,25.190999999650387],[-89.831819999992888,25.17122999986475],[-89.851549999732583,25.141569999955664],[-89.858119999638177,25.131690000293418],[-89.871280000371598,25.11191999960846],[-89.891019999673119,25.08227000016052],[-89.897600000039859,25.072380000037128],[-89.917329999779554,25.042729999689868],[-89.923899999685148,25.032839999566477],[-89.937330000279189,25.013339999641403],[-89.951000000249735,24.994100000015123],[-89.964960000103815,24.975119999788319],[-89.979169999795545,24.956399999860253],[-89.993639999786069,24.937949999792806],[-90.007859999938944,24.919240000325885],[-90.021799999770053,24.900260000099081],[-90.035739999601219,24.88127999987222],[-90.049700000354619,24.862299999645415],[-90.063640000185728,24.843329999879757],[-90.077849999877515,24.82460999995169],[-90.092319999867982,24.806159999884244],[-90.106519999997886,24.787450000417323],[-90.120479999852023,24.768470000190518],[-90.134419999683132,24.749489999963657],[-90.148360000413561,24.730509999736853],[-90.162570000105291,24.711800000269932],[-90.177309999956435,24.693609999601961],[-90.192570000405112,24.675949999992667],[-90.207840000415558,24.658290000383374],[-90.223099999964916,24.640629999874761],[-90.237830000254178,24.622440000106053],[-90.252039999945964,24.603729999739812],[-90.265979999777073,24.584750000412328],[-90.279930000069328,24.565770000185523],[-90.293880000361639,24.546789999958662],[-90.308090000053369,24.528079999592421],[-90.322560000043836,24.509630000424295],[-90.336780000196768,24.490909999596965],[-90.35769000039312,24.462439999706362],[-90.364659999858986,24.452959999604445],[-90.378619999713123,24.433980000276961],[-90.392810000281202,24.415260000348894],[-90.407550000132289,24.397080000142012],[-90.423080000441587,24.379679999932193],[-90.438870000150303,24.362549999582939],[-90.455179999557231,24.345939999831273],[-90.471500000324625,24.329330000079608],[-90.48807999959223,24.312990000188506],[-90.504389999898478,24.296389999998667],[-90.520970000065347,24.280039999646419],[-90.537280000371595,24.263440000355899],[-90.553859999639144,24.247099999565478],[-90.570180000406594,24.230489999813756],[-90.586750000112318,24.214149999922711],[-90.603069999980391,24.197540000170989],[-90.619639999686115,24.181200000279944],[-90.635959999554245,24.164589999628902],[-90.652530000159288,24.148249999737857],[-90.668850000027362,24.13165000044728],[-90.685419999733085,24.11530000009509],[-90.701739999601216,24.098699999905193],[-90.726469999690607,24.074049999907686],[-90.734630000074333,24.065750000262426],[-90.751210000241201,24.049410000371381],[-90.767779999946924,24.03306999958096],[-90.776339999890979,24.025159999934203],[-90.80225999999891,24.001699999955179],[-90.820420000182764,23.986940000081063],[-90.839100000064832,23.972699999905217],[-90.848569999705603,23.965719999978148],[-90.867520000347611,23.951749999662923],[-90.886340000390589,23.937640000086049],[-90.922510000136299,23.907989999738845],[-90.931199999780063,23.900220000252943],[-90.948290000083318,23.884400000060111],[-90.964870000250187,23.86806000016901],[-90.989750000062372,23.843550000332414],[-90.998029999684661,23.835380000386863],[-91.015130000449062,23.819560000193974],[-91.032500000174764,23.804009999861762],[-91.041579999817031,23.796630000374364],[-91.069340000240743,23.7750099998118],[-91.078809999881514,23.768029999884732],[-91.107230000164293,23.747070000080555],[-91.116579999667124,23.739959999554458],[-91.134989999688628,23.725459999979137],[-91.161439999955917,23.702530000159527],[-91.169979999877,23.694619999613451],[-91.195369999825516,23.670639999936213],[-91.221169999795563,23.647039999796277],[-91.229840000315676,23.639270000310432],[-91.238919999957943,23.631889999923715],[-91.266689999943424,23.610270000260471],[-91.276150000022369,23.603290000333402],[-91.295099999765057,23.58932000001812],[-91.323270000210243,23.568099999915205],[-91.350100000014891,23.545560000094042],[-91.358780000096829,23.537789999708878],[-91.367199999879972,23.529750000362355],[-91.399440000055847,23.496139999961144],[-91.41444000020573,23.478220000053113],[-91.428389999598721,23.459239999826252],[-91.441149999872493,23.439080000042111],[-91.452470000290191,23.417460000378867],[-91.461930000369136,23.394000000399842],[-91.469309999856478,23.368700000105036],[-91.474430000344114,23.341939999931185],[-91.477069999780554,23.314000000199997],[-91.477069999780554,23.285539999871219],[-91.47443999990594,23.25760000014003],[-91.469309999856478,23.230839999966179],[-91.461939999930962,23.205539999671373],[-91.452470000290191,23.182079999692348],[-91.441020000172784,23.16058999972887],[-91.427860000338626,23.140830000404321],[-91.413250000187247,23.12263999973635],[-91.397200000179737,23.106170000145539],[-91.361420000432588,23.078230000414351],[-91.35246999959071,23.07202999958497],[-91.333390000148313,23.0614900000636],[-91.313259999948912,23.053050000257429],[-91.280239999776086,23.044089999853725]]]},"properties":{"objectid":570,"stormname":"Isaias","stormtype":"HU","basin":"AL","advdate":"400 AM CDT Thu Oct 08 2026","advisnum":"7","fcstprd":120,"stormnum":9,"idp_source":"al092026-007_5day_pgn","idp_filedate":1791451699000,"idp_ingestdate":1791451774000,"st_area(shape)":34.394276841555254,"st_perimeter(shape)":35.035788017377527,"binnumber":"AT4"}}]}