{"type":"FeatureCollection","features":[{"type":"Feature","id":540,"geometry":{"type":"Polygon","coordinates":[[[-93.636949999642695,22.133680000032143],[-93.610919999858027,22.130720000227996],[-93.583249999987402,22.130569999605939],[-93.554260000398585,22.132940000081078],[-93.524520000397615,22.137239999626445],[-93.494059999569231,22.142569999905731],[-93.46283999966613,22.148060000368844],[-93.430739999651166,22.152939999681394],[-93.397460000078866,22.156649999897695],[-93.362850000327171,22.159020000372834],[-93.327189999818529,22.160349999652908],[-93.290810000281169,22.160950000342382],[-93.254119999937927,22.161240000225973],[-93.217729999939422,22.161829999554982],[-93.182079999891982,22.163170000195521],[-93.147470000140288,22.16553999977134],[-93.114200000129813,22.169249999987642],[-93.082089999653647,22.174130000199511],[-93.050579999867011,22.179619999763304],[-93.019079999642145,22.185099999765328],[-92.986979999627181,22.189990000438286],[-92.953689999593678,22.193690000193499],[-92.919220000002895,22.196210000391318],[-92.884169999745609,22.198140000360866],[-92.849109999926441,22.200070000330413],[-92.814640000335658,22.202580000067087],[-92.781370000325126,22.206290000283445],[-92.749270000310162,22.211180000057084],[-92.717759999624207,22.216660000059107],[-92.686399999560251,22.222289999783811],[-92.654889999773559,22.227769999785778],[-92.62292999991945,22.23281000018153],[-92.590680000181749,22.237550000232488],[-92.558729999889465,22.242589999728864],[-92.527229999664655,22.248069999730831],[-92.496020000222757,22.253850000077591],[-92.465099999765073,22.259929999869712],[-92.434329999929446,22.266149999822801],[-92.403410000371139,22.272229999614922],[-92.3725000003746,22.278299999845274],[-92.341740000100799,22.284519999798306],[-92.310970000265172,22.290750000212483],[-92.280200000429545,22.296970000165516],[-92.249420000132773,22.303199999680373],[-92.218510000136291,22.309269999910725],[-92.187589999678664,22.315349999702846],[-92.156830000304183,22.321569999655878],[-92.126070000030381,22.32778999960891],[-92.095289999733609,22.334009999561999],[-92.064519999897982,22.340239999976177],[-92.033620000362646,22.346310000206472],[-92.002699999904962,22.35238999999865],[-91.972079999792072,22.358759999674362],[-91.941749999562717,22.365429999694868],[-91.911719999678155,22.372389999598965],[-91.881990000138273,22.379649999847743],[-91.852399999859983,22.387059999819257],[-91.822809999581693,22.394469999790772],[-91.793229999764549,22.401879999762343],[-91.763640000385578,22.409289999733858],[-91.734050000107288,22.416699999705372],[-91.704479999852026,22.424109999676887],[-91.674900000034881,22.431510000086575],[-91.645309999756591,22.43892000005809],[-91.615720000377621,22.446330000029604],[-91.586139999661157,22.453740000001119],[-91.556559999844012,22.461149999972633],[-91.526969999565722,22.468559999944205],[-91.497389999748577,22.475969999915719],[-91.467800000369607,22.483379999887234],[-91.438219999653143,22.490789999858748],[-91.408779999996909,22.498339999991174],[-91.379639999786036,22.506200000030105],[-91.350790000358131,22.514349999952685],[-91.322249999937469,22.5227899997588],[-91.293989999838516,22.531529999909708],[-91.265749999762591,22.540279999622442],[-91.23719000021822,22.548720000327876],[-91.208359999913966,22.556870000250456],[-91.179210000141268,22.564730000289444],[-91.149920000207715,22.57243000014455],[-91.120770000435073,22.580279999722336],[-91.091929999669674,22.588429999644916],[-91.063390000148274,22.596879999912233],[-91.035279999772058,22.605769999785821],[-91.007469999740579,22.614960000004146],[-90.979659999709099,22.624150000222471],[-90.952000000299677,22.633479999702388],[-90.92477000003538,22.643260000149041],[-90.897860000138792,22.653340000041112],[-90.871079999941912,22.663560000094094],[-90.831730000139316,22.67971000021646],[-90.818720000027895,22.685199999780309],[-90.792389999898489,22.695860000338882],[-90.765760000323667,22.70623999967637],[-90.73929000003335,22.716749999612944],[-90.712799999720119,22.727279999572488],[-90.686190000168267,22.73765000024747],[-90.659849999577716,22.748320000367869],[-90.633819999793047,22.759280000371859],[-90.607480000101816,22.769949999592939],[-90.580860000088819,22.78032000026792],[-90.554380000236733,22.79083999976632],[-90.527900000384591,22.801360000164038],[-90.501419999633185,22.811879999662381],[-90.475539999571197,22.822999999850254],[-90.450240000175768,22.834699999805309],[-90.425089999603699,22.846559999944191],[-90.387950000092303,22.864929999919696],[-90.375690000393092,22.871149999872728],[-90.350980000326672,22.883449999617937],[-90.326290000283166,22.895750000262467],[-90.301729999939425,22.908199999730357],[-90.277019999873005,22.920500000374886],[-90.252320000267673,22.932800000120039],[-90.227750000362107,22.945240000026104],[-90.203060000318658,22.957539999771313],[-90.178350000252181,22.969840000415843],[-90.153800000369642,22.982289999883733],[-90.129099999864991,22.994580000067117],[-90.104400000259716,23.00687999981227],[-90.079839999915976,23.01933000017948],[-90.055140000310644,23.031629999924689],[-90.030430000244223,23.043929999669899],[-90.005889999923454,23.056369999575963],[-89.968770000435086,23.074750000012614],[-89.956480000251702,23.080969999965646],[-89.931919999907961,23.093420000332912],[-89.907209999841541,23.105720000078065],[-89.882510000236209,23.118019999823275],[-89.857960000353614,23.130459999729339],[-89.833250000287194,23.142760000373869],[-89.808549999782542,23.155060000119079],[-89.783999999899947,23.167509999586969],[-89.759289999833527,23.179810000231441],[-89.734590000228252,23.192100000414825],[-89.710170000045366,23.204699999605452],[-89.685919999608188,23.217439999856254],[-89.661959999953922,23.230479999552472],[-89.638589999628664,23.244110000376338],[-89.604260000198735,23.265299999995136],[-89.581500000124777,23.279529999709837],[-89.558720000027847,23.293749999862769],[-89.547169999795528,23.300720000227955],[-89.523939999631182,23.314499999875238],[-89.488600000389624,23.334650000097554],[-89.476909999996394,23.341460000278914],[-89.453690000293193,23.355239999926198],[-89.419359999963945,23.376430000444316],[-89.396579999867015,23.390660000159016],[-89.373810000231231,23.404889999873717],[-89.362269999560738,23.411849999777814],[-89.339040000295654,23.425630000324418],[-89.315529999809542,23.439109999626908],[-89.292009999761603,23.45260000028992],[-89.2687799995972,23.466379999937203],[-89.234459999729097,23.487569999556001],[-89.211979999976904,23.502090000053613],[-89.189790000108303,23.516900000434816],[-89.167899999685119,23.532019999823262],[-89.146300000044846,23.54742999999462],[-89.12499999984999,23.563139999611451],[-89.103990000438046,23.579140000011137],[-89.083279999572198,23.595439999856239],[-89.06227999972208,23.611440000255925],[-89.040989999988426,23.627149999872756],[-89.019680000231745,23.642849999927705],[-88.998380000036889,23.658560000443799],[-88.977079999842033,23.674270000060574],[-88.956070000430088,23.690269999560996],[-88.935359999564241,23.706570000305419],[-88.914350000152297,23.722569999805785],[-88.893060000418586,23.738280000321879],[-88.871749999762585,23.75398999993871],[-88.861099999665157,23.761840000415816],[-88.82944999971761,23.78569999995517],[-88.80904000009582,23.802289999683865],[-88.789509999686629,23.819780000446826],[-88.770279999622176,23.837560000194003],[-88.75163999978605,23.855930000169508],[-88.73301000041107,23.874309999706838],[-88.714659999559217,23.892969999565992],[-88.696030000184237,23.911350000002642],[-88.677689999793529,23.930020000322884],[-88.659040000395578,23.948390000298389],[-88.640399999660133,23.966769999835776],[-88.621169999595679,23.984549999582953],[-88.601649999647634,24.002029999884712],[-88.5812400000259,24.018630000074609],[-88.560229999714636,24.034629999574975],[-88.5389300004191,24.050340000091069],[-88.517619999763099,24.066040000146018],[-88.49661999991298,24.082050000107586],[-88.476500000174781,24.098940000181017],[-88.457569999555744,24.11702000027293],[-88.439519999947947,24.135979999577444],[-88.422669999920458,24.156140000260962],[-88.406679999981918,24.177180000157023],[-88.391010000411086,24.198509999936675],[-88.375319999917963,24.21985000017753],[-88.359340000440568,24.240890000073591],[-88.342789999858496,24.261339999741324],[-88.325329999579708,24.280899999735368],[-88.307569999855502,24.300160000283938],[-88.289230000364114,24.31882999970486],[-88.270889999973406,24.337500000025102],[-88.25225000013728,24.35587999956249],[-88.233920000207718,24.374549999882731],[-88.215280000371592,24.392919999858236],[-88.196930000419059,24.411590000178535],[-88.17859000002835,24.430259999599457],[-88.160839999865971,24.449520000148027],[-88.143390000048385,24.469080000142014],[-88.126820000342661,24.489529999809804],[-88.110839999965947,24.510569999705865],[-88.095150000372143,24.531909999946663],[-88.079479999901992,24.553250000187518],[-88.063509999986422,24.574290000083579],[-88.046940000280699,24.594739999751312],[-88.029780000346648,24.614589999628947],[-88.012620000412596,24.634449999967671],[-87.99547000004037,24.65429999984525],[-87.978900000334647,24.674750000412303],[-87.962919999957933,24.695790000308421],[-87.947239999925955,24.717129999649899],[-87.931559999893977,24.738469999890697],[-87.915879999862,24.759810000131552],[-87.899900000384605,24.780850000027613],[-87.883630000124299,24.801589999578937],[-87.867649999747584,24.822630000374375],[-87.851969999715607,24.843969999715853],[-87.836289999683629,24.865309999956651],[-87.820620000112797,24.88663999973636],[-87.804940000080819,24.907979999977158],[-87.788959999704105,24.929019999873219],[-87.772690000343118,24.949769999885746],[-87.756709999966404,24.970809999781807],[-87.741040000395571,24.992150000022605],[-87.725650000247185,25.013780000147051],[-87.710560000443536,25.035709999716858],[-87.695770000085304,25.057939999631401],[-87.680970000165246,25.080159999984176],[-87.666179999807014,25.102389999898719],[-87.651379999886956,25.124610000251437],[-87.636599999989926,25.146840000166037],[-87.621800000069868,25.16907000008058],[-87.607009999711636,25.191290000433298],[-87.592220000252723,25.213520000347899],[-87.577420000332665,25.235750000262442],[-87.562640000435579,25.25796999971584],[-87.547839999616201,25.28019999963044],[-87.53334000004088,25.302720000327895],[-87.519150000372122,25.325539999571447],[-87.505249999687635,25.348660000059112],[-87.491639999786059,25.372070000430313],[-87.47152000004786,25.407480000201986],[-87.4647099998665,25.419189999718867],[-87.450810000081333,25.44229999974533],[-87.436609999951429,25.465119999888202],[-87.422409999821525,25.487940000031131],[-87.408200000129796,25.510760000174002],[-87.394289999883483,25.533879999762348],[-87.374629999774584,25.569739999601438],[-87.361910000446073,25.594039999646384],[-87.35555000033213,25.606189999668914],[-87.342819999643154,25.630489999713859],[-87.330100000314644,25.654789999758805],[-87.316789999858486,25.678499999575479],[-87.302879999612173,25.701609999601942],[-87.288680000381589,25.724429999744814],[-87.274489999813511,25.747249999887742],[-87.260280000121782,25.770070000030614],[-87.246380000336615,25.793189999618903],[-87.226700000204744,25.829039999896224],[-87.2203400000908,25.841189999918697],[-87.201419999932966,25.877800000169998],[-87.19521000044108,25.890090000353382],[-87.1768500000274,25.927280000371866],[-87.170639999636194,25.939580000117076],[-87.158219999753101,25.964179999607438],[-87.146089999753599,25.989069999880712],[-87.133649999847535,26.013670000270452],[-87.121229999964442,26.038269999760814],[-87.10909999996494,26.063160000034088],[-87.096680000081847,26.087760000423827],[-87.078189999968401,26.124810000281457],[-87.065899999785074,26.149549999932674],[-87.059690000293187,26.161849999677884],[-87.041209999741568,26.198889999973687],[-87.035140000410593,26.211340000340897],[-87.016499999675148,26.248230000014644],[-87.004230000414111,26.272980000127063],[-86.998169999745585,26.285429999594953],[-86.985740000300666,26.31002000042281],[-86.973309999956427,26.33461999991323],[-86.954969999565719,26.371809999931713],[-86.948749999612687,26.384109999676866],[-86.936329999729594,26.408710000066606],[-86.91797999977706,26.445900000085089],[-86.911770000285173,26.458199999830242],[-86.89935000040208,26.482800000219981],[-86.887220000402579,26.507689999593936],[-86.868590000128279,26.544580000167002],[-86.856460000128777,26.569480000002159],[-86.850539999621162,26.582069999630903],[-86.832929999619694,26.620010000061598],[-86.827159999734079,26.632750000312399],[-86.816509999636651,26.659130000049629],[-86.80615999988396,26.685799999670394],[-86.790330000129302,26.725509999886754],[-86.785160000033898,26.738840000365883],[-86.77450999993647,26.765220000103056],[-86.762959999704094,26.790710000166541],[-86.751130000049386,26.815899999885232],[-86.733669999770541,26.853979999577462],[-86.727759999724128,26.866570000105582],[-86.710900000134814,26.905249999587966],[-86.70039000019824,26.93177000038537],[-86.689889999823549,26.958290000283455],[-86.679379999886976,26.984819999743308],[-86.668880000411605,27.011339999641393],[-86.657789999808529,27.037270000210469],[-86.65201999992297,27.050009999561951],[-86.64017999980706,27.075200000180018],[-86.628649999597712,27.100690000243446],[-86.616819999942948,27.125879999962194],[-86.605269999710629,27.151370000025622],[-86.589600000139797,27.191229999964662],[-86.584579999767072,27.204710000166529],[-86.574510000336147,27.23168000013203],[-86.560459999928923,27.273169999695881],[-86.555880000061848,27.287090000403339],[-86.541379999587207,27.328140000360861],[-86.531310000156282,27.35511000032642],[-86.526280000221732,27.368589999628909],[-86.515929999569721,27.395269999710877],[-86.499509999586735,27.434380000137025],[-86.488860000388627,27.460759999874256],[-86.483690000293166,27.474090000353385],[-86.473630000424066,27.501060000318887],[-86.458829999604689,27.541809999931672],[-86.4495200001478,27.569519999848239],[-86.44034000039062,27.597369999925718],[-86.431019999573209,27.625079999842285],[-86.42171000011632,27.652789999758852],[-86.412530000359141,27.680650000297419],[-86.403369999725612,27.708509999936666],[-86.394040000245695,27.736219999853233],[-86.384720000327661,27.7639299997698],[-86.375550000132307,27.791779999847279],[-86.366379999936953,27.819640000385846],[-86.36180000006982,27.833560000193984],[-86.347729999639682,27.87506000021898],[-86.338580000366619,27.902910000296401],[-86.329390000148294,27.930769999935706],[-86.320239999975911,27.958629999574953],[-86.311350000102323,27.986779999997168],[-86.302919999857977,28.015379999587481],[-86.294780000396599,28.044269999960648],[-86.286940000380582,28.073470000240434],[-86.279250000087302,28.102800000219986],[-86.271410000071342,28.131999999600453],[-86.26328000017179,28.160889999973676],[-86.254849999927444,28.189489999563989],[-86.246120000237738,28.217789999708884],[-86.237400000109801,28.24608999985378],[-86.228969999865512,28.274690000343412],[-86.220830000404078,28.303579999817259],[-86.212990000388118,28.332780000097046],[-86.205440000255692,28.362259999799278],[-86.198039999846003,28.391899999685393],[-86.190660000358605,28.421530000009625],[-86.186950000142303,28.436349999952654],[-86.175860000438547,28.480800000219972],[-86.168460000028858,28.510440000106087],[-86.164760000273702,28.52524999958797],[-86.153669999670626,28.569710000316377],[-86.146270000160257,28.599339999741346],[-86.138869999750568,28.628970000065578],[-86.131479999802025,28.658620000412839],[-86.124080000291656,28.688249999837751],[-86.116679999881967,28.71788000016204],[-86.109300000394626,28.747520000048098],[-86.101890000423055,28.777150000372387],[-86.094499999575191,28.806790000258445],[-86.087249999787559,28.836570000305414],[-86.080300000344607,28.866649999797801],[-86.073639999885984,28.897029999634924],[-86.06727999977204,28.927700000254958],[-86.061210000441065,28.95867000032041],[-86.055149999772539,28.989640000385862],[-86.048929999819507,29.020459999829257],[-86.04272000032762,29.051280000172028],[-86.03650999993647,29.082099999615423],[-86.030289999983381,29.112919999958194],[-86.024230000214231,29.143890000023646],[-86.018170000445082,29.174860000089097],[-86.015060000018877,29.190270000260455],[-86.005740000100843,29.236499999875264],[-85.999529999709637,29.267320000217978],[-85.996409999721607,29.282730000389336],[-85.99020000022972,29.313549999832787],[-85.981190000218248,29.360079999792276],[-85.974979999827042,29.390900000135048],[-85.968900000034864,29.421870000200499],[-85.963290000333132,29.453279999872223],[-85.958249999937436,29.485290000233476],[-85.953959999953952,29.518030000084593],[-85.950260000198739,29.551369999725864],[-85.946570000005408,29.584710000266455],[-85.942289999583693,29.617459999679397],[-85.937259999649143,29.649470000040594],[-85.931779999647176,29.681030000334374],[-85.926310000106298,29.712589999728834],[-85.921429999894485,29.744740000250943],[-85.917730000139272,29.778079999892213],[-85.915209999941453,29.812609999551967],[-85.913279999971905,29.847719999878223],[-85.911370000025386,29.882839999766304],[-85.908860000288655,29.917370000325377],[-85.905150000072354,29.950709999966648],[-85.900280000321629,29.982859999589436],[-85.894800000319663,30.014419999883216],[-85.889329999879465,30.045989999738822],[-85.884449999667652,30.07814000026093],[-85.880749999912439,30.111479999902201],[-85.878389999898445,30.146149999722866],[-85.877050000157283,30.181859999839276],[-85.876459999928954,30.218320000367839],[-85.876310000206217,30.255210000041586],[-85.876159999584218,30.292110000176535],[-85.875579999817035,30.328560000243954],[-85.874240000075815,30.364270000360364],[-85.871869999600676,30.398940000181028],[-85.868180000306666,30.432279999822299],[-85.865949999992381,30.448579999667402],[-85.857829999654655,30.496000000200013],[-85.852360000113833,30.527559999594473],[-85.847470000340138,30.559710000116581],[-85.843780000146808,30.593049999757852],[-85.841409999671669,30.62771999957846],[-85.840069999930449,30.66342999969487],[-85.839479999702121,30.69989000022349],[-85.839329999979384,30.736779999897237],[-85.839329999979384,30.773820000192984],[-85.839329999979384,30.810870000050613],[-85.839329999979384,30.84791000034636],[-85.839189999818529,30.884809999581933],[-85.838590000028375,30.921259999649408],[-85.837270000310184,30.956969999765818],[-85.834890000273163,30.991639999586482],[-85.831209999641658,31.024980000127073],[-85.82898000022675,31.041279999972176],[-85.820850000327141,31.088699999605467],[-85.815379999887,31.120259999899247],[-85.810490000113305,31.152419999983181],[-85.806790000358149,31.185759999624452],[-85.804430000344155,31.220430000344379],[-85.803100000164761,31.256139999561469],[-85.802509999936433,31.292589999628944],[-85.802349999752607,31.329489999763837],[-85.802349999752607,31.366530000059583],[-85.80220000002987,31.403430000194476],[-85.801609999801542,31.439880000261951],[-85.800279999622205,31.475590000378361],[-85.797910000046386,31.510260000198969],[-85.794219999852999,31.543599999840239],[-85.792009999561742,31.559899999685399],[-85.783859999639162,31.607309999756808],[-85.778399999660166,31.638879999612413],[-85.773509999886471,31.671030000134522],[-85.769810000131315,31.704369999775793],[-85.767450000117321,31.739039999596457],[-85.766110000376102,31.774749999712867],[-85.765370000425094,31.811059999619431],[-85.764629999574709,31.847359999964169],[-85.763289999833546,31.883070000080579],[-85.760929999819552,31.917739999901244],[-85.757230000064339,31.951080000441834],[-85.752360000313672,31.983239999626448],[-85.746729999689649,32.014650000197491],[-85.743769999885501,32.030210000091586],[-85.73444999996741,32.076439999706338],[-85.72839000019826,32.107409999771789],[-85.722319999967908,32.138370000275415],[-85.716109999576702,32.169200000180012],[-85.709900000084815,32.200019999623407],[-85.703689999693609,32.230839999966179],[-85.697460000178751,32.261660000308893],[-85.691400000409601,32.292630000374345],[-85.685330000179249,32.323600000439797],[-85.679130000249188,32.354419999883248],[-85.673069999580719,32.3853899999487],[-85.667299999695103,32.416649999897743],[-85.661819999693137,32.448210000191523],[-85.656800000219732,32.4802199996534],[-85.652049999707629,32.512519999898245],[-85.647030000234224,32.544530000259442],[-85.641559999794026,32.576089999653902],[-85.635789999908468,32.607360000064091],[-85.62971000011629,32.638319999668397],[-85.623499999725084,32.669140000011112],[-85.61745000041708,32.700110000076563],[-85.611380000186728,32.731080000142015],[-85.605160000233695,32.761899999585467],[-85.599099999565226,32.792869999650918],[-85.593329999679611,32.824140000061107],[-85.587860000138789,32.855700000354886],[-85.582819999743094,32.887700000254938],[-85.578090000153281,32.920010000061609],[-85.573069999780557,32.95200999996166],[-85.567600000239736,32.98357000025544],[-85.561830000354121,33.014839999766309],[-85.555760000123826,33.045809999831761],[-85.552660000158767,33.061220000003118],[-85.543489999963413,33.107600000239984],[-85.537419999733117,33.138570000305435],[-85.531199999780085,33.16938999974883],[-85.525140000010879,33.200350000252456],[-85.519359999664175,33.231619999763325],[-85.513899999685123,33.263180000057105],[-85.508869999750573,33.295190000418302],[-85.50414000016076,33.327489999763827],[-85.49911000022621,33.359500000125024],[-85.493639999786069,33.391060000418804],[-85.487869999900454,33.422329999929673],[-85.481799999670159,33.453290000433299],[-85.475590000178272,33.48410999987675],[-85.469530000409065,33.515079999942202],[-85.46346000017877,33.546050000007654],[-85.457240000225738,33.576870000350368],[-85.451190000018357,33.60784000041582],[-85.445420000132799,33.639100000364863],[-85.439940000130775,33.670659999759323],[-85.434910000196226,33.702670000120577],[-85.430179999707093,33.734970000365365],[-85.425149999772543,33.766979999827299],[-85.419680000231722,33.798540000121079],[-85.413899999884961,33.829809999631948],[-85.407840000115812,33.860770000135517],[-85.401629999724605,33.891600000040114],[-85.395549999932427,33.922570000105566],[-85.389499999725103,33.953540000171017],[-85.383290000233217,33.984359999614412],[-85.377220000002865,34.015320000118038],[-85.371439999656161,34.046589999628907],[-85.365979999677165,34.078149999922687],[-85.360940000180733,34.11016000028394],[-85.3562099996916,34.142459999629409],[-85.351179999757051,34.174469999990663],[-85.345719999778055,34.206019999823297],[-85.340090000053351,34.237439999956166],[-85.334469999890473,34.268849999627946],[-85.328989999888506,34.300420000382871],[-85.323970000415102,34.332420000282923],[-85.319230000364144,34.364719999628448],[-85.314189999968391,34.396729999989645],[-85.308729999989396,34.428290000283425],[-85.302960000103838,34.459559999794294],[-85.296900000334631,34.49052000029792],[-85.290680000381599,34.521339999741315],[-85.284619999713129,34.552309999806766],[-85.278550000382097,34.583279999872218],[-85.272339999990891,34.614100000214989],[-85.266280000221741,34.645070000280441],[-85.260510000336126,34.67633999979131],[-85.255039999895985,34.70790000008509],[-85.250000000399609,34.739910000446287],[-85.245269999910477,34.772209999791812],[-85.240250000437072,34.804209999691864],[-85.234770000435049,34.835769999985644],[-85.22915000027217,34.867190000118569],[-85.223530000109292,34.898610000251438],[-85.218059999669151,34.930160000084072],[-85.213020000172776,34.962170000445326],[-85.208300000144789,34.99448000025194],[-85.203259999749093,35.026480000152048],[-85.197790000208215,35.058040000445828],[-85.192020000322657,35.089300000394871],[-85.185959999654131,35.120269999561003],[-85.179739999701098,35.151089999903718],[-85.173679999931949,35.182059999969169],[-85.167609999701597,35.213030000034621],[-85.161409999771593,35.243850000377336],[-85.155329999979415,35.274820000442787],[-85.149569999655682,35.30608000039183],[-85.144089999653659,35.337650000247436],[-85.139059999719109,35.369650000147544],[-85.134319999668151,35.401950000392333],[-85.129300000194746,35.433959999854267],[-85.123829999754605,35.465520000148047],[-85.11805999986899,35.496789999658915],[-85.111989999638695,35.527759999724367],[-85.105780000146808,35.558569999605936],[-85.099720000377602,35.589550000132533],[-85.093659999709132,35.620509999736839],[-85.0874399997561,35.651330000079611],[-85.081379999986893,35.682300000145062],[-85.075610000101335,35.713569999655931],[-85.070130000099311,35.745129999949711],[-85.065100000164762,35.777140000310908],[-85.060369999675629,35.809439999656377],[-85.055339999741079,35.84145000001763],[-85.049870000200258,35.872999999850265],[-85.044100000314643,35.904270000260453],[-85.038019999623202,35.935240000325905],[-85.031810000131316,35.9660599997693],[-85.025759999923935,35.997029999834751],[-85.019680000131814,36.027999999900203],[-85.013469999740607,36.058820000242974],[-85.007420000432546,36.089790000308426],[-85.001640000085843,36.121050000257469],[-84.996169999645645,36.152609999651929],[-84.99115000017224,36.184620000013126],[-84.986399999660136,36.216920000257971],[-84.981369999725587,36.248929999719849],[-84.975909999746591,36.280490000013629],[-84.970139999860976,36.311760000423817],[-84.964069999630681,36.342720000028123],[-84.957860000138794,36.373540000370838],[-84.951800000369644,36.404510000436289],[-84.945719999678147,36.435479999602421],[-84.93951000018626,36.466299999945193],[-84.933299999795054,36.497120000287907],[-84.927090000303167,36.527950000192504],[-84.920879999911961,36.558769999635899],[-84.914809999681609,36.589730000139525],[-84.908740000350633,36.620700000204977],[-84.902529999959427,36.651519999648428],[-84.896470000190277,36.68248999971388],[-84.890700000304662,36.713760000124068],[-84.885220000302638,36.745320000417848],[-84.880190000368145,36.7773200003179],[-84.875470000340158,36.809630000124571],[-84.870440000405608,36.841630000024622],[-84.86496999996541,36.873199999880228],[-84.859189999618707,36.904459999829271],[-84.8531299998495,36.935429999894723],[-84.846920000357613,36.966250000237494],[-84.840850000127318,36.997220000302946],[-84.834790000358112,37.02819000036834],[-84.82857000040508,37.059009999811792],[-84.822360000013873,37.089830000154507],[-84.816149999622667,37.120649999597958],[-84.809929999669635,37.151469999940673],[-84.803869999900485,37.182440000006125],[-84.797810000131278,37.213410000071576],[-84.791599999740072,37.244230000414348],[-84.785370000225214,37.275049999857742],[-84.779170000295153,37.305870000200514],[-84.772950000342121,37.336689999643909],[-84.766880000111826,37.36765999970936],[-84.760829999904445,37.398629999774812],[-84.754609999951413,37.429450000117583],[-84.748399999560206,37.460269999560978],[-84.742190000068319,37.491089999903693],[-84.735979999677113,37.521910000246464],[-84.729899999884992,37.552880000311916],[-84.723849999677611,37.583850000377367],[-84.717640000185781,37.614669999820762],[-84.711560000393604,37.645630000324388],[-84.708610000151282,37.661190000218483],[-84.700930000319147,37.709059999919191],[-84.696620000312635,37.741810000231453],[-84.692930000119304,37.775149999872724],[-84.689219999902946,37.808479999952169],[-84.684940000380607,37.841230000264432],[-84.679920000007883,37.873239999726366],[-84.674440000005916,37.904789999559],[-84.668960000003892,37.936360000313925],[-84.664230000414079,37.968360000213977],[-84.661119999987932,38.001109999626919],[-84.66007999969213,38.03445000016751],[-84.661119999987932,38.067789999808781],[-84.664230000414079,38.100540000121043],[-84.668960000003892,38.132549999582977],[-84.674440000005916,38.164100000314932],[-84.679920000007883,38.195659999709392],[-84.684940000380607,38.227670000070589],[-84.689219999902946,38.260420000382851],[-84.692930000119304,38.293760000024122],[-84.696620000312635,38.327099999665393],[-84.699139999611191,38.343100000065078],[-84.706700000204762,38.391109999926698],[-84.713490000363095,38.421340000041141],[-84.721339999940938,38.450529999859725],[-84.730060000068818,38.478830000004621],[-84.739230000264172,38.506689999643925],[-84.748399999560206,38.534550000182492],[-84.75756999975556,38.56240000025997],[-84.762309999806519,38.576179999907197],[-84.77620000002986,38.617820000093104],[-84.78537999978704,38.645679999732351],[-84.794690000143305,38.673380000087093],[-84.804460000128813,38.700650000397331],[-84.814519999997913,38.72762000036289],[-84.824869999750604,38.754289999983655],[-84.835960000353623,38.780219999653411],[-84.847649999847533,38.805559999994159],[-84.859480000401618,38.83074999971285],[-84.87161000040112,38.855639999986181],[-84.884189999568719,38.880089999753807],[-84.896909999796549,38.904400000259955],[-84.909930000369116,38.928390000398338],[-84.923540000270691,38.95181000033142],[-84.937589999778538,38.974769999735827],[-84.951930000069353,38.997440000156018],[-84.966580000266674,39.019819999793299],[-84.981520000347643,39.041899999985162],[-84.996759999873973,39.063679999832289],[-85.012279999722125,39.085169999795824],[-85.028119999937928,39.106349999852739],[-85.036249999837537,39.116730000089603],[-85.060369999675629,39.148139999761327],[-85.076189999868518,39.169330000279444],[-85.091869999900496,39.190669999620923],[-85.107560000393619,39.212009999861777],[-85.123379999687131,39.233200000379838],[-85.139649999947437,39.25393999993122],[-85.156669999720577,39.273940000430798],[-85.18314999957272,39.302990000088585],[-85.192319999768074,39.312319999568444],[-85.210660000158782,39.330989999888743],[-85.238470000190262,39.35869999980531],[-85.247640000385616,39.36803000018449],[-85.266129999599684,39.386549999882732],[-85.284619999713129,39.405080000042119],[-85.312420000182783,39.432789999958686],[-85.321590000378137,39.442120000337866],[-85.340090000053351,39.460649999597933],[-85.358729999889476,39.479019999573495],[-85.387279999871964,39.505990000438317],[-85.397040000295647,39.514729999689905],[-85.427219999902945,39.540070000030596],[-85.44823000021421,39.556070000430338],[-85.458880000311638,39.563920000008125],[-85.480179999607174,39.579629999624956],[-85.512120000337632,39.603189999718836],[-85.522630000274205,39.611189999918736],[-85.543489999963413,39.627340000041102],[-85.574839999566223,39.651499999925193],[-85.58548999966365,39.659350000402355],[-85.606939999581186,39.67491000029645],[-85.639629999824535,39.697730000439321],[-85.65072999998938,39.705140000410836],[-85.673069999580719,39.719800000170039],[-85.695690000393085,39.73417999960742],[-85.730159999983925,39.755209999941712],[-85.742000000099836,39.761879999962161],[-85.778089999753604,39.781299999795294],[-85.802349999752607,39.794040000046095],[-85.826899999635145,39.806490000413362],[-85.851760000323679,39.818640000435835],[-85.876310000206217,39.831089999903725],[-85.900860000088812,39.843529999809789],[-85.925710000316144,39.855679999832262],[-85.950269999760565,39.868130000199471],[-85.974830000104305,39.880570000105592],[-85.999680000331637,39.892729999689891],[-86.024239999776057,39.905169999595955],[-86.048789999658652,39.917619999963165],[-86.073650000347129,39.929769999985638],[-86.098200000229724,39.942209999891702],[-86.122759999674145,39.954660000258968],[-86.147899999785068,39.966509999936704],[-86.173050000357136,39.978370000075586],[-86.198489999913477,39.98992999986973],[-86.238280000221721,40.005640000385881],[-86.251740000400616,40.010670000320431],[-86.278670000320176,40.020750000212502],[-86.306180000006918,40.030239999876244],[-86.333990000038341,40.039419999633424],[-86.36180000006982,40.048609999851749],[-86.389599999640154,40.057789999608929],[-86.432349999752603,40.07052999985973],[-86.446699999605187,40.07467999968236],[-86.490340000290701,40.086539999821298],[-86.519779999946934,40.094089999953667],[-86.549359999764079,40.101499999925181],[-86.564159999684136,40.10521000014154],[-86.593729999939455,40.112620000113054],[-86.623320000217745,40.120030000084569],[-86.652909999596716,40.127429999594938],[-86.697430000394093,40.138400000060074],[-86.712369999575742,40.141959999654432],[-86.757780000046864,40.152029999984677],[-86.78840999972158,40.158410000121535],[-86.819319999718118,40.164480000351887],[-86.834850000027359,40.167440000156034],[-86.881010000011372,40.176780000097096],[-86.91192000000791,40.182850000327392],[-86.943280000071866,40.188480000052095],[-86.97538000008683,40.193369999825791],[-87.008650000097305,40.197069999580947],[-87.04313000014929,40.199589999778823],[-87.060590000428078,40.200630000074568],[-87.11324999978757,40.203449999717861],[-87.130710000066358,40.204490000013664],[-87.18099999985003,40.209680000132039],[-87.213099999864994,40.214569999905734],[-87.244609999651686,40.220040000345875],[-87.276109999876496,40.225520000347899],[-87.30820999989146,40.230419999683363],[-87.324480000151766,40.232640000435822],[-87.376109999676657,40.236489999913715],[-87.411759999724097,40.237829999654934],[-87.448140000160777,40.238419999883263],[-87.484980000226699,40.238569999605943],[-87.521959999554213,40.238569999605943],[-87.558790000058366,40.238419999883263],[-87.595180000056871,40.237829999654934],[-87.630830000104311,40.236489999913715],[-87.665439999856005,40.234120000337896],[-87.698729999889451,40.230419999683363],[-87.730829999904472,40.225520000347899],[-87.762339999691108,40.220049999907701],[-87.793839999915974,40.214560000343909],[-87.825939999930938,40.209669999670894],[-87.859220000402615,40.205969999915737],[-87.893689999993398,40.203449999717861],[-87.928760000273712,40.201519999748314],[-87.963809999631678,40.199600000239968],[-87.998280000121781,40.197080000042092],[-88.031559999694139,40.193369999825791],[-88.063659999709103,40.188480000052095],[-88.095019999773058,40.182850000327392],[-88.125929999769596,40.176780000097096],[-88.156699999605166,40.170560000144064],[-88.18762000006285,40.164480000351887],[-88.218539999621157,40.158399999660389],[-88.249150000172278,40.152040000445822],[-88.279469999940432,40.145359999964171],[-88.30949999982505,40.138400000060074],[-88.339230000264195,40.131139999811296],[-88.368819999643165,40.123729999839782],[-88.398409999921455,40.116330000329413],[-88.4279899997386,40.108920000357898],[-88.457569999555744,40.101510000386384],[-88.487159999834034,40.094100000414812],[-88.516589999928442,40.086539999821298],[-88.545739999701141,40.078690000243455],[-88.57457999956722,40.07052999985973],[-88.602979999827028,40.061940000330878],[-88.63064000013577,40.052600000389873],[-88.657710000216241,40.042679999782308],[-88.684479999951918,40.032459999729326],[-88.710819999643149,40.021780000047102],[-88.736850000327138,40.010820000043111],[-88.776499999575208,39.994970000265425],[-88.789810000031366,39.98978000014705],[-88.816280000321626,39.979259999749331],[-88.842769999735594,39.968740000250932],[-88.86924999958768,39.95821999985327],[-88.895129999649669,39.947110000126543],[-88.920429999944417,39.935399999710341],[-88.945570000055341,39.923550000032606],[-88.970429999844498,39.911390000448307],[-88.994979999727093,39.898949999642923],[-89.032100000114838,39.880579999667418],[-89.044370000275194,39.874350000152504],[-89.081210000341116,39.855679999832262],[-89.106059999669128,39.843529999809789],[-89.130620000012868,39.831089999903725],[-89.14275000001237,39.82470999976681],[-89.167010000011373,39.811970000415329],[-89.190980000126785,39.798929999819791],[-89.214339999990898,39.785299999895244],[-89.248659999859001,39.764110000276446],[-89.271150000072339,39.749589999778834],[-89.293330000379115,39.734769999835748],[-89.315520000247716,39.719949999892719],[-89.337719999678143,39.705140000410836],[-89.359899999984918,39.690319999568487],[-89.38208999985352,39.675499999625401],[-89.404279999722121,39.660679999682372],[-89.426170000145305,39.645569999855752],[-89.447769999785578,39.630159999684395],[-89.469069999980434,39.61445000006762],[-89.490069999830496,39.598449999667878],[-89.510790000258226,39.582149999822775],[-89.531779999647142,39.566150000322409],[-89.553090000303143,39.550439999806315],[-89.574389999598679,39.534739999751309],[-89.595689999793535,39.519030000134535],[-89.616689999643654,39.503020000173024],[-89.63710999972659,39.486430000444329],[-89.656629999674635,39.468939999681368],[-89.675859999739089,39.451159999934191],[-89.694499999575214,39.432789999958686],[-89.713140000310659,39.414410000421356],[-89.731479999802048,39.395740000101057],[-89.750110000076347,39.377370000125552],[-89.768460000028881,39.35869999980531],[-89.786800000419589,39.340030000384331],[-89.804549999682649,39.320769999835761],[-89.822009999961438,39.301209999841774],[-89.846570000305178,39.270239999776322],[-89.862400000059836,39.249050000157524],[-89.870240000075853,39.238380000037125],[-89.893749999662646,39.206380000137017],[-89.90958000031668,39.185189999618956],[-89.925699999954929,39.164300000344895],[-89.933849999877509,39.153920000108087],[-89.957659999809039,39.12221000009157],[-89.973190000118279,39.100720000128035],[-89.98088000041156,39.089909999846782],[-90.003369999725578,39.056869999650928],[-90.010770000135267,39.045750000362375],[-90.032950000442042,39.012409999821784],[-90.047739999900955,38.990190000368386],[-90.062550000282158,38.967959999554466],[-90.077330000179245,38.945740000101068],[-90.091980000376623,38.923359999564468],[-90.106170000045381,38.900540000320916],[-90.119779999946957,38.877129999949659],[-90.126429999944435,38.865269999810778],[-90.144490000013377,38.827789999908703],[-90.155429999994396,38.801709999616946],[-90.166080000091824,38.775329999879716],[-90.176590000028398,38.748809999981688],[-90.186939999781089,38.722140000360866],[-90.19758999987846,38.695759999724373],[-90.208540000320681,38.66968000033188],[-90.219179999956907,38.643299999695387],[-90.229390000448063,38.616489999913711],[-90.234420000382613,38.603000000150018],[-90.248630000074343,38.561660000308905],[-90.257199999580223,38.533210000441329],[-90.26533999994092,38.504320000068105],[-90.273179999956938,38.475130000249465],[-90.280719999628161,38.445640000086087],[-90.287979999876995,38.415860000039117],[-90.294770000035385,38.385629999924731],[-90.30084000026568,38.35465999985928],[-90.305859999739084,38.322650000397346],[-90.309560000393617,38.289309999856755],[-90.311940000430582,38.254640000036147],[-90.313280000171744,38.218929999919681],[-90.313859999938927,38.182479999852262],[-90.314009999661664,38.14557999971737],[-90.314009999661664,38.108540000320886],[-90.314009999661664,38.071500000025139],[-90.314009999661664,38.03445000016751],[-90.314009999661664,37.997409999871763],[-90.314009999661664,37.960360000014134],[-90.314009999661664,37.923319999718331],[-90.313859999938927,37.886419999583438],[-90.313260000148773,37.84997000041534],[-90.311940000430582,37.81426000029893],[-90.309569999955443,37.779589999578945],[-90.305879999762055,37.746249999937675],[-90.300989999988417,37.714089999853741],[-90.295520000447539,37.682529999559961],[-90.289900000284661,37.651119999888238],[-90.284420000282694,37.619559999594458],[-90.27939999990997,37.587550000132524],[-90.274659999859011,37.555249999887735],[-90.269629999924462,37.523249999987684],[-90.264160000383583,37.491680000132021],[-90.25852999975956,37.460269999560978],[-90.253069999780564,37.428699999705373],[-90.248030000284189,37.396699999805321],[-90.243740000300647,37.363950000392379],[-90.240039999646172,37.330609999851731],[-90.236339999890959,37.297279999772343],[-90.23206000036862,37.2645300003594],[-90.227039999995895,37.232519999998146],[-90.221559999993929,37.200959999704367],[-90.215930000269168,37.169539999571441],[-90.210459999829027,37.137989999738863],[-90.205420000332651,37.105980000276929],[-90.200689999843519,37.073680000032141],[-90.195659999908969,37.041669999670887],[-90.190199999929973,37.010110000276427],[-90.184570000205269,36.978699999705384],[-90.179090000203246,36.947129999849778],[-90.174069999830522,36.91512999994967],[-90.169779999847037,36.882379999637408],[-90.166080000091824,36.849039999996137],[-90.162380000336668,36.815700000354866],[-90.158090000353127,36.782959999604429],[-90.153060000418577,36.750950000142552],[-90.14758000041661,36.719389999848772],[-90.142120000437558,36.687819999993167],[-90.137080000041863,36.655820000093058],[-90.132799999620204,36.623069999780796],[-90.129090000303165,36.589739999701351],[-90.125400000109835,36.55640000006008],[-90.121110000126293,36.523649999747818],[-90.116089999753569,36.49164000028594],[-90.110609999751603,36.460079999992161],[-90.105140000210724,36.428519999698381],[-90.100110000276175,36.396510000236447],[-90.09582000029269,36.363759999924184],[-90.092119999638157,36.330429999844739],[-90.088419999883001,36.297090000203468],[-90.084140000360605,36.264339999891206],[-90.07909999996491,36.232330000429329],[-90.073630000424089,36.200779999697374],[-90.068159999983891,36.169209999841769],[-90.063139999611167,36.137209999941717],[-90.058849999627682,36.104450000067573],[-90.055149999872469,36.071119999988127],[-90.051439999656168,36.037780000346856],[-90.049070000080349,36.021630000224491],[-90.042130000199222,35.973030000134543],[-90.036650000197255,35.941469999840763],[-90.031170000195232,35.909899999985157],[-90.026149999822508,35.877900000085106],[-90.021859999839023,35.845149999772843],[-90.01816000008381,35.811810000131572],[-90.014460000328654,35.778469999590982],[-90.010159999883967,35.745729999739865],[-90.005140000410563,35.713720000277931],[-89.999680000431567,35.682159999984151],[-89.994200000429601,35.650590000128545],[-89.989320000217731,35.618439999606437],[-89.985469999840518,35.585240000126078],[-89.98251000003637,35.551170000095567],[-89.97984999967764,35.516790000158551],[-89.976880000311667,35.482709999666895],[-89.973049999957425,35.449519999748361],[-89.968149999722584,35.417370000125572],[-89.962689999743588,35.385800000269967],[-89.957220000202767,35.354239999976187],[-89.952190000268217,35.322240000076079],[-89.947900000284676,35.289489999763816],[-89.9441999996302,35.256150000122545],[-89.940510000336133,35.222809999581955],[-89.936220000352648,35.190060000169012],[-89.931179999956953,35.158060000268961],[-89.925699999954929,35.126499999975181],[-89.920239999975934,35.094930000119575],[-89.915210000041384,35.062930000219467],[-89.910909999596697,35.030179999907205],[-89.907209999841541,34.996840000265934],[-89.903519999648154,34.963499999725343],[-89.899229999664669,34.930759999874226],[-89.89419999973012,34.898750000412349],[-89.888730000189241,34.867190000118569],[-89.8832599997491,34.835620000262963],[-89.87822999981455,34.803620000362855],[-89.873930000269183,34.770870000050593],[-89.870229999614708,34.737530000409322],[-89.866529999859495,34.704189999868731],[-89.86223999987601,34.671450000017614],[-89.857220000402606,34.639439999656418],[-89.851749999962408,34.607880000261957],[-89.846269999960441,34.576319999968177],[-89.841380000186746,34.544159999884243],[-89.837540000270678,34.510969999965653],[-89.834590000028356,34.476890000373373],[-89.8319200001078,34.4425100004363],[-89.828960000303653,34.408429999944701],[-89.825120000387585,34.37524000002611],[-89.820240000175772,34.343090000403322],[-89.814760000173749,34.311530000109542],[-89.809300000194753,34.279969999815762],[-89.804259999799058,34.247960000353885],[-89.799969999815517,34.215210000041623],[-89.796259999599215,34.181870000400352],[-89.792579999866973,34.148529999859761],[-89.788280000321663,34.115780000446819],[-89.783259999948939,34.08377999964739],[-89.777779999946915,34.05222000025293],[-89.772310000406094,34.02065999995915],[-89.767270000010399,33.988649999597953],[-89.762989999588683,33.955909999746837],[-89.759280000271701,33.92255999964442],[-89.755590000078314,33.889229999564975],[-89.751309999656655,33.856480000152033],[-89.746279999722105,33.824469999790779],[-89.740799999720082,33.792910000396319],[-89.73533000017926,33.761350000102595],[-89.730300000244711,33.729339999741342],[-89.726010000261226,33.696599999890225],[-89.722309999606694,33.663249999787809],[-89.718609999851481,33.629919999708363],[-89.714319999867996,33.597170000295421],[-89.709300000394592,33.565170000395369],[-89.703820000392625,33.533599999640444],[-89.698349999952427,33.502040000245984],[-89.693329999579703,33.47002999988473],[-89.689030000034393,33.437290000033613],[-89.68533000027918,33.403950000392342],[-89.681629999624704,33.370609999851752],[-89.677339999641163,33.337860000438809],[-89.672320000167758,33.305859999639438],[-89.666840000165791,33.274300000244978],[-89.661210000441088,33.242880000112052],[-89.655749999562715,33.211319999818272],[-89.65071000006634,33.179310000356395],[-89.645990000038353,33.14701000011155],[-89.640960000103803,33.115010000211498],[-89.638150000022392,33.099299999695347],[-89.629870000400103,33.052029999784793],[-89.62439000039808,33.020470000390333],[-89.619350000002385,32.988460000029136],[-89.615069999580726,32.955720000178019],[-89.611369999825513,32.922379999637428],[-89.607679999632182,32.889039999996157],[-89.603389999648641,32.856289999683895],[-89.598359999714091,32.824289999783787],[-89.592879999712125,32.792719999928181],[-89.587270000010392,32.761310000256458],[-89.58458999962869,32.745450000017627],[-89.576760000073818,32.69775000006257],[-89.572029999584686,32.665440000255956],[-89.566999999650136,32.633429999894702],[-89.561519999648169,32.601869999600922],[-89.5557600002237,32.570609999651879],[-89.549680000431579,32.539639999586484],[-89.543470000040372,32.508820000143032],[-89.537410000271166,32.477850000077581],[-89.531340000040871,32.446880000012129],[-89.525129999649664,32.416059999669415],[-89.519069999880514,32.385089999603963],[-89.513299999994899,32.35382999965492],[-89.507829999554758,32.32227000026046],[-89.502790000058326,32.290259999899206],[-89.498050000007368,32.257959999654418],[-89.493029999634643,32.225950000192483],[-89.487560000093822,32.194389999898704],[-89.481930000369118,32.16298000022698],[-89.476319999768066,32.131560000094055],[-89.470839999766099,32.099999999800275],[-89.465820000292695,32.067990000338398],[-89.461069999780534,32.035690000093552],[-89.456050000307187,32.003679999732356],[-89.450579999866989,31.972129999899721],[-89.444950000142285,31.940709999766796],[-89.439479999702144,31.909150000372335],[-89.434600000389594,31.876999999850284],[-89.430759999574207,31.843800000369868],[-89.427799999770059,31.809719999878212],[-89.425129999849503,31.775339999941195],[-89.422179999607181,31.741260000348859],[-89.418330000129288,31.708070000430325],[-89.413449999917475,31.675919999908217],[-89.407969999915451,31.644359999614437],[-89.40250000037463,31.612800000219977],[-89.397480000001906,31.580789999858723],[-89.393179999557219,31.548040000445781],[-89.389479999802063,31.514710000366392],[-89.38578000004685,31.481369999825802],[-89.381499999625191,31.448620000412859],[-89.376460000128816,31.416610000051605],[-89.370989999688618,31.385049999757825],[-89.36537000042506,31.353640000086102],[-89.359899999984918,31.322070000230497],[-89.354870000050369,31.290070000330388],[-89.350139999561236,31.2577700000856],[-89.345109999626686,31.225759999724346],[-89.339640000085808,31.194200000329886],[-89.334010000361104,31.162780000197017],[-89.328379999737081,31.131369999625917],[-89.322919999758085,31.099810000231457],[-89.317889999823535,31.067810000331406],[-89.313160000233722,31.035499999625415],[-89.308139999860998,31.003499999725364],[-89.302659999858975,30.971940000330903],[-89.296889999973416,30.940669999920715],[-89.293780000446532,30.925259999749358],[-89.284610000251234,30.878880000411812],[-89.278549999582708,30.847919999908186],[-89.272480000251733,30.816940000280908],[-89.266269999860526,30.786130000399339],[-89.263149999872496,30.770720000227982],[-89.253840000415607,30.724480000152028],[-89.247630000024401,30.693659999809313],[-89.241559999794049,30.662700000205007],[-89.235500000024899,30.631730000139555],[-89.229139999910956,30.60106000041884],[-89.222469999890507,30.570679999682397],[-89.21553000000938,30.540600000190011],[-89.208269999760603,30.510809999681896],[-89.200879999812059,30.481180000256927],[-89.19363000002437,30.451389999748812],[-89.186679999682156,30.421310000256426],[-89.183429999994416,30.406049999807806],[-89.176909999696647,30.375529999809771],[-89.167589999778556,30.329300000195019],[-89.161530000009407,30.298330000129567],[-89.155169999895463,30.267660000408853],[-89.15178000004687,30.25254000012103],[-89.141569999555713,30.207200000180023],[-89.134319999768081,30.177420000133054],[-89.126909999796567,30.147780000246939],[-89.119669999570704,30.11800000019997],[-89.112720000127808,30.087919999808264],[-89.106059999669128,30.057539999971141],[-89.099699999555241,30.026870000250483],[-89.093630000224209,29.995900000185031],[-89.08756999955574,29.96493000011958],[-89.081360000063853,29.934109999776808],[-89.075149999672647,29.903290000333413],[-89.06894000018076,29.872469999990642],[-89.062720000227728,29.841649999647927],[-89.056659999559201,29.810679999582476],[-89.050599999790052,29.779710000416344],[-89.044390000298165,29.748890000073573],[-89.038309999606668,29.717929999569947],[-89.032550000182255,29.686660000059078],[-89.027079999742114,29.655099999765298],[-89.022049999807564,29.623090000303421],[-89.017320000217751,29.590790000058576],[-89.012279999822056,29.558779999697379],[-89.006810000281178,29.527220000302918],[-89.001190000118299,29.495809999731819],[-88.995710000116333,29.464239999876213],[-88.990840000365608,29.432090000253424],[-88.987139999711133,29.398749999712834],[-88.984770000135313,29.364079999892226],[-88.98343999995592,29.328369999775816],[-88.982849999727591,29.291919999708341],[-88.982700000004911,29.255019999573449],[-88.982700000004911,29.217980000177022],[-88.982700000004911,29.180930000319393],[-88.982700000004911,29.143890000023646],[-88.982700000004911,29.106849999727842],[-88.982700000004911,29.069799999870213],[-88.982700000004911,29.032750000012641],[-88.982700000004911,28.995709999716837],[-88.982700000004911,28.95867000032041],[-88.982700000004911,28.921630000024606],[-88.982700000004911,28.884580000167034],[-88.982700000004911,28.847539999871231],[-88.982700000004911,28.810490000013658],[-88.982700000004911,28.773449999717855],[-88.982700000004911,28.736399999860225],[-88.982700000004911,28.699359999564479],[-88.982700000004911,28.662320000167995],[-88.982700000004911,28.625270000310422],[-88.982700000004911,28.588230000014619],[-88.982700000004911,28.551180000157046],[-88.982700000004911,28.514139999861243],[-88.982700000004911,28.477099999565496],[-88.982700000004911,28.440049999707867],[-88.982849999727591,28.40316000003412],[-88.983430000394094,28.366709999966645],[-88.984759999674168,28.330999999850235],[-88.987139999711133,28.296319999568482],[-88.990829999904463,28.262979999927211],[-88.995710000116333,28.230830000304422],[-89.001190000118299,28.199270000010642],[-89.006670000120323,28.167709999716863],[-89.01153999987099,28.135549999632929],[-89.015239999626203,28.102209999991658],[-89.017759999824023,28.06768999989373],[-89.019680000231745,28.032570000005649],[-89.02159999974009,27.997450000117567],[-89.024119999937966,27.962919999558494],[-89.027799999670151,27.929579999917223],[-89.032699999904992,27.897430000294435],[-89.038159999883987,27.865870000000655],[-89.043639999885954,27.834309999706875],[-89.048680000281706,27.802300000244941],[-89.052959999804045,27.769549999932678],[-89.056659999559201,27.736219999853233],[-89.060349999752589,27.702880000211962],[-89.064639999736073,27.6701299998997],[-89.069669999670623,27.638120000437823],[-89.075149999672647,27.606560000144043],[-89.080760000273699,27.575149999572943],[-89.086240000275666,27.543590000178483],[-89.091270000210216,27.511579999817286],[-89.095999999800028,27.479279999572441],[-89.101029999734578,27.447270000110564],[-89.106509999736602,27.415709999816784],[-89.112270000060334,27.384449999867741],[-89.118349999852512,27.353479999802289],[-89.124560000243719,27.322660000358894],[-89.130620000012868,27.291690000293443],[-89.13669000024322,27.260720000227991],[-89.142899999735107,27.22989999988522],[-89.149110000126313,27.199080000441825],[-89.1553199996182,27.168260000099053],[-89.161539999571232,27.137439999756339],[-89.167609999801527,27.106469999690887],[-89.170569999605675,27.090909999796793],[-89.17987999996194,27.044680000181984],[-89.186099999914973,27.013859999839269],[-89.192310000306179,26.983040000395818],[-89.198519999798066,26.952220000053103],[-89.204590000028361,26.921249999987651],[-89.210660000258713,26.8902799999222],[-89.217009999911454,26.859610000201485],[-89.223659999908989,26.829230000364362],[-89.23061999981303,26.799149999972656],[-89.237869999600719,26.769369999925686],[-89.245410000171262,26.739879999762309],[-89.253250000187279,26.710689999943668],[-89.257250000287172,26.696170000345376],[-89.26981000033112,26.653199999980131],[-89.278540000020882,26.624899999835293],[-89.287260000148763,26.596599999690397],[-89.295710000416079,26.568000000100085],[-89.303829999854486,26.539100000165035],[-89.311680000331648,26.509910000346395],[-89.319369999725609,26.480569999905697],[-89.327209999741569,26.451389999648882],[-89.335350000102324,26.422489999713832],[-89.343780000346612,26.393890000123577],[-89.352650000197229,26.365739999701361],[-89.361820000392584,26.337880000062114],[-89.370989999688618,26.31002000042281],[-89.380170000345117,26.282170000345388],[-89.38475000021225,26.268240000076105],[-89.398799999720097,26.226749999612935],[-89.407969999915451,26.198889999973687],[-89.412549999782584,26.184959999704347],[-89.427059999819051,26.14392000020797],[-89.43711999968815,26.116950000242468],[-89.4421499996227,26.103470000040602],[-89.452500000274711,26.076789999958692],[-89.463449999817556,26.050720000128024],[-89.474389999798575,26.024639999836268],[-89.484759999574237,25.997970000215503],[-89.495099999765046,25.971290000133536],[-89.505760000323676,25.944919999958188],[-89.516110000076367,25.918250000337366],[-89.531939999831025,25.878529999659918],[-89.537410000271166,25.865489999963643],[-89.548359999814011,25.839420000133032],[-89.563890000123308,25.799409999571992],[-89.574389999598679,25.772889999673907],[-89.584900000434573,25.746360000213997],[-89.595399999909944,25.719840000315912],[-89.600719999728085,25.706649999997637],[-89.618180000006873,25.668570000305408],[-89.624090000053343,25.655970000215461],[-89.64213999966114,25.618479999852241],[-89.648350000052346,25.606189999668914],[-89.666840000165791,25.569139999811284],[-89.672899999934941,25.556690000343394],[-89.68533000027918,25.532100000414857],[-89.703829999954451,25.495060000119054],[-89.716089999653661,25.470310000006634],[-89.722309999606694,25.458010000261424],[-89.734730000389106,25.433409999871742],[-89.75308000034164,25.396219999853258],[-89.759289999833527,25.383920000108048],[-89.77170999971662,25.359330000179511],[-89.790059999669154,25.322129999699882],[-89.802639999736073,25.297690000393345],[-89.809010000311162,25.285529999909727],[-89.821720000077846,25.261229999864725],[-89.835029999634685,25.237529999609933],[-89.848939999880997,25.214410000021644],[-89.863140000010901,25.191589999878715],[-89.87732999967966,25.168769999735844],[-89.891529999809563,25.145949999592972],[-89.905440000055876,25.122839999566452],[-89.919049999957451,25.099419999633426],[-89.93236000041361,25.075720000277954],[-89.946269999760602,25.052599999790289],[-89.960750000212215,25.030079999992154],[-89.976149999922427,25.008449999867764],[-89.992420000182733,24.987699999855238],[-90.009580000116785,24.967849999977659],[-90.026729999589691,24.947989999638935],[-90.043899999984887,24.928130000199474],[-90.060469999690611,24.907679999632421],[-90.076430000044354,24.88663999973636],[-90.092119999638157,24.865309999956651],[-90.107799999670135,24.843969999715853],[-90.12378000004685,24.822929999819792],[-90.140349999752573,24.802480000152002],[-90.15779000000839,24.782920000158015],[-90.175549999732596,24.763659999609445],[-90.193890000123304,24.744990000188523],[-90.212229999614692,24.726319999868224],[-90.230879999911963,24.707940000330893],[-90.249209999841526,24.689270000010652],[-90.267849999677651,24.67090000003509],[-90.286190000068359,24.652229999714848],[-90.304820000342659,24.633859999739343],[-90.32346999974061,24.615480000202012],[-90.342699999805063,24.597699999555459],[-90.362219999753108,24.58022000015302],[-90.382639999836044,24.56361999996318],[-90.403639999686106,24.547619999563494],[-90.424939999880962,24.531909999946663],[-90.446240000075818,24.516200000329889],[-90.467250000387082,24.500199999930203],[-90.487669999570699,24.483610000201509],[-90.507190000418063,24.466120000337867],[-90.526430000044343,24.44833999969137],[-90.545359999764059,24.430259999599457],[-90.564589999828513,24.41247999985228],[-90.584109999776558,24.394999999550464],[-90.604520000297669,24.378400000259944],[-90.625529999709613,24.362399999860259],[-90.646840000365614,24.346690000243484],[-90.668130000099325,24.330990000188478],[-90.68943000029418,24.315279999672384],[-90.710430000144299,24.299269999710873],[-90.731149999672652,24.28296999986577],[-90.752150000422091,24.266970000365347],[-90.773449999717627,24.251270000310399],[-90.794749999912483,24.235559999794305],[-90.816059999669164,24.21985000017753],[-90.83735999986402,24.204150000122524],[-90.858359999714139,24.188140000161013],[-90.87906999968061,24.17184000031591],[-90.900070000430048,24.155839999916225],[-90.92138000018673,24.140130000299393],[-90.942680000381586,24.124430000244445],[-90.963970000115296,24.108719999728351],[-90.985279999871977,24.093010000111576],[-90.995780000246725,24.085009999911733],[-91.026989999688624,24.060709999866731],[-91.047999999999888,24.044710000366365],[-91.06930999975657,24.028999999850271],[-91.090899999835017,24.013589999678857],[-91.112790000258201,23.998479999852236],[-91.134980000126802,23.983659999909207],[-91.157169999995403,23.968839999966178],[-91.179350000302179,23.954029999584975],[-91.201250000287189,23.938910000196472],[-91.222840000365636,23.923500000025115],[-91.244159999684143,23.90779000040834],[-91.265149999972436,23.891790000008655],[-91.285870000400109,23.875490000163495],[-91.306870000250228,23.859489999763809],[-91.328170000445084,23.843780000147035],[-91.34946999974062,23.828080000092086],[-91.370769999935419,23.812369999575935],[-91.392070000130275,23.796659999959161],[-91.413069999980394,23.780659999559475],[-91.433779999946921,23.764359999714372],[-91.454790000258186,23.748360000214007],[-91.476089999553722,23.732649999697855],[-91.497679999632169,23.717240000425818],[-91.519579999617179,23.702129999699878],[-91.541759999923954,23.687309999756849],[-91.563949999792555,23.672489999813763],[-91.586139999661157,23.657669999870734],[-91.608330000429078,23.642849999927705],[-91.630520000297679,23.628040000445822],[-91.65271000016628,23.613219999603416],[-91.675189999918473,23.598700000005124],[-91.697979999577228,23.584470000290423],[-91.709520000247721,23.577510000386326],[-91.732739999950923,23.563729999839779],[-91.756250000437092,23.550240000076087],[-91.79145999997894,23.52994999969286],[-91.802990000188231,23.522980000226994],[-91.825929999569723,23.508900000234974],[-91.860090000153264,23.487569999556001],[-91.882870000250193,23.473339999841244],[-91.894419999583192,23.466379999937203],[-91.91778999990845,23.452750000012657],[-91.941760000023862,23.439699999855236],[-91.96600999956172,23.426959999604435],[-91.990269999560724,23.414220000252953],[-92.014529999559727,23.401480000002152],[-92.038499999675139,23.388440000305934],[-92.073400000209745,23.367840000016145],[-92.096180000306674,23.353610000301387],[-92.118969999965429,23.339390000148512],[-92.141750000062359,23.325160000433812],[-92.153280000271707,23.318199999630394],[-92.176649999697645,23.304569999705848],[-92.200610000251231,23.291530000009629],[-92.22487999981206,23.278789999758828],[-92.249299999994889,23.266189999668882],[-92.273990000038395,23.253889999923672],[-92.29868999964367,23.241590000178519],[-92.323100000264674,23.228999999650398],[-92.347349999802532,23.216260000298917],[-92.383160000033854,23.196549999682873],[-92.394690000243202,23.189580000216949],[-92.429010000111305,23.168400000160034],[-92.451790000208234,23.154170000445333],[-92.474570000305164,23.139939999831256],[-92.486110000076337,23.132979999927215],[-92.509480000401595,23.119350000002612],[-92.533440000055862,23.106310000306394],[-92.557709999616691,23.093570000055593],[-92.582120000237694,23.080969999965646],[-92.6068100002812,23.068670000220493],[-92.631520000347621,23.056369999575963],[-92.668349999952454,23.037700000155041],[-92.680919999558228,23.031779999647426],[-92.706070000130296,23.019920000407808],[-92.731370000425102,23.008219999553489],[-92.757260000048859,22.997100000264936],[-92.783730000339119,22.986579999867217],[-92.810210000191262,22.976060000368875],[-92.836690000043347,22.965539999971156],[-92.863310000056345,22.955170000195494],[-92.88964000018575,22.944500000075095],[-92.915680000431564,22.933540000071105],[-92.94200999966165,22.922869999950706],[-92.968780000296647,22.912640000335898],[-92.995699999755061,22.902570000005653],[-93.022919999558212,22.892789999559],[-93.050579999867011,22.883449999617937],[-93.078249999737579,22.874120000138021],[-93.105459999978905,22.864339999691367],[-93.132389999898464,22.854259999799297],[-93.159150000072316,22.844039999746315],[-93.185489999763604,22.833369999625916],[-93.211520000447535,22.8224000000601],[-93.237849999677621,22.811740000400846],[-93.264629999874501,22.801509999886719],[-93.291550000232235,22.791439999556474],[-93.318770000035386,22.781650000447314],[-93.346439999905954,22.772320000068078],[-93.374240000375607,22.763129999849752],[-93.401899999785087,22.753800000369836],[-93.429569999655655,22.74446000042883],[-93.457370000125309,22.735279999772331],[-93.485180000156788,22.726089999553949],[-93.512839999566211,22.716749999612944],[-93.54049999987501,22.707420000133027],[-93.568309999906489,22.698229999914702],[-93.595979999777057,22.688900000434785],[-93.623199999580208,22.679119999988131],[-93.649970000215262,22.668899999935206],[-93.676160000183756,22.65808000009207],[-93.701140000110797,22.646079999792278],[-93.736360000113791,22.625770000285399],[-93.758249999637655,22.610659999559459],[-93.778660000158766,22.594060000268939],[-93.797589999878483,22.575989999738852],[-93.815640000385599,22.557019999973136],[-93.832199999630177,22.536570000305403],[-93.847150000172292,22.514789999558957],[-93.860319999568219,22.49183000015455],[-93.875399999810043,22.454330000229447],[-93.878510000236247,22.442180000206974],[-93.88339000044806,22.401879999762343],[-93.88251000033614,22.389580000017133],[-93.875990000038371,22.348830000404348],[-93.867419999633171,22.323049999557952],[-93.856320000367646,22.298309999906735],[-93.843450000417079,22.274450000367381],[-93.828809999781583,22.252080000291926],[-93.803219999603186,22.2221499996229],[-93.784129999699644,22.204360000313898],[-93.75218000030668,22.181839999616443],[-93.741390000048341,22.175019999873257],[-93.719189999718594,22.16257000040531],[-93.685030000034374,22.147160000233953],[-93.661500000424553,22.139309999756847],[-93.636949999642695,22.133680000032143]]]},"properties":{"objectid":540,"stormname":"Isaias","stormtype":"TS","basin":"AL","advdate":"1000 AM CDT Wed Oct 07 2026","advisnum":"4","fcstprd":120,"stormnum":9,"idp_source":"al092026-004_5day_pgn","idp_filedate":1791386890000,"idp_ingestdate":1791386969000,"st_area(shape)":65.207237048404437,"st_perimeter(shape)":46.754529864104491,"binnumber":"AT4"}}]}