{"type":"FeatureCollection","features":[{"type":"Feature","id":651,"geometry":{"type":"Polygon","coordinates":[[[-87.0130800002417,28.93187000010056],[-87.004259999998908,28.93187000010056],[-86.974430000344114,28.934339999791291],[-86.953870000100324,28.938689999843746],[-86.93273000008935,28.944579999867244],[-86.911469999940437,28.951760000024137],[-86.890340000390609,28.959749999762835],[-86.869539999870995,28.968349999752832],[-86.849689999993416,28.977880000361893],[-86.830889999973408,28.988459999929205],[-86.81303000013429,28.999999999700378],[-86.796229999714626,29.012579999767297],[-86.773090000103309,29.033530000009648],[-86.758769999835522,29.048590000228444],[-86.74561000000142,29.064830000004633],[-86.728229999814516,29.091539999671397],[-86.722820000342665,29.100830000004635],[-86.709549999932449,29.131659999909232],[-86.702380000236701,29.153900000284921],[-86.696289999983435,29.177189999618918],[-86.690990000188265,29.201310000356386],[-86.686069999930453,29.225789999708866],[-86.68112999964967,29.250260000398839],[-86.676190000268207,29.274730000189493],[-86.671260000448569,29.299210000441292],[-86.666329999729612,29.323680000231946],[-86.661509999586713,29.348270000160539],[-86.656699999904959,29.372860000089076],[-86.651660000408583,29.397220000202992],[-86.646359999714093,29.421340000041084],[-86.640839999666127,29.445219999603466],[-86.63508999980354,29.468879999812259],[-86.629210000241187,29.492410000321399],[-86.623340000240717,29.51593999993122],[-86.617459999779044,29.539470000440303],[-86.611589999778573,29.563000000050124],[-86.60571000021622,29.586540000121033],[-86.599849999777575,29.610069999730854],[-86.593959999754077,29.633600000239937],[-86.588100000214752,29.657140000310903],[-86.582219999753079,29.680660000358898],[-86.576349999752608,29.704200000429807],[-86.570470000190255,29.727730000039628],[-86.56460999975161,29.751259999649392],[-86.558730000189257,29.774799999720358],[-86.55286000018873,29.798319999768296],[-86.546979999727114,29.821859999839262],[-86.541109999726586,29.845390000348402],[-86.53523000016429,29.868919999958166],[-86.529360000163763,29.892460000029132],[-86.523499999725118,29.915989999638896],[-86.517620000162765,29.939520000148036],[-86.511750000162294,29.9630499997578],[-86.50600000029965,29.986700000404824],[-86.500469999790539,30.010590000428294],[-86.495190000018397,30.034710000266443],[-86.490129999599674,30.059059999919214],[-86.487670000370144,30.071299999595453],[-86.480510000236222,30.10825000023749],[-86.475460000278702,30.132599999890203],[-86.470170000045357,30.156719999728352],[-86.464649999997391,30.180609999751823],[-86.458889999673659,30.204249999937701],[-86.455949999892482,30.216020000422816],[-86.447269999810544,30.251439999756315],[-86.441740000200753,30.275329999779785],[-86.436460000428553,30.299440000056109],[-86.431409999571713,30.323800000170024],[-86.426590000328133,30.348390000098561],[-86.424239999875965,30.360740000350859],[-86.416849999927422,30.397460000278954],[-86.411909999646639,30.421930000069608],[-86.406970000265176,30.446399999860262],[-86.402040000445538,30.470880000112061],[-86.399569999855487,30.483110000226475],[-86.392409999721622,30.520059999969192],[-86.387479999901984,30.544529999759845],[-86.38267000022023,30.569119999688382],[-86.380319999768062,30.581480000401825],[-86.373729999839497,30.619009999911725],[-86.36974000020075,30.644419999883212],[-86.365980000376624,30.670070000130522],[-86.361989999838499,30.695489999663891],[-86.35765000024719,30.720549999682873],[-86.355419999932963,30.733020000073111],[-86.348850000027369,30.7705600000441],[-86.344959999604214,30.796090000153526],[-86.343200000279694,30.809029999734832],[-86.34014999992246,30.850099999715383],[-86.338970000365123,30.878339999791308],[-86.338500000274678,30.892570000405328],[-86.336849999727576,30.935049999757837],[-86.334979999826999,30.96258000036687],[-86.332049999607705,30.989060000218956],[-86.328160000083813,31.014590000328383],[-86.323810000031358,31.039650000347365],[-86.319470000440049,31.064710000366347],[-86.315600000039865,31.090239999576454],[-86.312649999797543,31.116720000327916],[-86.310779999896965,31.14425000003763],[-86.309719999578192,31.172610000251439],[-86.309250000387124,31.201550000232487],[-86.309130000249183,31.230849999727866],[-86.309130000249183,31.260270000260448],[-86.309130000249183,31.289680000331884],[-86.309130000249183,31.319099999965147],[-86.309130000249183,31.34851000003664],[-86.309130000249183,31.377929999669902],[-86.309130000249183,31.407339999741339],[-86.309130000249183,31.436760000273921],[-86.309130000249183,31.46617999990724],[-86.309250000387124,31.495469999840736],[-86.309719999578192,31.52442000028293],[-86.310779999896965,31.552770000035594],[-86.312649999797543,31.580310000206509],[-86.315600000039865,31.60677999959745],[-86.319470000440049,31.632309999706877],[-86.323810000031358,31.657369999725859],[-86.328160000083813,31.682429999744841],[-86.332029999584734,31.707970000315413],[-86.335090000403113,31.73431999956847],[-86.337430000394079,31.761380000087058],[-86.339550000132306,31.788679999982151],[-86.341899999685154,31.815739999601419],[-86.344959999604214,31.842100000214998],[-86.348830000004398,31.867630000324425],[-86.353180000056852,31.892699999905233],[-86.357639999786045,31.917639999786331],[-86.361989999838499,31.942699999805313],[-86.365980000376624,31.968120000237946],[-86.36974000020075,31.99376000002411],[-86.373729999839497,32.01917999955748],[-86.378079999891952,32.044239999576462],[-86.382550000082347,32.06918000035688],[-86.387009999811539,32.094129999799804],[-86.391359999863994,32.119189999818786],[-86.395350000402118,32.144610000251475],[-86.399110000226244,32.170259999599466],[-86.403099999864992,32.195669999570953],[-86.407449999917446,32.220729999589935],[-86.411920000107841,32.245670000370353],[-86.416379999837034,32.270619999813277],[-86.420720000327663,32.295679999832259],[-86.42470999996641,32.321100000264948],[-86.428469999790536,32.346749999612939],[-86.43246000032866,32.372159999584483],[-86.436810000381115,32.397219999603465],[-86.441279999672133,32.422160000383883],[-86.445629999724588,32.447240000425836],[-86.449620000262712,32.472639999936177],[-86.453030000134277,32.498649999697875],[-86.455960000353627,32.525119999988135],[-86.458900000134804,32.551599999840278],[-86.462300000444543,32.577600000040093],[-86.466290000083347,32.603019999573462],[-86.470629999674657,32.628079999592444],[-86.474990000188257,32.653139999611426],[-86.478870000150266,32.678669999720853],[-86.481800000369617,32.705149999572939],[-86.483670000270195,32.732680000182029],[-86.484740000150794,32.761029999934692],[-86.485210000241239,32.789980000376886],[-86.485319999917976,32.819270000310382],[-86.485319999917976,32.848689999943701],[-86.485319999917976,32.878109999576964],[-86.485319999917976,32.9075199996484],[-86.485319999917976,32.936940000180982],[-86.485210000241239,32.966230000114535],[-86.484740000150794,32.99517999965741],[-86.483670000270195,33.023530000309393],[-86.481800000369617,33.051060000019106],[-86.478859999689121,33.077539999871249],[-86.474990000188257,33.103069999980676],[-86.470519999997919,33.12802000032292],[-86.465710000316164,33.152610000251457],[-86.460770000035382,33.177089999603936],[-86.455960000353627,33.201680000431793],[-86.451020000072845,33.226150000222503],[-86.445620000162762,33.250149999922712],[-86.439739999701146,33.273680000431796],[-86.433399999610174,33.296750000412317],[-86.426590000328133,33.319339999841247],[-86.419660000008889,33.341810000031614],[-86.412960000403586,33.364519999598429],[-86.409680000231731,33.375929999669893],[-86.400280000221755,33.410640000435819],[-86.397229999864521,33.422289999883731],[-86.387949999992429,33.457119999888221],[-86.381480000201748,33.480060000169033],[-86.374790000158271,33.502769999735847],[-86.367739999701143,33.52511999978833],[-86.360460000328658,33.547249999587962],[-86.353180000056852,33.569369999825767],[-86.345899999785047,33.591479999602427],[-86.338500000274678,33.613490000163495],[-86.331099999864989,33.635490000263474],[-86.323819999593184,33.657620000063105],[-86.316420000082815,33.679609999701881],[-86.312660000258688,33.690560000144046],[-86.300670000420098,33.722680000181981],[-86.292570000105343,33.743969999915691],[-86.284119999838026,33.764920000158043],[-86.279769999785572,33.775269999910734],[-86.262850000127287,33.817159999934177],[-86.254620000112823,33.838339999991149],[-86.246180000306651,33.859279999772298],[-86.237950000292187,33.88045999982927],[-86.224909999696649,33.911530000009634],[-86.220340000290662,33.921649999947704],[-86.206249999837496,33.951639999786323],[-86.201549999832537,33.961650000047598],[-86.191679999732116,33.981179999557469],[-86.181809999631696,34.000709999966659],[-86.172179999807042,34.020479999752354],[-86.157379999886984,34.049780000147052],[-86.147629999924447,34.069420000232981],[-86.142809999781548,34.079310000356372],[-86.132950000142273,34.098839999866243],[-86.123080000041853,34.118370000275434],[-86.113450000217256,34.138140000061071],[-86.098530000159258,34.167320000317886],[-86.093469999740591,34.176970000165511],[-86.08336999982555,34.19626999986076],[-86.072799999820006,34.215089999903739],[-86.061759999724131,34.233439999856273],[-86.050480000251696,34.251559999994129],[-86.033100000064849,34.278269999660893],[-86.027219999603176,34.287100000364887],[-86.015479999602178,34.304750000412355],[-86.00373999960118,34.322399999560503],[-85.991990000038356,34.340049999607913],[-85.980250000037358,34.357690000093555],[-85.968499999575215,34.375340000141023],[-85.950880000011864,34.401819999993165],[-85.945010000011393,34.410640000235958],[-85.933270000010396,34.428290000283425],[-85.921520000447572,34.445940000330893],[-85.909769999985429,34.463579999917215],[-85.891680000331633,34.489589999678913],[-85.885570000055338,34.498180000107084],[-85.872880000311682,34.514889999973661],[-85.852799999720105,34.53888999967387],[-85.845870000300181,34.546660000059092],[-85.831770000285189,34.561950000092565],[-85.817439999556257,34.577019999873244],[-85.803340000440585,34.592309999906718],[-85.789490000263186,34.607840000215958],[-85.776319999967939,34.624079999992148],[-85.763639999786051,34.640789999858725],[-85.751190000318161,34.657730000439301],[-85.738739999950951,34.674670000120557],[-85.726059999769063,34.691379999987134],[-85.712910000396107,34.707619999763324],[-85.699049999757563,34.723150000072565],[-85.684949999742571,34.738440000106038],[-85.670390000098337,34.75326999961095],[-85.6558199999929,34.768100000015124],[-85.641020000072842,34.782690000143532],[-85.626449999967406,34.797510000086561],[-85.611650000047348,34.812100000214969],[-85.597090000403114,34.82692999971988],[-85.582280000021854,34.841510000286405],[-85.567720000377619,34.856339999791317],[-85.552919999558242,34.870929999919724],[-85.538350000352125,34.885760000323899],[-85.523559999993893,34.900349999552986],[-85.508989999888456,34.915170000395335],[-85.494189999968398,34.929759999624423],[-85.479630000324164,34.944590000028597],[-85.464830000404106,34.959180000157005],[-85.450269999860495,34.974000000100091],[-85.435460000378612,34.988590000228498],[-85.42067000002038,35.003180000356849],[-85.405390000448051,35.017300000394869],[-85.397640000085858,35.024240000275938],[-85.373669999970446,35.044360000014137],[-85.356989999688608,35.057069999780822],[-85.340090000053351,35.069540000171003],[-85.331630000224209,35.075780000147063],[-85.306490000113286,35.094720000327925],[-85.29027999992195,35.107900000184998],[-85.274539999821002,35.121550000132572],[-85.266659999759099,35.128369999875758],[-85.243059999619163,35.148850000027608],[-85.234949999742582,35.155430000394347],[-85.210170000045366,35.174739999651422],[-85.201719999778049,35.180970000065599],[-85.176349999852505,35.19968000043184],[-85.159439999756103,35.212149999922701],[-85.142749999912439,35.22485000012756],[-85.117970000215223,35.244160000283955],[-85.109629999624701,35.250509999936696],[-85.092709999966416,35.262980000326877],[-85.075559999594191,35.275220000003117],[-85.058180000306663,35.287220000302909],[-85.040559999843993,35.298980000326878],[-85.022929999819553,35.31074999991273],[-85.005330000279173,35.322520000397844],[-84.99651000003638,35.328399999960197],[-84.970079999792063,35.346050000007665],[-84.961270000010359,35.351929999569961],[-84.934839999766098,35.369579999617429],[-84.926029999984394,35.375469999640927],[-84.899610000201221,35.393110000126569],[-84.890789999958429,35.398989999688865],[-84.864359999714111,35.416639999736333],[-84.846760000173788,35.428410000221504],[-84.837939999930938,35.434300000244946],[-84.811509999686621,35.451939999831268],[-84.793899999685152,35.463710000316382],[-84.776280000121801,35.475470000340408],[-84.758650000097305,35.487239999926203],[-84.741040000095836,35.499010000411317],[-84.723419999633165,35.510770000435343],[-84.705800000069814,35.522540000021138],[-84.696990000288167,35.528419999583434],[-84.670560000043849,35.546069999630902],[-84.661739999801057,35.5519599996544],[-84.644129999799532,35.563719999678369],[-84.617710000016359,35.581369999725837],[-84.60007999999192,35.593129999749806],[-84.582469999990394,35.604900000234977],[-84.564839999965898,35.616669999820772],[-84.547229999964429,35.628429999844741],[-84.529610000401078,35.640200000329912],[-84.520799999720111,35.646090000353354],[-84.494130000099346,35.663500000125055],[-84.476040000445551,35.674790000058579],[-84.466890000273168,35.68031999966837],[-84.448440000205721,35.69125999964939],[-84.420360000313678,35.707269999610958],[-84.40181000013132,35.718090000353357],[-84.392650000397111,35.723619999963148],[-84.365400000109787,35.740449999967666],[-84.347309999556728,35.751750000362392],[-84.329219999902989,35.763040000295916],[-84.310900000434572,35.774100000414819],[-84.292339999791068,35.784929999819781],[-84.27353999977106,35.795510000286413],[-84.254989999588702,35.806339999691374],[-84.245820000292667,35.811870000200486],[-84.227620000062871,35.823039999996126],[-84.200489999913486,35.839990000138528],[-84.18240000025969,35.851280000072109],[-84.173230000064336,35.8568099996819],[-84.154789999558716,35.867760000124065],[-84.126720000127818,35.883759999624431],[-84.108149999922432,35.894580000366886],[-84.098999999750106,35.900120000437823],[-84.071750000362101,35.916939999981139],[-84.053670000270188,35.92822999991472],[-84.035570000155303,35.939530000309389],[-84.01724000022574,35.950590000428349],[-84.007849999777534,35.955890000223462],[-83.979190000118308,35.97130000039482],[-83.969560000293654,35.976359999914223],[-83.940660000358605,35.991540000270959],[-83.921399999810035,36.001660000208972],[-83.902599999790027,36.012250000237486],[-83.884280000321667,36.023310000356389],[-83.875239999826022,36.028949999642919],[-83.848100000114812,36.045890000223494],[-83.839050000057341,36.051539999971169],[-83.811690000093336,36.068249999837747],[-83.792890000073328,36.078839999866261],[-83.783260000248731,36.083900000284928],[-83.754380000336653,36.099079999742344],[-83.744740000050854,36.10414000016101],[-83.715840000115804,36.119319999618426],[-83.706449999667655,36.124609999851771],[-83.68788999992347,36.135440000156052],[-83.660639999636146,36.152259999699368],[-83.642540000420581,36.163549999632949],[-83.633499999924936,36.169200000279943],[-83.606130000399105,36.185910000146521],[-83.587339999940923,36.196500000175035],[-83.568080000291673,36.206620000113048],[-83.558440000005874,36.211679999632395],[-83.529560000093795,36.226859999989131],[-83.510289999983399,36.2369799999272],[-83.500900000434569,36.242270000160545],[-83.473180000056857,36.258630000074618],[-83.455079999941916,36.269920000008142],[-83.446029999884502,36.275569999755817],[-83.427949999792531,36.286870000150543],[-83.400569999805555,36.303580000017121],[-83.381789999808518,36.314159999584433],[-83.362530000159268,36.324280000421822],[-83.343260000048872,36.334400000359892],[-83.323989999938419,36.344520000297905],[-83.304730000289169,36.354640000235975],[-83.295330000279193,36.359940000031145],[-83.267620000362626,36.376290000383335],[-83.249529999809511,36.387580000316916],[-83.231429999694626,36.398879999812266],[-83.213349999602713,36.410169999745847],[-83.204189999868504,36.415700000254958],[-83.185619999663174,36.42652999965992],[-83.156969999565717,36.441939999831277],[-83.137700000354641,36.452059999769347],[-83.118439999806014,36.462179999707359],[-83.108809999981418,36.467240000126026],[-83.080380000136813,36.482889999673887],[-83.062059999769076,36.49394999979279],[-83.04397000011528,36.505239999726371],[-83.034929999619692,36.510890000373365],[-83.007800000369627,36.527839999616447],[-82.989470000440065,36.538899999735349],[-82.980070000430089,36.544189999968694],[-82.961039999696141,36.55455000018253],[-82.941769999585688,36.564670000120543],[-82.912889999673666,36.579840000016134],[-82.903259999849013,36.5849000004348],[-82.884219999553238,36.595259999749317],[-82.865659999809054,36.606079999592453],[-82.83841000042105,36.62290999959697],[-82.820330000329136,36.634200000429814],[-82.811280000271665,36.639850000177489],[-82.793080000041869,36.651019999973187],[-82.774509999836539,36.661850000277411],[-82.755489999563736,36.672200000030102],[-82.736229999914485,36.682319999968172],[-82.707089999703612,36.697269999610967],[-82.697230000064337,36.702089999753809],[-82.67761000000138,36.711859999739318],[-82.648600000389592,36.72691999995817],[-82.638960000103793,36.731980000376836],[-82.619930000269164,36.742330000129527],[-82.592220000352654,36.7586900000436],[-82.583179999857009,36.764339999791275],[-82.565090000203213,36.775629999724856],[-82.537949999592684,36.792579999867257],[-82.528789999858475,36.798110000376369],[-82.510230000114291,36.808930000219505],[-82.481569999555745,36.824340000390862],[-82.471939999731092,36.829399999910208],[-82.452669999620696,36.839519999848278],[-82.423780000146792,36.854700000205014],[-82.404980000126784,36.865290000233472],[-82.395820000392575,36.870819999843263],[-82.368579999667134,36.887640000285955],[-82.359529999609663,36.89329000003363],[-82.341430000394098,36.904579999967154],[-82.323230000164244,36.915760000223997],[-82.304789999658624,36.926700000205017],[-82.276720000227726,36.942710000166528],[-82.258159999584223,36.953530000009664],[-82.248999999850014,36.959059999619456],[-82.221760000023892,36.975889999623917],[-82.20365999990895,36.987179999557497],[-82.194620000312682,36.992839999766318],[-82.176409999621683,37.004009999561958],[-82.148449999867466,37.020130000099584],[-82.13882000004287,37.025189999618931],[-82.10992000010782,37.040369999975667],[-82.100299999844992,37.045430000394333],[-82.081020000172771,37.055550000332403],[-82.061999999899967,37.065900000085094],[-82.0342899999834,37.082259999999167],[-82.02523999992593,37.087900000185016],[-82.007159999834016,37.099199999680366],[-81.989059999719132,37.110500000075092],[-81.970860000388598,37.121669999870733],[-81.943130000449059,37.138029999784806],[-81.924330000429052,37.148619999813263],[-81.91504999965764,37.154030000184491],[-81.896610000051339,37.164970000165511],[-81.869370000225217,37.181789999708883],[-81.851270000110333,37.193090000103552],[-81.833179999557217,37.204380000037133],[-81.814869999650682,37.215449999717862],[-81.805589999778533,37.22086000008909],[-81.77750999988649,37.236859999589456],[-81.768230000014398,37.242280000421829],[-81.740629999774569,37.25875000001264],[-81.722549999682656,37.270039999946164],[-81.704689999843538,37.281570000155511],[-81.687070000280187,37.293339999741363],[-81.66969000009334,37.305340000041099],[-81.652530000159288,37.317570000155513],[-81.627280000371627,37.336399999760317],[-81.618939999781048,37.342750000312435],[-81.602490000213209,37.355700000354886],[-81.585820000392573,37.368399999660426],[-81.5688900002732,37.380879999612432],[-81.543529999909481,37.399589999978673],[-81.535079999642164,37.40582000039285],[-81.52673000038908,37.412170000045592],[-81.502190000068367,37.431710000016608],[-81.494430000144291,37.438649999897734],[-81.471650000047362,37.45995000009259],[-81.457320000217749,37.475010000311386],[-81.443459999579204,37.490539999721364],[-81.430299999745102,37.506769999935671],[-81.417619999563215,37.523479999802305],[-81.405170000095325,37.540429999944706],[-81.392719999728115,37.557369999625905],[-81.380259999799023,37.574319999768306],[-81.367579999617192,37.591020000073115],[-81.354660000058857,37.607489999663926],[-81.342209999691647,37.62443999980627],[-81.330219999853,37.641849999577971],[-81.318709999666623,37.659739999901205],[-81.302859999888994,37.687970000415305],[-81.297809999931474,37.69762000026293],[-81.28769999955523,37.716919999958179],[-81.277839999915955,37.73645000036737],[-81.263750000362108,37.766449999767815],[-81.254469999590697,37.786579999967159],[-81.245650000247224,37.807169999795804],[-81.237429999794529,37.828349999852776],[-81.229569999755597,37.849879999862253],[-81.222279999921966,37.871989999638913],[-81.215930000269168,37.895059999619434],[-81.210530000359142,37.919060000218963],[-81.206180000306688,37.944120000237945],[-81.203140000410599,37.970479999952204],[-81.201249999587731,37.998009999661917],[-81.200199999730103,38.026369999875726],[-81.199720000077832,38.055309999856775],[-81.199610000401094,38.084610000251473],[-81.199610000401094,38.114029999884735],[-81.199720000077832,38.143330000279434],[-81.200199999730103,38.17225999979928],[-81.201249999587731,38.200620000013146],[-81.203129999949454,38.228160000184005],[-81.206180000306688,38.254510000336381],[-81.210530000359142,38.279570000355363],[-81.215939999830994,38.303579999617455],[-81.2221500002222,38.326760000174033],[-81.225800000369588,38.337809999831791],[-81.236370000375132,38.371349999702886],[-81.243769999885501,38.393349999802808],[-81.25152999980952,38.414999999950169],[-81.259859999938953,38.436070000330403],[-81.268789999858484,38.456540000021107],[-81.278430000144283,38.476300000244976],[-81.288759999874003,38.495370000125547],[-81.299450000017373,38.514070000030642],[-81.310249999837538,38.532669999820769],[-81.321060000118791,38.551249999587981],[-81.331759999824044,38.569959999954165],[-81.342559999644152,38.588550000182522],[-81.353840000015907,38.606670000320378],[-81.365700000154789,38.624200000229962],[-81.378260000198736,38.64103000023448],[-81.39858000016676,38.664789999658922],[-81.405620000162799,38.672439999906203],[-81.427250000287188,38.694919999658396],[-81.434529999659674,38.70232999962991],[-81.456620000312682,38.724329999729832],[-81.463899999685111,38.731750000162549],[-81.478580000366605,38.746449999967695],[-81.485859999739091,38.753870000400354],[-81.507939999930954,38.775869999600957],[-81.530140000260701,38.797749999562996],[-81.54541999983303,38.811869999600958],[-81.560930000119299,38.825759999824299],[-81.569030000434054,38.832340000190982],[-81.585470000440068,38.84529000023349],[-81.610950000042351,38.863879999562471],[-81.628339999791024,38.875879999862264],[-81.645960000253694,38.887639999886233],[-81.663800000069841,38.899179999657406],[-81.681900000184783,38.91046999959093],[-81.700230000114288,38.92152999970989],[-81.709630000124321,38.926830000404323],[-81.738280000221721,38.942239999676417],[-81.757550000332117,38.95235999961443],[-81.777050000257191,38.962240000175996],[-81.796779999996886,38.971899999585446],[-81.81627999992196,38.981780000147012],[-81.835770000285152,38.991659999809315],[-81.855740000300671,39.001079999842261],[-81.875719999877958,39.010490000313382],[-81.895910000146273,39.019659999609416],[-81.916820000342625,39.028129999899704],[-81.938199999730102,39.03613999966143],[-81.959820000292666,39.043899999585449],[-81.982130000299151,39.050959999604459],[-82.00491000039608,39.057550000432343],[-82.027940000330659,39.063900000085084],[-82.039569999755599,39.066960000004144],[-82.074689999643681,39.075900000384877],[-82.098420000382589,39.081550000132552],[-82.122380000036856,39.086970000065605],[-82.146579999966946,39.09214000016101],[-82.183330000379101,39.099439999556466],[-82.207889999823522,39.104259999699366],[-82.22011000037611,39.106739999851243],[-82.256870000350148,39.114029999684874],[-82.269199999680154,39.116380000137042],[-82.307260000248732,39.122379999837278],[-82.333680000031848,39.125319999618455],[-82.347200000279656,39.126500000075112],[-82.375140000010902,39.12791000034639],[-82.418380000236709,39.128739999951165],[-82.432939999881,39.128849999627903],[-82.462309999906438,39.128849999627903],[-82.491670000370107,39.128849999627903],[-82.521040000395601,39.128849999627903],[-82.56497000006533,39.128739999951165],[-82.579299999894999,39.128380000436835],[-82.6221799997071,39.127199999980178],[-82.649659999809046,39.125319999618455],[-82.676090000053364,39.122379999837278],[-82.701580000116792,39.118499999875269],[-82.726589999628686,39.114140000260932],[-82.763950000292198,39.107439999756309],[-82.789090000403064,39.103200000279912],[-82.801889999823516,39.101319999918189],[-82.827480000001913,39.097549999632918],[-82.865189999718609,39.091199999980176],[-82.877290000133314,39.088619999713387],[-82.901140000110786,39.083079999642393],[-82.924270000160277,39.076850000127536],[-82.946720000327673,39.069910000246466],[-82.96879999962016,39.06260999995169],[-82.990879999812023,39.055309999656913],[-83.024000000099818,39.044369999675894],[-83.04584999957774,39.036839999566496],[-83.067929999769547,39.029549999732865],[-83.078980000326624,39.025899999585477],[-83.100940000380604,39.018489999613962],[-83.133239999726129,39.00672000002811],[-83.143809999731616,39.002599999790277],[-83.164599999790028,38.994010000261426],[-83.184569999805547,38.984599999790305],[-83.203710000216233,38.974359999714352],[-83.231429999694626,38.958010000261424],[-83.249529999809511,38.946709999866755],[-83.258570000305156,38.94106000011908],[-83.285930000269218,38.924350000252446],[-83.295219999703136,38.918950000342363],[-83.323290000033353,38.902940000380852],[-83.34161000040109,38.891880000261949],[-83.359470000240208,38.880350000052601],[-83.368159999883972,38.874350000352365],[-83.385310000256197,38.862109999776806],[-83.410199999630152,38.842930000219496],[-83.43535000020222,38.823990000038634],[-83.443799999570217,38.817759999624457],[-83.460720000127822,38.805290000133539],[-83.486099999615192,38.786579999767298],[-83.494549999882508,38.780339999791295],[-83.511219999703144,38.767639999586436],[-83.527659999709101,38.754690000443304],[-83.536009999861506,38.748339999891243],[-83.569720000377629,38.723279999872261],[-83.578180000206714,38.717039999896201],[-83.595090000303173,38.70457000040534],[-83.612009999961401,38.692100000015159],[-83.62034999965266,38.685750000362361],[-83.645130000249196,38.666440000205966],[-83.661820000092803,38.653740000001164],[-83.678730000189262,38.641269999610927],[-83.695629999824519,38.62878999965892],[-83.712550000382123,38.616329999729828],[-83.729470000040351,38.603849999777822],[-83.746150000322132,38.591140000011137],[-83.762590000328146,38.578200000429831],[-83.779269999710607,38.565489999763827],[-83.787730000439069,38.559260000248969],[-83.813100000364614,38.540549999882728],[-83.821560000193756,38.534309999906725],[-83.85526999981056,38.509249999887743],[-83.863610000401081,38.502900000234945],[-83.871829999954457,38.496419999983175],[-83.896729999789557,38.477240000425809],[-83.905200000079844,38.471010000011631],[-83.930560000443563,38.45229999964539],[-83.93900999981156,38.446070000130533],[-83.955930000369108,38.433590000178526],[-83.981060000018886,38.414649999997664],[-83.98929000003335,38.408180000206983],[-84.005839999716102,38.395350000302415],[-84.031110000426054,38.376530000259436],[-84.048250000337134,38.364289999683876],[-84.065640000085807,38.35229000028346],[-84.083270000110303,38.340519999798289],[-84.100880000111829,38.32875999977432],[-84.118499999675123,38.316990000188525],[-84.127199999780032,38.310989999588969],[-84.153030000234196,38.292750000212493],[-84.169949999892481,38.280279999822255],[-84.178289999583683,38.273930000169514],[-84.211409999871478,38.248279999922204],[-84.219740000000911,38.241919999808317],[-84.236659999659139,38.229450000317399],[-84.253799999570219,38.217220000202985],[-84.271190000218212,38.205210000341367],[-84.288809999781563,38.193439999856253],[-84.306430000244234,38.181679999832284],[-84.315249999587706,38.17580000026993],[-84.341439999556258,38.157909999946696],[-84.358580000366601,38.145679999832282],[-84.375500000024886,38.133199999880219],[-84.392180000306666,38.120499999675417],[-84.400399999859985,38.114029999884735],[-84.425310000156287,38.094850000327426],[-84.433760000423604,38.088610000351366],[-84.459369999725595,38.070140000260949],[-84.468060000268679,38.064139999661393],[-84.494370000375113,38.046370000375362],[-84.511989999938464,38.034610000351393],[-84.529599999939933,38.022839999866221],[-84.546989999688606,38.010839999566485],[-84.564149999622657,37.998599999890246],[-84.58105000015729,37.986130000399328],[-84.597740000000897,37.973419999733323],[-84.605959999554216,37.966949999942699],[-84.630860000288692,37.947770000385333],[-84.64777999994692,37.935299999995152],[-84.65635000035212,37.929180000157032],[-84.673610000401084,37.917059999719356],[-84.691120000287697,37.905179999557504],[-84.717540000070869,37.887530000409356],[-84.735150000072338,37.875759999924185],[-84.752550000282156,37.863759999624449],[-84.769699999755062,37.851519999948209],[-84.778150000022379,37.845290000433295],[-84.803299999695128,37.826350000252432],[-84.811520000147766,37.819870000000662],[-84.844879999812065,37.794460000029119],[-84.853330000079325,37.788220000053116],[-84.861789999908467,37.781980000077112],[-84.887159999834012,37.763280000172017],[-84.912409999621673,37.744449999667893],[-84.920750000212252,37.738100000015152],[-84.937190000218209,37.725149999972643],[-84.945540000370613,37.718800000319902],[-84.962330000329132,37.706209999791781],[-84.987930000069355,37.687739999701364],[-85.005330000279173,37.675740000300891],[-85.022929999819553,37.663969999815777],[-85.040559999843993,37.652209999791808],[-85.058180000306663,37.640440000206013],[-85.075559999594191,37.62843999990622],[-85.092709999966416,37.616200000229981],[-85.101169999795559,37.609969999815803],[-85.126309999906482,37.591029999634941],[-85.142749999912439,37.578079999592433],[-85.159439999756103,37.56538000028695],[-85.167890000023363,37.55914000031089],[-85.193500000224731,37.540659999759328],[-85.202180000306669,37.534660000059091],[-85.228499999974929,37.516900000334886],[-85.23730000019475,37.51101999987327],[-85.263730000439068,37.49336000026392],[-85.272429999644658,37.487370000125566],[-85.298260000098821,37.469120000287944],[-85.315179999757106,37.456649999897706],[-85.323520000347628,37.450300000244965],[-85.34830999960667,37.430999999650396],[-85.356639999736103,37.424649999997655],[-85.381910000446055,37.40582000039285],[-85.398819999643138,37.39335000000267],[-85.415729999739597,37.380879999612432],[-85.424189999568739,37.374639999636429],[-85.449329999679662,37.355700000354886],[-85.465769999685619,37.342759999874261],[-85.482440000405575,37.330050000107576],[-85.490909999796543,37.323810000131573],[-85.516270000160262,37.305110000226477],[-85.533189999818546,37.292630000274414],[-85.541640000085806,37.286399999860237],[-85.566789999758555,37.267459999679375],[-85.583229999764569,37.254509999636923],[-85.591570000355148,37.248159999984182],[-85.616820000142809,37.229330000379377],[-85.633739999801037,37.21685999998914],[-85.659109999726581,37.198149999622956],[-85.667569999555724,37.191920000108041],[-85.675899999685157,37.185559999994155],[-85.692459999828998,37.172739999651412],[-85.717359999664154,37.153560000094103],[-85.734280000221702,37.141089999703865],[-85.751190000318161,37.128620000213004],[-85.768109999976389,37.116140000260941],[-85.784790000258226,37.103429999594937],[-85.800999999550243,37.090260000199009],[-85.816739999651134,37.076610000251435],[-85.840350000252215,37.056139999661411],[-85.848219999853029,37.0493100003564],[-85.856320000167784,37.042720000427835],[-85.872769999735567,37.029779999947209],[-85.898029999984431,37.010950000342405],[-85.914929999619687,36.998479999952167],[-85.931850000177235,36.986009999561986],[-85.948529999559753,36.973299999795302],[-85.964980000026856,36.960360000213996],[-85.981649999847491,36.947650000447311],[-85.998570000405095,36.93518000005713],[-86.015470000040352,36.922709999666893],[-86.032389999698637,36.910229999714886],[-86.040730000289159,36.903880000062088],[-86.065280000171754,36.884349999652898],[-86.080800000019906,36.870469999890702],[-86.096050000007381,36.856349999852739],[-86.111099999765088,36.841990000438329],[-86.126369999775591,36.827870000400367],[-86.141869999600715,36.813989999738851],[-86.149980000376615,36.807399999810286],[-86.166409999921427,36.79446000022898],[-86.191670000170291,36.775629999724856],[-86.216919999957952,36.756809999681877],[-86.225270000110299,36.750449999567991],[-86.24146999984049,36.737269999710861],[-86.256980000126816,36.72338000038684],[-86.272250000137319,36.709269999910703],[-86.287050000057377,36.694679999782295],[-86.301849999977435,36.680089999653887],[-86.316420000082815,36.665260000149033],[-86.331220000002872,36.650670000020625],[-86.34601999992293,36.636090000353363],[-86.361280000371607,36.621959999854255],[-86.376789999758557,36.608080000092059],[-86.39299999994995,36.594900000234986],[-86.409680000231731,36.582189999568982],[-86.435059999719101,36.563489999663886],[-86.443509999986418,36.557249999687883],[-86.45184999967762,36.550900000035142],[-86.476389999998389,36.531360000064069],[-86.491900000284659,36.51748000030193],[-86.514569999805531,36.496070000430336],[-86.521970000215219,36.48877000013556],[-86.536770000135277,36.474180000007152],[-86.551340000240714,36.459360000064123],[-86.566129999699626,36.444769999935716],[-86.588100000214752,36.422649999697853],[-86.595499999725121,36.415350000302396],[-86.610060000268675,36.400530000359367],[-86.624869999750558,36.38594000023096],[-86.639430000294169,36.371109999826785],[-86.654239999776053,36.356519999698378],[-86.668809999881489,36.341699999755349],[-86.683589999778576,36.327109999626941],[-86.705569999855527,36.304990000288456],[-86.712970000265216,36.297689999993622],[-86.727520000347624,36.282859999589448],[-86.742320000267682,36.26827000036036],[-86.756879999911973,36.253450000417331],[-86.771690000293177,36.238860000288923],[-86.786249999937468,36.224029999884749],[-86.800829999604673,36.209209999941663],[-86.814929999619665,36.193919999908189],[-86.828779999797064,36.178380000037123],[-86.84193000006934,36.162149999822759],[-86.860839999766085,36.136960000104068],[-86.867070000180263,36.12848999981378],[-86.879519999648153,36.111550000132524],[-86.892210000291186,36.094840000265947],[-86.905359999664142,36.078610000051583],[-86.926269999860494,36.055430000394324],[-86.933320000317678,36.047780000147043],[-86.947879999961913,36.032949999742812],[-86.962450000067349,36.018129999799783],[-86.977249999987407,36.003539999671375],[-86.991809999631698,35.98871000016652],[-87.006379999737078,35.973879999762346],[-87.020470000190244,35.958600000190017],[-87.034320000367643,35.943060000318894],[-87.04748999976357,35.926819999643442],[-87.060169999945458,35.910120000237953],[-87.072620000312668,35.893170000095552],[-87.085080000241703,35.876230000414353],[-87.097529999709593,35.859280000271951],[-87.110209999891481,35.842579999967143],[-87.123139999910961,35.826099999915186],[-87.135820000092849,35.809390000048609],[-87.148269999560739,35.792450000367353],[-87.160719999927949,35.775509999786834],[-87.179399999810016,35.750090000253465],[-87.185619999763048,35.741619999963177],[-87.198299999944936,35.724919999658425],[-87.211229999964416,35.708439999606469],[-87.223910000146304,35.691729999739835],[-87.236359999614194,35.674799999620404],[-87.248580000166783,35.657619999663382],[-87.260560000443547,35.640200000329912],[-87.272300000444545,35.622550000282445],[-87.289920000007896,35.596079999992128],[-87.295799999570193,35.587259999749335],[-87.30753999957119,35.569600000140042],[-87.319290000033391,35.551950000092575],[-87.331039999596214,35.534309999606933],[-87.342790000058358,35.516649999997639],[-87.354539999621181,35.498999999950172],[-87.372149999622707,35.472529999659912],[-87.378019999623177,35.463710000316382],[-87.395519999947908,35.437119999888239],[-87.401280000271697,35.428180000406826],[-87.418079999792042,35.400879999612414],[-87.428879999612207,35.382290000283433],[-87.434169999845494,35.372879999812312],[-87.444269999760593,35.353580000117063],[-87.45941000007133,35.324629999674869],[-87.464460000028851,35.314990000288446],[-87.474570000405095,35.295689999693877],[-87.485140000410581,35.276860000089073],[-87.496179999607193,35.258510000136539],[-87.513089999703595,35.231330000379387],[-87.518729999889501,35.222269999860771],[-87.535539999870991,35.194969999965679],[-87.541050000357131,35.185790000208499],[-87.551620000362618,35.16697000016552],[-87.561729999839542,35.147669999570951],[-87.576770000035367,35.118610000351396],[-87.581699999855005,35.108840000365888],[-87.591090000303154,35.088839999866252],[-87.605059999719117,35.058720000327924],[-87.609650000047338,35.048600000389854],[-87.622219999653169,35.017069999680871],[-87.626330000329119,35.006479999652413],[-87.634779999697116,34.985530000309438],[-87.643009999711637,34.964359999814292],[-87.651470000440042,34.943409999571941],[-87.660630000174251,34.923169999695858],[-87.674610000051359,34.89305000015753],[-87.67918000035661,34.88293000021946],[-87.688580000366642,34.862929999719881],[-87.697749999662676,34.842689999843742],[-87.706210000391081,34.821750000062593],[-87.718189999768583,34.789630000024601],[-87.725940000130777,34.767979999877241],[-87.733339999641146,34.745979999777319],[-87.740619999912951,34.723849999977688],[-87.744259999599194,34.71280000031993],[-87.755419999833009,34.679849999777787],[-87.762700000104815,34.657730000439301],[-87.769989999938446,34.635610000201495],[-87.773620000062863,34.624550000082593],[-87.784319999768059,34.591130000349381],[-87.791020000272681,34.568419999883247],[-87.797470000040391,34.545479999602435],[-87.800639999636189,34.533950000292407],[-87.809809999831543,34.499000000150033],[-87.816029999784575,34.475819999593455],[-87.819200000279693,34.464290000283427],[-87.825779999747112,34.441470000140555],[-87.836119999937921,34.407699999555462],[-87.842930000119281,34.385110000126531],[-87.849270000210254,34.362049999707892],[-87.85514999977255,34.338520000098072],[-87.860549999682632,34.314509999936718],[-87.863129999949422,34.302390000398361],[-87.870290000083344,34.26545000021747],[-87.875230000364127,34.240969999965671],[-87.88016999974559,34.216500000175017],[-87.882629999874496,34.204259999599458],[-87.890030000284185,34.16755999969439],[-87.894839999965939,34.142969999765796],[-87.899660000108838,34.118370000275434],[-87.90212999979957,34.10614000016102],[-87.907070000080353,34.08165999990922],[-87.913880000261713,34.044360000213999],[-87.917880000361606,34.018950000242455],[-87.919750000262184,34.006120000337887],[-87.924219999553259,33.966470000190498],[-87.927149999772553,33.939999999900238],[-87.928669999720626,33.926820000043108],[-87.934550000182242,33.888580000166996],[-87.936660000358643,33.875989999638932],[-87.943250000287208,33.838460000129032],[-87.947110000226246,33.81291999955846],[-87.950050000007366,33.78645000016752],[-87.951930000369146,33.758919999558486],[-87.953000000249688,33.730560000243941],[-87.953580000016871,33.701740000400832],[-87.954159999784054,33.672899999635433],[-87.955220000102827,33.644549999882713],[-87.95709999956523,33.617009999711854],[-87.960040000245726,33.590549999882739],[-87.961799999570246,33.577599999840288],[-87.968250000237219,33.539950000192505],[-87.9726099998515,33.514879999712377],[-87.976489999813509,33.48934999960295],[-87.97942000003286,33.46288000021201],[-87.981289999933438,33.43534999960292],[-87.982359999814037,33.406990000288431],[-87.982829999904482,33.378050000307439],[-87.982829999904482,33.348870000050624],[-87.982359999814037,33.31991999960843],[-87.981289999933438,33.291569999855767],[-87.97942000003286,33.264029999684908],[-87.976480000251684,33.237560000293911],[-87.9726099998515,33.212030000184484],[-87.968259999799045,33.186970000165502],[-87.963909999746591,33.161899999685374],[-87.959920000107843,33.136489999713888],[-87.956510000236221,33.110490000413336],[-87.953580000016871,33.084009999661873],[-87.950640000235694,33.057529999809788],[-87.947239999925955,33.031529999609916],[-87.943239999826005,33.006119999638429],[-87.938780000096813,32.981170000195505],[-87.933959999953913,32.956580000266968],[-87.929030000134276,32.932109999576937],[-87.924209999991376,32.9075199996484],[-87.919280000171739,32.883049999857747],[-87.913880000261713,32.859050000157538],[-87.90799999980004,32.835510000086572],[-87.901659999709125,32.812449999667876],[-87.894839999965939,32.789860000238946],[-87.887909999646638,32.767379999587433],[-87.881230000064363,32.744679999582445],[-87.874760000273682,32.721729999739864],[-87.868529999859504,32.698550000082605],[-87.86548000040159,32.686910000196519],[-87.856199999630178,32.652080000191972],[-87.849749999862524,32.629139999911217],[-87.843050000257222,32.606430000344403],[-87.835999999800038,32.584069999830774],[-87.828720000427552,32.561949999592969],[-87.821440000155803,32.539830000254426],[-87.814039999746115,32.517830000154504],[-87.806290000283184,32.496180000007143],[-87.798290000083341,32.474759999674404],[-87.786079999991898,32.442879999912236],[-87.785839999716131,32.443120000188003],[-87.77304000029568,32.411820000193018],[-87.764579999567218,32.390869999950667],[-87.756360000013899,32.369689999893751],[-87.74802000032264,32.348629999974662],[-87.743909999646689,32.338039999946204],[-87.727359999963937,32.295799999970143],[-87.723009999911483,32.285450000217509],[-87.714309999806517,32.264740000250981],[-87.705849999977431,32.243799999570456],[-87.701740000200743,32.233210000441318],[-87.685059999918963,32.191080000142051],[-87.676829999904442,32.169900000085079],[-87.672609999551753,32.159430000194504],[-87.66802999968462,32.149310000256435],[-87.649830000354143,32.108719999928212],[-87.645130000349127,32.098720000128026],[-87.630569999805516,32.06918000035688],[-87.625630000424053,32.059419999933198],[-87.620930000419094,32.049420000133068],[-87.606599999690104,32.019649999647925],[-87.597319999818012,31.999529999909726],[-87.588510000036365,31.978940000081082],[-87.580170000345163,31.957880000162049],[-87.567599999840013,31.926350000352386],[-87.563490000063325,31.915760000323928],[-87.555150000372123,31.894700000404839],[-87.546339999691156,31.87410000011505],[-87.532359999814048,31.843979999677401],[-87.527790000408061,31.833859999739332],[-87.518509999636649,31.813740000001133],[-87.513929999769573,31.803629999624945],[-87.504999999849986,31.783150000372359],[-87.496310000206222,31.762440000405832],[-87.479509999786558,31.720439999806274],[-87.47540000000987,31.709849999777816],[-87.462839999965922,31.678319999968153],[-87.458249999637644,31.66820000003014],[-87.448969999765552,31.648080000291941],[-87.439700000354605,31.627959999654422],[-87.425699999555206,31.597840000116037],[-87.421130000149276,31.587720000178024],[-87.412320000367629,31.56713000034938],[-87.404099999914934,31.545950000292407],[-87.392110000076343,31.513819999793327],[-87.388350000252217,31.502879999812308],[-87.380960000303673,31.480879999712386],[-87.373680000031868,31.458760000373843],[-87.366279999622179,31.436760000273921],[-87.358869999650665,31.414749999712853],[-87.351590000278179,31.392639999936193],[-87.344310000006374,31.370510000136562],[-87.336909999596685,31.34851000003664],[-87.329510000086316,31.326509999936718],[-87.322240000275713,31.304389999698856],[-87.314939999980936,31.28227000036037],[-87.307659999709131,31.260150000122565],[-87.300739999851032,31.237670000370372],[-87.294490000313147,31.214500000274938],[-87.289099999964947,31.190490000113584],[-87.284749999912435,31.165430000094545],[-87.281589999878463,31.139189999618907],[-87.279240000325672,31.112129999999638],[-87.278180000006898,31.09848000005212],[-87.274779999697103,31.057769999585958],[-87.271730000239188,31.031420000332901],[-87.267850000277178,31.005890000223474],[-87.263500000224724,30.980819999743346],[-87.259139999711124,30.955759999724364],[-87.255259999749057,30.930229999614937],[-87.254089999753603,30.916690000243477],[-87.250459999629186,30.876220000053081],[-87.249389999748587,30.847859999839272],[-87.248930000119287,30.818919999858224],[-87.248809999981404,30.789620000362845],[-87.248809999981404,30.760199999830263],[-87.248809999981404,30.730789999758827],[-87.248809999981404,30.701370000125564],[-87.248809999981404,30.671960000054128],[-87.248809999981404,30.642540000420809],[-87.248809999981404,30.613130000349372],[-87.248809999981404,30.58370999981679],[-87.248809999981404,30.554299999745353],[-87.248809999981404,30.524880000112034],[-87.248809999981404,30.495470000040598],[-87.248809999981404,30.466050000407336],[-87.248809999981404,30.436640000335899],[-87.248809999981404,30.407219999803317],[-87.248809999981404,30.377809999731824],[-87.248809999981404,30.348390000098561],[-87.248809999981404,30.318980000027125],[-87.248809999981404,30.289560000393863],[-87.248809999981404,30.260139999861224],[-87.248809999981404,30.230729999789787],[-87.248930000119287,30.201430000294408],[-87.249400000209732,30.172490000313417],[-87.250459999629186,30.144130000099551],[-87.252330000429083,30.116600000389838],[-87.25527000021026,30.090119999638432],[-87.259159999734095,30.064590000428325],[-87.261260000348614,30.052010000361349],[-87.267839999816033,30.014470000390361],[-87.271710000216217,29.988940000280934],[-87.274640000435568,29.962460000428848],[-87.276539999920942,29.934929999819758],[-87.27758999977857,29.906569999605949],[-87.278059999869015,29.877629999624901],[-87.278180000006898,29.848330000129522],[-87.278180000006898,29.818920000058085],[-87.278180000006898,29.789500000424823],[-87.278180000006898,29.760090000353387],[-87.278300000144782,29.730789999958688],[-87.278770000235227,29.701840000415814],[-87.27982999965468,29.673489999763831],[-87.281710000016403,29.645960000054117],[-87.284640000235697,29.619480000201975],[-87.288509999736618,29.593950000092548],[-87.292859999789073,29.568890000073566],[-87.297209999841527,29.543819999593438],[-87.301089999803537,29.518290000383331],[-87.304020000022888,29.491820000093071],[-87.305900000384611,29.464290000383357],[-87.306959999804064,29.435930000169492],[-87.307429999894453,29.406979999727355],[-87.30753999957119,29.377689999793802],[-87.30753999957119,29.348270000160539],[-87.30753999957119,29.318860000089103],[-87.307429999894453,29.289559999694347],[-87.306959999804064,29.260619999713356],[-87.305889999923465,29.232260000398867],[-87.30391000034615,29.204840000365891],[-87.300490000013383,29.178840000166019],[-87.295449999617688,29.154480000052104],[-87.288750000012385,29.13176999958597],[-87.280290000183243,29.110829999804764],[-87.270190000268201,29.091539999671397],[-87.258800000219708,29.073530000109542],[-87.246229999714615,29.056709999666907],[-87.23249000011333,29.041060000119046],[-87.21779999987001,29.026349999852755],[-87.202179999906946,29.012579999767297],[-87.176700000304663,28.993990000438316],[-87.158370000375101,28.982939999881239],[-87.139220000402588,28.972819999943169],[-87.109030000334144,28.959749999762835],[-87.099169999795549,28.955639999986147],[-87.069440000255724,28.944579999867244],[-87.050419999982921,28.938689999843746],[-87.031749999662622,28.934339999791291],[-87.0130800002417,28.93187000010056]]]},"properties":{"objectid":651,"stormname":"Isaias","stormtype":"HU","basin":"AL","advdate":"400 PM CDT Fri Oct 09 2026","advisnum":"13","fcstprd":120,"stormnum":9,"idp_source":"al092026-013_5day_pgn","idp_filedate":1791581282000,"idp_ingestdate":1791581331000,"st_area(shape)":19.87934505993379,"st_perimeter(shape)":26.997567054336891,"binnumber":"AT4"}}]}