{"type":"FeatureCollection","features":[{"type":"Feature","id":593,"geometry":{"type":"Polygon","coordinates":[[[-89.331470000140314,24.132020000422813],[-89.32075000041209,24.131220000402834],[-89.285160000433564,24.132020000422813],[-89.260829999904445,24.135720000178026],[-89.236079999792025,24.141420000432788],[-89.211480000301663,24.148839999966185],[-89.187670000370133,24.157849999977657],[-89.164919999858,24.168190000168522],[-89.133169999795541,24.186079999592437],[-89.113850000077321,24.19986000013904],[-89.095870000100319,24.214960000403835],[-89.078400000259705,24.23060000038987],[-89.061740000000896,24.247029999934682],[-89.04507000018026,24.263460000378871],[-89.028670000220245,24.280159999784303],[-89.01200000039961,24.296590000228491],[-88.995600000439538,24.313280000072098],[-88.978929999719583,24.329709999616909],[-88.962520000197742,24.346409999921718],[-88.945850000377106,24.36284000036585],[-88.929450000417091,24.379539999771339],[-88.912790000158282,24.39597000021547],[-88.896379999737121,24.412660000059077],[-88.879709999916486,24.429089999603946],[-88.863309999956414,24.445789999908698],[-88.846649999697604,24.462220000352886],[-88.830249999737589,24.478919999758318],[-88.813579999916954,24.495350000202507],[-88.797170000395113,24.512049999607939],[-88.780499999675158,24.528480000052127],[-88.764110000176288,24.545169999895734],[-88.747440000355653,24.561600000339865],[-88.731029999934435,24.578299999745354],[-88.714369999675625,24.594730000189486],[-88.69796999971561,24.611429999594975],[-88.681290000333149,24.627860000039107],[-88.664890000373134,24.644560000343859],[-88.648219999653179,24.660989999888727],[-88.631819999693107,24.677679999732334],[-88.615419999733092,24.694380000037086],[-88.59954000037061,24.711609999601933],[-88.583929999969428,24.729100000364895],[-88.569110000026399,24.747379999787313],[-88.554820000242728,24.766199999830292],[-88.540820000342649,24.785280000172008],[-88.526789999958453,24.804359999614405],[-88.512500000174782,24.823170000095558],[-88.497689999793579,24.841459999979179],[-88.482089999853486,24.858949999842764],[-88.466200000029858,24.876180000306931],[-88.449809999631668,24.892870000150538],[-88.433400000109827,24.90956999955597],[-88.416730000289192,24.926000000000158],[-88.40033000032912,24.94270000030491],[-88.383930000369105,24.959390000148517],[-88.368050000107303,24.976619999713364],[-88.352439999706121,24.994109999576949],[-88.337619999763092,25.012400000359889],[-88.323340000440567,25.031209999941666],[-88.309319999618197,25.050290000283439],[-88.295299999695146,25.069369999725836],[-88.281279999772096,25.08845000006761],[-88.266980000426599,25.107270000110532],[-88.25243999990596,25.125820000292947],[-88.238139999661144,25.144640000335869],[-88.224119999738093,25.163719999778323],[-88.210110000276188,25.182800000120039],[-88.196090000353138,25.201879999562493],[-88.182070000430087,25.22095999990421],[-88.167790000208242,25.239779999947189],[-88.153229999664632,25.258330000129547],[-88.138950000342163,25.277150000172526],[-88.12491999995791,25.296229999614923],[-88.111160000333655,25.315570000255434],[-88.091059999719107,25.345119999588462],[-88.077959999953919,25.365129999649923],[-88.065130000049351,25.385400000010122],[-88.058780000396609,25.395609999601959],[-88.046339999591225,25.416280000421807],[-88.028229999914458,25.44781000023147],[-88.016180000006898,25.468879999712385],[-88.010089999753575,25.47934999960296],[-87.997669999870482,25.500020000422808],[-87.984969999665623,25.520430000044598],[-87.9719999996002,25.540569999805768],[-87.952160000183767,25.570380000336911],[-87.945539999771086,25.58032000006807],[-87.925700000354652,25.610129999699893],[-87.912479999552261,25.630010000061588],[-87.905860000038842,25.639949999792805],[-87.892629999674625,25.6598300001545],[-87.879409999771553,25.679700000055107],[-87.866169999845511,25.699580000416802],[-87.852949999942439,25.719459999879234],[-87.833630000224218,25.749799999670415],[-87.827290000133303,25.759999999700369],[-87.808759999973915,25.791140000410849],[-87.796730000089326,25.812209999891707],[-87.784689999743591,25.833280000271941],[-87.778609999951414,25.843750000162515],[-87.759820000392608,25.874620000113055],[-87.74698999958872,25.894889999573991],[-87.733889999823532,25.914899999635395],[-87.727279999871996,25.924840000265931],[-87.714050000407099,25.944719999728363],[-87.694210000091346,25.974530000259449],[-87.687589999678664,25.984469999990665],[-87.668280000421589,26.014809999781789],[-87.655720000377585,26.035350000002666],[-87.643419999733112,26.056160000084105],[-87.637330000379109,26.066620000412854],[-87.619339999940962,26.098290000383372],[-87.607029999734607,26.119099999565492],[-87.600809999781575,26.129430000194475],[-87.588120000037861,26.149839999816265],[-87.569079999742087,26.180450000367387],[-87.562730000089346,26.190650000397341],[-87.550290000183281,26.211320000317926],[-87.532700000204727,26.243389999848773],[-87.52701000041111,26.254249999737851],[-87.515629999924442,26.275979999977153],[-87.498570000105303,26.308579999667415],[-87.486919999758072,26.330049999607922],[-87.474760000173774,26.350990000288448],[-87.468540000220742,26.361320000018111],[-87.449490000363141,26.391929999669912],[-87.443150000272169,26.402129999699866],[-87.430439999606165,26.422540000220977],[-87.418010000161246,26.443210000141562],[-87.400420000182748,26.475279999672409],[-87.389050000157283,26.497009999911711],[-87.383349999902464,26.507869999800789],[-87.36682000024274,26.54099999965041],[-87.361389999848484,26.552130000299428],[-87.350280000121813,26.57413000039935],[-87.333220000302674,26.60671999962841],[-87.327520000047855,26.617589999978634],[-87.315610000301149,26.638790000058577],[-87.30317999995691,26.659459999979163],[-87.28413000009931,26.690069999630907],[-87.271440000355653,26.710480000152018],[-87.265089999803536,26.720680000182028],[-87.252660000358617,26.741350000102557],[-87.240749999712591,26.7625500001825],[-87.229379999687126,26.784280000421802],[-87.212449999567696,26.817009999811773],[-87.206890000373107,26.828009999861763],[-87.190490000413092,26.861270000310412],[-87.179370000225219,26.883259999949189],[-87.168399999760084,26.905400000209966],[-87.15741000017124,26.927520000447828],[-87.151859999639157,26.938519999598441],[-87.140749999912487,26.960519999698363],[-87.124340000390589,26.993780000147012],[-87.118789999858507,27.004780000197002],[-87.10224999973758,27.037899999585477],[-87.096829999804527,27.049039999796321],[-87.085720000077856,27.071030000334417],[-87.069309999656639,27.104289999883747],[-87.064020000322671,27.115550000232474],[-87.048289999783549,27.149480000102074],[-87.04313000014929,27.16087000015051],[-87.028979999627154,27.196380000037095],[-87.019579999617179,27.220100000314915],[-87.010190000068349,27.243819999693358],[-87.005550000132303,27.255750000362355],[-86.996029999984387,27.279329999579943],[-86.985700000254724,27.302120000138018],[-86.97513000024918,27.324650000397355],[-86.95898999968864,27.35817000024548],[-86.947879999961913,27.380170000345402],[-86.942319999868005,27.391170000395334],[-86.926450000067348,27.424960000104079],[-86.916000000199745,27.447620000063068],[-86.910839999666166,27.459010000111562],[-86.896699999605175,27.494529999559973],[-86.8872999995952,27.51824000027591],[-86.88254000042059,27.530029999884732],[-86.87327999967215,27.553890000323406],[-86.858599999889975,27.588870000050576],[-86.848139999561226,27.611530000009623],[-86.842850000227202,27.62279000035835],[-86.832530000059364,27.645580000017105],[-86.816789999958417,27.679500000324879],[-86.811630000324158,27.690899999935198],[-86.797610000401107,27.726549999982637],[-86.788609999951404,27.750660000258961],[-86.779880000261699,27.775049999957673],[-86.771550000132322,27.799820000093064],[-86.763340000140772,27.824739999951191],[-86.755010000011396,27.849510000086582],[-86.746679999881962,27.874289999783798],[-86.738480000351615,27.8992000000801],[-86.730270000360122,27.924119999938171],[-86.721940000230745,27.948890000073561],[-86.713610000101312,27.973669999770834],[-86.705409999671645,27.998580000067079],[-86.697199999680151,28.023499999925207],[-86.688869999550718,28.048270000060597],[-86.680540000320661,28.073060000218959],[-86.672350000352139,28.097969999615941],[-86.664140000360646,28.122879999912186],[-86.655930000369096,28.147790000208488],[-86.647990000238224,28.172970000365353],[-86.640460000128826,28.198539999621403],[-86.636760000373613,28.211390000448318],[-86.626170000345155,28.250479999952177],[-86.619429999794534,28.276850000127524],[-86.612810000281172,28.303350000002638],[-86.606200000329636,28.329849999877752],[-86.599579999916955,28.356360000213954],[-86.592969999965419,28.382860000089067],[-86.586360000013883,28.409359999964181],[-86.579739999601202,28.435859999839238],[-86.576429999844493,28.449110000226483],[-86.566510000136304,28.488859999589465],[-86.559889999723623,28.515360000363842],[-86.553279999772087,28.541869999800781],[-86.546680000281697,28.568369999675895],[-86.54005000030719,28.594869999551008],[-86.53344999991748,28.621370000325385],[-86.526819999942916,28.647870000200498],[-86.52020999999138,28.674370000075612],[-86.51372999973961,28.70101000011158],[-86.507509999786578,28.727910000446286],[-86.501559999694109,28.755070000180524],[-86.495860000338666,28.782499999775325],[-86.490449999967439,28.810189999668864],[-86.485030000034385,28.837890000023606],[-86.47946999994042,28.865450000217493],[-86.473909999846512,28.893010000411323],[-86.468349999752604,28.92056999970589],[-86.462800000119785,28.94812999989972],[-86.457380000186731,28.975830000254462],[-86.451949999792532,29.003520000148058],[-86.44640000015977,29.031080000341888],[-86.440980000226716,29.058779999797309],[-86.435819999693138,29.086729999989643],[-86.430920000357617,29.114959999604423],[-86.428540000320652,29.129139999711356],[-86.422200000229736,29.17246999959093],[-86.417699999555225,29.201090000103591],[-86.412800000219704,29.229310000156545],[-86.407770000285154,29.257399999610413],[-86.402760000373632,29.285500000424804],[-86.397860000138792,29.313719999578439],[-86.3933600003636,29.342340000091099],[-86.39123999972611,29.35677999959745],[-86.384629999774575,29.399850000077606],[-86.379730000439054,29.428079999692386],[-86.37721999980306,29.442119999638408],[-86.369809999831546,29.484390000098585],[-86.36531999961818,29.513009999711869],[-86.361479999702112,29.542299999645422],[-86.35816999994546,29.572110000176508],[-86.354869999750576,29.601919999808274],[-86.353149999572736,29.616759999774331],[-86.346530000059374,29.659830000254431],[-86.341640000285679,29.688050000307385],[-86.336749999612664,29.716279999922222],[-86.332380000436558,29.745030000134534],[-86.329069999780586,29.774850000227445],[-86.326809999881505,29.805720000177985],[-86.325100000164753,29.837120000287939],[-86.323379999986912,29.868529999959662],[-86.321140000110802,29.899399999910202],[-86.317830000354149,29.929220000003113],[-86.313460000278667,29.957970000215482],[-86.308560000043883,29.986190000268437],[-86.303679999832013,30.014419999883216],[-86.299320000217733,30.043170000095586],[-86.296009999561704,30.072990000188497],[-86.293880000261709,30.103989999838745],[-86.292690000243226,30.135929999669884],[-86.292019999922957,30.168390000098555],[-86.291369999625658,30.200860000089051],[-86.290179999607176,30.232790000358364],[-86.288070000330151,30.263799999570494],[-86.284759999674122,30.29361000010158],[-86.280400000059842,30.322369999875718],[-86.275499999825001,30.350589999928673],[-86.270610000051363,30.378809999981684],[-86.266239999975937,30.407569999755822],[-86.262939999781054,30.437380000286907],[-86.260820000042884,30.468390000398358],[-86.259630000024401,30.500319999768294],[-86.259090000303161,30.532920000357876],[-86.258959999704132,30.565910000046586],[-86.258959999704132,30.599039999896206],[-86.258959999704132,30.632169999745827],[-86.258959999704132,30.665290000033622],[-86.258959999704132,30.698430000344388],[-86.258959999704132,30.731549999732863],[-86.258959999704132,30.764679999582484],[-86.258959999704132,30.797810000331367],[-86.258959999704132,30.830929999719842],[-86.258959999704132,30.864059999569463],[-86.258959999704132,30.897190000318403],[-86.258959999704132,30.930309999706878],[-86.258959999704132,30.963439999556499],[-86.258959999704132,30.996570000305439],[-86.258959999704132,31.029689999693858],[-86.258959999704132,31.062820000442798],[-86.258959999704132,31.095950000292419],[-86.258959999704132,31.129069999680894],[-86.258959999704132,31.162200000429834],[-86.258959999704132,31.195330000279455],[-86.258959999704132,31.228449999667873],[-86.258959999704132,31.261580000416814],[-86.258959999704132,31.294710000266434],[-86.258959999704132,31.327840000116055],[-86.258959999704132,31.36096000040385],[-86.259090000303161,31.393959999654385],[-86.259619999563199,31.426549999782821],[-86.260820000042884,31.45848999961396],[-86.262930000219228,31.489490000163528],[-86.266239999975937,31.519310000256439],[-86.270599999590218,31.548070000030634],[-86.275499999825001,31.576279999622443],[-86.280389999598697,31.604510000136543],[-86.284879999812063,31.633129999749826],[-86.288730000189275,31.66241999968338],[-86.292030000384102,31.692230000214465],[-86.295329999679609,31.722039999846288],[-86.299180000056879,31.751329999779784],[-86.303670000270188,31.779950000292445],[-86.308709999766563,31.808039999746313],[-86.314129999699617,31.835740000101055],[-86.319689999793525,31.863300000294942],[-86.325100000164753,31.890990000188481],[-86.330520000097806,31.918689999643902],[-86.336080000191771,31.946249999837789],[-86.341640000285679,31.973810000031619],[-86.347200000379587,32.00137000022545],[-86.352750000012406,32.028930000419336],[-86.35816999994546,32.056629999874758],[-86.363600000339659,32.084319999768297],[-86.366379999936953,32.098100000314901],[-86.374710000066329,32.139440000156014],[-86.380259999699149,32.167009999911727],[-86.385819999793057,32.194559999644412],[-86.39123999972611,32.222259999999153],[-86.396659999659164,32.249949999892749],[-86.402359999913983,32.27738000038687],[-86.408310000006395,32.304549999682877],[-86.414520000397602,32.331450000017639],[-86.421010000211254,32.358079999592462],[-86.424310000406081,32.37132999997965],[-86.43410000041456,32.411220000402864],[-86.440309999906447,32.438110000276424],[-86.443220000102826,32.451760000223999],[-86.451949999792532,32.492710000066609],[-86.457369999725586,32.520399999960148],[-86.462800000119785,32.548100000314889],[-86.468489999913459,32.575520000347865],[-86.47444000000587,32.602689999643928],[-86.477620000062871,32.616069999730826],[-86.487140000210729,32.656219999553457],[-86.493759999724091,32.68272000032789],[-86.500239999975918,32.709360000363858],[-86.506319999768095,32.73639000039833],[-86.511870000300178,32.763949999692898],[-86.516909999796553,32.792040000046086],[-86.521390000448037,32.820659999659426],[-86.525629999924433,32.849550000032593],[-86.53014000016077,32.878169999645934],[-86.535029999934466,32.906389999698888],[-86.54005000030719,32.934489999613959],[-86.544940000080828,32.962709999666913],[-86.546930000119289,32.977290000233495],[-86.552610000351137,33.021279999972194],[-86.554730000089307,33.052279999622442],[-86.55592000010779,33.0842200003529],[-86.55645999982903,33.116820000043106],[-86.556590000428059,33.149809999731872],[-86.556590000428059,33.182939999581436],[-86.556590000428059,33.216059999869231],[-86.556720000127825,33.249060000019142],[-86.557250000287183,33.281650000147522],[-86.558440000305666,33.31358999997866],[-86.560560000043836,33.344600000090054],[-86.562550000082354,33.359170000195491],[-86.568239999875971,33.403170000395335],[-86.573129999649666,33.431390000448289],[-86.578020000322624,33.459620000063069],[-86.582379999936961,33.488370000275438],[-86.585689999693614,33.518179999907204],[-86.58781000033116,33.549190000018655],[-86.589000000349643,33.58112000028791],[-86.589529999609681,33.613719999978173],[-86.58966000020871,33.646720000128028],[-86.589800000369621,33.679709999816794],[-86.590320000067834,33.712310000406319],[-86.591510000086316,33.744239999776312],[-86.593629999824543,33.775249999887706],[-86.596939999581195,33.805069999980674],[-86.601300000094852,33.833820000192986],[-86.606209999891462,33.862040000245941],[-86.611090000103331,33.890260000298895],[-86.613080000141792,33.904839999966157],[-86.618769999935466,33.948829999704856],[-86.620759999973927,33.97971000011654],[-86.621410000271169,34.011110000226495],[-86.620739999950956,34.042510000336392],[-86.618629999774555,34.073260000149048],[-86.614669999720604,34.10240999992169],[-86.608580000366601,34.129439999956162],[-86.600250000237224,34.154219999653378],[-86.589390000348146,34.176480000052095],[-86.583309999656649,34.186949999942669],[-86.560809999881485,34.214120000138053],[-86.552869999750556,34.222720000128049],[-86.535689999793533,34.238629999974648],[-86.517700000254706,34.253730000239443],[-86.499450000417085,34.268579999767326],[-86.471799999670168,34.290570000305422],[-86.462399999660136,34.297730000439287],[-86.443360000263681,34.311770000385366],[-86.424039999646141,34.325550000032592],[-86.404470000090328,34.339070000280458],[-86.394550000382083,34.345700000254965],[-86.374569999905475,34.358809999581979],[-86.344150000022353,34.378030000084607],[-86.323520000147766,34.390479999552497],[-86.302609999951414,34.402669999620912],[-86.292039999945928,34.408630000174526],[-86.260539999721118,34.42679000035838],[-86.239909999846532,34.43923999982627],[-86.229720000277666,34.445599999940214],[-86.209349999802555,34.45832999972987],[-86.188980000226707,34.4710499999577],[-86.168469999590684,34.483630000024618],[-86.13724999968764,34.502049999607948],[-86.126670000120328,34.508010000161505],[-86.105650000247181,34.520069999630948],[-86.08488000021174,34.532390000298392],[-86.064380000036863,34.544979999927193],[-86.03381000043106,34.564060000268967],[-86.013439999955949,34.576790000058622],[-85.992810000081306,34.589240000425832],[-85.97163000002439,34.601170000195509],[-85.960790000158283,34.606859999989126],[-85.928249999637671,34.623959999854264],[-85.917280000071855,34.629519999948172],[-85.884079999692119,34.645959999954187],[-85.873090000103332,34.651520000048095],[-85.84015000002239,34.668220000352903],[-85.829040000295663,34.673649999847783],[-85.8069600001038,34.684649999897715],[-85.785129999749586,34.695919999808268],[-85.752590000128293,34.713010000111581],[-85.742000000099836,34.718969999765818],[-85.710780000196735,34.737390000248467],[-85.700600000189752,34.743750000362354],[-85.670040000145775,34.762829999804808],[-85.649669999670664,34.775550000032638],[-85.639350000402089,34.781780000446815],[-85.618449999767563,34.793969999615911],[-85.586180000006891,34.811329999779787],[-85.564480000251706,34.82271999982828],[-85.55350999978657,34.828290000383333],[-85.53140000000991,34.839290000433323],[-85.509319999818047,34.85028000002211],[-85.476379999737105,34.866980000326919],[-85.465260000448552,34.872409999821798],[-85.432209999791553,34.888980000426841],[-85.421220000202766,34.894539999621429],[-85.399119999987931,34.905539999671419],[-85.377039999796068,34.916539999721351],[-85.344099999715127,34.933240000026103],[-85.332989999988399,34.938670000420302],[-85.31090000023471,34.949669999570972],[-85.277949999692623,34.966360000313898],[-85.266839999965896,34.971789999808777],[-85.244759999774089,34.982789999858767],[-85.222790000158284,34.993919999608465],[-85.189589999778548,35.010350000052597],[-85.16764000018577,35.021479999802295],[-85.156660000158752,35.027050000357349],[-85.134570000405063,35.038050000407338],[-85.112470000190228,35.049049999557951],[-85.079539999671169,35.065740000300934],[-85.057320000217715,35.076609999751838],[-85.035349999702646,35.087740000400856],[-85.024380000136773,35.093299999595445],[-84.991170000195268,35.109730000039633],[-84.98019000016825,35.115299999695367],[-84.958239999676152,35.126430000344385],[-84.936149999922463,35.137430000394374],[-84.914049999707629,35.148430000444307],[-84.881120000087833,35.165120000287914],[-84.85889000017329,35.175989999738817],[-84.847919999708097,35.181549999832782],[-84.81497000006533,35.198250000137534],[-84.792760000173757,35.209110000026612],[-84.781780000146796,35.214679999682403],[-84.759809999631671,35.225810000331421],[-84.726610000151254,35.242239999876233],[-84.704650000097331,35.253369999625932],[-84.682690000043351,35.26450000027495],[-84.671589999878506,35.269940000230974],[-84.649489999663672,35.280929999819762],[-84.627660000208721,35.292199999730371],[-84.595119999688109,35.309299999595453],[-84.584549999682622,35.315249999687865],[-84.56364000038559,35.327450000217482],[-84.532949999742584,35.346390000398344],[-84.512589999728618,35.359120000188],[-84.502400000159753,35.365469999840741],[-84.48189000042305,35.378069999930688],[-84.450410000221211,35.396219999653397],[-84.439559999893959,35.40191000034639],[-84.417880000161745,35.413309999956653],[-84.396040000245705,35.424570000305437],[-84.373949999592696,35.435570000355369],[-84.340879999812046,35.452129999599947],[-84.318919999758066,35.463260000248965],[-84.307819999593221,35.46870000020499],[-84.285720000277706,35.479689999793777],[-84.252780000196765,35.496390000098586],[-84.241669999570718,35.501819999593465],[-84.219570000255203,35.512819999643398],[-84.186639999736087,35.529519999948207],[-84.164409999821544,35.540379999837285],[-84.153429999794525,35.545950000392338],[-84.120759999574204,35.562910000096565],[-84.109919999708097,35.568610000351384],[-84.077899999785075,35.586229999914735],[-84.057269999910488,35.598689999843771],[-84.03690000033464,35.611399999610455],[-84.016529999859529,35.624130000299431],[-83.996149999822535,35.636849999627941],[-83.975519999947949,35.649309999556976],[-83.964940000380579,35.65527000011059],[-83.932660000158762,35.672630000274467],[-83.92180999983151,35.678320000068084],[-83.889270000210217,35.695419999933222],[-83.867580000016858,35.706820000442804],[-83.846419999982913,35.718739999751335],[-83.836090000253193,35.724970000165513],[-83.805399999610188,35.743910000346375],[-83.795350000202234,35.750400000160028],[-83.765459999579207,35.770149999922694],[-83.745879999562248,35.783670000170503],[-83.726559999844028,35.797449999817786],[-83.707520000447573,35.811489999763808],[-83.688739999551217,35.825810000031595],[-83.670210000291149,35.840380000137031],[-83.65143000029417,35.854689999943673],[-83.641910000146311,35.861720000377886],[-83.61332999967965,35.882780000296918],[-83.603810000431054,35.889800000269929],[-83.575499999825013,35.911139999611464],[-83.557240000425566,35.925979999577464],[-83.539780000146777,35.941610000001617],[-83.522580000166784,35.957519999848273],[-83.505919999907974,35.973950000292405],[-83.489250000087338,35.990379999837273],[-83.472850000127323,36.00706999968088],[-83.456180000306688,36.023509999686894],[-83.43976999988547,36.04020000042982],[-83.423109999626661,36.056629999974689],[-83.398499999675153,36.081680000431845],[-83.390300000144805,36.090029999684873],[-83.374430000344148,36.107249999687895],[-83.358819999942909,36.12473999955148],[-83.34399999999988,36.14303000033442],[-83.32971000021621,36.161839999916197],[-83.309219999603215,36.190989999688895],[-83.295860000438552,36.210740000350881],[-83.289249999587696,36.220669999620952],[-83.269399999710117,36.250489999713864],[-83.25617000024522,36.270359999614413],[-83.242939999881003,36.290239999976166],[-83.229710000416105,36.310120000337918],[-83.216620000212743,36.330119999938177],[-83.210139999960916,36.340190000268421],[-83.191219999803025,36.370940000081077],[-83.185010000311138,36.381269999810797],[-83.167539999571204,36.413469999940673],[-83.156560000443562,36.435599999740361],[-83.14597999997693,36.458129999999642],[-83.136060000268685,36.481320000118046],[-83.126800000419564,36.505170000095575],[-83.117810000431064,36.529289999933724],[-83.109070000280155,36.553670000070611],[-83.104840000365641,36.565989999838791],[-83.092539999721112,36.603360000064072],[-83.084340000190764,36.628270000360374],[-83.076540000220746,36.653580000217005],[-83.072830000004387,36.666430000144544],[-83.062770000135288,36.706049999807817],[-83.05669000034311,36.733079999842289],[-83.053789999708613,36.746729999789807],[-83.045719999877974,36.78834000039086],[-83.040159999784066,36.815899999685371],[-83.034730000289187,36.843589999578967],[-83.029709999916463,36.871679999932212],[-83.025339999841037,36.90043999970635],[-83.022030000084328,36.930250000237493],[-83.019919999907984,36.961260000348886],[-83.018729999889501,36.993189999718879],[-83.018330000329172,37.025659999709376],[-83.018729999889501,37.058120000138047],[-83.019919999907984,37.090050000407359],[-83.022030000084328,37.121059999619433],[-83.025339999841037,37.150879999712345],[-83.029709999916463,37.179629999924714],[-83.034730000289187,37.207729999839785],[-83.040159999784066,37.235419999733324],[-83.04294000028068,37.249200000279927],[-83.048369999775559,37.276890000173523],[-83.05669000034311,37.318230000014637],[-83.059879999961936,37.331619999663417],[-83.066220000052851,37.358379999837268],[-83.076660000358629,37.397610000401357],[-83.084870000350122,37.422519999798283],[-83.093729999739594,37.44677000023546],[-83.10300000004986,37.470609999751844],[-83.112919999758049,37.493799999870248],[-83.123369999625652,37.516459999829294],[-83.128650000297171,37.527729999739847],[-83.144789999958448,37.561249999587972],[-83.155899999685118,37.583249999687894],[-83.166890000173282,37.605380000386845],[-83.177859999739098,37.627510000186533],[-83.189100000064855,37.649370000125543],[-83.200490000113291,37.671100000364845],[-83.212259999699143,37.692430000144554],[-83.22481999974309,37.712970000365374],[-83.238050000107307,37.732849999827749],[-83.25180999973162,37.752189999568998],[-83.266100000414554,37.77100999961192],[-83.28051999989799,37.789699999955189],[-83.294659999958924,37.808649999697877],[-83.30869000034312,37.827719999578449],[-83.32271000026617,37.846810000381367],[-83.344009999561706,37.875160000134031],[-83.358830000404112,37.893450000017651],[-83.366619999912984,37.902190000168503],[-83.382369999575701,37.919550000332379],[-83.406709999666646,37.94486000018901],[-83.414910000096313,37.953210000341414],[-83.431439999756094,37.969769999585935],[-83.447979999876964,37.986340000190978],[-83.464510000436064,38.002900000334876],[-83.481049999657671,38.019459999579453],[-83.497580000216715,38.036030000184496],[-83.51425000003735,38.052459999729365],[-83.531189999718606,38.068620000312933],[-83.557240000425566,38.092209999991667],[-83.566380000136803,38.099630000424327],[-83.594279999822049,38.121359999764309],[-83.603810000431054,38.128390000198522],[-83.622860000288654,38.142430000144543],[-83.641910000146311,38.156470000090565],[-83.660819999843,38.170650000197497],[-83.67947000014027,38.185100000164994],[-83.707779999846991,38.206429999944703],[-83.727359999864007,38.219950000192512],[-83.737419999733106,38.226440000006164],[-83.768369999775587,38.245119999888232],[-83.800899999834996,38.262210000191487],[-83.811750000162249,38.267910000446307],[-83.833710000216229,38.279049999757831],[-83.866920000157791,38.295480000202019],[-83.877900000184752,38.301040000295927],[-83.899860000238732,38.312170000045626],[-83.922070000130304,38.323040000395849],[-83.94403999974611,38.334170000145548],[-83.965999999800033,38.345299999895246],[-83.988220000152808,38.356159999784325],[-84.021149999772547,38.372860000089076],[-84.032140000260711,38.378429999744867],[-84.054629999574729,38.389019999773325],[-84.088489999813532,38.404790000358389],[-84.111630000324169,38.414730000089605],[-84.123410000371109,38.41949999972536],[-84.159520000047848,38.433019999973169],[-84.183849999677648,38.441760000124077],[-84.208599999790067,38.450110000276425],[-84.221039999696131,38.454220000053112],[-84.245900000384609,38.462430000044606],[-84.270769999735592,38.470649999597924],[-84.29617000014531,38.478330000329379],[-84.334789999558723,38.489330000379368],[-84.360860000288653,38.496359999914205],[-84.373949999592696,38.499800000269943],[-84.413770000385114,38.509610000301393],[-84.427119999987895,38.512790000358393],[-84.45412000043757,38.51887999971234],[-84.495119999888004,38.527499999725364],[-84.50888000041158,38.530280000221978],[-84.550419999583198,38.538370000075588],[-84.564169999645685,38.541149999672882],[-84.591689999793573,38.546709999766847],[-84.619459999779053,38.552020000023106],[-84.662330000029385,38.558779999697379],[-84.692079999592181,38.562090000353408],[-84.723040000095807,38.564210000091578],[-84.754930000319177,38.56540000011006],[-84.787460000378587,38.565930000269418],[-84.820399999560209,38.566059999969184],[-84.853470000240236,38.566059999969184],[-84.886540000020887,38.566059999969184],[-84.919609999801537,38.566059999969184],[-84.952679999582188,38.566059999969184],[-84.98575999982404,38.566059999969184],[-85.018820000042865,38.566059999969184],[-85.051900000284661,38.566059999969184],[-85.08495000004234,38.566059999969184],[-85.118030000284193,38.566059999969184],[-85.151100000064844,38.566059999969184],[-85.184169999845494,38.566059999969184],[-85.21710000036461,38.565930000269418],[-85.249650000447048,38.56540000011006],[-85.265389999648676,38.564600000090081],[-85.312480000251696,38.562079999892205],[-85.342240000275694,38.558770000135553],[-85.37096000000389,38.554400000060127],[-85.398999999849991,38.549359999664375],[-85.426649999697645,38.543930000169496],[-85.454149999822505,38.538370000075588],[-85.481810000131304,38.532930000119563],[-85.509450000417075,38.527499999725364],[-85.536830000404109,38.521800000369865],[-85.563959999654173,38.515839999816308],[-85.590810000381111,38.509610000301393],[-85.617399999909935,38.503110000026652],[-85.643719999578195,38.496350000352379],[-85.669779999847037,38.489330000379368],[-85.695570000255202,38.482050000107563],[-85.721100000364629,38.474490000413311],[-85.746230000014407,38.466539999821293],[-85.77110000026471,38.4583299998298],[-85.795969999615693,38.450110000276425],[-85.820710000166287,38.441760000124077],[-85.845050000257174,38.433019999973169],[-85.869130000049381,38.424000000399872],[-85.892930000419085,38.414730000089605],[-85.916079999592228,38.404790000358389],[-85.938700000404594,38.39433000002964],[-85.961200000179758,38.3837300004393],[-85.983410000071331,38.372860000089076],[-86.016359999714098,38.356159999784325],[-86.027470000340145,38.350730000289445],[-86.049560000093834,38.339730000239456],[-86.071520000147757,38.328610000051583],[-86.104719999628173,38.312170000045626],[-86.115699999655135,38.306609999951661],[-86.137530000009406,38.295340000041108],[-86.159209999741563,38.283940000430846],[-86.18065000009733,38.272290000083558],[-86.211870000000374,38.253869999600965],[-86.242289999883496,38.234659999559483],[-86.252349999752596,38.228160000184005],[-86.272190000068349,38.214909999796816],[-86.292019999922957,38.201660000308891],[-86.301939999631145,38.195030000334384],[-86.331710000116288,38.175160000433834],[-86.351550000432042,38.161910000046589],[-86.371400000309677,38.148650000097575],[-86.390980000326635,38.135140000310912],[-86.410289999583711,38.121359999764309],[-86.438199999730102,38.099630000424327],[-86.447329999879514,38.092209999991667],[-86.464790000158303,38.076579999567457],[-86.481979999677151,38.060669999720858],[-86.506979999627163,38.036030000184496],[-86.523659999908944,38.019599999740365],[-86.531990000038377,38.011380000186989],[-86.549179999557225,37.995479999902216],[-86.566639999836013,37.979839999916237],[-86.58490000013478,37.96499999995018],[-86.603680000131817,37.950690000143538],[-86.632259999699102,37.929619999763304],[-86.641779999847017,37.922599999790293],[-86.669689999993409,37.900869999550991],[-86.678820000142764,37.893450000017651],[-86.696550000282173,37.87807000033041],[-86.714280000421581,37.862709999766821],[-86.731989999638643,37.847339999641406],[-86.750249999937466,37.832499999675406],[-86.769040000395592,37.818180000306938],[-86.788090000253192,37.80414000036086],[-86.816529999659679,37.782940000280917],[-86.835039999796038,37.768359999714335],[-86.844180000406595,37.760940000180995],[-86.861889999623656,37.745570000055579],[-86.870760000373593,37.737879999762299],[-86.906480000051829,37.707410000271466],[-86.924999999750071,37.692829999704884],[-86.934390000198221,37.685680000032107],[-86.962969999765562,37.664600000090104],[-86.972489999913478,37.657589999678862],[-86.991530000209252,37.643540000171015],[-87.010310000206232,37.629230000364373],[-87.038220000352624,37.607500000125071],[-87.047620000362599,37.600339999991149],[-87.076190000368115,37.579280000072117],[-87.095249999787541,37.565229999664894],[-87.104769999935456,37.558200000130057],[-87.123819999793056,37.544160000184036],[-87.142599999790036,37.529850000377337],[-87.170500000374602,37.508120000138035],[-87.179900000384578,37.50096000000417],[-87.19895999980406,37.486920000058092],[-87.218000000099835,37.472869999650925],[-87.246570000105294,37.451809999731836],[-87.256099999815035,37.444780000196999],[-87.274890000273217,37.430470000390358],[-87.302800000419552,37.408740000151056],[-87.321699999655152,37.394549999582978],[-87.340759999973898,37.380520000098045],[-87.350280000121813,37.373489999663889],[-87.378720000427563,37.352289999583945],[-87.388109999976393,37.3451300003494],[-87.40637000027516,37.330290000383343],[-87.424100000414569,37.314920000257928],[-87.450680000381624,37.291859999839289],[-87.459550000232241,37.284180000007154],[-87.477800000069863,37.269340000041097],[-87.506109999776584,37.248010000261445],[-87.515640000385588,37.240979999827289],[-87.534679999782043,37.22693999988121],[-87.553729999639643,37.212890000373363],[-87.572520000097825,37.198579999667402],[-87.591030000234241,37.184009999561965],[-87.609819999793046,37.169690000193498],[-87.628860000088821,37.155650000247476],[-87.647920000407566,37.141599999840253],[-87.666959999804021,37.127559999894231],[-87.686009999661678,37.113510000386327],[-87.704800000119803,37.099199999680366],[-87.72331000025622,37.084629999574986],[-87.742099999815025,37.070310000206518],[-87.761149999672625,37.05627000026044],[-87.780200000429545,37.042219999853273],[-87.799250000287202,37.028179999907195],[-87.818019999823036,37.013859999639408],[-87.836289999683629,36.999019999673408],[-87.862869999650684,36.975969999715858],[-87.871729999939419,36.968280000321897],[-87.889460000078827,36.952910000196482],[-87.907709999916449,36.938070000230482],[-87.926500000374631,36.92376000042384],[-87.945539999771086,36.909710000016617],[-87.973989999638661,36.888509999936673],[-87.992510000236223,36.873939999831293],[-88.001629999924432,36.866520000297896],[-88.019360000063841,36.851139999711336],[-88.045949999592722,36.828089999753843],[-88.054809999881513,36.820400000359882],[-88.08245999972911,36.798409999821786],[-88.09185000017726,36.791249999687864],[-88.11090000003486,36.777209999741842],[-88.129940000330635,36.763160000233995],[-88.148740000350642,36.748850000427296],[-88.166990000188264,36.734009999561977],[-88.184440000005907,36.718380000037143],[-88.2016399999859,36.702470000190488],[-88.226639999935969,36.677829999754806],[-88.234970000065346,36.669610000201487],[-88.260239999875978,36.645230000064601],[-88.268839999865975,36.637280000371845],[-88.286300000144763,36.621640000385867],[-88.295430000294175,36.614219999953207],[-88.323350000002392,36.592489999713848],[-88.342390000298167,36.578449999767827],[-88.361440000155767,36.564400000259923],[-88.380220000152804,36.550089999553961],[-88.398479999552251,36.535249999587961],[-88.415939999831039,36.519620000063071],[-88.433139999811033,36.503710000216472],[-88.458139999761102,36.479060000218965],[-88.466480000351623,36.470850000227472],[-88.482880000311638,36.45414999992272],[-88.507740000100796,36.429370000225504],[-88.515950000092346,36.421029999634925],[-88.540820000342649,36.396249999937709],[-88.549010000311171,36.387899999785304],[-88.573879999662154,36.363120000088088],[-88.59041999978308,36.346559999944191],[-88.598749999912457,36.338340000390872],[-88.615160000333617,36.321649999647889],[-88.640009999661629,36.296869999950673],[-88.648219999653179,36.288519999798325],[-88.673100000364627,36.263740000101052],[-88.681290000333149,36.255389999948704],[-88.697960000153785,36.238960000403836],[-88.722699999805059,36.214050000107591],[-88.731029999934435,36.205829999654895],[-88.747440000355653,36.189139999811289],[-88.771769999985395,36.163829999954658],[-88.787519999648168,36.146469999790781],[-88.802729999589701,36.128589999928693],[-88.810139999561216,36.11943999975631],[-88.824419999783061,36.100619999713388],[-88.845459999679122,36.072009999661873],[-88.852470000090307,36.062459999929217],[-88.866750000312152,36.043650000347384],[-88.881579999817006,36.0253599995645],[-88.8971799997571,36.007869999700858],[-88.913049999557757,35.990649999697894],[-88.929190000118297,35.973680000431841],[-88.945059999918954,35.95646000042882],[-88.960670000320135,35.938960000104089],[-88.982639999935941,35.911270000210493],[-88.996659999858991,35.892189999868719],[-89.010280000221712,35.872709999966673],[-89.017030000334159,35.862910000396369],[-89.036869999750593,35.8330900003034],[-89.050089999653665,35.81322000040285],[-89.056719999628172,35.803279999772315],[-89.076550000382099,35.773470000140549],[-89.089779999846996,35.753589999778796],[-89.103010000211214,35.733710000316421],[-89.116239999676168,35.713840000415814],[-89.12945999957924,35.693960000054119],[-89.136079999991921,35.684020000322903],[-89.155909999846529,35.654209999791817],[-89.169020000072862,35.634199999730356],[-89.175489999863487,35.624130000299431],[-89.194410000021378,35.593379999587455],[-89.200640000435556,35.583049999857735],[-89.218219999952908,35.550989999888714],[-89.229600000439575,35.529250000087586],[-89.240839999866012,35.507390000148519],[-89.251819999892973,35.485260000348887],[-89.262799999919935,35.463129999649937],[-89.273920000107807,35.441130000449334],[-89.284759999973915,35.418879999612443],[-89.290050000207259,35.40760999970189],[-89.305799999869976,35.373690000293436],[-89.310960000403611,35.362289999783798],[-89.325099999565225,35.326779999897212],[-89.3344999995752,35.30305999961945],[-89.343899999585233,35.279349999802776],[-89.353149999872471,35.255490000263421],[-89.362549999882503,35.231769999985659],[-89.371929999869508,35.208049999707839],[-89.380799999720125,35.183800000170038],[-89.388989999688647,35.158900000334881],[-89.396670000420102,35.133450000317396],[-89.400379999737083,35.120600000389857],[-89.410570000205269,35.081110000426349],[-89.417180000156804,35.054609999651916],[-89.423799999670166,35.028109999776802],[-89.427110000326138,35.014860000288934],[-89.433720000277674,34.98836000041382],[-89.443499999825008,34.948469999990664],[-89.449579999617185,34.921439999956192],[-89.455139999711093,34.893879999762305],[-89.460169999645643,34.865790000308436],[-89.462549999682608,34.851610000201504],[-89.468900000234726,34.808280000321929],[-89.473400000009917,34.779659999809269],[-89.478289999783556,34.751430000194489],[-89.480800000419606,34.737379999787322],[-89.488210000391121,34.695110000226464],[-89.492579999567226,34.666360000014151],[-89.495899999785081,34.636539999921183],[-89.498020000422571,34.605540000270935],[-89.499070000280199,34.573739999701388],[-89.499070000280199,34.541670000170541],[-89.4980000003996,34.509869999600937],[-89.495899999785081,34.478860000388863],[-89.492579999567226,34.449049999857777],[-89.488219999952946,34.420299999645408],[-89.483319999718105,34.392070000030628],[-89.47842999994441,34.363849999977674],[-89.476319999768066,34.349400000010121],[-89.470099999815034,34.305940000430837],[-89.466790000058324,34.276129999899695],[-89.463489999863498,34.246320000267929],[-89.459640000385605,34.217030000334375],[-89.455139999711093,34.188409999821772],[-89.452500000274711,34.174490000013634],[-89.44468999984349,34.132620000013162],[-89.439129999749582,34.105059999819275],[-89.433720000277674,34.077360000363853],[-89.428160000183766,34.049800000170023],[-89.422069999930443,34.022770000135552],[-89.415459999978907,33.996270000260438],[-89.408310000306187,33.97029999964542],[-89.400510000336169,33.944989999788788],[-89.396410000121307,33.932529999859753],[-89.384110000376097,33.895159999634416],[-89.375900000384604,33.87025000023749],[-89.367570000255228,33.845480000102043],[-89.36345999957922,33.833020000173008],[-89.355130000349106,33.808239999576472],[-89.34270999956675,33.771010000411309],[-89.333979999876988,33.746630000274422],[-89.324969999865516,33.72251000043633],[-89.31585000017725,33.698520000297947],[-89.306319999568245,33.674940000180982],[-89.296540000020855,33.651620000362868],[-89.287019999872996,33.62804000024596],[-89.277760000023875,33.604179999807286],[-89.268360000013899,33.580460000428843],[-89.25896999956575,33.556740000151024],[-89.249569999555717,33.533019999873261],[-89.239649999847529,33.509829999754857],[-89.229199999979926,33.487180000256956],[-89.218620000412614,33.464649999997619],[-89.207770000085304,33.442389999598959],[-89.196660000358634,33.420390000398356],[-89.185680000331672,33.398270000160551],[-89.174700000304654,33.376140000360863],[-89.163589999678663,33.354140000260941],[-89.152740000250731,33.331879999862224],[-89.142170000245187,33.309349999602944],[-89.131709999916438,33.286689999643897],[-89.121799999770076,33.263500000424813],[-89.1123999997601,33.23978000014705],[-89.103010000211214,33.216059999869231],[-89.093610000201238,33.192339999591468],[-89.084219999753088,33.168620000212968],[-89.074300000044843,33.145439999656389],[-89.06385000017724,33.1227799996974],[-89.053409999871519,33.100119999738354],[-89.04295000044209,33.077459999779308],[-89.0378000003696,33.066069999730871],[-89.022579999966922,33.031620000163002],[-89.013320000117801,33.007759999724328],[-89.004319999668155,32.983639999886236],[-88.995589999978392,32.959270000210495],[-88.987259999849016,32.934489999613959],[-88.983150000072328,32.922029999684867],[-88.970730000189235,32.884799999620441],[-88.96662999997443,32.872339999691405],[-88.954190000068365,32.835109999626923],[-88.945980000076815,32.810189999768795],[-88.937649999947439,32.785419999633405],[-88.929319999818006,32.760639999936188],[-88.921129999849484,32.735729999639943],[-88.916890000373087,32.723400000309937],[-88.904050000007373,32.686569999805783],[-88.895060000018873,32.662449999967691],[-88.885800000169752,32.638599999990163],[-88.875879999562244,32.615409999871758],[-88.865429999694641,32.592749999912712],[-88.860270000060325,32.581350000302393],[-88.844529999959434,32.547429999994677],[-88.834080000091831,32.52477000003563],[-88.819400000309656,32.489790000308403],[-88.814769999935436,32.477870000100552],[-88.80536999992546,32.454149999822789],[-88.795989999938456,32.430430000444289],[-88.781829999854494,32.394910000096559],[-88.776670000220236,32.383520000048122],[-88.766220000352632,32.360860000089076],[-88.755639999886,32.338329999829796],[-88.744800000019893,32.316070000330399],[-88.733670000270195,32.294079999792302],[-88.722699999805059,32.271949999992671],[-88.71171999977804,32.249820000192983],[-88.70061000005137,32.227829999654887],[-88.689630000024351,32.205699999855256],[-88.67864999999739,32.183570000055624],[-88.667529999809517,32.161569999955702],[-88.656560000243701,32.139440000156014],[-88.645580000216739,32.117310000356383],[-88.634460000028866,32.095319999818287],[-88.623489999563731,32.073190000018656],[-88.612499999974887,32.051060000218968],[-88.601390000248216,32.029060000119046],[-88.59041999978308,32.00693999988124],[-88.579439999756062,31.984810000081609],[-88.568330000029391,31.96280999998163],[-88.557340000440547,31.940680000181999],[-88.546369999975411,31.918550000382368],[-88.535249999787538,31.896559999844271],[-88.524280000221722,31.874430000044583],[-88.513309999756586,31.852300000244952],[-88.502180000006888,31.83030000014503],[-88.491210000441072,31.808170000345399],[-88.480219999952908,31.786050000107537],[-88.469119999788063,31.764050000007614],[-88.458139999761102,31.741920000207983],[-88.447159999734083,31.719790000408352],[-88.436040000445587,31.697799999870256],[-88.42519999968016,31.675529999909713],[-88.414609999651645,31.653010000111578],[-88.404159999784042,31.630350000152532],[-88.394240000075854,31.607160000034128],[-88.38486000008885,31.583439999756308],[-88.375460000078817,31.559720000377865],[-88.366060000068842,31.536009999661871],[-88.356669999620692,31.512279999822283],[-88.346760000373592,31.489100000165024],[-88.336300000044844,31.466440000205978],[-88.331149999972411,31.455039999696396],[-88.31540999987152,31.421120000287942],[-88.304950000442091,31.398460000328896],[-88.300190000368104,31.386669999820754],[-88.285640000285696,31.351549999932672],[-88.28088000021171,31.339760000323906],[-88.266860000288659,31.304119999838292],[-88.257600000439538,31.280269999860764],[-88.248200000429563,31.256549999582944],[-88.234179999607193,31.220900000434824],[-88.229949999692622,31.208579999767323],[-88.221750000162274,31.183670000370341],[-88.214070000330139,31.158229999914681],[-88.210500000274692,31.145239999826288],[-88.199660000408585,31.106409999721848],[-88.195959999754109,31.093559999794309],[-88.184839999566236,31.054999999550489],[-88.177050000057363,31.029689999693858],[-88.169370000225229,31.004250000137517],[-88.162230000114334,30.978280000421819],[-88.155609999701596,30.951779999647385],[-88.149529999909475,30.924749999612914],[-88.143980000276713,30.897190000318403],[-88.138549999882457,30.869489999963662],[-88.132989999788549,30.841929999769832],[-88.12756000029367,30.814239999876236],[-88.122539999920946,30.786139999961165],[-88.12056000034363,30.771569999855728],[-88.114730000389102,30.727709999816796],[-88.112090000053342,30.69722999986476],[-88.109710000016378,30.66648999961393],[-88.107060000118793,30.636009999661894],[-88.103619999763055,30.606329999729837],[-88.099260000148774,30.577580000416845],[-88.094350000352108,30.549349999902745],[-88.089470000140295,30.521129999849734],[-88.087480000101834,30.506550000182528],[-88.08179000030816,30.46256000044383],[-88.079669999670671,30.431550000332379],[-88.078479999652131,30.399620000063123],[-88.07783000025421,30.36715000007257],[-88.07715999993394,30.334689999643899],[-88.075969999915458,30.302749999812761],[-88.073850000177288,30.271750000162513],[-88.07056000044355,30.241939999631427],[-88.068169999945439,30.227760000423814],[-88.061290000133283,30.184959999804278],[-88.056400000359645,30.156730000189498],[-88.052039999845988,30.127979999977185],[-88.04871999962819,30.098159999884217],[-88.046599999889963,30.067160000233969],[-88.045409999871481,30.03522000040283],[-88.044879999712123,30.002619999813305],[-88.044750000012414,29.969630000124539],[-88.044750000012414,29.936500000274918],[-88.044750000012414,29.90337999998718],[-88.044750000012414,29.87025000013756],[-88.044750000012414,29.837120000287939],[-88.044750000012414,29.804000000000144],[-88.044750000012414,29.770870000150524],[-88.044750000012414,29.737740000300903],[-88.044750000012414,29.704620000013108],[-88.044750000012414,29.671490000163544],[-88.044750000012414,29.638360000313924],[-88.044750000012414,29.605240000026129],[-88.044750000012414,29.572110000176508],[-88.044750000012414,29.538980000326887],[-88.044750000012414,29.505860000039092],[-88.044750000012414,29.472730000189529],[-88.044750000012414,29.439600000339908],[-88.044750000012414,29.406480000052113],[-88.044750000012414,29.373350000202493],[-88.044750000012414,29.340220000352872],[-88.044750000012414,29.307089999603932],[-88.044750000012414,29.273970000215456],[-88.044750000012414,29.240840000365893],[-88.044750000012414,29.207709999616952],[-88.044750000012414,29.174590000228477],[-88.044890000173268,29.141590000078565],[-88.045429999894452,29.108999999950186],[-88.046619999912934,29.077060000119047],[-88.04871999962819,29.046050000007654],[-88.052030000284162,29.016240000375888],[-88.05402000032268,29.001670000270451],[-88.061290000133283,28.959259999649419],[-88.066179999906979,28.931039999596464],[-88.070540000420579,28.902290000283415],[-88.073850000177288,28.872470000190503],[-88.075969999915458,28.84146000007911],[-88.07715999993394,28.809529999809797],[-88.077690000093298,28.776930000119535],[-88.077959999953919,28.744070000130534],[-88.078490000113334,28.711480000002155],[-88.079680000131816,28.679540000171016],[-88.081799999869986,28.648530000059623],[-88.08510000006487,28.6187200004278],[-88.08945999967915,28.589970000215487],[-88.094370000375136,28.561739999701388],[-88.099260000148774,28.533519999648433],[-88.103619999763055,28.504759999874238],[-88.107060000118793,28.475079999942182],[-88.109710000016378,28.444609999551972],[-88.112090000053342,28.413859999739316],[-88.114730000389102,28.383390000248482],[-88.118180000306666,28.353710000316426],[-88.122539999920946,28.324949999642911],[-88.127429999694641,28.296729999589957],[-88.132329999929425,28.268499999975177],[-88.136829999704617,28.239880000361893],[-88.140660000058858,28.210599999990166],[-88.143969999815511,28.180779999897197],[-88.14727999957222,28.150970000265431],[-88.151109999926462,28.121689999893704],[-88.155609999701596,28.093059999819275],[-88.160639999636146,28.064970000365349],[-88.1660599995692,28.03727999957249],[-88.171619999663164,28.009709999816778],[-88.177030000034392,27.982019999923182],[-88.182460000428591,27.954330000029643],[-88.185240000025885,27.940539999921214],[-88.193570000155262,27.8992000000801],[-88.199130000249227,27.871639999886213],[-88.204679999881989,27.844079999692383],[-88.210099999815043,27.816389999798787],[-88.215530000209242,27.788690000343365],[-88.221220000002916,27.761259999849244],[-88.227170000095327,27.734100000115063],[-88.233379999587214,27.7071999997803],[-88.239870000300186,27.680559999744332],[-88.246480000251722,27.654059999869219],[-88.253099999765084,27.627559999994162],[-88.259720000177765,27.601060000119048],[-88.266330000129301,27.574560000243935],[-88.272940000080837,27.548060000368878],[-88.279559999594198,27.521559999594444],[-88.28618000000688,27.495050000157505],[-88.289480000201763,27.481799999770317],[-88.299399999909951,27.442050000407335],[-88.306020000322633,27.415549999632901],[-88.312759999973935,27.389180000356873],[-88.319759999923974,27.363080000042089],[-88.327040000195723,27.3372400000261],[-88.334579999867003,27.311660000308905],[-88.34251000043605,27.286489999713865],[-88.346620000212738,27.27402999978483],[-88.358919999957948,27.236659999559492],[-88.367129999949441,27.21175000016251],[-88.375319999917963,27.186839999866265],[-88.379429999694651,27.174390000398319],[-88.39079000015829,27.136089999553974],[-88.398070000430096,27.110250000437304],[-88.405090000403106,27.084150000122577],[-88.41195999975406,27.057909999646881],[-88.418979999727128,27.031810000231474],[-88.426250000437051,27.005970000215484],[-88.433790000108331,26.980400000060115],[-88.441730000239204,26.955219999903193],[-88.449940000230697,26.930309999606948],[-88.458139999761102,26.905400000209966],[-88.466340000190769,26.880489999913721],[-88.474670000320145,26.855710000216504],[-88.483010000011404,26.830920000058086],[-88.48711000022621,26.818469999690876],[-88.499420000432565,26.781109999926684],[-88.507740000100796,26.756319999768323],[-88.516079999792055,26.731540000071107],[-88.524280000221722,26.706629999774805],[-88.532490000213215,26.681720000377879],[-88.540820000342649,26.656939999781287],[-88.549149999572705,26.63216000008407],[-88.557340000440547,26.607249999787825],[-88.565669999670661,26.582479999652378],[-88.574400000259686,26.558089999953665],[-88.578909999596704,26.546040000046105],[-88.59254000042057,26.509990000438336],[-88.602070000130311,26.486410000321428],[-88.606950000342124,26.474750000412314],[-88.621369999825504,26.439499999925204],[-88.63049000041309,26.415520000247966],[-88.639489999963416,26.391400000409817],[-88.648219999653179,26.36702000027293],[-88.656560000243701,26.342239999676394],[-88.660659999559243,26.329779999747359],[-88.673100000364627,26.292549999682876],[-88.677319999818053,26.280229999914695],[-88.685529999809546,26.255310000056625],[-88.69796999971561,26.218079999992142],[-88.706700000304693,26.193699999855255],[-88.711189999618682,26.181640000385869],[-88.720179999607183,26.1575199996484],[-88.734339999691144,26.122009999761815],[-88.744140000160769,26.098689999943701],[-88.753660000308685,26.075109999826793],[-88.76278999955872,26.051119999688353],[-88.767279999772086,26.039060000218967],[-88.780499999675158,26.002619999713374],[-88.788829999804534,25.977840000016158],[-88.797039999796027,25.952929999719856],[-88.805380000386606,25.92815000002264],[-88.813709999616663,25.903370000325424],[-88.821910000046387,25.878460000029122],[-88.830249999737589,25.853689999893732],[-88.838969999865469,25.829300000195019],[-88.847979999876998,25.805189999918696],[-88.852470000090307,25.79313000044931],[-88.867149999872481,25.758149999822763],[-88.872310000406117,25.746750000212501],[-88.882889999973429,25.724219999953164],[-88.899029999634649,25.690700000105039],[-88.910140000260697,25.668709999566943],[-88.921120000287658,25.646579999767312],[-88.926540000220712,25.635450000017613],[-88.943210000041347,25.602460000328904],[-88.948759999674166,25.591449999817769],[-88.965159999634182,25.558190000268439],[-88.970730000189235,25.547199999780332],[-88.981830000354137,25.52519999968041],[-88.998250000337123,25.491940000131024],[-89.009349999602705,25.469940000031102],[-89.014909999696613,25.458939999981169],[-89.031309999656628,25.425689999993665],[-89.042429999844501,25.403689999893743],[-89.053409999871519,25.381560000094055],[-89.064380000336655,25.359430000294424],[-89.069940000430563,25.34843999980626],[-89.08105000015729,25.326439999706338],[-89.097459999679131,25.293180000157008],[-89.103010000211214,25.282180000107076],[-89.114389999798561,25.260449999867717],[-89.125759999824027,25.238719999628415],[-89.137680000031878,25.217520000447792],[-89.150099999914971,25.196849999627943],[-89.169140000210746,25.166239999976142],[-89.175489999863487,25.156030000384362],[-89.188199999630172,25.135630000324397],[-89.206709999766588,25.104489999613918],[-89.212800000019854,25.094019999723344],[-89.230789999558738,25.062349999752826],[-89.243099999765093,25.041550000132531],[-89.249310000156299,25.031209999941666],[-89.268489999713609,25.00072999998963],[-89.281590000378117,24.980719999928169],[-89.294819999843014,24.960850000027619],[-89.301440000255695,24.950910000296403],[-89.321279999672129,24.921099999765318],[-89.32790000008481,24.911160000034101],[-89.347199999780059,24.880809999781832],[-89.35355000033212,24.870609999751821],[-89.372070000030362,24.839469999940661],[-89.378160000283685,24.829000000050087],[-89.396149999822512,24.797339999641395],[-89.408449999567722,24.776529999559955],[-89.42100999961167,24.755990000238455],[-89.433720000277674,24.73559000017849],[-89.440060000368646,24.725379999687391],[-89.452759999674129,24.704979999627426],[-89.47128000027169,24.673839999816266],[-89.477360000063868,24.663369999925692],[-89.49536000006384,24.631699999955174],[-89.50765999980905,24.61090000033488],[-89.513870000200257,24.600560000144014],[-89.526570000405115,24.580149999622904],[-89.539269999710598,24.559749999562996],[-89.557530000009365,24.528339999891216],[-89.563339999940922,24.517609999701847],[-89.577769999885504,24.482629999974677],[-89.584780000296689,24.45758000041684],[-89.589280000071824,24.431350000402347],[-89.59086000008881,24.404320000367875],[-89.589280000071824,24.377290000333403],[-89.584780000296689,24.351049999857764],[-89.577769999885504,24.326000000299928],[-89.568369999875472,24.302549999882729],[-89.556999999850007,24.280819999643427],[-89.537419999833048,24.25074000015104],[-89.522610000351108,24.23245000026742],[-89.506210000391093,24.215760000423813],[-89.488750000112304,24.200120000437835],[-89.469829999954413,24.186079999592437],[-89.44971999977804,24.173619999663401],[-89.42869999990495,24.162750000212498],[-89.40753000030918,24.152949999742816],[-89.386089999953413,24.144870000350352],[-89.364660000058848,24.138370000075611],[-89.331470000140314,24.132020000422813]]]},"properties":{"objectid":593,"stormname":"Isaias","stormtype":"HU","basin":"AL","advdate":"400 PM CDT Thu Oct 08 2026","advisnum":"9","fcstprd":120,"stormnum":9,"idp_source":"al092026-009_5day_pgn","idp_filedate":1791494888000,"idp_ingestdate":1791494898000,"st_area(shape)":35.191665087695625,"st_perimeter(shape)":36.117403494724954,"binnumber":"AT4"}}]}