{"type":"FeatureCollection","features":[{"type":"Feature","id":4816,"geometry":{"type":"LineString","coordinates":[[-96.500000000399609,22.000000000199975],[-96.299999999899967,22.199999999800298],[-96.100000000299644,22.299999999600459],[-95.99999999960022,22.199999999800298],[-95.99999999960022,22.000000000199975],[-95.700000000199736,21.900000000399814]]},"properties":{"objectid":4816,"stormtype":"DB","stormnum":9,"ss":0,"idp_source":"AL092026_lin","idp_filedate":1791408474000,"idp_ingestdate":1791408545000,"st_length(shape)":1.1640986314242154,"binnumber":"AT4"}},{"type":"Feature","id":4817,"geometry":{"type":"LineString","coordinates":[[-95.700000000199736,21.900000000399814],[-95.300000000099828,21.699999999900228],[-94.599999999700117,21.900000000399814]]},"properties":{"objectid":4817,"stormtype":"TD","stormnum":9,"ss":0,"idp_source":"AL092026_lin","idp_filedate":1791408474000,"idp_ingestdate":1791408545000,"st_length(shape)":1.1752245852623704,"binnumber":"AT4"}},{"type":"Feature","id":4818,"geometry":{"type":"LineString","coordinates":[[-94.599999999700117,21.900000000399814],[-93.900000000199725,22.199999999800298],[-93.299999999600175,22.500000000100044]]},"properties":{"objectid":4818,"stormtype":"TD","stormnum":9,"ss":0,"idp_source":"AL092026_lin","idp_filedate":1791408474000,"idp_ingestdate":1791408545000,"st_length(shape)":1.4323977038112592,"binnumber":"AT4"}}]}