{"type":"FeatureCollection","features":[{"type":"Feature","id":598,"geometry":{"type":"LineString","coordinates":[[-88.799999999600175,24.899999999800286],[-88.400000000399586,25.700000000000159],[-87.399999999700128,28.200000000399825],[-87.200000000099806,31.000000000199975],[-87.799999999800036,33.200000000299895],[-87.799999999800036,35.000000000299906],[-84.999999999999886,36.99999999990024]]},"properties":{"objectid":598,"stormname":"Isaias","stormtype":"HU","basin":"AL","advdate":"700 PM CDT Thu Oct 08 2026","advisnum":"9A","fcstprd":120,"stormnum":9,"idp_source":"al092026-009A_5day_lin","idp_filedate":1791505098000,"idp_ingestdate":1791505111000,"st_length(shape)":13.915424320953042,"binnumber":"AT4"}}]}