{"type":"FeatureCollection","features":[{"type":"Feature","id":593,"geometry":{"type":"LineString","coordinates":[[-89.300000000399621,24.399999999900217],[-88.400000000399586,25.700000000000159],[-87.399999999700128,28.200000000399825],[-87.200000000099806,31.000000000199975],[-87.799999999800036,33.200000000299895],[-87.799999999800036,35.000000000299906],[-84.999999999999886,36.99999999990024]]},"properties":{"objectid":593,"stormname":"Isaias","stormtype":"HU","basin":"AL","advdate":"400 PM CDT Thu Oct 08 2026","advisnum":"9","fcstprd":120,"stormnum":9,"idp_source":"al092026-009_5day_lin","idp_filedate":1791494888000,"idp_ingestdate":1791494904000,"st_length(shape)":14.602135960298243,"binnumber":"AT4"}}]}