{"type":"FeatureCollection","features":[{"type":"Feature","id":540,"geometry":{"type":"LineString","coordinates":[[-93.599999999899978,22.40000000029994],[-92.399999999600197,22.699999999700367],[-90.800000000099828,23.400000000100079],[-89.19999999970014,24.600000000399859],[-88.10000000009984,26.600000000000136],[-87.500000000399609,29.200000000200021],[-87.600000000199771,32.199999999600436],[-87.500000000399609,37.999999999700378]]},"properties":{"objectid":540,"stormname":"Isaias","stormtype":"TS","basin":"AL","advdate":"1000 AM CDT Wed Oct 07 2026","advisnum":"4","fcstprd":120,"stormnum":9,"idp_source":"al092026-004_5day_lin","idp_filedate":1791386890000,"idp_ingestdate":1791386974000,"st_length(shape)":18.736760070563093,"binnumber":"AT4"}}]}