{"type":"FeatureCollection","features":[{"type":"Feature","id":585,"geometry":{"type":"LineString","coordinates":[[-89.80000000029969,23.999999999800309],[-89.000000000099817,24.899999999800286],[-87.899999999600197,27.099999999900206],[-87.399999999700128,29.600000000299929],[-87.799999999800036,32.300000000299917],[-88.10000000009984,34.600000000199998],[-87.799999999800036,36.500000000000171]]},"properties":{"objectid":585,"stormname":"Isaias","stormtype":"HU","basin":"AL","advdate":"100 PM CDT Thu Oct 08 2026","advisnum":"8A","fcstprd":120,"stormnum":9,"idp_source":"al092026-008A_5day_lin","idp_filedate":1791483482000,"idp_ingestdate":1791483500000,"st_length(shape)":13.185833910454045,"binnumber":"AT4"}}]}