{"type":"FeatureCollection","features":[{"type":"Feature","id":651,"geometry":{"type":"LineString","coordinates":[[-86.99999999960022,29.200000000200021],[-86.799999999999898,31.199999999800298],[-87.200000000099806,33.399999999900217],[-86.099999999600186,35.600000000000136],[-82.49999999960022,38.100000000399859]]},"properties":{"objectid":651,"stormname":"Isaias","stormtype":"HU","basin":"AL","advdate":"400 PM CDT Fri Oct 09 2026","advisnum":"13","fcstprd":120,"stormnum":9,"idp_source":"al092026-013_5day_lin","idp_filedate":1791581282000,"idp_ingestdate":1791581317000,"st_length(shape)":11.088639277355412,"binnumber":"AT4"}}]}