{"type":"FeatureCollection","features":[{"type":"Feature","id":4311,"geometry":{"type":"Point","coordinates":[-94.099999999800048,22.000000000199975]},"properties":{"objectid":4311,"stormname":"Tropical Storm Isaias","stormtype":"TS","dvlbl":"S","basin":"AL","advdate":"400 AM CDT Wed Oct 07 2026","advisnum":"3","fcstprd":120,"gust":45,"maxwind":35,"mslp":1004,"ssnum":0,"datelbl":"4:00 AM Wed","tcdvlp":"Tropical Storm","tcdir":75,"tcspd":7,"fldatelbl":"2026-10-07 1:00 AM Wed CDT","lat":22,"lon":-94,"stormnum":9,"stormsrc":"Tropical Cyclone","tau":0,"timezone":"CDT","validtime":"07/0600","idp_source":"al092026-003_5day_pts","idp_filedate":1791363762000,"idp_ingestdate":1791363789000,"binnumber":"AT4"}},{"type":"Feature","id":4312,"geometry":{"type":"Point","coordinates":[-92.900000000399586,22.199999999800298]},"properties":{"objectid":4312,"stormname":"Tropical Storm Isaias","stormtype":"TS","dvlbl":"S","basin":"AL","advdate":"400 AM CDT Wed Oct 07 2026","advisnum":"3","fcstprd":120,"gust":60,"maxwind":50,"mslp":9999,"ssnum":0,"datelbl":"1:00 PM Wed","tcdvlp":"Tropical Storm","tcdir":9999,"tcspd":9999,"fldatelbl":"2026-10-07 1:00 PM Wed CDT","lat":22,"lon":-93,"stormnum":9,"stormsrc":"Tropical Cyclone","tau":12,"timezone":"CDT","validtime":"07/1800","idp_source":"al092026-003_5day_pts","idp_filedate":1791363762000,"idp_ingestdate":1791363789000,"binnumber":"AT4"}},{"type":"Feature","id":4313,"geometry":{"type":"Point","coordinates":[-91.399999999800059,22.699999999700367]},"properties":{"objectid":4313,"stormname":"Tropical Storm Isaias","stormtype":"HU","dvlbl":"H","basin":"AL","advdate":"400 AM CDT Wed Oct 07 2026","advisnum":"3","fcstprd":120,"gust":80,"maxwind":65,"mslp":9999,"ssnum":1,"datelbl":"1:00 AM Thu","tcdvlp":"Hurricane","tcdir":9999,"tcspd":9999,"fldatelbl":"2026-10-08 1:00 AM Thu CDT","lat":23,"lon":-91,"stormnum":9,"stormsrc":"Tropical Cyclone","tau":24,"timezone":"CDT","validtime":"08/0600","idp_source":"al092026-003_5day_pts","idp_filedate":1791363762000,"idp_ingestdate":1791363789000,"binnumber":"AT4"}},{"type":"Feature","id":4314,"geometry":{"type":"Point","coordinates":[-89.699999999600209,23.900000000000148]},"properties":{"objectid":4314,"stormname":"Tropical Storm Isaias","stormtype":"HU","dvlbl":"H","basin":"AL","advdate":"400 AM CDT Wed Oct 07 2026","advisnum":"3","fcstprd":120,"gust":100,"maxwind":80,"mslp":9999,"ssnum":1,"datelbl":"1:00 PM Thu","tcdvlp":"Hurricane","tcdir":9999,"tcspd":9999,"fldatelbl":"2026-10-08 1:00 PM Thu CDT","lat":24,"lon":-90,"stormnum":9,"stormsrc":"Tropical Cyclone","tau":36,"timezone":"CDT","validtime":"08/1800","idp_source":"al092026-003_5day_pts","idp_filedate":1791363762000,"idp_ingestdate":1791363789000,"binnumber":"AT4"}},{"type":"Feature","id":4315,"geometry":{"type":"Point","coordinates":[-88.500000000199748,25.500000000399837]},"properties":{"objectid":4315,"stormname":"Tropical Storm Isaias","stormtype":"HU","dvlbl":"H","basin":"AL","advdate":"400 AM CDT Wed Oct 07 2026","advisnum":"3","fcstprd":120,"gust":115,"maxwind":95,"mslp":9999,"ssnum":2,"datelbl":"1:00 AM Fri","tcdvlp":"Hurricane","tcdir":9999,"tcspd":9999,"fldatelbl":"2026-10-09 1:00 AM Fri CDT","lat":26,"lon":-88,"stormnum":9,"stormsrc":"Tropical Cyclone","tau":48,"timezone":"CDT","validtime":"09/0600","idp_source":"al092026-003_5day_pts","idp_filedate":1791363762000,"idp_ingestdate":1791363789000,"binnumber":"AT4"}},{"type":"Feature","id":4316,"geometry":{"type":"Point","coordinates":[-87.699999999999875,27.699999999600436]},"properties":{"objectid":4316,"stormname":"Tropical Storm Isaias","stormtype":"HU","dvlbl":"H","basin":"AL","advdate":"400 AM CDT Wed Oct 07 2026","advisnum":"3","fcstprd":120,"gust":110,"maxwind":90,"mslp":9999,"ssnum":2,"datelbl":"1:00 PM Fri","tcdvlp":"Hurricane","tcdir":9999,"tcspd":9999,"fldatelbl":"2026-10-09 1:00 PM Fri CDT","lat":28,"lon":-88,"stormnum":9,"stormsrc":"Tropical Cyclone","tau":60,"timezone":"CDT","validtime":"09/1800","idp_source":"al092026-003_5day_pts","idp_filedate":1791363762000,"idp_ingestdate":1791363789000,"binnumber":"AT4"}},{"type":"Feature","id":4317,"geometry":{"type":"Point","coordinates":[-87.699999999999875,30.79999999970039]},"properties":{"objectid":4317,"stormname":"Tropical Storm Isaias","stormtype":"HU","dvlbl":"H","basin":"AL","advdate":"400 AM CDT Wed Oct 07 2026","advisnum":"3","fcstprd":120,"gust":90,"maxwind":75,"mslp":9999,"ssnum":1,"datelbl":"1:00 AM Sat","tcdvlp":"Hurricane","tcdir":9999,"tcspd":9999,"fldatelbl":"2026-10-10 1:00 AM Sat CDT","lat":31,"lon":-88,"stormnum":9,"stormsrc":"Tropical Cyclone","tau":72,"timezone":"CDT","validtime":"10/0600","idp_source":"al092026-003_5day_pts","idp_filedate":1791363762000,"idp_ingestdate":1791363789000,"binnumber":"AT4"}},{"type":"Feature","id":4318,"geometry":{"type":"Point","coordinates":[-87.500000000399609,38.200000000200021]},"properties":{"objectid":4318,"stormname":"Tropical Storm Isaias","stormtype":"STD","dvlbl":"D","basin":"AL","advdate":"400 AM CDT Wed Oct 07 2026","advisnum":"3","fcstprd":120,"gust":35,"maxwind":25,"mslp":9999,"ssnum":0,"datelbl":"1:00 AM Sun","tcdvlp":"Subtropical Depression","tcdir":9999,"tcspd":9999,"fldatelbl":"2026-10-11 1:00 AM Sun CDT","lat":38,"lon":-88,"stormnum":9,"stormsrc":"Post-Tropical Cyclone","tau":96,"timezone":"CDT","validtime":"11/0600","idp_source":"al092026-003_5day_pts","idp_filedate":1791363762000,"idp_ingestdate":1791363789000,"binnumber":"AT4"}}]}