{"type":"FeatureCollection","features":[{"type":"Feature","id":1202,"geometry":{"type":"LineString","coordinates":[[-85.390000000299665,29.930000000000121],[-85.220000000099844,29.679999999600454],[-84.37999999980002,29.960000000299942],[-84.080000000399593,30.100000000199998],[-83.990000000399618,30.090000000399868]]},"properties":{"objectid":1202,"stormname":"Isaias","stormtype":"HU","basin":"AL","advdate":"1000 PM CDT Fri Oct 09 2026","advisnum":"14","fcstprd":120,"stormnum":9,"tcww":"TWR","idp_source":"al092026-014_ww_wwlin","idp_filedate":1791602904000,"idp_ingestdate":1791602983000,"st_length(shape)":1.6093748328708832,"binnumber":"AT4"}},{"type":"Feature","id":1203,"geometry":{"type":"LineString","coordinates":[[-88.400000000399586,30.399999999600425],[-87.55000000029969,30.270000000399818],[-86.799999999999898,30.389999999800295],[-86.39999999989999,30.380000000000166],[-85.980000000199766,30.280000000200005],[-85.390000000299665,29.930000000000121]]},"properties":{"objectid":1203,"stormname":"Isaias","stormtype":"HU","basin":"AL","advdate":"1000 PM CDT Fri Oct 09 2026","advisnum":"14","fcstprd":120,"stormnum":9,"tcww":"HWR","idp_source":"al092026-014_ww_wwlin","idp_filedate":1791602904000,"idp_ingestdate":1791602983000,"st_length(shape)":3.1372916059097999,"binnumber":"AT4"}}]}