{"type":"FeatureCollection","features":[{"type":"Feature","id":665,"geometry":{"type":"Polygon","coordinates":[[[-86.591829999554705,30.546989999888751],[-86.57024999993746,30.543600000040101],[-86.558819999843024,30.54243000004459],[-86.521390000448037,30.54115000037234],[-86.495140000410572,30.541739999701349],[-86.468670000120312,30.543490000363363],[-86.442790000058324,30.546519999798306],[-86.417939999831049,30.55084999982779],[-86.394270000060374,30.556340000290902],[-86.371770000285153,30.562999999850263],[-86.340270000060343,30.575260000448793],[-86.330469999590719,30.580050000107576],[-86.311579999916944,30.590330000229471],[-86.294099999615185,30.602010000161499],[-86.277990000438081,30.615100000364862],[-86.255839999716102,30.636709999566961],[-86.242779999996912,30.652830000104586],[-86.230879999812032,30.670119999738347],[-86.220149999622663,30.688580000266938],[-86.207089999903474,30.719299999595421],[-86.200450000367141,30.741849999877729],[-86.195429999994417,30.766029999784791],[-86.192049999707592,30.79184999977781],[-86.190059999669131,30.819069999580961],[-86.18900999981156,30.847220000003119],[-86.188550000182261,30.875959999754343],[-86.188430000044377,30.905050000357392],[-86.188430000044377,30.934249999737858],[-86.188430000044377,30.96345999957947],[-86.188430000044377,30.992659999859256],[-86.188430000044377,31.021869999700868],[-86.188430000044377,31.051069999980655],[-86.188430000044377,31.080279999822267],[-86.188430000044377,31.109489999663879],[-86.188430000044377,31.138689999943665],[-86.188430000044377,31.167899999785334],[-86.188550000182261,31.196990000388325],[-86.189020000272706,31.225719999678404],[-86.190059999669131,31.253879999662388],[-86.191929999569709,31.281210000041597],[-86.194839999766089,31.30750000012506],[-86.198699999705127,31.332850000027634],[-86.203009999711639,31.357729999839762],[-86.207319999718095,31.382609999651891],[-86.211170000095308,31.407959999554464],[-86.214100000314659,31.434249999637927],[-86.215959999754091,31.461580000017136],[-86.217000000049836,31.48974000000112],[-86.217470000140281,31.518470000190518],[-86.217590000278165,31.547570000355392],[-86.217590000278165,31.576769999735859],[-86.217590000278165,31.605979999577471],[-86.217590000278165,31.635179999857257],[-86.217590000278165,31.664389999698869],[-86.217590000278165,31.693589999978656],[-86.217590000278165,31.722799999820268],[-86.217590000278165,31.752000000100054],[-86.217590000278165,31.781209999941666],[-86.217590000278165,31.810419999783335],[-86.217590000278165,31.825020000372888],[-86.217590000278165,31.868829999904733],[-86.217590000278165,31.898030000184519],[-86.217590000278165,31.927240000026131],[-86.217590000278165,31.956440000305918],[-86.217590000278165,31.98565000014753],[-86.217590000278165,32.014850000427316],[-86.217590000278165,32.044060000268928],[-86.217590000278165,32.07327000011054],[-86.217590000278165,32.102470000390326],[-86.217590000278165,32.131680000231995],[-86.217590000278165,32.160879999612462],[-86.217590000278165,32.190090000353393],[-86.217590000278165,32.21928999973386],[-86.217590000278165,32.248499999575472],[-86.217590000278165,32.277699999855258],[-86.217590000278165,32.30690999969687],[-86.217590000278165,32.336109999976657],[-86.217590000278165,32.365319999818269],[-86.217590000278165,32.394520000098055],[-86.217590000278165,32.423729999939667],[-86.217590000278165,32.452930000219453],[-86.217590000278165,32.482140000061122],[-86.217590000278165,32.511340000340908],[-86.217590000278165,32.54055000018252],[-86.217470000140281,32.569639999886249],[-86.217000000049836,32.598379999637416],[-86.215950000192265,32.626530000059574],[-86.214080000291688,32.653870000000666],[-86.211170000095308,32.680149999622927],[-86.207319999718095,32.70550000042482],[-86.203009999711639,32.730380000236948],[-86.198699999705127,32.75526999961096],[-86.196590000428046,32.767769999585937],[-86.19309999956522,32.793459999879246],[-86.190770000035343,32.820340000190981],[-86.18900999981156,32.862390000398364],[-86.188550000182261,32.891130000149531],[-86.188430000044377,32.920219999853259],[-86.188430000044377,32.949420000133046],[-86.188430000044377,32.978629999974657],[-86.188430000044377,33.007839999816269],[-86.188430000044377,33.037040000096056],[-86.188550000182261,33.066129999799784],[-86.188900000134765,33.080380000436833],[-86.190059999669131,33.123019999973167],[-86.191929999569709,33.150359999914201],[-86.194839999766089,33.176640000435839],[-86.198699999705127,33.201990000338412],[-86.203009999711639,33.226879999712366],[-86.207319999718095,33.251760000423815],[-86.211170000095308,33.277110000326388],[-86.214100000314659,33.303389999948706],[-86.215959999754091,33.330729999889741],[-86.217000000049836,33.358880000311899],[-86.217470000140281,33.387620000063123],[-86.217590000278165,33.416709999766795],[-86.217590000278165,33.445919999608464],[-86.217590000278165,33.47511999988825],[-86.217590000278165,33.504329999729862],[-86.217590000278165,33.533530000009648],[-86.217590000278165,33.56273999985126],[-86.217590000278165,33.591940000131046],[-86.217590000278165,33.621149999972658],[-86.217590000278165,33.650350000252445],[-86.217590000278165,33.679560000094057],[-86.217590000278165,33.708760000373843],[-86.217470000140281,33.737850000077572],[-86.217000000049836,33.766589999828795],[-86.215950000192265,33.79474999981278],[-86.215250000287199,33.808649999597947],[-86.211170000095308,33.848370000275452],[-86.209409999871468,33.861209999741845],[-86.205229999564722,33.886220000153003],[-86.198110000376118,33.922900000035099],[-86.193219999703103,33.947200000080102],[-86.188430000044377,33.971609999801785],[-86.183529999809537,33.995909999846788],[-86.178160000383627,34.019739999801288],[-86.17234999955275,34.043110000126546],[-86.166050000407097,34.065999999900214],[-86.159160000133795,34.088320000367844],[-86.151930000369134,34.110280000421824],[-86.144699999705097,34.132239999576484],[-86.137360000263698,34.154089999953669],[-86.133619999563223,34.164949999842747],[-86.121609999701604,34.196719999928177],[-86.117519999947945,34.207240000325896],[-86.108670000120298,34.227569999855746],[-86.098869999650674,34.246960000104082],[-86.088370000175246,34.265650000447295],[-86.077410000171255,34.2838699998008],[-86.060150000122292,34.310389999698884],[-86.054320000167763,34.319160000333909],[-86.042660000258707,34.336679999782291],[-86.030989999888504,34.354209999691875],[-86.013500000024862,34.380490000213456],[-86.007659999609189,34.389250000387335],[-85.995999999700132,34.406769999835774],[-85.984100000414571,34.424060000368854],[-85.971979999976895,34.441120000187993],[-85.959629999724598,34.457939999731366],[-85.947020000072825,34.47453000035938],[-85.934190000168257,34.490879999812307],[-85.915410000171278,34.515879999762319],[-85.909230000264188,34.524300000444782],[-85.89688000001189,34.541110000426329],[-85.884520000197767,34.557940000430847],[-85.871920000107821,34.574530000159541],[-85.85197000011533,34.598360000114042],[-85.845099999864999,34.606070000430293],[-85.831110000426065,34.621249999887709],[-85.816879999812045,34.63620999999165],[-85.802890000373111,34.651390000348385],[-85.782590000428058,34.674879999912207],[-85.776050000107318,34.68294000018102],[-85.763459999579197,34.699529999909714],[-85.751099999765074,34.716350000352406],[-85.732439999905978,34.741470000440302],[-85.726139999861005,34.749759999624416],[-85.713089999703641,34.765880000162042],[-85.699319999618183,34.781299999895225],[-85.685330000179249,34.796489999813787],[-85.66363999998589,34.81857000000565],[-85.649049999857482,34.833169999695883],[-85.641710000416083,34.84040999992169],[-85.627240000425559,34.855129999749806],[-85.612559999744064,34.869619999763302],[-85.598089999753597,34.884330000029649],[-85.583400000409597,34.898820000043088],[-85.561579999617209,34.920780000097068],[-85.554240000175753,34.928029999884757],[-85.539779999747111,34.942749999712873],[-85.525090000403111,34.957230000164543],[-85.510389999698646,34.971720000178038],[-85.4952300002642,34.985740000101089],[-85.479840000115814,34.999519999748316],[-85.463750000062362,35.012609999951678],[-85.447189999918464,35.025219999603451],[-85.438779999697147,35.031409999971686],[-85.422000000199716,35.043800000269925],[-85.397029999834501,35.062609999851759],[-85.380939999781049,35.075689999593976],[-85.365540000070837,35.089470000140523],[-85.350390000198217,35.103490000063573],[-85.328339999591208,35.125220000302932],[-85.321000000149809,35.132470000090564],[-85.30653999972111,35.147180000356855],[-85.284499999575189,35.168909999696893],[-85.277149999672645,35.176160000383845],[-85.2619900002382,35.190180000306896],[-85.254290000383094,35.197069999680878],[-85.230499999575215,35.217039999696397],[-85.222219999952927,35.223350000202515],[-85.197139999910974,35.242039999646408],[-85.188749999712627,35.248239999576469],[-85.155749999562715,35.273590000378363],[-85.147699999755105,35.280129999799783],[-85.132289999583691,35.293910000346386],[-85.117139999711128,35.307930000269437],[-85.102210000091304,35.322180000007165],[-85.087049999757596,35.336199999930216],[-85.07165999960921,35.349979999577442],[-85.055569999555757,35.363069999780805],[-85.038999999850034,35.375680000331897],[-85.022220000352604,35.388069999730874],[-85.00541999993294,35.400460000029113],[-84.988629999974421,35.412839999866264],[-84.972069999830524,35.425450000417356],[-84.963910000346118,35.431880000162039],[-84.947459999878959,35.444609999951695],[-84.913989999638659,35.469489999763823],[-84.905589999878487,35.475689999693884],[-84.89719999968014,35.48188000006212],[-84.880520000297679,35.494380000037097],[-84.856140000160792,35.513770000285433],[-84.840520000197728,35.527320000118038],[-84.832700000204738,35.534099999815282],[-84.80926999981051,35.554419999783306],[-84.8012200000029,35.560969999665872],[-84.776599999590189,35.580119999638441],[-84.759579999817049,35.592280000122059],[-84.750950000242199,35.598239999776297],[-84.733570000055352,35.610030000284439],[-84.707329999579713,35.627560000194023],[-84.689830000154302,35.639229999664906],[-84.664059999769052,35.657229999664878],[-84.655550000332141,35.66329999989523],[-84.638760000373622,35.675690000193526],[-84.622200000229725,35.688299999845242],[-84.605869999900449,35.701149999772838],[-84.589309999756551,35.713769999885756],[-84.580919999558205,35.719960000253934],[-84.555489999563747,35.738299999745323],[-84.546859999988897,35.744260000298937],[-84.520739999651141,35.761899999885259],[-84.511989999938464,35.767740000300932],[-84.485750000362145,35.785259999749314],[-84.468490000313182,35.797179999957166],[-84.443069999880493,35.815520000347874],[-84.434679999682146,35.82170999981679],[-84.426389999598712,35.828020000322908],[-84.409949999592698,35.840750000112564],[-84.385220000402569,35.859790000408339],[-84.368440000005876,35.872170000245433],[-84.35140999977159,35.884329999829788],[-84.334149999722626,35.896239999576437],[-84.325390000448067,35.902079999992168],[-84.299160000433574,35.919609999901695],[-84.29040999982152,35.925450000317426],[-84.264170000245201,35.942969999765808],[-84.246669999920471,35.954649999697892],[-84.237929999769563,35.960490000113566],[-84.211690000193244,35.97802000002315],[-84.194200000329658,35.989699999955178],[-84.18546000017875,35.995540000370852],[-84.159210000141286,36.013070000280436],[-84.150469999990378,36.01890999979679],[-84.124219999952913,36.036430000144549],[-84.115470000240236,36.042269999660903],[-84.089229999764598,36.059790000008661],[-84.071750000362101,36.071480000401834],[-84.062999999750105,36.077319999918188],[-84.036519999897962,36.09459999999018],[-84.027540000370607,36.100209999691856],[-84.00037000017528,36.116800000319927],[-83.98192999966966,36.127549999632947],[-83.963289999833535,36.138059999569464],[-83.954070000030356,36.143440000355895],[-83.926670000020351,36.159789999808766],[-83.908710000066321,36.171010000111551],[-83.890979999926969,36.182460000228957],[-83.882230000214236,36.188290000183486],[-83.855989999738597,36.20582000009307],[-83.838499999875012,36.217500000025154],[-83.82101000001137,36.229179999957182],[-83.803279999872018,36.240630000074589],[-83.785319999917931,36.251850000377374],[-83.767119999688134,36.262830000404335],[-83.748700000104805,36.27357000015553],[-83.739360000163799,36.278829999904701],[-83.711619999763059,36.294839999866269],[-83.693420000432582,36.305819999893231],[-83.675459999579232,36.317029999734871],[-83.657499999625202,36.328250000037599],[-83.648520000097847,36.333850000177506],[-83.630449999567702,36.344950000342408],[-83.612009999961401,36.355699999655428],[-83.593120000287684,36.365979999777323],[-83.56443999970611,36.381049999558002],[-83.545070000380122,36.390870000050597],[-83.525479999901961,36.400439999806281],[-83.515810000031365,36.405349999602947],[-83.486769999935461,36.420070000330384],[-83.4769700003651,36.424859999989167],[-83.457500000024879,36.434560000343879],[-83.428700000204742,36.449509999986674],[-83.419130000449059,36.454530000359398],[-83.390899999934959,36.470070000230464],[-83.381809999831546,36.475559999794314],[-83.354750000212221,36.492260000099066],[-83.34576000022372,36.497869999800798],[-83.31883000030416,36.51469000024349],[-83.300639999636189,36.525670000270452],[-83.291310000156273,36.530930000019623],[-83.272419999583235,36.541210000141518],[-83.243730000339156,36.556279999922197],[-83.224369999675616,36.566100000414849],[-83.204780000096832,36.575679999732358],[-83.195099999765091,36.580579999967142],[-83.16605999966913,36.595299999795316],[-83.146459999629201,36.604880000012145],[-83.127110000326127,36.614690000043595],[-83.117429999994386,36.619599999840261],[-83.088149999622658,36.634089999853757],[-83.078479999752062,36.638990000088597],[-83.049430000094333,36.653709999916714],[-83.039629999624651,36.65849999957544],[-83.010479999852009,36.673100000164993],[-82.991120000087847,36.682919999758326],[-82.981330000079311,36.687710000316429],[-82.961850000177265,36.697400000209996],[-82.932819999643186,36.712120000038112],[-82.923020000072825,36.716909999696895],[-82.903549999732604,36.726610000051608],[-82.874500000074818,36.741329999879724],[-82.854900000034888,36.750910000096553],[-82.835560000293697,36.76072000012806],[-82.825870000400073,36.765620000362844],[-82.806290000383115,36.775210000141556],[-82.786450000067362,36.784550000082561],[-82.766509999636696,36.793780000346885],[-82.746100000014906,36.802539999621445],[-82.71473999995095,36.814920000357858],[-82.693969999915453,36.823340000141059],[-82.683480000001907,36.827429999894719],[-82.662600000289672,36.835719999978153],[-82.642200000229707,36.844480000152032],[-82.612340000090853,36.858379999937199],[-82.592510000236189,36.867730000339407],[-82.582820000342622,36.872629999674871],[-82.553789999808544,36.88735999996419],[-82.534189999768557,36.896929999719873],[-82.514850000027366,36.906750000212469],[-82.495479999802058,36.916560000243976],[-82.485689999793522,36.921349999902702],[-82.456529999559734,36.935949999592935],[-82.446850000127313,36.940860000288922],[-82.417339999940964,36.95511000002665],[-82.407429999794545,36.959790000008638],[-82.377459999978896,36.973569999655922],[-82.356700000404601,36.98197999987724],[-82.335710000116308,36.990149999822791],[-82.314949999642636,36.998569999605934],[-82.293949999792574,37.00675000001263],[-82.283569999555709,37.01095999990423],[-82.253140000110818,37.024270000360389],[-82.243229999964399,37.028939999881231],[-82.213489999963429,37.042959999804282],[-82.203809999631687,37.047869999600948],[-82.174770000435046,37.062590000328385],[-82.155170000395117,37.072169999645894],[-82.135820000192723,37.081979999677401],[-82.11646000042856,37.091789999708851],[-82.096629999674633,37.101140000111059],[-82.076810000281171,37.110480000052121],[-82.056749999712622,37.119590000178505],[-82.046370000375134,37.123800000070105],[-82.014999999850033,37.136179999907199],[-82.004610000051343,37.140389999798799],[-81.973240000425562,37.152769999635893],[-81.962860000188755,37.156980000426813],[-81.94246000012879,37.165739999701373],[-81.912609999551705,37.179640000385859],[-81.892779999697098,37.188989999888747],[-81.883100000264676,37.193890000123531],[-81.863739999601194,37.203700000155038],[-81.83423999987599,37.217960000353855],[-81.824329999729571,37.222629999874755],[-81.804370000175254,37.231860000139022],[-81.773589999878482,37.244830000204502],[-81.76309000040311,37.248919999958161],[-81.731840000015893,37.261419999933196],[-81.721339999641145,37.265509999686856],[-81.700470000390112,37.273799999770347],[-81.680059999869002,37.282559999944169],[-81.650210000191237,37.296459999729336],[-81.630380000336629,37.305810000131544],[-81.620700000004888,37.310710000366385],[-81.591670000370129,37.325439999756327],[-81.581749999762565,37.330110000176489],[-81.561930000369102,37.339450000117552],[-81.541980000376611,37.348680000381876],[-81.521580000316646,37.357439999656378],[-81.500699999705091,37.365740000201015],[-81.469439999756105,37.378240000175992],[-81.458940000280677,37.382329999929709],[-81.438059999669122,37.390620000013143],[-81.407630000224231,37.403940000031128],[-81.397720000077811,37.40860999955197],[-81.367739999801017,37.422399999660399],[-81.357829999654655,37.427070000080562],[-81.327859999839006,37.440849999727845],[-81.317470000040373,37.445059999619446],[-81.286109999976418,37.457440000355859],[-81.27572999973961,37.46165000024746],[-81.254850000027375,37.469949999892719],[-81.233979999876965,37.478239999976154],[-81.213570000255174,37.487000000150033],[-81.183719999678146,37.5008999999352],[-81.163889999823539,37.510250000337408],[-81.154210000391117,37.515149999672872],[-81.125179999856982,37.529870000400365],[-81.115260000148794,37.534550000382353],[-81.095439999856012,37.543890000323415],[-81.065459999579218,37.557669999970642],[-81.044700000004866,37.566089999753842],[-81.034210000091321,37.570180000406822],[-81.013339999940911,37.578469999590936],[-80.992449999767587,37.586770000135516],[-80.971590000078322,37.595060000219007],[-80.941150000172286,37.608380000236991],[-80.931229999564721,37.613049999757834],[-80.901259999749072,37.626830000304437],[-80.88144000035561,37.636179999807268],[-80.861370000225236,37.645289999933709],[-80.840609999751564,37.653700000155027],[-80.830119999838018,37.657789999908687],[-80.798859999888975,37.670300000344866],[-80.788360000413604,37.674390000098583],[-80.757110000026387,37.686879999612415],[-80.737050000357101,37.695989999738856],[-80.717219999603174,37.705340000141064],[-80.697400000209711,37.714680000082069],[-80.678040000445549,37.724490000113576],[-80.658679999782066,37.734309999706852],[-80.638849999927459,37.74366000010906],[-80.619029999634677,37.753000000050122],[-80.608989999788548,37.757550000332401],[-80.588589999728583,37.766320000068106],[-80.56771999957823,37.77461000015154],[-80.536470000090333,37.7871199996884],[-80.525969999715585,37.79121000034138],[-80.494720000227744,37.803699999855269],[-80.484689999943441,37.808259999699374],[-80.46473999995095,37.817489999963698],[-80.435010000411069,37.831500000324922],[-80.425319999618182,37.836410000121532],[-80.405970000315165,37.846220000153039],[-80.376689999943437,37.860710000166534],[-80.357330000179275,37.870520000197985],[-80.337979999976938,37.880339999791317],[-80.328060000268692,37.88501000021148],[-80.298320000267665,37.899019999673385],[-80.278259999699117,37.908140000260971],[-80.267880000361629,37.912350000152514],[-80.236509999836528,37.92472000042784],[-80.215750000262176,37.933140000210983],[-80.205249999887485,37.9372299999647],[-80.184390000198221,37.94552999960996],[-80.163970000115285,37.954280000221956],[-80.134120000437576,37.968189999568949],[-80.114289999683649,37.977530000409331],[-80.104610000251228,37.982440000205997],[-80.075579999717093,37.997160000034114],[-80.055979999677163,38.006740000250943],[-80.046309999806567,38.011639999586464],[-80.017269999710606,38.0263600003139],[-79.99766999967062,38.03593999963141],[-79.987990000238199,38.040850000327396],[-79.968629999574716,38.050660000358903],[-79.939129999849513,38.0649199996584],[-79.919299999994905,38.074259999599462],[-79.909269999710602,38.078820000342887],[-79.878479999852004,38.091790000408366],[-79.857500000024856,38.099969999915686],[-79.836729999989416,38.108380000137061],[-79.826349999752551,38.112579999567458],[-79.805819999992877,38.121219999603454],[-79.785999999700095,38.130570000005662],[-79.766989999888494,38.140729999989674],[-79.739469999740606,38.156969999765806],[-79.721739999601198,38.168419999883213],[-79.704249999737613,38.180099999815297],[-79.686750000312145,38.191779999747325],[-79.66926000044856,38.20345999967941],[-79.660509999836506,38.209300000095084],[-79.634279999822013,38.226830000004668],[-79.616789999958428,38.238509999936696],[-79.608149999922432,38.244469999590933],[-79.591010000011408,38.256500000374842],[-79.574220000052833,38.268880000211993],[-79.54214000006084,38.2951700002954],[-79.53444999976756,38.302070000130527],[-79.519290000333115,38.316079999592432],[-79.504600000089852,38.330569999605927],[-79.489900000284706,38.345050000057597],[-79.468089999953406,38.367019999673403],[-79.460749999612688,38.374259999899209],[-79.446279999622163,38.388979999727326],[-79.431590000278163,38.403469999740821],[-79.417120000287696,38.418189999568995],[-79.402659999858997,38.432910000296431],[-79.381789999708587,38.455800000070099],[-79.368380000036893,38.471569999755843],[-79.361850000177242,38.479630000024656],[-79.343190000318145,38.504750000112551],[-79.331179999557207,38.521919999608428],[-79.325230000364115,38.53057000010557],[-79.307850000177268,38.556969999865771],[-79.296540000220716,38.574840000166034],[-79.290940000080809,38.583839999716361],[-79.274729999889473,38.611399999910191],[-79.264589999928432,38.630449999767848],[-79.259689999693649,38.640139999661415],[-79.245569999655629,38.669819999593471],[-79.236830000404098,38.690259999699379],[-79.228670000020372,38.711290000033614],[-79.220850000027383,38.732670000320411],[-79.213620000262722,38.754630000374391],[-79.210239999975897,38.765849999777799],[-79.20137000012528,38.800770000335376],[-79.196010000261197,38.824600000289934],[-79.191110000026356,38.848900000334879],[-79.186329999929455,38.873319999618445],[-79.181429999694615,38.897619999663391],[-79.176649999597714,38.922039999846277],[-79.174429999744575,38.934180000306924],[-79.168949999742608,38.971569999655912],[-79.16789999988498,38.983719999678385],[-79.167079999842031,39.022270000360379],[-79.168140000160747,39.034420000382852],[-79.172330000029376,39.072379999937198],[-79.176649999597714,39.097029999934705],[-79.181429999694615,39.121450000117534],[-79.186329999929455,39.145739999701391],[-79.188660000358595,39.158009999861747],[-79.196010000261197,39.194459999929222],[-79.198809999881462,39.206259999999133],[-79.204410000021369,39.22986000013907],[-79.213620000262722,39.264429999844765],[-79.220850000027383,39.28640000035989],[-79.228670000020372,39.307779999747311],[-79.236830000404098,39.328810000081603],[-79.245569999655629,39.34925000018751],[-79.254909999596691,39.369109999626914],[-79.264589999928432,39.388620000013134],[-79.274729999889473,39.407660000308908],[-79.285460000078842,39.42611999993818],[-79.296540000220716,39.444229999614947],[-79.307850000177268,39.46209999991521],[-79.319400000409587,39.479740000400852],[-79.331179999557207,39.497150000172496],[-79.343190000318145,39.514319999668373],[-79.355550000132268,39.531140000111066],[-79.368380000036893,39.547500000025138],[-79.381789999708587,39.563269999710883],[-79.402659999858997,39.586169999945696],[-79.417120000287696,39.600880000211987],[-79.431590000278163,39.615600000040104],[-79.446279999622163,39.630090000053599],[-79.446169999945425,39.630210000191482],[-79.468089999953406,39.652050000107579],[-79.482789999758552,39.666540000121074],[-79.505290000433092,39.687800000269931],[-79.520690000143304,39.701579999917215],[-79.536769999735611,39.714670000120577],[-79.553340000340654,39.727279999772293],[-79.56186000023871,39.73335999956447],[-79.587620000162758,39.751350000002617],[-79.605119999588226,39.763029999934702],[-79.622610000351131,39.77470999986673],[-79.640109999776541,39.786389999798814],[-79.657590000078358,39.798080000191987],[-79.675090000403088,39.809760000124072],[-79.692580000266673,39.8214400000561],[-79.710310000406082,39.832890000173506],[-79.728509999736616,39.843870000200468],[-79.747160000033887,39.854389999698867],[-79.766530000259195,39.864199999730374],[-79.786819999743102,39.873080000042137],[-79.807580000216717,39.881490000263454],[-79.828339999791069,39.889899999585452],[-79.849330000079306,39.898079999992149],[-79.870329999929425,39.906260000398845],[-79.890839999666127,39.914900000434841],[-79.911370000325121,39.923550000032606],[-79.932359999714095,39.931719999978156],[-79.953579999817009,39.939669999670912],[-79.964319999568204,39.943520000048125],[-80.008510000436047,39.957660000109058],[-80.019829999954425,39.960929999819768],[-80.054229999914469,39.970269999760831],[-80.077440000055844,39.976230000314388],[-80.089099999964901,39.979150000072593],[-80.124560000243719,39.987440000156028],[-80.136449999967397,39.990130000099555],[-80.160480000151779,39.995269999710843],[-80.196979999827022,40.002509999936706],[-80.221339999940938,40.007299999595432],[-80.245610000401086,40.012210000291418],[-80.269969999615682,40.016999999950201],[-80.282219999753067,40.019339999941167],[-80.307179999657137,40.023540000270941],[-80.346250000037344,40.028209999791784],[-80.359659999709095,40.029379999787295],[-80.416110000276205,40.031249999687873],[-80.430339999990906,40.031599999640434],[-80.459369999625665,40.031719999778318],[-80.488529999859509,40.031719999778318],[-80.517679999632151,40.031719999778318],[-80.532149999622675,40.031599999640434],[-80.589639999586211,40.030779999597428],[-80.603520000247727,40.030079999692362],[-80.630809999681617,40.028209999791784],[-80.669880000061823,40.023540000270941],[-80.682360000013887,40.021439999656423],[-80.707199999780073,40.017120000088084],[-80.731920000307639,40.012680000381863],[-80.769240000025889,40.006249999737861],[-80.781949999792573,40.004390000298429],[-80.807379999787031,40.000649999597954],[-80.832570000405099,39.996670000420352],[-80.85729999959517,39.992229999814811],[-80.881550000032348,39.98732999957997],[-80.905339999940963,39.981949999692858],[-80.940439999806017,39.973309999656919],[-80.951999999600218,39.970269999760831],[-80.974959999903945,39.964080000291915],[-80.997710000416077,39.957649999647913],[-81.031179999757057,39.947370000425337],[-81.052640000135796,39.939660000109086],[-81.063250000187224,39.935689999593933],[-81.084239999576198,39.927519999648439],[-81.104639999636163,39.918749999912734],[-81.124589999628654,39.90951999964841],[-81.144409999921436,39.900179999707348],[-81.173679999832018,39.885689999693852],[-81.183360000163759,39.880779999897243],[-81.202840000065862,39.871090000003619],[-81.222319999967908,39.861389999648907],[-81.251349999602667,39.84666999982079],[-81.270949999642653,39.837089999603961],[-81.280620000412569,39.83219000026844],[-81.299869999600674,39.82226000009905],[-81.328559999744073,39.807190000318428],[-81.347210000041343,39.796680000381855],[-81.365410000271197,39.785700000354893],[-81.374389999798552,39.780089999753841],[-81.401339999741083,39.763270000210468],[-81.419299999695113,39.75204999990774],[-81.428389999798526,39.746560000343891],[-81.455900000384588,39.730319999668382],[-81.474580000266712,39.719809999731865],[-81.492999999849985,39.709060000418845],[-81.511200000079839,39.698080000391826],[-81.520170000045368,39.692469999790831],[-81.538129999999398,39.681259999949191],[-81.565070000380103,39.664440000405818],[-81.574170000045342,39.658940000380881],[-81.592479999951934,39.648079999592426],[-81.620350000052326,39.632189999768798],[-81.638769999635656,39.621439999556458],[-81.647870000200271,39.615959999554491],[-81.67492999981954,39.599249999687856],[-81.683899999785069,39.593639999986181],[-81.701859999739099,39.582430000144541],[-81.719939999831013,39.571329999979639],[-81.738369999875488,39.560579999767299],[-81.757260000448582,39.550299999645404],[-81.785949999692605,39.535229999864725],[-81.805079999642146,39.525179999557508],[-81.814639999836004,39.520160000084104],[-81.842859999888958,39.504620000212981],[-81.851959999554253,39.499129999749812],[-81.870039999646167,39.488040000046112],[-81.887999999600197,39.476819999743327],[-81.914939999980902,39.460000000200012],[-81.924039999646141,39.454509999736842],[-81.951789999608707,39.438499999775331],[-81.961349999802565,39.433480000301927],[-81.990039999945907,39.418409999621929],[-82.009169999895448,39.408360000213975],[-82.028290000283164,39.398309999906701],[-82.04695000014226,39.387799999970184],[-82.06515999993394,39.376819999943166],[-82.083099999864999,39.365599999640438],[-82.092089999853499,39.36000000039985],[-82.110049999807529,39.348789999658891],[-82.137220000002912,39.332199999930197],[-82.146550000382092,39.32692999971988],[-82.165440000055867,39.31666000005913],[-82.184560000443582,39.306609999751856],[-82.203690000393124,39.296560000343902],[-82.232379999637146,39.281489999663904],[-82.251040000395619,39.270979999727331],[-82.269230000164271,39.259999999700369],[-82.287190000118301,39.248780000296904],[-82.296169999645656,39.243180000157054],[-82.323110000026361,39.226359999714361],[-82.332209999691599,39.220859999689367],[-82.359970000115311,39.204860000189001],[-82.379089999603707,39.194809999881727],[-82.398219999553248,39.184759999574453],[-82.417339999940964,39.174719999728325],[-82.426900000134765,39.169689999793775],[-82.455120000187776,39.154160000383854],[-82.46423000031416,39.148669999920685],[-82.491280000371603,39.131960000054107],[-82.500259999898958,39.1263599999142],[-82.527200000279663,39.109540000370885],[-82.536290000383133,39.10404000034589],[-82.564060000368613,39.088039999946204],[-82.573610000101326,39.08301999957348],[-82.602300000244725,39.067940000230976],[-82.611860000438583,39.062919999858252],[-82.63099999994995,39.052869999550978],[-82.649889999623667,39.042590000328403],[-82.677409999771555,39.026360000114039],[-82.695369999725585,39.015139999811311],[-82.713329999679615,39.003929999969671],[-82.731289999633645,38.992709999666886],[-82.740390000198261,38.987220000103093],[-82.76814000016077,38.971210000141525],[-82.787259999649166,38.961170000295397],[-82.806400000059853,38.95111999998818],[-82.825520000447568,38.941069999680906],[-82.84465000039711,38.931029999834777],[-82.863310000256206,38.920519999898204],[-82.872409999921445,38.915030000334411],[-82.899459999978887,38.898319999568457],[-82.917419999932918,38.887109999726874],[-82.926389999898447,38.881500000025142],[-82.953580000116801,38.864910000296447],[-82.972230000414072,38.854389999898729],[-82.991360000363613,38.8443500000526],[-83.000919999658151,38.83932000011805],[-83.029609999801551,38.824250000337372],[-83.048739999751092,38.814209999591981],[-83.067379999587217,38.803699999655407],[-83.08559000027816,38.792719999628446],[-83.103550000232246,38.78150000022498],[-83.121510000186277,38.770290000383341],[-83.139470000140307,38.759070000080612],[-83.148569999805545,38.753579999617443],[-83.176319999768054,38.737569999655932],[-83.19544000015577,38.727529999809803],[-83.205000000349628,38.722499999875254],[-83.233700000054853,38.707430000094575],[-83.252820000442568,38.697379999787302],[-83.271480000301665,38.686869999850785],[-83.280579999966903,38.681389999848761],[-83.307630000024403,38.664679999982184],[-83.325589999978433,38.653470000140544],[-83.343549999932463,38.642249999837759],[-83.361759999724086,38.631269999810797],[-83.371079999642177,38.626010000061626],[-83.399539999970898,38.61070999956695],[-83.418660000358614,38.600660000159053],[-83.428219999653152,38.595630000224503],[-83.456909999796551,38.580560000443825],[-83.466249999737613,38.575310000256479],[-83.493769999885501,38.55906999958097],[-83.511729999839531,38.54785999973933],[-83.520710000266206,38.542250000037598],[-83.547640000185766,38.525429999594962],[-83.565829999954417,38.514449999567944],[-83.584259999998892,38.50370000025498],[-83.593590000378128,38.498439999606433],[-83.621340000340638,38.482440000106067],[-83.639539999671115,38.471460000079105],[-83.657499999625202,38.46023999977632],[-83.666469999590731,38.454639999636413],[-83.693429999994407,38.437809999631952],[-83.70252000009782,38.432320000068103],[-83.730040000245708,38.416080000291913],[-83.748700000104805,38.405570000355397],[-83.76713000014928,38.394820000143056],[-83.785319999917931,38.383840000116038],[-83.794300000344663,38.378230000414362],[-83.821239999826048,38.36140999997167],[-83.839199999780078,38.35020000013003],[-83.857390000448049,38.339209999641923],[-83.866610000251228,38.333840000215957],[-83.885149999972441,38.323210000141557],[-83.91289999993495,38.307209999741815],[-83.921999999600189,38.301720000178022],[-83.940079999692102,38.290620000013121],[-83.957920000407569,38.279290000033598],[-83.984280000121828,38.261880000261954],[-84.001769999985413,38.250200000329926],[-84.019259999848998,38.238509999936696],[-84.036749999712583,38.226830000004668],[-84.054479999851992,38.215390000348407],[-84.072439999806022,38.204170000045622],[-84.090640000035876,38.19319000001866],[-84.109070000080351,38.18243999980632],[-84.127720000377622,38.171920000307921],[-84.136929999719598,38.166549999982635],[-84.164340000190748,38.150199999630445],[-84.182300000144778,38.138980000226979],[-84.19116000043357,38.133259999949189],[-84.217509999686627,38.115850000177488],[-84.22626000029868,38.110009999761814],[-84.252510000336144,38.092490000313433],[-84.261249999587733,38.086649999897702],[-84.287490000063372,38.069119999988175],[-84.296239999776049,38.063279999572444],[-84.322480000251687,38.045749999662917],[-84.331220000402595,38.039919999708388],[-84.35747000044006,38.022389999798804],[-84.374949999842499,38.010709999866719],[-84.392459999729112,37.999029999934692],[-84.401199999879964,37.993190000418338],[-84.427440000355602,37.975670000070579],[-84.436190000068336,37.969829999654905],[-84.462429999644655,37.952299999745321],[-84.47992000040756,37.940619999813293],[-84.488659999659149,37.934780000296939],[-84.514909999696613,37.917259999949181],[-84.532389999998372,37.905569999556008],[-84.549899999884985,37.893889999623923],[-84.567380000186745,37.882209999691895],[-84.58487000005033,37.870520000197985],[-84.602370000375117,37.858840000265957],[-84.611109999626649,37.852999999850283],[-84.63735999966417,37.835480000401844],[-84.654850000427075,37.823799999570497],[-84.672120000037864,37.811880000261965],[-84.689139999811061,37.799730000239492],[-84.70592999976958,37.787350000402341],[-84.722500000374623,37.774730000289424],[-84.738820000242697,37.761880000361884],[-84.755380000386594,37.749260000248967],[-84.772170000345113,37.736880000411816],[-84.780690000243226,37.730799999720375],[-84.797839999716132,37.718769999835786],[-84.815210000341153,37.706980000226963],[-84.841449999917472,37.689450000317379],[-84.858939999781057,37.677770000385351],[-84.876210000291167,37.665859999739325],[-84.893230000064364,37.653709999716853],[-84.910029999584708,37.641320000317933],[-84.92658000016678,37.628700000205015],[-84.951190000118288,37.6095399997713],[-84.959469999740577,37.603230000164501],[-84.967859999938923,37.597050000257468],[-85.001450000317163,37.572280000122078],[-85.034930000119289,37.547400000309892],[-85.043209999741578,37.541089999803773],[-85.051370000125303,37.534660000059091],[-85.076080000191723,37.515619999763317],[-85.09289000017327,37.503239999926222],[-85.109680000131789,37.490849999627926],[-85.126479999652133,37.478469999790832],[-85.143039999796031,37.46586000013906],[-85.159129999849483,37.452769999935697],[-85.174760000273693,37.439220000103091],[-85.182569999805537,37.432440000405848],[-85.214059999569201,37.405569999655881],[-85.222110000276189,37.399030000234461],[-85.230380000336652,37.392719999728342],[-85.263849999677632,37.367839999916214],[-85.288809999581702,37.349039999896206],[-85.304899999635154,37.3359499996929],[-85.320530000059364,37.322399999860238],[-85.336159999584197,37.308850000027633],[-85.351780000446581,37.295300000195027],[-85.367869999600714,37.282209999991665],[-85.384429999744611,37.269600000339892],[-85.401230000164276,37.257210000041596],[-85.418020000122794,37.244830000204502],[-85.426299999745083,37.238530000159528],[-85.45067999988197,37.219130000349367],[-85.466070000030356,37.20534999980282],[-85.481230000364121,37.191320000317887],[-85.496159999983888,37.177069999680896],[-85.519020000172759,37.156160000383863],[-85.526720000027865,37.149270000110562],[-85.551089999703606,37.129879999862226],[-85.559370000225215,37.123570000255427],[-85.576160000183734,37.111179999957187],[-85.592959999704135,37.098800000120036],[-85.617569999655643,37.079639999686378],[-85.625609999901485,37.073100000264958],[-85.633300000194765,37.066209999991656],[-85.656160000383579,37.045299999795304],[-85.678210000091326,37.023569999556003],[-85.685559999993927,37.016319999768314],[-85.70025000023719,37.001840000215964],[-85.715420000132781,36.987820000292913],[-85.730799999820022,36.97403999974631],[-85.755179999956908,36.954639999936205],[-85.771860000238689,36.942150000422316],[-85.780250000437093,36.935949999592935],[-85.788650000197265,36.929760000124077],[-85.813610000101335,36.910960000104069],[-85.821659999908945,36.904410000221503],[-85.845090000303173,36.88409000025348],[-85.867599999640163,36.86281999964342],[-85.874950000442084,36.855580000316934],[-85.889639999786084,36.841090000303439],[-85.904109999776551,36.826369999575945],[-85.926029999784532,36.804529999659906],[-85.93326000044857,36.797170000195479],[-85.94794999979257,36.782680000181983],[-85.962649999597716,36.768199999730371],[-85.977809999931424,36.754170000245438],[-85.993209999641692,36.740389999698891],[-86.009299999695145,36.727309999956674],[-86.017580000216753,36.721000000349875],[-86.042649999797561,36.702310000006662],[-86.059450000217225,36.689930000169511],[-86.08406000016879,36.670769999735853],[-86.092100000414575,36.664230000314433],[-86.107500000124787,36.650440000206004],[-86.122649999997407,36.636420000282953],[-86.137349999802552,36.621939999831284],[-86.152040000045872,36.607449999817788],[-86.166499999575194,36.592729999989672],[-86.181200000279659,36.578239999976176],[-86.195659999809038,36.563529999709885],[-86.210359999614184,36.54903999969639],[-86.224820000042882,36.534319999868217],[-86.239519999848028,36.519829999854778],[-86.253969999815524,36.50511999958843],[-86.26866999962067,36.490629999574992],[-86.290479999951913,36.468670000420332],[-86.297820000292688,36.461419999733323],[-86.312290000283156,36.446699999905206],[-86.326979999627156,36.432220000352856],[-86.34144999961768,36.41749999962542],[-86.356130000299174,36.403009999611925],[-86.370600000289699,36.388289999783808],[-86.385280000071816,36.373810000231458],[-86.39975000006234,36.359090000403341],[-86.421679999632147,36.3372400000261],[-86.428910000296185,36.32987999966241],[-86.443599999640185,36.31540000011006],[-86.458060000068826,36.300680000281943],[-86.472750000312146,36.286190000268448],[-86.487209999841525,36.271470000440331],[-86.509140000310651,36.249629999624915],[-86.516370000075312,36.242270000160545],[-86.530829999604691,36.227550000332371],[-86.54483000040409,36.21236000041381],[-86.565119999887997,36.188880000411814],[-86.571660000208738,36.180820000143058],[-86.584249999837539,36.164230000414307],[-86.602800000019897,36.138999999750354],[-86.60897999992693,36.130590000428299],[-86.621569999555732,36.113999999800285],[-86.634630000174241,36.097880000162036],[-86.648389999798553,36.08244999996765],[-86.662380000136807,36.067269999610915],[-86.676850000127274,36.052549999782798],[-86.698649999997372,36.030589999728875],[-86.705990000338147,36.023339999941186],[-86.720460000328671,36.008629999674895],[-86.734919999857993,35.993900000284953],[-86.755799999570229,35.971009999611965],[-86.762669999820503,35.963289999733831],[-86.775740000000894,35.947179999657408],[-86.788349999652667,35.930580000366888],[-86.806870000250228,35.905360000164023],[-86.813050000157261,35.896949999942706],[-86.825650000247208,35.880360000214012],[-86.838709999966397,35.86423000011456],[-86.852239999776089,35.848579999667379],[-86.865769999585723,35.832919999658429],[-86.885830000154272,35.809209999841755],[-86.892360000013866,35.801149999572942],[-86.904949999642668,35.784559999844248],[-86.91731000035611,35.767740000300932],[-86.929690000193261,35.75091999985824],[-86.942050000007384,35.734100000314925],[-86.954639999636186,35.717509999686854],[-86.967470000440073,35.701149999772838],[-86.980060000068818,35.684560000044087],[-86.998599999790031,35.659319999818308],[-87.004779999697121,35.650920000058079],[-87.017149999972389,35.634099999615444],[-87.029509999786569,35.617280000072071],[-87.042100000314633,35.600690000343377],[-87.054930000219258,35.584330000429304],[-87.067530000309148,35.56773999980129],[-87.079890000123328,35.550909999796772],[-87.092009999661627,35.533870000000661],[-87.103909999846508,35.516569999905698],[-87.115569999755564,35.499049999557997],[-87.127240000125823,35.481530000109558],[-87.144729999989408,35.455240000026151],[-87.150570000405082,35.446479999852272],[-87.162230000314139,35.428960000403833],[-87.173890000223253,35.41142999959493],[-87.185550000132309,35.393910000146548],[-87.197219999603192,35.376380000236963],[-87.208880000411568,35.358859999889205],[-87.220540000320682,35.341340000440823],[-87.232209999791564,35.323820000093065],[-87.249220000002879,35.297070000380359],[-87.260300000144809,35.278959999804272],[-87.271030000334122,35.260500000175],[-87.276279999622204,35.251160000233995],[-87.286320000367596,35.23199999980028],[-87.296340000190753,35.212840000265942],[-87.306139999761058,35.193450000017606],[-87.315699999954916,35.173820000392823],[-87.330399999760061,35.144729999789831],[-87.335299999994902,35.135039999896208],[-87.34486000018876,35.115410000271424],[-87.354639999736094,35.096020000023145],[-87.369229999864501,35.066810000181533],[-87.374009999961402,35.057000000150026],[-87.388700000204722,35.027910000446298],[-87.393600000439562,35.018219999653411],[-87.403170000195246,34.998590000028628],[-87.412960000203725,34.979190000218466],[-87.427430000194249,34.949869999800796],[-87.432090000153266,34.939950000092551],[-87.441419999633183,34.920080000192002],[-87.450520000197741,34.899990000038599],[-87.466840000065872,34.857939999831274],[-87.470809999681649,34.847309999756817],[-87.474780000196745,34.83667999968236],[-87.485860000338619,34.803959999854271],[-87.493079999642191,34.781999999800291],[-87.500310000306172,34.760039999746311],[-87.507319999818037,34.73784999987771],[-87.513960000253689,34.715299999595459],[-87.5172299999644,34.70396000005411],[-87.523520000447547,34.681059999819297],[-87.52958999977858,34.657940000230951],[-87.535419999733108,34.634569999905693],[-87.543569999655631,34.59895000034237],[-87.548360000213734,34.574530000159541],[-87.552440000405568,34.549410000071589],[-87.555819999793073,34.52359000007857],[-87.558750000012367,34.49730999955699],[-87.561649999747601,34.471020000372846],[-87.565039999596195,34.44520999994171],[-87.568999999650146,34.41998000017702],[-87.571100000264721,34.40746999974084],[-87.577639999686141,34.370210000091561],[-87.581479999602209,34.344860000188987],[-87.584400000259677,34.318570000105581],[-87.586259999699109,34.291239999726372],[-87.587309999556737,34.263079999742331],[-87.587660000408562,34.234460000129047],[-87.587320000017883,34.205830000054618],[-87.586270000160255,34.177679999632403],[-87.584400000259677,34.150339999691369],[-87.581479999602209,34.124060000069107],[-87.577639999686141,34.09871999972836],[-87.573320000117803,34.073830000354405],[-87.568999999650146,34.0489499996429],[-87.565159999734078,34.023599999740327],[-87.562119999838046,33.997429999794804],[-87.559779999847024,33.970559999944214],[-87.55768999969365,33.943460000278947],[-87.555360000163773,33.9165900004283],[-87.552320000267684,33.890419999583457],[-87.548480000351617,33.865069999680884],[-87.544039999746076,33.840310000006639],[-87.539259999649175,33.815889999823753],[-87.53436999987548,33.791589999778807],[-87.52958999977858,33.767169999595922],[-87.524800000119797,33.742759999874238],[-87.519790000208218,33.718579999967176],[-87.514540000020872,33.694629999874735],[-87.509060000018906,33.670909999596972],[-87.503350000202261,33.647429999594976],[-87.497409999671618,33.624180000306922],[-87.491229999764585,33.601170000395371],[-87.484800000019902,33.578390000298441],[-87.478150000022367,33.555849999577958],[-87.471150000072328,33.533650000147532],[-87.463929999869492,33.511690000093552],[-87.460310000206221,33.50071000006659],[-87.449470000340114,33.467760000423823],[-87.442120000437569,33.445919999608464],[-87.434769999635648,33.424070000130541],[-87.427539999870987,33.402110000076561],[-87.420310000106326,33.380150000022638],[-87.412960000203725,33.358299999645396],[-87.405610000301181,33.336459999729357],[-87.398390000098345,33.314490000113551],[-87.394779999996899,33.30351000008659],[-87.383799999969938,33.270679999682386],[-87.376450000067337,33.248839999766346],[-87.369229999864501,33.226879999712366],[-87.362009999661666,33.204910000096561],[-87.354659999759065,33.183070000180521],[-87.34730999985652,33.161219999803279],[-87.340069999630657,33.139259999749356],[-87.332850000327142,33.117299999695376],[-87.325500000424597,33.095450000217454],[-87.318149999622676,33.073610000301414],[-87.31091000029619,33.051639999786289],[-87.303679999632152,33.029679999732366],[-87.296340000190753,33.007839999816269],[-87.288990000288152,32.985990000338404],[-87.281770000085316,32.964030000284424],[-87.274540000320656,32.942070000230444],[-87.267179999956909,32.920219999853259],[-87.25983999961619,32.89837999993722],[-87.252609999851529,32.876410000321414],[-87.245380000086811,32.854450000267434],[-87.23815000032215,32.832490000213511],[-87.231150000372111,32.81030000034491],[-87.224500000374633,32.787750000062601],[-87.218089999753602,32.764960000403846],[-87.215060000318658,32.753399999710382],[-87.2059599997541,32.718700000304921],[-87.200240000375629,32.695220000302925],[-87.194890000073315,32.671390000348367],[-87.189989999838531,32.647090000303422],[-87.185550000132309,32.622329999729857],[-87.181579999617156,32.597090000403341],[-87.179720000177781,32.584359999714366],[-87.173890000223253,32.546389999698874],[-87.169569999755595,32.521509999886746],[-87.165150000072344,32.496739999751355],[-87.160719999927949,32.47198000007711],[-87.156400000359611,32.447100000264925],[-87.152429999844514,32.421860000039089],[-87.148699999605185,32.396389999998632],[-87.144729999989408,32.371160000233942],[-87.14041000042107,32.346280000421814],[-87.135860000138791,32.321630000424307],[-87.131089999603716,32.297210000241478],[-87.126190000268195,32.272910000196475],[-87.121399999710093,32.248499999575472],[-87.116619999613192,32.224080000291906],[-87.111720000277671,32.19978000024696],[-87.106829999604713,32.175480000202015],[-87.101930000269192,32.151180000157012],[-87.097030000034351,32.126880000112067],[-87.092249999937451,32.102470000390326],[-87.087460000278668,32.078059999769323],[-87.08256999960571,32.053759999724377],[-87.077670000270189,32.029459999679375],[-87.072779999597174,32.005159999634429],[-87.067889999823535,31.980859999589427],[-87.063100000164752,31.956440000305918],[-87.058309999606706,31.932029999684858],[-87.053419999833011,31.907729999639912],[-87.04851999959817,31.883429999594966],[-87.043620000262706,31.859130000449284],[-87.038729999589691,31.834830000404338],[-87.033939999930965,31.810419999783335],[-87.029159999834008,31.785999999600449],[-87.024140000360603,31.761819999693387],[-87.018890000173258,31.737869999600946],[-87.013410000171291,31.714150000222503],[-87.007700000354646,31.69067000022045],[-87.001870000400118,31.667310000356395],[-86.996150000122327,31.643830000354399],[-86.990679999682129,31.620110000076579],[-86.985430000394103,31.596159999984138],[-86.980419999583205,31.571980000077076],[-86.975629999924479,31.547570000355392],[-86.970840000265696,31.523150000172507],[-86.965839999915943,31.498970000265444],[-86.960589999728597,31.475020000173004],[-86.955109999726574,31.451310000356386],[-86.94939000034816,31.427819999893245],[-86.943569999955457,31.404460000029133],[-86.937849999677667,31.380980000027137],[-86.932369999675643,31.357259999749317],[-86.927120000387617,31.333309999656876],[-86.922100000014893,31.309129999749814],[-86.91731000035611,31.28472000002813],[-86.912539999821036,31.260299999845245],[-86.907520000347631,31.236119999938182],[-86.902279999722111,31.212169999845742],[-86.896790000158262,31.188460000029124],[-86.891080000341617,31.164969999565983],[-86.885239999925943,31.14160999970187],[-86.879530000109298,31.118129999699875],[-86.874050000107331,31.094410000321375],[-86.868799999919929,31.070469999790816],[-86.863780000446582,31.046280000321929],[-86.85900999991145,31.021869999700868],[-86.854220000252724,30.997450000417302],[-86.849320000017883,30.973159999934182],[-86.844430000244188,30.948859999889237],[-86.839530000009404,30.924559999844234],[-86.834640000235709,30.900259999799289],[-86.829849999677663,30.87583999961646],[-86.825069999580705,30.851429999894719],[-86.820050000107301,30.827249999987657],[-86.814819999942927,30.803299999895216],[-86.80921999980302,30.779699999755337],[-86.803019999873015,30.756680000281904],[-86.796039999945947,30.734490000413359],[-86.791720000377609,30.724210000291407],[-86.778539999621159,30.693599999740343],[-86.767579999617169,30.675380000386838],[-86.748689999943451,30.650490000113564],[-86.734690000043372,30.635309999756828],[-86.719760000423548,30.621049999557954],[-86.704479999951957,30.607269999910727],[-86.688630000174271,30.594419999983131],[-86.680699999605167,30.588460000328894],[-86.655850000277212,30.571760000024142],[-86.638949999742579,30.562409999621934],[-86.621109999926432,30.55493999958145],[-86.591829999554705,30.546989999888751]]]},"properties":{"objectid":665,"stormname":"Isaias","stormtype":"HU","basin":"AL","advdate":"1000 PM CDT Fri Oct 09 2026","advisnum":"14","fcstprd":120,"stormnum":9,"idp_source":"al092026-014_5day_pgn","idp_filedate":1791602904000,"idp_ingestdate":1791602977000,"st_area(shape)":20.489529053917643,"st_perimeter(shape)":27.907037969480314,"binnumber":"AT4"}}]}