{"type":"FeatureCollection","features":[{"type":"Feature","id":573,"geometry":{"type":"Polygon","coordinates":[[[-90.665119999788033,23.444820000342872],[-90.641389999948444,23.441199999780281],[-90.615719999678163,23.439519999648383],[-90.588379999737072,23.439519999648383],[-90.560390000398115,23.441199999780281],[-90.532790000158286,23.444820000342872],[-90.506230000214259,23.450240000275926],[-90.480949999942425,23.457220000202994],[-90.457220000102836,23.465749999662876],[-90.44613000039908,23.470790000058571],[-90.412479999951927,23.485509999886744],[-90.390299999645151,23.495589999778815],[-90.367859999938958,23.505410000271411],[-90.3446400002357,23.514449999867736],[-90.320529999959433,23.52259000022849],[-90.295899999984897,23.530209999991655],[-90.271129999849506,23.537700000055111],[-90.246510000336116,23.545319999818275],[-90.222380000036878,23.55346000017903],[-90.199169999895503,23.562499999775298],[-90.176730000189252,23.57232000026795],[-90.154679999582186,23.58252999985973],[-90.133010000311174,23.593119999888245],[-90.11160000043958,23.603970000215497],[-90.090070000430046,23.614689999943664],[-90.068540000420569,23.625420000133033],[-90.047260000248684,23.636400000159995],[-90.026109999776565,23.647500000324897],[-90.005219999603185,23.658870000350362],[-89.984839999566248,23.670760000074097],[-89.964859999988903,23.683030000234453],[-89.945110000226236,23.695559999794284],[-89.925639999885959,23.70834999965291],[-89.906429999844534,23.721399999810274],[-89.887480000101846,23.734699999805287],[-89.868900000334634,23.748400000259949],[-89.841950000392103,23.769839999716339],[-89.816019999823027,23.792320000367852],[-89.807390000248233,23.799810000431307],[-89.798750000212237,23.807299999595443],[-89.781209999841508,23.822029999884705],[-89.763149999772565,23.836239999576435],[-89.735430000294173,23.85691000039634],[-89.726150000422081,23.863759999724323],[-89.707700000354635,23.877580000316925],[-89.672110000376108,23.906520000297917],[-89.646190000268177,23.928989999588964],[-89.637550000232238,23.936490000113565],[-89.611110000426095,23.958450000167488],[-89.601960000253712,23.965419999633411],[-89.583510000186266,23.979240000225957],[-89.564939999980936,23.992939999781299],[-89.54648999991349,24.006760000373845],[-89.519550000432048,24.028210000291438],[-89.502270000360113,24.043190000418349],[-89.484990000288178,24.058169999645884],[-89.467699999755098,24.073160000233941],[-89.449910000446039,24.087630000224465],[-89.431590000078359,24.101579999617456],[-89.413030000334118,24.115269999610916],[-89.394449999667643,24.128970000065578],[-89.376139999761051,24.14292000035789],[-89.358349999552729,24.157390000348357],[-89.341320000217706,24.172629999874744],[-89.324550000282159,24.188129999699868],[-89.308050000207231,24.203889999823787],[-89.291280000271684,24.219389999648911],[-89.274259999599224,24.23463000007456],[-89.256470000290165,24.24910999962691],[-89.23816000038363,24.263059999919221],[-89.228870000050335,24.269910000146524],[-89.200999999949943,24.290439999906198],[-89.182690000043351,24.304399999760335],[-89.164899999835029,24.318860000188977],[-89.147869999600687,24.334110000176508],[-89.13111999968811,24.349610000001633],[-89.114870000350152,24.365630000424346],[-89.098620000112817,24.381649999947683],[-89.082630000174277,24.397920000207989],[-89.066379999936942,24.413939999731326],[-89.050129999699607,24.42996000015404],[-89.033359999764059,24.445459999979164],[-89.016339999990919,24.460709999966639],[-88.99854999978254,24.475170000395337],[-88.989399999610214,24.482150000322406],[-88.961660000108793,24.502820000242934],[-88.943080000341638,24.516510000236451],[-88.924770000435046,24.530459999629443],[-88.906969999765579,24.54492999961991],[-88.889949999992382,24.560170000045616],[-88.873180000056834,24.575680000331886],[-88.856940000280701,24.591699999855223],[-88.840690000043367,24.607709999816791],[-88.824700000104826,24.623989999638923],[-88.808460000328637,24.640010000061579],[-88.792470000390097,24.656289999883711],[-88.776209999691616,24.672299999845279],[-88.760219999753076,24.688579999667411],[-88.735979999777044,24.712739999551502],[-88.727990000038346,24.720879999912199],[-88.711730000239243,24.736889999873711],[-88.695740000300646,24.753169999695899],[-88.679490000063367,24.769190000118556],[-88.663500000124827,24.785469999940688],[-88.647260000348638,24.801490000363344],[-88.631259999948952,24.817759999724331],[-88.615020000172763,24.833780000147044],[-88.599019999773077,24.850059999969176],[-88.582759999973916,24.866080000391833],[-88.566770000035376,24.882349999752819],[-88.550519999798041,24.898370000175532],[-88.534529999859501,24.914649999997664],[-88.510300000344614,24.938800000319873],[-88.502300000144771,24.946939999781307],[-88.486049999907493,24.962960000203964],[-88.470059999968896,24.979240000026095],[-88.453809999731618,24.995260000448809],[-88.437830000254223,25.011540000270941],[-88.421569999555743,25.027550000232452],[-88.405579999617203,25.043830000054584],[-88.389589999678662,25.060109999876715],[-88.374109999876509,25.076899999835291],[-88.35889999993492,25.09395999965443],[-88.344449999967424,25.111780000346869],[-88.330539999721111,25.130130000299403],[-88.310029999984408,25.158029999984649],[-88.296219999853008,25.176500000075066],[-88.289259999948911,25.18567000027042],[-88.274809999981414,25.203499999625421],[-88.259600000039882,25.220549999882735],[-88.244129999799554,25.237350000302399],[-88.228130000299188,25.253619999663385],[-88.212140000360648,25.269900000384837],[-88.196150000422051,25.286180000206969],[-88.180680000181781,25.302970000165544],[-88.16545000021722,25.320020000422801],[-88.144040000345626,25.347019999973156],[-88.137080000441586,25.35619000016851],[-88.123420000032866,25.374789999958693],[-88.109750000062377,25.39338999974882],[-88.096080000091831,25.412000000000148],[-88.082140000260722,25.430340000390856],[-88.067960000153789,25.448430000044596],[-88.047199999680117,25.476070000330367],[-88.04035999991396,25.485370000225487],[-88.026950000242209,25.504230000314408],[-88.007350000202223,25.533039999696371],[-88.000909999996395,25.542729999589938],[-87.988009999561712,25.562110000276448],[-87.975110000026348,25.581490000063582],[-87.955759999824011,25.610550000182513],[-87.949310000056357,25.62024000007608],[-87.936420000082819,25.639619999863271],[-87.923519999648136,25.658990000088579],[-87.910629999674654,25.678369999875713],[-87.897739999701116,25.697749999662904],[-87.878390000398099,25.726820000242981],[-87.871939999731126,25.736510000136548],[-87.852599999989877,25.765570000255423],[-87.846150000222224,25.775260000149046],[-87.826809999581712,25.804329999829747],[-87.820359999814059,25.814010000161545],[-87.807460000278695,25.833389999948679],[-87.794829999704632,25.853030000034607],[-87.776379999637186,25.882999999850256],[-87.770319999867979,25.893070000180501],[-87.752660000258686,25.923819999993157],[-87.746850000327129,25.934149999722877],[-87.734990000188247,25.95456000024393],[-87.722860000188746,25.974720000028128],[-87.704160000283707,26.004430000444302],[-87.697849999777588,26.014239999576489],[-87.678499999575195,26.043310000156509],[-87.665600000039888,26.0626899999437],[-87.659150000272177,26.072379999837267],[-87.646260000298696,26.091750000062575],[-87.63362000016275,26.111390000148504],[-87.615170000095304,26.141359999964152],[-87.603320000417568,26.161769999585943],[-87.597500000024866,26.172100000214982],[-87.586419999882992,26.19328999983378],[-87.575330000179235,26.214469999890753],[-87.564239999576216,26.235660000408814],[-87.547350000402105,26.267179999757332],[-87.541550000032373,26.277519999948197],[-87.529420000032871,26.297670000170513],[-87.51704000019572,26.31756000009409],[-87.498469999990391,26.347400000209973],[-87.492279999622156,26.357350000402334],[-87.480160000083856,26.37749999972533],[-87.468549999782567,26.398169999645916],[-87.457460000078811,26.419360000164033],[-87.440950000442058,26.451270000410318],[-87.430249999837542,26.472839999566474],[-87.424959999604198,26.483689999893727],[-87.408719999828008,26.515860000438806],[-87.398009999661667,26.537429999594963],[-87.392729999889468,26.548279999922215],[-87.376470000090308,26.580449999567975],[-87.37105999971908,26.591170000195518],[-87.35506999978054,26.62358999967887],[-87.344240000375635,26.645039999596463],[-87.333530000209237,26.666609999651882],[-87.328239999975892,26.677459999979135],[-87.31200000019976,26.709629999624951],[-87.306569999805561,26.720350000252438],[-87.29057999986702,26.752769999735847],[-87.285159999933967,26.763499999925216],[-87.274340000090831,26.784940000280926],[-87.258350000152291,26.81737000022548],[-87.247510000286184,26.838809999681871],[-87.236800000119786,26.860379999737347],[-87.231520000347643,26.8712300000646],[-87.215270000110309,26.903399999710359],[-87.204570000405113,26.924969999765835],[-87.199280000171768,26.935829999654914],[-87.188449999867487,26.957270000010624],[-87.172330000229238,26.989570000255469],[-87.167039999995893,27.000419999683402],[-87.156200000129786,27.021860000039112],[-87.140079999592217,27.0541600002839],[-87.129379999886964,27.075730000339377],[-87.123970000415056,27.0864500000676],[-87.107849999877487,27.118750000312389],[-87.097150000172292,27.140320000367865],[-87.091739999801064,27.151040000096089],[-87.075740000300641,27.183470000040586],[-87.070590000228208,27.194450000067604],[-87.06027000006037,27.216410000121527],[-87.050199999730125,27.238629999574982],[-87.036389999598725,27.273249999787822],[-87.027240000325662,27.296370000275431],[-87.022600000389616,27.307870000000662],[-87.009060000118779,27.34274999961292],[-87.004549999882499,27.354370000375354],[-86.990229999614712,27.388479999552487],[-86.9854599999789,27.399849999577953],[-86.97191999970812,27.434719999628442],[-86.962759999973912,27.457849999677876],[-86.953609999801529,27.480970000165541],[-86.944590000228231,27.504229999914685],[-86.935299999894994,27.527219999803265],[-86.925750000162282,27.549959999854252],[-86.91647000029019,27.572949999742832],[-86.907429999794545,27.596199999930207],[-86.898270000060336,27.619329999979641],[-86.889119999887953,27.642449999567987],[-86.880100000314656,27.665699999755304],[-86.870809999981418,27.688700000105086],[-86.861269999810531,27.711429999694872],[-86.851989999938439,27.734430000044597],[-86.843089999603706,27.757809999931681],[-86.834319999868001,27.78132000041785],[-86.82581000043109,27.805090000303437],[-86.817670000070336,27.829250000187528],[-86.809680000331639,27.853530000209503],[-86.801559999993913,27.877690000093594],[-86.79343999965613,27.901849999977685],[-86.785440000355607,27.92612999999966],[-86.777440000155764,27.95041999958346],[-86.769319999818038,27.974580000366871],[-86.761200000379631,27.998729999789816],[-86.753200000179788,28.023020000272936],[-86.745199999979889,28.047300000294911],[-86.737210000241191,28.071589999878711],[-86.729479999901969,28.096139999761306],[-86.722120000437542,28.121070000080579],[-86.715029999934472,28.14625999979927],[-86.708190000168258,28.171709999816755],[-86.701489999663636,28.197279999972181],[-86.694660000358624,28.222729999989667],[-86.691170000395118,28.235390000148527],[-86.680210000391128,28.272859999589457],[-86.672600000189732,28.297529999609935],[-86.664989999988393,28.322199999630413],[-86.657640000085848,28.347129999949686],[-86.650540000020897,28.372330000129523],[-86.643709999816508,28.397769999685863],[-86.637130000349146,28.423480000002144],[-86.630679999682116,28.449320000018133],[-86.62745999957923,28.462230000014642],[-86.617780000146809,28.500989999588967],[-86.611339999940924,28.526820000043131],[-86.60489000017327,28.55266000005912],[-86.598449999967443,28.57850000007511],[-86.592000000199732,28.604340000091099],[-86.585539999970933,28.630169999645886],[-86.579099999765049,28.656009999661876],[-86.572649999997395,28.68184000011604],[-86.566349999952422,28.707809999831795],[-86.560279999722127,28.734039999846232],[-86.557310000356154,28.747210000141536],[-86.548929999719633,28.787259999849255],[-86.543640000385608,28.814249999837784],[-86.538350000152263,28.841259999849285],[-86.532939999781036,28.868129999699875],[-86.527650000447068,28.89513000014955],[-86.522610000051372,28.922380000436817],[-86.517849999977386,28.949899999685385],[-86.513470000340135,28.977800000269951],[-86.509339999641156,29.005960000253936],[-86.504950000442079,29.033859999939182],[-86.500179999906948,29.06138000008707],[-86.495279999672164,29.088769999635929],[-86.492830000004403,29.102459999629446],[-86.485609999801568,29.143669999770793],[-86.481219999703114,29.171570000355359],[-86.477100000364601,29.1997300003394],[-86.47271999982803,29.227639999586472],[-86.467939999731072,29.255150000172534],[-86.463040000395608,29.282539999721337],[-86.458269999860477,29.310050000307399],[-86.454010000361109,29.3380900001535],[-86.450650000097312,29.367019999673403],[-86.448080000291668,29.396739999651402],[-86.445760000323673,29.426699999905225],[-86.443180000056827,29.456419999883224],[-86.439830000254176,29.485359999864272],[-86.435569999855488,29.513390000148547],[-86.430789999758588,29.54089999983529],[-86.426029999684658,29.568419999983178],[-86.421770000185234,29.596450000267453],[-86.418550000082348,29.62551999994821],[-86.41647000039012,29.655750000062596],[-86.41532000041758,29.68688000031193],[-86.414670000120282,29.71853000025942],[-86.414030000284185,29.750180000206967],[-86.4128699998505,29.781309999556981],[-86.410810000181243,29.811539999671368],[-86.407590000078358,29.8405999997903],[-86.403340000140815,29.8686399996364],[-86.398560000043858,29.896150000222462],[-86.393779999946958,29.92367000037035],[-86.389530000009415,29.951699999755306],[-86.386309999906473,29.980770000335383],[-86.384250000237216,30.010989999988624],[-86.383089999803531,30.042129999799783],[-86.382570000105318,30.073910000346359],[-86.382440000405609,30.106070000430293],[-86.382440000405609,30.138369999775819],[-86.382440000405609,30.170670000020607],[-86.382440000405609,30.202959999804307],[-86.382440000405609,30.235260000049095],[-86.382440000405609,30.267549999832795],[-86.382440000405609,30.299850000077583],[-86.382440000405609,30.332139999861226],[-86.382440000405609,30.364440000106072],[-86.382440000405609,30.396729999889715],[-86.382440000405609,30.42903000013456],[-86.382440000405609,30.461319999918203],[-86.382440000405609,30.493620000163048],[-86.382440000405609,30.525909999946691],[-86.382440000405609,30.55821000019148],[-86.382440000405609,30.590499999975179],[-86.382440000405609,30.622800000219968],[-86.382440000405609,30.655090000003668],[-86.382440000405609,30.687390000248456],[-86.382440000405609,30.719689999593925],[-86.382440000405609,30.751980000276944],[-86.382440000405609,30.784279999622413],[-86.382440000405609,30.816570000305433],[-86.382440000405609,30.848869999650901],[-86.382570000105318,30.881029999734835],[-86.383089999803531,30.912819999843236],[-86.384250000237216,30.94395000009257],[-86.386309999906473,30.974169999745811],[-86.389530000009415,31.003240000325889],[-86.393779999946958,31.031269999710844],[-86.398560000043858,31.058789999858732],[-86.403340000140815,31.086300000444794],[-86.407590000078358,31.114340000290952],[-86.410799999720098,31.143400000409827],[-86.4128699998505,31.17362999962495],[-86.414030000284185,31.204759999874227],[-86.414679999682107,31.236409999821774],[-86.415329999979406,31.268059999769321],[-86.416490000413091,31.299190000018655],[-86.418550000082348,31.329420000133041],[-86.421770000185234,31.358489999813798],[-86.426029999684658,31.386520000098074],[-86.430800000219733,31.414040000245961],[-86.435699999555254,31.441429999794821],[-86.440459999629184,31.468940000380883],[-86.44484999972758,31.496849999627898],[-86.448969999965414,31.525009999611939],[-86.453369999625693,31.552910000196505],[-86.458149999722593,31.580419999883247],[-86.463040000395608,31.607810000331369],[-86.467939999731072,31.635199999880228],[-86.472710000266204,31.662709999566971],[-86.477100000364601,31.690619999713363],[-86.481219999703114,31.718779999697347],[-86.485600000239742,31.746680000281913],[-86.490499999575206,31.774060000268946],[-86.495929999969405,31.800930000119536],[-86.501849999577701,31.827289999833795],[-86.50818000010679,31.853260000448813],[-86.514620000312675,31.879090000003657],[-86.520940000380619,31.905059999719356],[-86.527000000149769,31.931280000172023],[-86.532810000081327,31.957760000024109],[-86.538350000152263,31.98450000017499],[-86.543640000385608,32.01151000018649],[-86.548929999719633,32.03850000017502],[-86.55446999979057,32.0652400003259],[-86.560270000160301,32.091720000177986],[-86.566329999929451,32.117950000192479],[-86.572649999997395,32.143910000346409],[-86.579099999765049,32.169750000362399],[-86.582330000329137,32.182669999920677],[-86.592000000199732,32.221419999933175],[-86.598449999967443,32.247259999949165],[-86.604899999735096,32.273090000403329],[-86.61146999964069,32.298810000281435],[-86.618310000306167,32.324249999837775],[-86.625410000371119,32.349439999556466],[-86.632749999812518,32.374369999875739],[-86.640369999575739,32.399050000357363],[-86.647959999754107,32.423720000377841],[-86.651580000316642,32.436249999937672],[-86.662409999721604,32.473849999977688],[-86.66925000038708,32.499290000433291],[-86.6758299998545,32.524999999850252],[-86.682270000060328,32.550830000304416],[-86.688719999828038,32.576679999882231],[-86.695169999595691,32.602510000336395],[-86.701609999801519,32.628339999891239],[-86.708199999730084,32.654050000207462],[-86.715029999934472,32.679500000224948],[-86.722120000437542,32.704689999943696],[-86.729479999901969,32.729620000262969],[-86.737079999642162,32.754299999845273],[-86.740829999904463,32.766699999705395],[-86.752039999746103,32.803900000185024],[-86.759139999811055,32.829089999903715],[-86.765979999577212,32.854550000382346],[-86.772550000382125,32.880250000237481],[-86.778989999688633,32.906079999792325],[-86.785449999917432,32.931919999808315],[-86.788670000020375,32.94484000026597],[-86.79833999989097,32.983599999840237],[-86.804789999658681,33.009430000294401],[-86.811229999864508,33.035259999849245],[-86.817679999632162,33.061099999865235],[-86.824130000299192,33.086939999881224],[-86.830580000066846,33.112779999897214],[-86.837020000272673,33.138610000351377],[-86.843470000040384,33.164439999906222],[-86.849919999808037,33.190279999922211],[-86.856369999575691,33.216119999938201],[-86.862820000242721,33.24195999995419],[-86.869260000448548,33.26779999997018],[-86.872360000413607,33.280850000127543],[-86.881649999847525,33.3199799996774],[-86.884490000413109,33.333290000133559],[-86.89014999972261,33.359910000146556],[-86.898279999622162,33.400209999691867],[-86.900989999588717,33.413640000285909],[-86.90898999978856,33.454079999992132],[-86.911699999755058,33.467509999686854],[-86.919820000092841,33.507819999693368],[-86.92524999958772,33.534679999982131],[-86.927820000292684,33.548249999837765],[-86.935810000031381,33.588679999982162],[-86.938519999997879,33.602120000138029],[-86.946520000197722,33.642550000282426],[-86.951420000432563,33.669939999831286],[-86.955670000370105,33.697970000115561],[-86.958889999573728,33.727039999796318],[-86.960970000165275,33.757260000348879],[-86.962120000137816,33.788400000160038],[-86.962630000274203,33.820179999807294],[-86.962759999973912,33.852339999891228],[-86.962759999973912,33.884640000136017],[-86.962759999973912,33.916929999919716],[-86.962759999973912,33.949230000164505],[-86.962759999973912,33.98153000040935],[-86.962759999973912,34.013820000192993],[-86.962759999973912,34.046120000437838],[-86.962759999973912,34.078410000221481],[-86.962759999973912,34.11070999956695],[-86.962759999973912,34.14300000024997],[-86.962759999973912,34.175299999595438],[-86.962759999973912,34.207590000278458],[-86.962630000274203,34.239759999924217],[-86.962109999676613,34.271539999571473],[-86.960950000142304,34.302669999820807],[-86.958889999573728,34.332899999935194],[-86.955670000370105,34.361960000054125],[-86.951420000432563,34.389999999900226],[-86.946640000335663,34.417509999586969],[-86.941860000238705,34.445029999734857],[-86.937610000301163,34.473060000019132],[-86.934390000198221,34.502120000138063],[-86.93221000039108,34.532230000114566],[-86.930519999798037,34.562839999766311],[-86.928850000127284,34.593459999879258],[-86.926650000297172,34.623560000293935],[-86.92343000019423,34.652629999974693],[-86.919169999795542,34.680660000258968],[-86.914400000159787,34.70816999994571],[-86.90962000006283,34.735690000093598],[-86.905240000425579,34.763589999778787],[-86.901499999725104,34.792139999761332],[-86.898279999622162,34.821210000341409],[-86.895069999980421,34.850269999560965],[-86.891319999718121,34.878820000442829],[-86.886929999619667,34.906720000128075],[-86.882159999983912,34.934240000275963],[-86.877399999909983,34.961749999962649],[-86.873000000249704,34.989649999647895],[-86.869260000448548,35.018210000091585],[-86.866040000345663,35.04727000021046],[-86.862820000242721,35.076339999891218],[-86.859090000003391,35.104889999873762],[-86.854699999904994,35.132789999558952],[-86.849919999808037,35.16030999970684],[-86.845030000034342,35.187689999693873],[-86.840260000398587,35.215209999841761],[-86.835859999839045,35.243110000426327],[-86.831739999601211,35.271270000410311],[-86.827350000402078,35.299179999657383],[-86.825039999995909,35.313000000249929],[-86.817690000093307,35.354079999792305],[-86.812909999996407,35.381599999940192],[-86.808660000058865,35.409630000224467],[-86.805310000256213,35.438559999744314],[-86.802729999989424,35.46827999972237],[-86.800399999560227,35.498250000437338],[-86.797820000192758,35.527959999954192],[-86.794459999928961,35.556890000373357],[-86.790209999991418,35.584930000219458],[-86.785440000355607,35.612439999906201],[-86.780669999820532,35.639960000054089],[-86.776410000321164,35.667990000338364],[-86.773070000080338,35.696919999858267],[-86.770489999813549,35.726639999836266],[-86.768160000283672,35.756609999651914],[-86.765589999578708,35.786320000068088],[-86.762230000214231,35.815260000049136],[-86.757969999815543,35.843290000333411],[-86.755649999847492,35.857110000026637],[-86.748429999644657,35.898320000168042],[-86.744170000145289,35.926349999552997],[-86.740939999581201,35.955420000133017],[-86.73900999961171,35.985519999648432],[-86.738369999775557,36.016139999761322],[-86.739020000072856,36.046750000312386],[-86.740950000042346,36.0768499998278],[-86.744179999707114,36.105920000407821],[-86.748440000105802,36.133949999792776],[-86.751020000372591,36.147510000086584],[-86.758629999674667,36.188330000229485],[-86.764049999607664,36.2152099996419],[-86.766620000312685,36.228769999935707],[-86.774610000051382,36.269200000080104],[-86.777449999717589,36.282509999636943],[-86.783120000387612,36.309120000088058],[-86.792019999823026,36.348650000097564],[-86.798480000051882,36.374490000113553],[-86.805439999955922,36.399799999970185],[-86.812909999996407,36.424610000151517],[-86.821030000334133,36.448759999574463],[-86.830060000368633,36.472020000222983],[-86.839859999938938,36.49449000041335],[-86.850050000407066,36.516589999728865],[-86.860629999974435,36.53829000038337],[-86.871449999817514,36.55972999983976],[-86.882159999983912,36.581310000356382],[-86.89287000015031,36.602880000411858],[-86.903689999993389,36.624319999868248],[-86.914400000159787,36.64590000038487],[-86.925099999864983,36.667470000440289],[-86.936059999868974,36.688789999758853],[-86.947160000033875,36.709969999815769],[-86.958630000174253,36.730770000335383],[-86.970889999873464,36.75078999995867],[-86.983779999847002,36.77016999974586],[-86.997190000418072,36.789029999834781],[-87.011119999788036,36.80737000022549],[-87.025179999757086,36.825589999578938],[-87.03898000032666,36.844059999669412],[-87.052639999836003,36.862660000358858],[-87.066309999806549,36.881260000149041],[-87.080119999937949,36.899739999801284],[-87.101520000247717,36.926729999789814],[-87.109130000449056,36.935260000149015],[-87.124479999652181,36.952190000268445],[-87.148210000391089,36.976860000288923],[-87.156200000129786,36.984999999750357],[-87.172330000229238,37.001140000310897],[-87.18857000000537,37.017170000295437],[-87.205090000103326,37.032919999958153],[-87.221980000176757,37.048299999645394],[-87.248279999822046,37.070390000298403],[-87.257429999994372,37.077370000225471],[-87.285159999933967,37.098029999684911],[-87.294450000267204,37.104879999912214],[-87.313019999573214,37.118580000366876],[-87.33146999964066,37.132400000060102],[-87.349660000308688,37.146480000052122],[-87.367830000054369,37.160560000044086],[-87.386260000098844,37.174379999737369],[-87.404969999565708,37.187940000031119],[-87.423929999769541,37.201249999587958],[-87.443150000272169,37.214299999745322],[-87.472429999744577,37.233409999671892],[-87.482359999913967,37.239620000063098],[-87.50232999992943,37.251890000223455],[-87.522580000266714,37.263900000085073],[-87.553410000171255,37.281470000040599],[-87.573779999747103,37.293359999764334],[-87.59415999978404,37.305239999926187],[-87.614530000259208,37.317120000088096],[-87.624850000427045,37.322939999581479],[-87.656309999706593,37.339860000139026],[-87.689329999879476,37.355230000264442],[-87.700419999583232,37.360269999760817],[-87.723110000026395,37.369829999954675],[-87.745819999593209,37.379390000148533],[-87.76801000036113,37.389470000040603],[-87.801009999611665,37.404840000166018],[-87.812100000214741,37.409879999662394],[-87.834020000222722,37.420210000291434],[-87.867680000231701,37.434939999681376],[-87.879159999933961,37.439590000078567],[-87.914489999613693,37.452640000235988],[-87.938610000351105,37.46077000013554],[-87.950859999589227,37.464650000097549],[-87.988510000136273,37.475369999825773],[-88.013929999669642,37.482220000053132],[-88.026689999943414,37.485580000316929],[-88.065379999887,37.495270000210496],[-88.078280000321627,37.498499999875264],[-88.116970000265212,37.508189999768831],[-88.129869999800519,37.511409999871717],[-88.168550000182279,37.52109999976534],[-88.18144000015576,37.524330000329371],[-88.220780000396587,37.533369999925696],[-88.247730000339118,37.538669999720867],[-88.275449999817511,37.543190000418349],[-88.289520000247705,37.545259999649431],[-88.332979999827046,37.550170000345361],[-88.361990000338153,37.553400000010129],[-88.390500000274699,37.557139999811284],[-88.404560000243691,37.559209999941686],[-88.445819999992921,37.566310000006638],[-88.473280000071838,37.571099999665421],[-88.501270000310171,37.575360000064109],[-88.530279999921959,37.578589999728877],[-88.560460000428577,37.580650000297396],[-88.591540000170767,37.581820000292907],[-88.62327999977208,37.582339999991177],[-88.655379999787044,37.582460000129061],[-88.687630000424065,37.582460000129061],[-88.719860000138794,37.582460000129061],[-88.75210000031467,37.582460000129061],[-88.784209999891459,37.582339999991177],[-88.815930000369121,37.581820000292907],[-88.847019999673137,37.580650000297396],[-88.87718999971861,37.578589999728877],[-88.906209999791542,37.575360000064109],[-88.93418999956873,37.571090000103595],[-88.961660000108793,37.566310000006638],[-88.989129999749593,37.561529999909737],[-89.01699000028816,37.557139999811284],[-89.045489999763561,37.553400000010129],[-89.074500000274668,37.550170000345361],[-89.088939999781076,37.548479999752317],[-89.132019999823058,37.543190000418349],[-89.15974000020077,37.538669999720867],[-89.186699999705127,37.533369999925696],[-89.213009999811561,37.52743000029443],[-89.238920000357609,37.52109999976534],[-89.264589999728628,37.514509999836775],[-89.289990000138289,37.507670000070618],[-89.315159999834009,37.500560000443784],[-89.340039999646137,37.493200000080094],[-89.364530000359139,37.485440000156018],[-89.388779999896997,37.477439999956175],[-89.413019999872972,37.469430000194507],[-89.43727000031015,37.461420000432838],[-89.473370000425064,37.449150000272425],[-89.485500000424565,37.445139999711387],[-89.509749999962423,37.437129999949661],[-89.533869999800572,37.428989999588964],[-89.557590000078335,37.420469999690852],[-89.581059999619185,37.411690000393378],[-89.604280000221706,37.402640000335907],[-89.626849999627666,37.39295000044234],[-89.648900000234732,37.382750000412329],[-89.681780000246704,37.367249999687886],[-89.692490000413102,37.361820000193006],[-89.724590000428066,37.345540000370875],[-89.735430000294173,37.34025000013753],[-89.75696000030365,37.329519999948161],[-89.789080000341642,37.313249999687855],[-89.799909999746603,37.307949999892742],[-89.82143999975608,37.297230000164518],[-89.853289999933452,37.280690000043592],[-89.863870000400084,37.275140000410829],[-89.884770000135291,37.263770000385364],[-89.905139999711139,37.251879999762309],[-89.935070000380108,37.233420000133037],[-89.944869999950413,37.227089999603947],[-89.974010000161286,37.207840000415842],[-89.983550000332173,37.201249999587958],[-90.02107000028019,37.174250000037603],[-90.030239999576224,37.167270000110591],[-90.048029999784546,37.152809999681892],[-90.073430000194264,37.129810000231487],[-90.090070000430046,37.114179999807277],[-90.098319999568218,37.106299999745318],[-90.115090000403086,37.090799999920193],[-90.132110000176283,37.075549999932718],[-90.149909999946431,37.061079999942194],[-90.168210000291197,37.047129999649883],[-90.19594999979256,37.0264700001905],[-90.205110000426089,37.019490000263431],[-90.222899999735091,37.005020000272964],[-90.239669999670639,36.989520000447783],[-90.255139999910966,36.972720000028119],[-90.269580000316637,36.954900000234943],[-90.290350000352134,36.927250000387346],[-90.304150000022389,36.908780000296929],[-90.31110999992643,36.899610000101575],[-90.325550000332157,36.881779999847254],[-90.340519999997923,36.864470000190522],[-90.355469999640661,36.847159999634414],[-90.370440000205747,36.829849999977682],[-90.391850000077341,36.802850000427327],[-90.398800000419556,36.793680000231973],[-90.418789999558726,36.765259999949194],[-90.425369999925465,36.755699999755336],[-90.444579999966948,36.726509999936695],[-90.45709000040307,36.706740000151058],[-90.463279999871986,36.696789999958696],[-90.475400000309662,36.676639999736324],[-90.492549999782568,36.645379999787281],[-90.503649999947413,36.624199999730365],[-90.509190000018407,36.613600000140025],[-90.525179999956947,36.581179999757353],[-90.53550999968661,36.559219999703373],[-90.545700000154795,36.537120000387858],[-90.555359999564246,36.514519999598463],[-90.560009999961437,36.503019999873231],[-90.573029999634684,36.467630000124529],[-90.581160000433556,36.443470000240438],[-90.588640000035866,36.418660000059106],[-90.595729999639673,36.393470000340415],[-90.599210000041353,36.380810000181498],[-90.609149999772569,36.342319999568474],[-90.612369999875511,36.329400000010139],[-90.61856000024369,36.3033100001565],[-90.626690000143299,36.263000000150043],[-90.63106999978055,36.235099999565477],[-90.634300000344638,36.20602999988472],[-90.636360000013894,36.175799999770334],[-90.63752000044758,36.144670000420319],[-90.638029999684647,36.112889999873744],[-90.638160000283676,36.08072999978981],[-90.638160000283676,36.048430000444284],[-90.638160000283676,36.016139999761322],[-90.638160000283676,35.983840000415853],[-90.638160000283676,35.951549999732833],[-90.638029999684647,35.919380000087074],[-90.637509999986435,35.887600000439818],[-90.636349999552749,35.856470000190484],[-90.634289999883492,35.826240000076098],[-90.63106999978055,35.79717000039534],[-90.62862000011279,35.783480000401823],[-90.621379999886983,35.742270000260476],[-90.618290000383126,35.729229999664881],[-90.609140000210743,35.689950000392344],[-90.605920000107801,35.677040000395834],[-90.599470000340148,35.651200000379845],[-90.589799999570232,35.612439999906201],[-90.583340000240696,35.586610000351357],[-90.576900000034868,35.560770000335367],[-90.570450000267215,35.534930000319378],[-90.567230000164272,35.522020000322925],[-90.557560000293677,35.483259999849281],[-90.554340000190734,35.470340000290946],[-90.544659999858993,35.431590000278447],[-90.541439999756108,35.418669999820793],[-90.531760000323629,35.379919999808294],[-90.525309999656656,35.354079999792305],[-90.522089999553714,35.34116000023397],[-90.51563999978606,35.315329999779806],[-90.509190000018407,35.289489999763816],[-90.502869999950462,35.263529999609943],[-90.493579999617168,35.224380000037115],[-90.490739999950961,35.211069999580957],[-90.482220000052848,35.171160000034092],[-90.476940000280706,35.144159999584474],[-90.471659999609187,35.117160000034119],[-90.46612000043757,35.090419999883238],[-90.460309999606693,35.06392999956995],[-90.454249999837543,35.037710000016659],[-90.447940000230744,35.01174999986273],[-90.441489999563714,34.985920000307885],[-90.438259999898946,34.972999999850231],[-90.428599999590233,34.934240000275963],[-90.425369999925465,34.921319999818309],[-90.415700000054869,34.88256999980581],[-90.412479999951927,34.869650000247475],[-90.40293999978104,34.830760000074065],[-90.399970000415067,34.817589999778818],[-90.391079999642159,34.778059999769312],[-90.385520000447571,34.751319999618431],[-90.380230000214226,34.724320000068076],[-90.377529999809553,34.710879999912208],[-90.369399999909945,34.670580000366897],[-90.36360000043959,34.644099999615435],[-90.357539999771063,34.617869999600941],[-90.351210000141293,34.591910000346388],[-90.344769999935465,34.566070000330399],[-90.338320000167755,34.540239999876235],[-90.331870000400102,34.514399999860245],[-90.328639999836014,34.50148000030191],[-90.318969999965418,34.462719999828266],[-90.31252999975959,34.436890000273422],[-90.309309999656648,34.423969999815768],[-90.299639999786052,34.385219999803269],[-90.296410000121284,34.372300000244934],[-90.289960000353631,34.346460000228944],[-90.283509999686657,34.320629999774837],[-90.277070000380093,34.294789999758848],[-90.267399999610177,34.256030000184523],[-90.264180000406611,34.243120000188014],[-90.257720000177756,34.217280000172025],[-90.251139999811016,34.191569999855744],[-90.241090000403119,34.153209999841749],[-90.233990000338167,34.128020000123058],[-90.226640000435566,34.10308000024196],[-90.219039999796053,34.078410000221481],[-90.211420000032888,34.053740000201003],[-90.204070000130287,34.028800000319904],[-90.19697999962716,34.003620000163039],[-90.193620000262683,33.990830000304413],[-90.183429999794555,33.952590000428302],[-90.176610000051369,33.927140000410816],[-90.172990000388097,33.914609999951665],[-90.162160000083816,33.877009999911706],[-90.158159999983923,33.864870000350379],[-90.146419999982925,33.828189999568963],[-90.14243000034412,33.81604000044581],[-90.130430000044385,33.779610000401362],[-90.122309999706602,33.755460000079097],[-90.11417999980705,33.731300000195006],[-90.106190000068352,33.707020000173031],[-90.098200000329655,33.682720000128029],[-90.090070000430046,33.658569999805763],[-90.086070000330153,33.646430000244436],[-90.073949999892477,33.610120000337872],[-90.065829999554751,33.585970000015607],[-90.057320000117784,33.562200000130019],[-90.048539999920933,33.538689999643907],[-90.044040000145799,33.527060000218967],[-90.030359999714108,33.492310000306418],[-90.020820000442541,33.469579999817256],[-90.011539999671129,33.446580000366851],[-90.00262999977457,33.423199999580447],[-89.99386999960069,33.399689999993655],[-89.985349999702635,33.375920000108067],[-89.977239999826054,33.351760000223976],[-89.969120000387591,33.327609999901711],[-89.960599999590215,33.303840000016123],[-89.95182999985451,33.280330000429331],[-89.947310000056348,33.268700000105071],[-89.933649999647685,33.233950000192522],[-89.924099999914972,33.211210000141534],[-89.914809999581735,33.188220000252954],[-89.905780000446555,33.164959999604434],[-89.896619999813026,33.141840000016145],[-89.887469999640643,33.1187200004278],[-89.878309999906492,33.095590000378365],[-89.868640000035896,33.07298999958897],[-89.863489999963406,33.062009999561951],[-89.848269999560728,33.028810000081592],[-89.838089999553745,33.006720000327903],[-89.827890000423054,32.984629999674894],[-89.818210000091312,32.962020000222992],[-89.809070000380132,32.938899999735327],[-89.799900000184778,32.915780000147038],[-89.790750000012395,32.892650000097547],[-89.781599999840012,32.869529999609938],[-89.771929999969416,32.846920000158036],[-89.766770000335157,32.8359499996929],[-89.751420000232713,32.802870000350367],[-89.735430000294173,32.770449999967695],[-89.730010000361119,32.759730000239472],[-89.724729999689657,32.748870000350394],[-89.708599999590206,32.716579999667374],[-89.69777999974707,32.695129999749838],[-89.687069999580729,32.673559999694362],[-89.676380000336621,32.651989999638943],[-89.665530000009369,32.63053999972135],[-89.654830000304173,32.608969999665874],[-89.644129999699601,32.587390000048629],[-89.627880000361642,32.555229999964695],[-89.622590000128298,32.544379999637442],[-89.617170000195244,32.533650000347393],[-89.601060000118821,32.501359999664373],[-89.590349999952423,32.479789999608954],[-89.579639999786082,32.458209999991652],[-89.568819999942946,32.436769999635942],[-89.563520000147776,32.425920000208009],[-89.547410000071352,32.393619999963164],[-89.536570000205245,32.372179999607454],[-89.5312799999719,32.361330000179521],[-89.509749999962423,32.318310000206509],[-89.50433000002937,32.307589999578965],[-89.493630000324174,32.286020000422809],[-89.488199999929975,32.27529000023344],[-89.471969999715611,32.243130000149506],[-89.460880000011912,32.221939999631445],[-89.449520000447535,32.201010000311385],[-89.437660000308654,32.180599999790275],[-89.425419999733094,32.160580000167045],[-89.413030000334118,32.140690000243467],[-89.400649999597704,32.120789999858744],[-89.388400000359638,32.100770000235457],[-89.3707300002892,32.070020000422801],[-89.365190000218206,32.059430000394343],[-89.354099999615187,32.038250000337371],[-89.348679999682133,32.027520000148058],[-89.332430000344118,31.995360000064068],[-89.316309999806549,31.963059999819279],[-89.310900000334641,31.952340000091056],[-89.300190000168243,31.930759999574491],[-89.289480000001902,31.909190000418334],[-89.273240000225712,31.8770300003344],[-89.267940000430599,31.866170000445322],[-89.257250000287172,31.844600000389846],[-89.246410000421065,31.823149999572991],[-89.235700000254724,31.801580000416834],[-89.225010000111297,31.780010000361358],[-89.21417000024519,31.758560000443822],[-89.203460000078849,31.736990000388346],[-89.192760000373596,31.71542000033287],[-89.187340000440543,31.704699999705383],[-89.171219999902974,31.672400000359858],[-89.160520000197721,31.650830000304438],[-89.149689999893496,31.629380000386845],[-89.138979999727098,31.607810000331369],[-89.128280000021903,31.58624000027595],[-89.112029999784568,31.554069999730871],[-89.106739999551223,31.543220000302938],[-89.096039999846028,31.521650000247462],[-89.085210000441066,31.500200000329869],[-89.074500000274668,31.47863000027445],[-89.069089999903497,31.467909999646906],[-89.052970000265191,31.435610000301438],[-89.042269999660675,31.414040000245961],[-89.026150000022369,31.381740000001116],[-89.020739999651141,31.371020000272949],[-89.00472999968963,31.338599999890221],[-88.999309999756576,31.327880000161997],[-88.98848999991344,31.306430000244461],[-88.977779999747099,31.28484999972784],[-88.967089999603672,31.263279999672363],[-88.956249999737622,31.241840000215973],[-88.945679999732079,31.220129999999642],[-88.935359999564241,31.198169999945662],[-88.925169999995376,31.176089999753856],[-88.91550000012478,31.153480000301897],[-88.906329999929426,31.130359999814289],[-88.897170000195274,31.107229999764797],[-88.888020000022891,31.084110000176508],[-88.878989999988391,31.060859999989134],[-88.869710000116299,31.037859999639409],[-88.860169999945413,31.015130000049624],[-88.850879999612175,30.992129999699898],[-88.841989999738587,30.968749999812758],[-88.833220000002882,30.945240000225965],[-88.824709999666652,30.921470000340378],[-88.816570000205218,30.897309999556967],[-88.808590000028403,30.873030000434312],[-88.800460000128794,30.848869999650901],[-88.792339999791068,30.82470999976681],[-88.784339999591225,30.800429999744836],[-88.776340000290702,30.776140000161035],[-88.76836000011383,30.751849999677859],[-88.760600000189754,30.727310000256466],[-88.753270000310181,30.702379999937193],[-88.746150000222201,30.677190000218502],[-88.739329999579695,30.651740000201016],[-88.732759999674158,30.626029999884736],[-88.726309999906448,30.600189999868746],[-88.719860000138794,30.574360000313902],[-88.713410000371141,30.548520000297913],[-88.706959999704111,30.522680000281923],[-88.700520000397603,30.496849999827759],[-88.694080000191775,30.47100999981177],[-88.687619999962919,30.445180000256926],[-88.681179999757092,30.419340000240936],[-88.677950000092324,30.406419999783282],[-88.668269999760582,30.36766999977084],[-88.661960000153783,30.341700000055084],[-88.65898999988849,30.328529999759837],[-88.650089999553757,30.288990000188505],[-88.647379999587201,30.275559999594464],[-88.639260000148795,30.235260000049095],[-88.63396999991545,30.20825999959942],[-88.628560000443542,30.181389999748831],[-88.623259999749109,30.154390000198475],[-88.61822999981456,30.127130000349382],[-88.613460000178748,30.09961999976332],[-88.609079999642177,30.071709999616928],[-88.604949999842518,30.043549999632944],[-88.600570000205266,30.015649999947698],[-88.59811000007636,30.001950000392355],[-88.590889999873468,29.960740000250951],[-88.58600000009983,29.933360000263917],[-88.581220000002872,29.905840000116029],[-88.576840000365621,29.87794000043084],[-88.572709999666642,29.849780000446799],[-88.568330000029391,29.821870000300407],[-88.563560000393579,29.794359999714345],[-88.55864999969765,29.766970000165543],[-88.553880000061838,29.739459999579481],[-88.549630000124296,29.711419999733323],[-88.546410000021353,29.682359999614448],[-88.544210000191242,29.652260000099091],[-88.542530000059344,29.621639999986144],[-88.540849999927445,29.591030000334399],[-88.538670000120305,29.560929999919722],[-88.535450000017363,29.531860000238964],[-88.531189999618675,29.503829999954689],[-88.528730000389089,29.490139999961173],[-88.521639999885963,29.448800000120059],[-88.517400000409566,29.420760000273958],[-88.514160000283709,29.391700000155026],[-88.512099999715133,29.36147000004064],[-88.510940000180767,29.330339999791306],[-88.510419999583235,29.29856000014405],[-88.510300000344614,29.266389999598971],[-88.510300000344614,29.234099999815271],[-88.510300000344614,29.201799999570483],[-88.510300000344614,29.169509999786783],[-88.510300000344614,29.137210000441314],[-88.510300000344614,29.104919999758351],[-88.510300000344614,29.072620000412826],[-88.510300000344614,29.040329999729863],[-88.510300000344614,29.008030000384338],[-88.510300000344614,28.975730000139549],[-88.510300000344614,28.943440000355849],[-88.510300000344614,28.911140000111061],[-88.510300000344614,28.878850000327418],[-88.510300000344614,28.846550000082573],[-88.510300000344614,28.81426000029893],[-88.510300000344614,28.781960000054085],[-88.510300000344614,28.749659999809296],[-88.510300000344614,28.717370000025596],[-88.510300000344614,28.685069999780808],[-88.510300000344614,28.652779999997165],[-88.510419999583235,28.620610000351405],[-88.510940000180767,28.588829999804773],[-88.512099999715133,28.557699999555496],[-88.514160000283709,28.527470000340372],[-88.517400000409566,28.498410000221497],[-88.521639999885963,28.47037000037534],[-88.52641999998292,28.442859999789277],[-88.531309999756559,28.415470000240475],[-88.536089999853516,28.387959999654413],[-88.540470000390087,28.360059999969167],[-88.544600000189746,28.3318900004233],[-88.548979999827054,28.303989999838791],[-88.553750000362129,28.276480000152048],[-88.55864999969765,28.24908999970387],[-88.563549999932434,28.22170000015501],[-88.568330000029391,28.194180000007123],[-88.572709999666642,28.166280000321876],[-88.576840000365621,28.138120000337892],[-88.581220000002872,28.110219999753326],[-88.586129999799539,28.082830000204467],[-88.591540000170767,28.055960000353878],[-88.597470000240207,28.029610000201501],[-88.603799999869977,28.003639999586483],[-88.610240000075862,27.977799999570493],[-88.616689999843516,27.951970000015649],[-88.623150000072314,27.92612999999966],[-88.626370000175257,27.91322000000315],[-88.636040000045853,27.874460000428826],[-88.642489999813563,27.848620000412836],[-88.648930000019391,27.822789999958673],[-88.652150000122276,27.809870000400338],[-88.661829999554755,27.771109999926693],[-88.668280000221728,27.745280000371849],[-88.674850000127321,27.719570000055626],[-88.681689999893479,27.69412000003814],[-88.688780000396605,27.668930000319392],[-88.696130000299149,27.644000000000119],[-88.703739999601169,27.619329999979641],[-88.711349999802565,27.594650000397337],[-88.718699999705109,27.569720000078064],[-88.725799999770061,27.544530000359373],[-88.729280000171741,27.531870000200513],[-88.735979999777044,27.506289999583942],[-88.746170000245229,27.468049999707887],[-88.753270000310181,27.442859999989139],[-88.760620000212725,27.417929999669866],[-88.76436000001388,27.405529999809801],[-88.776340000290702,27.369099999765297],[-88.784339999591225,27.344810000181496],[-88.792339999791068,27.320530000159522],[-88.800460000128794,27.296370000275431],[-88.808590000028403,27.27221000039134],[-88.816570000205218,27.247930000369365],[-88.824709999666652,27.223769999585954],[-88.833210000441056,27.199999999700367],[-88.841980000176761,27.176490000113574],[-88.850879999612175,27.153110000226491],[-88.855389999848512,27.141479999902231],[-88.864939999581225,27.118750000312389],[-88.879000000449537,27.084379999937198],[-88.887890000323125,27.061000000050115],[-88.896669999620656,27.037489999563945],[-88.905179999956943,27.013719999678358],[-88.909309999756601,27.001709999816796],[-88.921430000194277,26.965410000371378],[-88.929950000092333,26.941639999586471],[-88.938710000266212,26.918129999999621],[-88.947609999701626,26.894739999651392],[-88.952119999937963,26.883119999788278],[-88.966429999744605,26.849009999711882],[-88.971209999841506,26.837650000147505],[-88.98473999965114,26.802769999635927],[-88.993900000284668,26.779639999586436],[-89.003060000018877,26.756519999998147],[-89.012079999592231,26.733269999810773],[-89.016589999828511,26.721640000385833],[-89.030910000096299,26.687539999871262],[-89.040200000429593,26.6645400004208],[-89.049229999564716,26.641290000233482],[-89.053750000262198,26.629670000370368],[-89.067540000370627,26.595050000157528],[-89.076700000104836,26.571920000108037],[-89.081329999579737,26.560420000382862],[-89.091399999909981,26.538200000030145],[-89.106739999551223,26.505130000249437],[-89.116930000019408,26.483050000057574],[-89.127119999588217,26.460960000303885],[-89.136790000358133,26.438349999952663],[-89.145950000092341,26.415230000364375],[-89.155100000264724,26.392100000314883],[-89.164259999998876,26.368979999827275],[-89.173419999733085,26.345849999777784],[-89.178050000107305,26.334359999614435],[-89.188109999976405,26.312140000161037],[-89.198430000144299,26.290180000107057],[-89.208750000312136,26.268220000053077],[-89.219570000155272,26.246770000135541],[-89.230419999583205,26.225329999779831],[-89.246410000421065,26.192899999835277],[-89.251819999892973,26.182180000107053],[-89.267940000430599,26.149879999862264],[-89.273220000202741,26.139030000434332],[-89.289480000001902,26.106859999889252],[-89.29489000037313,26.096140000161029],[-89.305469999940442,26.074440000405843],[-89.321720000177777,26.042269999860764],[-89.332430000344118,26.020699999805288],[-89.337719999678143,26.009850000377355],[-89.348540000420599,25.988410000021645],[-89.359380000286706,25.966960000104052],[-89.375370000225246,25.93453999972138],[-89.380779999697097,25.923819999993157],[-89.396909999796549,25.891519999748311],[-89.402189999568748,25.880670000320379],[-89.418439999806026,25.848499999775299],[-89.423859999739079,25.837780000047132],[-89.434429999744566,25.816080000291947],[-89.45080999968161,25.784040000345897],[-89.456360000213749,25.773450000317382],[-89.47325000028718,25.741930000069601],[-89.485119999987887,25.721520000447811],[-89.491170000195268,25.71143999965642],[-89.503559999594188,25.691549999732842],[-89.515940000330659,25.671650000247439],[-89.534379999936959,25.641680000431791],[-89.540439999706109,25.631610000101546],[-89.55229999984499,25.611199999580435],[-89.563899999685134,25.590529999659907],[-89.575770000285161,25.570120000038116],[-89.587889999823517,25.549960000253975],[-89.600280000121813,25.530070000330397],[-89.612920000257702,25.510430000244469],[-89.632259999998894,25.481370000125537],[-89.645149999972432,25.461990000338403],[-89.651599999740085,25.452300000444779],[-89.664500000174769,25.432930000219471],[-89.677399999710133,25.413550000432338],[-89.696870000050353,25.384609999551969],[-89.703450000417092,25.375050000257431],[-89.716860000088843,25.35619000016851],[-89.737489999963429,25.32842000018303],[-89.744460000328672,25.319249999987676],[-89.758640000435548,25.30116000033388],[-89.772569999805569,25.282810000381346],[-89.792949999842506,25.254780000097071],[-89.799650000347128,25.245349999602922],[-89.819239999925969,25.216549999782785],[-89.832149999922478,25.197169999995651],[-89.838590000128306,25.187480000102084],[-89.85148999966367,25.168100000314894],[-89.864650000397091,25.148990000388324],[-89.878060000068842,25.130130000299403],[-89.891719999578243,25.111520000048131],[-89.905649999847526,25.093179999657423],[-89.926800000319645,25.065919999808273],[-89.933769999785568,25.056749999612919],[-89.947439999756057,25.038149999822792],[-89.960859999888953,25.019289999733815],[-89.974010000161286,25.000170000245475],[-89.993349999902478,24.971099999665398],[-89.999799999670131,24.961409999771831],[-90.012700000104815,24.942029999984641],[-90.032549999982393,24.913489999563978],[-90.039260000048841,24.904059999969149],[-90.052930000019387,24.885449999717878],[-90.066860000288671,24.867110000226489],[-90.088009999861526,24.839850000377339],[-90.094969999765567,24.830680000181985],[-90.11548000040159,24.802779999597419],[-90.12913999991099,24.784179999807293],[-90.135979999677147,24.77487999991223],[-90.156620000012879,24.747100000364867],[-90.163570000355151,24.737930000169513],[-90.18471999992795,24.71067000032042],[-90.198519999598204,24.692200000229946],[-90.205349999802536,24.682900000334882],[-90.225359999863997,24.654480000052104],[-90.231929999769591,24.644919999858246],[-90.244819999743072,24.625540000071112],[-90.257720000177756,24.606160000283921],[-90.270610000151294,24.586790000058613],[-90.283780000446541,24.567669999670898],[-90.297190000118292,24.548809999581977],[-90.310849999627692,24.530200000229968],[-90.324779999896975,24.51185999983926],[-90.338960000003908,24.493779999747346],[-90.352890000273192,24.475429999794812],[-90.373270000310185,24.447400000409857],[-90.379969999915488,24.437969999915708],[-90.39312999974959,24.418850000427312],[-90.406019999723128,24.399469999740859],[-90.418909999696609,24.380100000414814],[-90.431819999693118,24.36071999972836],[-90.444980000426597,24.341600000239964],[-90.458379999637145,24.322740000151043],[-90.472049999607691,24.30414000036086],[-90.485979999876974,24.285790000408326],[-90.500170000445053,24.267710000316413],[-90.52093999958123,24.240059999569439],[-90.527760000223736,24.230759999674376],[-90.541439999756108,24.21215999988425],[-90.555109999726596,24.193560000094067],[-90.569030000434054,24.175210000141533],[-90.583480000401607,24.157390000348357],[-90.59869000034314,24.140340000091101],[-90.614170000145293,24.12353999967138],[-90.629910000246184,24.106999999550453],[-90.652989999788531,24.081680000132053],[-90.660599999989927,24.073160000233941],[-90.682009999861521,24.046159999784322],[-90.695799999969893,24.027689999693848],[-90.709469999940438,24.009089999903722],[-90.723269999610693,23.990610000251479],[-90.73023000041411,23.981440000056125],[-90.744669999920461,23.963620000262949],[-90.767120000087857,23.937649999647931],[-90.774599999690111,23.928989999588964],[-90.789550000232225,23.911679999932176],[-90.803739999900984,23.893599999840262],[-90.823469999640679,23.864920000158008],[-90.835719999778064,23.844899999635402],[-90.847080000241704,23.823970000315398],[-90.85765000024719,23.802269999660894],[-90.867320000117786,23.77991999960841],[-90.875309999856484,23.756659999859266],[-90.881119999788041,23.732510000436321],[-90.884350000352129,23.707829999954697],[-90.884350000352129,23.696330000229466],[-90.880990000088332,23.658489999913684],[-90.874799999720096,23.634720000028096],[-90.866029999984391,23.61224000027596],[-90.855069999980401,23.591180000356871],[-90.842560000443541,23.57142000013306],[-90.821539999671131,23.544029999684881],[-90.813670000070317,23.535759999624418],[-90.797680000131777,23.519619999963197],[-90.772159999584233,23.497269999910714],[-90.754230000114319,23.484090000053584],[-90.735920000207727,23.472209999891732],[-90.717209999841543,23.461869999700866],[-90.697480000101848,23.453610000101548],[-90.665119999788033,23.444820000342872]]]},"properties":{"objectid":573,"stormname":"Isaias","stormtype":"HU","basin":"AL","advdate":"700 AM CDT Thu Oct 08 2026","advisnum":"7A","fcstprd":120,"stormnum":9,"idp_source":"al092026-007A_5day_pgn","idp_filedate":1791461318000,"idp_ingestdate":1791461372000,"st_area(shape)":33.943707201292121,"st_perimeter(shape)":33.606765871442548,"binnumber":"AT4"}}]}