{"type":"FeatureCollection","features":[{"type":"Feature","id":624,"geometry":{"type":"Polygon","coordinates":[[[-87.79447999975207,26.749470000440283],[-87.770999999750074,26.745780000246953],[-87.74535999996391,26.743739999701347],[-87.717819999793051,26.743110000326396],[-87.689249999787535,26.743739999701347],[-87.660570000105338,26.745780000246953],[-87.63278000009683,26.749459999979138],[-87.606510000036394,26.754930000419336],[-87.582020000222712,26.762180000206968],[-87.548630000074354,26.776420000382871],[-87.538599999790051,26.782259999899225],[-87.509790000408088,26.801079999942203],[-87.49227000006033,26.815320000118049],[-87.476289999683615,26.831089999803794],[-87.461299999994878,26.847870000200487],[-87.441889999723628,26.876090000253441],[-87.430599999790047,26.896559999944202],[-87.420180000406617,26.917920000207971],[-87.410419999982935,26.939909999846748],[-87.401019999972902,26.962290000383348],[-87.391379999687103,26.984409999721834],[-87.381359999864003,27.006150000422338],[-87.376280000321628,27.016959999804271],[-87.366120000337617,27.03856999990569],[-87.350130000399076,27.070230000314382],[-87.34480000011979,27.080780000296897],[-87.334390000298185,27.102139999661404],[-87.323729999739612,27.12325000008758],[-87.307859999938955,27.155029999734836],[-87.302660000258697,27.165710000316381],[-87.286670000320157,27.197360000263927],[-87.276129999899467,27.21860000038987],[-87.270930000219209,27.229280000072094],[-87.260269999660636,27.250380000037126],[-87.249610000001383,27.271489999563983],[-87.233869999900492,27.303399999810267],[-87.228539999621205,27.313949999792783],[-87.217879999961951,27.335049999757814],[-87.202139999861004,27.366969999565981],[-87.19148000020175,27.388070000430332],[-87.186149999922463,27.398620000412848],[-87.170409999821516,27.430529999759813],[-87.165080000441549,27.441090000203474],[-87.149220000202718,27.47286999985073],[-87.144010000061371,27.483550000432331],[-87.133350000402118,27.504650000397362],[-87.117490000163286,27.536439999606444],[-87.112280000021883,27.547120000187988],[-87.096279999622197,27.578770000135535],[-87.090959999804056,27.589329999679876],[-87.080549999982395,27.610689999943702],[-87.064560000043855,27.642339999891249],[-87.059229999764568,27.652889999873764],[-87.043999999800064,27.685310000256436],[-87.033970000415081,27.707059999619446],[-87.02443999980602,27.729309999556961],[-87.015440000255694,27.752060000069093],[-87.006419999783077,27.774820000143052],[-87.001859999938915,27.786130000099547],[-86.988530000359106,27.820460000428795],[-86.984089999753564,27.831900000085056],[-86.970009999761601,27.865470000440325],[-86.960859999589218,27.888099999915198],[-86.952109999876484,27.911109999826749],[-86.943600000439574,27.934380000037095],[-86.935609999801557,27.958149999922682],[-86.92825000033713,27.982559999644423],[-86.921270000410061,28.007349999802784],[-86.914540000320642,28.03240000025994],[-86.907939999930932,28.05756999995566],[-86.901209999841512,28.082620000412817],[-86.894229999914444,28.107409999671916],[-86.886989999688637,28.131940000430802],[-86.879519999648153,28.156230000014659],[-86.875699999755057,28.168310000406336],[-86.864779999797065,28.205050000357346],[-86.857799999869997,28.229839999616445],[-86.851069999780577,28.254890000073601],[-86.844599999989896,28.28019000036835],[-86.83825999989898,28.305609999901719],[-86.831919999808065,28.331039999896234],[-86.825570000155267,28.356469999890749],[-86.819230000064351,28.381899999885206],[-86.81288000041161,28.407320000317895],[-86.806529999859492,28.43275000031241],[-86.800189999768577,28.458180000306925],[-86.793840000115836,28.483610000301439],[-86.787489999563718,28.509029999834752],[-86.781019999773093,28.534330000129557],[-86.774289999683617,28.559379999687394],[-86.767300000194723,28.584169999845756],[-86.760070000430062,28.608710000166525],[-86.756389999798557,28.620909999796822],[-86.745099999864976,28.6572799997723],[-86.737870000100315,28.681809999631923],[-86.730879999712101,28.706599999790285],[-86.724160000083828,28.731650000247441],[-86.717679999832001,28.756949999642927],[-86.711339999741085,28.782379999637442],[-86.704990000088344,28.807800000070074],[-86.698649999997372,28.833230000064589],[-86.69230000034463,28.858660000059103],[-86.685960000253715,28.884090000053618],[-86.679729999839537,28.909640000186016],[-86.676700000404594,28.92247999965241],[-86.668060000368598,28.961509999986674],[-86.662609999951428,28.987829999654878],[-86.657399999810025,29.014400000060107],[-86.652200000129824,29.040969999565959],[-86.649530000209211,29.054190000368351],[-86.641019999872981,29.093350000402324],[-86.635060000218743,29.119159999934197],[-86.628849999827537,29.144710000066596],[-86.622500000174739,29.17014000006111],[-86.616280000221707,29.195699999755334],[-86.61031999966815,29.221499999725324],[-86.604600000289679,29.247569999555992],[-86.599140000310683,29.273890000123572],[-86.593939999731106,29.300459999629425],[-86.588729999589702,29.327030000034597],[-86.586070000130292,29.340249999937669],[-86.578069999930449,29.379920000108086],[-86.572739999651162,29.40635999991423],[-86.567410000271195,29.432810000181519],[-86.562209999691618,29.459379999687371],[-86.55701000001136,29.4859500000926],[-86.551679999732073,29.512389999898744],[-86.546339999890961,29.538840000166033],[-86.543689999993376,29.552060000069105],[-86.538350000152263,29.578499999875248],[-86.53047999965213,29.618299999745318],[-86.525279999971929,29.644870000150547],[-86.522610000051372,29.658090000053619],[-86.514750000012384,29.697889999923689],[-86.509800000169776,29.72471000016651],[-86.505100000164759,29.751789999808807],[-86.500779999697102,29.779249999887725],[-86.496720000427558,29.806970000265437],[-86.492410000421103,29.834430000344412],[-86.487710000416087,29.861509999986652],[-86.482890000273187,29.888459999929182],[-86.478070000130288,29.915420000332915],[-86.473370000125328,29.942499999975155],[-86.469060000118816,29.96996000005413],[-86.464999999949953,29.99766999997064],[-86.460680000381615,30.02513999961144],[-86.455989999938424,30.052220000153056],[-86.451160000233699,30.079170000095587],[-86.44646000022874,30.106249999737827],[-86.442150000222227,30.133709999816801],[-86.438469999590723,30.161809999731872],[-86.435290000433042,30.190410000221505],[-86.432119999937925,30.219020000272963],[-86.42844000020574,30.247120000187977],[-86.424119999738082,30.274580000266951],[-86.419430000194268,30.301659999909191],[-86.414730000189252,30.328739999551487],[-86.41054000032068,30.356330000229491],[-86.407240000125796,30.384809999681863],[-86.404699999904949,30.414050000007649],[-86.402419999982897,30.443540000171026],[-86.399870000200224,30.472779999597435],[-86.396579999567223,30.501259999949184],[-86.392400000159796,30.528849999727868],[-86.38770000015478,30.555930000269427],[-86.383000000149764,30.583009999911724],[-86.378810000281192,30.610599999690351],[-86.375519999648134,30.6390800000421],[-86.372969999865518,30.668320000367885],[-86.370680000381583,30.697809999631943],[-86.368149999722618,30.727049999957671],[-86.364850000427055,30.75553000030942],[-86.360659999659163,30.783120000088104],[-86.355970000115292,30.810199999730344],[-86.351259999649187,30.83728000027196],[-86.347080000241704,30.864870000050587],[-86.34390000018476,30.893480000102045],[-86.3418700001003,30.923229999664898],[-86.340729999689643,30.953869999800816],[-86.340230000014401,30.985140000211004],[-86.340100000314635,31.016799999720376],[-86.340100000314635,31.048580000266952],[-86.340100000314635,31.080370000375353],[-86.340100000314635,31.112150000022609],[-86.340100000314635,31.143940000131067],[-86.340100000314635,31.175719999778323],[-86.340100000314635,31.207500000324899],[-86.340100000314635,31.2392900004333],[-86.340100000314635,31.271070000080556],[-86.340230000014401,31.302729999589928],[-86.340740000150788,31.334009999561999],[-86.3418700001003,31.36464999969786],[-86.34390000018476,31.394389999698888],[-86.347080000241704,31.422999999750346],[-86.351270000110333,31.450590000428349],[-86.355970000115292,31.477670000070589],[-86.360670000120308,31.504749999712885],[-86.364850000427055,31.532340000390832],[-86.368029999584735,31.560939999981144],[-86.370059999669138,31.590690000443317],[-86.371320000217736,31.621210000441295],[-86.37233999959119,31.651980000276922],[-86.373609999701614,31.682489999813811],[-86.375639999786074,31.712240000275926],[-86.378810000281192,31.740839999866239],[-86.383000000149764,31.768429999644923],[-86.38770000015478,31.795510000186482],[-86.392400000159796,31.822589999828779],[-86.396710000166252,31.850049999907696],[-86.400389999898493,31.878149999822767],[-86.403560000393611,31.906759999874225],[-86.406729999989409,31.935360000363858],[-86.410420000182739,31.963460000278928],[-86.414730000189252,31.990920000357846],[-86.419419999733122,32.018000000000143],[-86.424259999898993,32.044949999942673],[-86.428950000342127,32.07202999958497],[-86.433260000348639,32.099489999663888],[-86.437319999618182,32.1272100000416],[-86.44164000008584,32.154670000120575],[-86.446329999629654,32.181749999762815],[-86.451160000233699,32.208710000166491],[-86.455980000376599,32.235660000109078],[-86.460680000381615,32.262739999751318],[-86.464999999949953,32.290199999830293],[-86.469060000118816,32.31790999974686],[-86.473370000125328,32.345380000286923],[-86.478059999669142,32.37245999992922],[-86.482879999812042,32.39940999987175],[-86.487579999817058,32.42649000041331],[-86.491900000284659,32.453949999592965],[-86.495589999578726,32.482050000407355],[-86.498749999612699,32.510649999997668],[-86.501920000107816,32.539260000049126],[-86.505599999840001,32.567359999964197],[-86.509920000307659,32.594820000043114],[-86.51460999985153,32.621899999685354],[-86.519309999856489,32.64898000022697],[-86.523499999725118,32.676570000005654],[-86.526670000220236,32.705169999595967],[-86.528820000442579,32.734790000358373],[-86.53047999965213,32.76492999991973],[-86.532130000199231,32.795059999919204],[-86.5342899999834,32.82467999978229],[-86.537459999579198,32.853289999833748],[-86.541650000347147,32.880870000050606],[-86.546339999890961,32.907960000154048],[-86.551039999895977,32.935039999796288],[-86.555229999764549,32.962620000013146],[-86.558400000259724,32.991230000064604],[-86.560419999882981,33.0209799996274],[-86.561569999855521,33.051619999763318],[-86.562079999991909,33.082899999735332],[-86.562089999553734,33.114430000444315],[-86.561580000316667,33.145710000416329],[-86.560439999905952,33.176340000091102],[-86.558409999821549,33.206089999653898],[-86.555229999764549,33.234699999705356],[-86.551039999895977,33.262290000383359],[-86.546339999890961,33.289370000025599],[-86.541519999748061,33.316319999968186],[-86.536819999743102,33.343399999610426],[-86.532500000174764,33.370859999689401],[-86.528440000005901,33.398569999605968],[-86.524129999999388,33.426040000146031],[-86.519309999856489,33.452990000088562],[-86.513979999577202,33.479440000355851],[-86.511179999956937,33.492529999659894],[-86.501920000107816,33.530929999719831],[-86.495569999555755,33.55635000015252],[-86.489230000364103,33.581780000147035],[-86.486059999868985,33.594500000374865],[-86.476539999721126,33.632640000136064],[-86.470190000068328,33.658070000130522],[-86.460680000381615,33.696209999891721],[-86.457500000324671,33.708919999658406],[-86.451160000233699,33.734340000091095],[-86.444809999681638,33.759770000085553],[-86.438460000028897,33.785200000080067],[-86.431990000238216,33.810500000374873],[-86.428699999605215,33.823090000003617],[-86.418280000221728,33.860340000091071],[-86.411049999557747,33.884869999950695],[-86.403429999794525,33.909029999834786],[-86.395569999755594,33.932930000319402],[-86.391629999724614,33.944889999673876],[-86.379699999954937,33.980610000251431],[-86.375630000224248,33.99243000034437],[-86.362689999743566,34.027140000210977],[-86.353810000331123,34.050029999984645],[-86.344279999722119,34.07227000036039],[-86.339340000340655,34.08321000034141],[-86.324110000376095,34.115620000262936],[-86.313710000116316,34.136990000088588],[-86.303039999995917,34.158090000053619],[-86.292510000036373,34.179319999718359],[-86.281969999615683,34.200550000282419],[-86.27118000025672,34.221530000109567],[-86.260269999860498,34.242380000236949],[-86.248979999926974,34.26284999992771],[-86.243129999949417,34.272889999773838],[-86.230699999605179,34.292219999953204],[-86.217760000023873,34.311039999996126],[-86.197330000379111,34.338239999776306],[-86.183489999763594,34.356170000145539],[-86.169910000346135,34.37433999989122],[-86.156450000167297,34.392649999797811],[-86.142989999988401,34.410959999704346],[-86.129409999671623,34.429150000372374],[-86.12256000034364,34.438169999945671],[-86.108349999752591,34.455710000316401],[-86.093369999625679,34.47250000027492],[-86.070270000060361,34.497039999696369],[-86.062410000021373,34.505039999896212],[-86.046680000381627,34.521060000318926],[-86.030670000420059,34.536830000004613],[-86.014939999880994,34.552850000427327],[-85.998949999942454,34.568609999651926],[-85.98320000027968,34.584630000074583],[-85.96721000034114,34.600399999760327],[-85.951470000240192,34.616420000182984],[-85.927609999801518,34.640190000068571],[-85.919740000200761,34.648199999830297],[-85.903759999824047,34.663959999954159],[-85.880020000422576,34.687870000000657],[-85.872020000222733,34.695750000062617],[-85.856289999683611,34.711769999585954],[-85.840290000183245,34.727529999709873],[-85.824550000082354,34.743550000132529],[-85.808560000143814,34.759319999818274],[-85.784830000304169,34.78322000030289],[-85.77681999964318,34.79110000036485],[-85.761090000003378,34.807119999888243],[-85.73711000032614,34.830760000074065],[-85.729110000126298,34.83864999969785],[-85.712619999613196,34.853910000146527],[-85.695849999677648,34.86891000029641],[-85.678330000229209,34.883149999572993],[-85.660319999768092,34.896879999612452],[-85.651180000056854,34.903620000163016],[-85.623760000023879,34.923829999554982],[-85.596979999826999,34.944679999682364],[-85.588230000114322,34.95181000023149],[-85.571219999902951,34.966550000082577],[-85.545720000277697,34.988670000320383],[-85.537220000402613,34.996040000245955],[-85.519700000054854,35.010280000421801],[-85.510679999582237,35.017149999772812],[-85.48339000014829,35.037489999763807],[-85.474250000437053,35.044230000314428],[-85.45597999967714,35.057700000055092],[-85.437840000415576,35.071309999956668],[-85.411060000218754,35.092160000084107],[-85.393020000172783,35.105890000123566],[-85.374759999874016,35.119370000325375],[-85.356220000152803,35.132590000228447],[-85.337429999694621,35.145549999832781],[-85.318410000321137,35.158270000060611],[-85.299359999564217,35.170979999827296],[-85.289840000315678,35.177339999941182],[-85.261290000333133,35.196409999821753],[-85.242250000037359,35.209119999588438],[-85.2327299998895,35.215479999702382],[-85.213680000031843,35.228199999930212],[-85.185130000049355,35.247269999810783],[-85.175739999601205,35.25375000006261],[-85.147819999892988,35.273450000217508],[-85.129539999571193,35.286930000419318],[-85.111530000009395,35.300659999559457],[-85.093759999824044,35.314649999897711],[-85.084749999812516,35.321509999686896],[-85.05744999991748,35.341860000139036],[-85.048190000068359,35.348459999629426],[-85.020139999761057,35.368039999646385],[-85.001100000364602,35.380759999874215],[-84.982060000068827,35.393469999640899],[-84.963019999773053,35.40618999986873],[-84.943980000376598,35.418899999635414],[-84.924940000080824,35.431619999863244],[-84.905910000246195,35.444329999629929],[-84.886609999651682,35.456789999558964],[-84.867069999680609,35.468990000088581],[-84.857179999557218,35.474969999765847],[-84.827220000202715,35.492639999836285],[-84.806920000257719,35.504089999953692],[-84.796889999973416,35.509930000369366],[-84.767060000318679,35.527730000139513],[-84.747509999886461,35.539940000230956],[-84.737869999600719,35.546169999745814],[-84.709180000356639,35.565109999926676],[-84.690140000060865,35.577819999693361],[-84.67109999976509,35.590539999921191],[-84.661579999617175,35.596889999573989],[-84.642560000243691,35.609609999801819],[-84.623519999947916,35.622319999568447],[-84.604479999652142,35.635030000234451],[-84.575920000107828,35.654109999676905],[-84.566399999959913,35.660460000228966],[-84.537580000116805,35.679280000271945],[-84.527819999693122,35.685380000087093],[-84.508150000022397,35.697459999579451],[-84.47820000022972,35.715129999649889],[-84.468029999784562,35.72084999992768],[-84.447849999977393,35.732420000183026],[-84.418040000345627,35.750219999953174],[-84.39848000035164,35.762430000044617],[-84.388840000065841,35.768649999997649],[-84.369670000070357,35.78123999962645],[-84.341109999626667,35.800310000406341],[-84.331599999939954,35.806669999620908],[-84.303040000395583,35.825740000400856],[-84.293400000109784,35.831969999915714],[-84.2642100002912,35.850399999960189],[-84.244399999560244,35.862349999752837],[-84.234379999737087,35.868199999730336],[-84.204050000407108,35.885490000263474],[-84.183989999838502,35.897190000218473],[-84.164200000029894,35.909140000011121],[-84.154419999583183,35.915250000287415],[-84.134990000188225,35.927579999617421],[-84.106320000067853,35.946519999798284],[-84.096799999919938,35.952870000350401],[-84.077759999624163,35.965589999678912],[-84.04920000007985,35.984659999559483],[-84.039559999794051,35.99088999997366],[-84.01036999997541,36.009320000018135],[-84.000470000290193,36.015299999695401],[-83.980549999882498,36.027119999788283],[-83.950210000091317,36.04441000032142],[-83.940190000268217,36.05026000029892],[-83.920260000298697,36.062080000391859],[-83.890810000181261,36.08027000016051],[-83.8712599997491,36.092469999790808],[-83.861500000224737,36.098569999605957],[-83.831920000407592,36.116629999674899],[-83.821899999685115,36.122470000090573],[-83.801710000316177,36.134040000345863],[-83.771500000224705,36.151459999679389],[-83.761599999640168,36.157429999794772],[-83.741929999969443,36.169519999748331],[-83.712880000311657,36.188080000391835],[-83.703349999702596,36.194439999606459],[-83.674790000158282,36.213499999925205],[-83.655749999862508,36.226220000153035],[-83.646229999714592,36.232569999805776],[-83.617420000332629,36.251389999848755],[-83.607650000347121,36.257489999663903],[-83.578080000091802,36.275549999732846],[-83.568049999807556,36.281390000148519],[-83.547870000000387,36.292969999965692],[-83.527690000193274,36.304540000220982],[-83.497870000100306,36.322330000429304],[-83.488100000114798,36.328439999806278],[-83.468540000120811,36.340640000335895],[-83.439219999703141,36.358959999804313],[-83.419429999894476,36.370900000035135],[-83.399370000225247,36.382599999990134],[-83.389219999803061,36.388320000267925],[-83.359020000172791,36.405739999601451],[-83.33921999990298,36.417690000293419],[-83.319670000370138,36.429889999923716],[-83.300130000399122,36.442100000015159],[-83.280590000428049,36.454310000106545],[-83.270689999843512,36.460280000221985],[-83.250759999873992,36.472100000314924],[-83.220409999621666,36.48940000040983],[-83.200360000413582,36.501089999903741],[-83.190459999829045,36.507060000019123],[-83.161029999734581,36.525249999787832],[-83.141480000201739,36.537450000317392],[-83.131699999755085,36.543559999694367],[-83.112030000084303,36.555629999624955],[-83.092100000114783,36.567460000178983],[-83.071920000307671,36.579030000434329],[-83.051739999601182,36.5905999997903],[-83.02192000040759,36.608389999998622],[-83.012150000422082,36.61448999981377],[-82.992720000127804,36.626829999604922],[-82.96404000044555,36.645769999785784],[-82.954529999859517,36.652129999899728],[-82.935489999563742,36.664839999666412],[-82.906930000019372,36.683910000446303],[-82.897289999733573,36.690139999961161],[-82.877869999900497,36.702479999752313],[-82.848290000083352,36.72053000025943],[-82.83825999979905,36.726369999775841],[-82.81807999999188,36.737949999592956],[-82.797909999746594,36.749519999848246],[-82.7680800000918,36.767310000056625],[-82.758299999645146,36.773409999871717],[-82.729240000425591,36.791980000077103],[-82.719720000277675,36.798329999729845],[-82.691159999834042,36.817410000071618],[-82.672129999999413,36.830119999838246],[-82.662609999851497,36.836479999952189],[-82.633799999570215,36.855290000433342],[-82.624020000022881,36.861399999810317],[-82.594449999767562,36.879450000317433],[-82.584429999944462,36.885300000294933],[-82.55409000015328,36.902589999928693],[-82.534040000045877,36.914280000321924],[-82.524140000360603,36.920259999999132],[-82.494690000243224,36.938440000206015],[-82.485049999957425,36.944669999720873],[-82.465879999961942,36.957249999787791],[-82.437320000417571,36.976330000129565],[-82.427809999831538,36.982679999782306],[-82.389600000439543,37.007980000077112],[-82.370190000168293,37.020319999868263],[-82.350510000036365,37.032389999798795],[-82.330580000066846,37.044209999891734],[-82.30024999983749,37.06150999998664],[-82.290219999553244,37.067359999964197],[-82.260400000359596,37.085150000172519],[-82.250630000374088,37.091260000448813],[-82.221570000255213,37.109820000192997],[-82.202520000397612,37.122529999959681],[-82.193009999811522,37.128890000073568],[-82.173970000415068,37.141599999840253],[-82.154919999658148,37.154320000068083],[-82.135889999823519,37.167029999834767],[-82.107330000279205,37.186099999715339],[-82.088300000444576,37.198810000381343],[-82.078780000296661,37.205169999595967],[-82.059740000000886,37.217889999823797],[-82.031190000018398,37.236950000142542],[-82.012149999722624,37.249670000370372],[-81.993360000163761,37.262629999974649],[-81.9748399995662,37.275860000338866],[-81.956800000419605,37.289590000378382],[-81.939300000094818,37.303829999654909],[-81.922550000182241,37.318829999804791],[-81.898060000368616,37.341970000315428],[-81.890060000168774,37.349850000377387],[-81.874050000207262,37.365620000063075],[-81.85831999966814,37.381639999586469],[-81.8423299997296,37.397399999710387],[-81.826589999628652,37.413420000133044],[-81.810599999690112,37.429180000256963],[-81.794859999589221,37.445210000241445],[-81.771000000049867,37.468980000127033],[-81.763119999987907,37.476989999888758],[-81.747390000348105,37.493010000311415],[-81.732160000383601,37.509539999971196],[-81.710080000191738,37.535090000103594],[-81.696109999876512,37.552889999873742],[-81.682660000158762,37.571199999780333],[-81.669589999978427,37.589890000123546],[-81.656769999635685,37.608830000304408],[-81.644209999591681,37.628029999884745],[-81.631900000284702,37.647480000201995],[-81.619839999915939,37.667180000356893],[-81.613880000261702,37.677100000065082],[-81.59711999988798,37.707999999600474],[-81.58658000036661,37.729230000164534],[-81.576429999944423,37.750840000265953],[-81.566909999796565,37.773090000203467],[-81.558030000384122,37.795970000415309],[-81.549399999909951,37.819110000026626],[-81.54102000017275,37.842509999936681],[-81.533030000434053,37.866279999822268],[-81.525159999933919,37.890180000306941],[-81.517290000333162,37.914079999892238],[-81.509800000269706,37.938370000375357],[-81.503079999742113,37.963410000371368],[-81.497240000225702,37.98934999960295],[-81.492540000220743,38.01643000014451],[-81.489240000025859,38.044909999596939],[-81.487209999941456,38.074649999597966],[-81.486070000430061,38.105289999733827],[-81.485560000293674,38.136569999705841],[-81.485429999694645,38.168230000114534],[-81.485429999694645,38.200009999761846],[-81.485429999694645,38.231799999870248],[-81.485429999694645,38.263580000416823],[-81.485560000293674,38.295239999926196],[-81.486070000430061,38.32651999989821],[-81.487209999941456,38.357149999572982],[-81.489240000025859,38.386900000035098],[-81.492540000220743,38.415380000386847],[-81.497229999764556,38.442460000029143],[-81.50307000018023,38.468400000160045],[-81.50992000040759,38.493320000018116],[-81.517790000008404,38.517219999603469],[-81.526309999906459,38.540480000251932],[-81.535190000218222,38.5633700000256],[-81.544710000366138,38.585619999963171],[-81.554730000189238,38.607350000202473],[-81.564879999712105,38.628969999865774],[-81.570209999991391,38.639519999848233],[-81.580610000251227,38.660880000112058],[-81.596480000051827,38.69267000022046],[-81.607030000034342,38.713899999885257],[-81.617809999831536,38.734870000150522],[-81.623269999810532,38.745299999995154],[-81.640030000184254,38.776189999968665],[-81.652080000091814,38.795899999685389],[-81.664760000273702,38.81496999956596],[-81.677969999715629,38.833530000209464],[-81.691679999732116,38.851590000278463],[-81.705509999886488,38.869510000186494],[-81.719090000203266,38.887699999955203],[-81.732539999920959,38.906000000299912],[-81.745989999638653,38.924310000206503],[-81.759580000416577,38.942490000413329],[-81.766819999743063,38.951140000011151],[-81.796389999998382,38.985080000341895],[-81.812640000235717,39.000600000189991],[-81.829900000284681,39.015079999742341],[-81.847920000307681,39.028820000242945],[-81.857060000018862,39.035550000332421],[-81.884469999590692,39.055770000185532],[-81.893479999602221,39.062640000435806],[-81.920009999961451,39.083740000400837],[-81.92850000027471,39.09111000032641],[-81.945509999586704,39.105859999739323],[-81.97101999967316,39.127979999977185],[-81.988540000020862,39.142220000153031],[-82.006560000043862,39.15595000019249],[-82.025099999765075,39.169170000095562],[-82.043879999762055,39.182140000161041],[-82.053399999909971,39.188500000274928],[-82.072560000343628,39.201089999903729],[-82.101750000162269,39.219519999948204],[-82.12155000043208,39.231469999740852],[-82.152269999760563,39.248379999837255],[-82.162670000020398,39.253850000277453],[-82.183489999663664,39.264779999797327],[-82.194019999623151,39.270119999638439],[-82.226139999661143,39.285629999924708],[-82.247709999716619,39.295800000369866],[-82.28083999956624,39.310299999945187],[-82.292130000399084,39.314870000250437],[-82.314980000126809,39.323780000147053],[-82.33756999955574,39.332919999858234],[-82.360409999721583,39.34182999975485],[-82.383260000348628,39.350719999628438],[-82.417270000310168,39.364330000429334],[-82.428700000404604,39.368779999697381],[-82.464360000013869,39.380730000389349],[-82.476420000382632,39.3845399998213],[-82.501039999895966,39.391659999909223],[-82.526170000445063,39.398269999860759],[-82.551560000393579,39.404629999974645],[-82.589640000085808,39.414159999684387],[-82.602329999829522,39.41733999974133],[-82.627699999755066,39.423699999855273],[-82.665910000046381,39.433110000326394],[-82.691799999670138,39.438960000303894],[-82.70486999985053,39.44175000036239],[-82.745620000362635,39.448619999713344],[-82.773669999770561,39.452300000344906],[-82.802230000214252,39.455480000401849],[-82.830780000196739,39.458659999559472],[-82.858829999604666,39.46234999975286],[-82.886249999637641,39.466670000220461],[-82.89982999995442,39.468959999704396],[-82.926730000289183,39.473790000308441],[-82.953890000023364,39.478370000175516],[-82.996410000321134,39.483449999717834],[-83.026110000276162,39.485490000263439],[-83.056699999904993,39.486629999774834],[-83.087919999808037,39.487139999911221],[-83.11939000044805,39.487139999911221],[-83.134879999812028,39.486760000373863],[-83.181199999979924,39.485490000263439],[-83.210910000396098,39.483460000179036],[-83.239460000378585,39.480280000122036],[-83.267010000111327,39.476079999792319],[-83.294040000145799,39.471379999787302],[-83.321079999742096,39.466670000220461],[-83.348479999752101,39.46234999975286],[-83.376539999621173,39.458659999559472],[-83.405080000041835,39.455480000401849],[-83.433639999586205,39.452300000344906],[-83.461700000354654,39.448619999713344],[-83.488980000226718,39.444180000007123],[-83.515500000124803,39.438960000303894],[-83.541400000209762,39.433110000326394],[-83.566910000296161,39.426879999912217],[-83.592169999645648,39.420390000098564],[-83.617169999595717,39.413660000009145],[-83.641930000169282,39.406669999620931],[-83.666410000421081,39.399419999833299],[-83.690539999821056,39.391789999608932],[-83.714400000259673,39.383910000446292],[-83.738250000237201,39.376030000384333],[-83.762120000237701,39.368139999861228],[-83.785839999616201,39.360130000099559],[-83.809590000378137,39.352129999899716],[-83.833449999917434,39.344240000275931],[-83.857179999757079,39.336240000076089],[-83.880519999598221,39.327840000315916],[-83.903629999624684,39.319189999818775],[-83.926480000251729,39.310299999945187],[-83.959599999640147,39.295809999931691],[-83.970260000198721,39.290599999790288],[-83.991460000278664,39.280040000245947],[-84.012150000222221,39.268980000127044],[-84.042100000014898,39.25129999959546],[-84.051870000000406,39.245199999780311],[-84.071289999833539,39.232869999550985],[-84.099979999976938,39.213930000269443],[-84.109500000124797,39.207570000155556],[-84.138050000107341,39.188500000274928],[-84.157090000403116,39.175789999608924],[-84.166609999651655,39.169430000394357],[-84.195179999657171,39.150359999614409],[-84.204559999644175,39.143880000261959],[-84.223209999941446,39.130779999597451],[-84.250500000274712,39.110439999606456],[-84.268010000161269,39.096200000329873],[-84.28502000037264,39.081450000017639],[-84.302020000122809,39.066699999705349],[-84.319039999895949,39.051959999854262],[-84.336560000243708,39.037719999678416],[-84.345570000255179,39.030850000327405],[-84.372850000127301,39.01051000033641],[-84.400129999999422,38.990170000345358],[-84.409149999572719,38.983300000095085],[-84.426669999920477,38.969059999919182],[-84.451669999870489,38.946430000444309],[-84.459919999907981,38.938800000219999],[-84.484409999721606,38.915659999709362],[-84.492659999759098,38.908039999946197],[-84.518169999845497,38.885910000146509],[-84.535929999569703,38.871930000269458],[-84.544950000042377,38.865069999580953],[-84.563230000364115,38.851590000278463],[-84.572359999614207,38.844849999727842],[-84.599529999809533,38.824380000037138],[-84.625420000332667,38.802640000235954],[-84.633800000069868,38.795139999711353],[-84.650300000144796,38.779880000162052],[-84.666530000359103,38.764369999875726],[-84.683039999995913,38.749110000326425],[-84.708539999621166,38.726990000088563],[-84.717299999795046,38.71987000000064],[-84.735339999841017,38.706139999961181],[-84.753620000162755,38.69267000022046],[-84.77189999958523,38.67919000001865],[-84.789910000046348,38.665459999979134],[-84.815930000269191,38.64384000031589],[-84.82441999968313,38.636470000390375],[-84.849949999792557,38.614350000152513],[-84.858440000105816,38.606980000226997],[-84.875959999554254,38.592740000051094],[-84.893979999577198,38.579010000011635],[-84.903120000187755,38.57227000036039],[-84.930529999759585,38.552060000069105],[-84.948560000243731,38.538319999568444],[-84.966070000130287,38.524080000291917],[-84.983080000341658,38.509329999979684],[-85.000080000091828,38.494590000128539],[-85.017099999865025,38.479839999816306],[-85.034609999751581,38.465599999640403],[-85.052629999774581,38.451869999600945],[-85.061770000385081,38.4451299999497],[-85.089190000418057,38.424919999658414],[-85.115969999715617,38.404059999969149],[-85.124729999889496,38.396939999881226],[-85.141729999639665,38.382200000030139],[-85.15873999985098,38.367449999717849],[-85.175739999601205,38.352700000304935],[-85.193250000387081,38.338460000129032],[-85.211279999971907,38.324730000089573],[-85.229560000293645,38.311260000348909],[-85.256980000326621,38.291039999596478],[-85.266109999576713,38.284299999945176],[-85.27513000004933,38.277440000156048],[-85.301899999785064,38.256590000028609],[-85.31993000026921,38.24285999998915],[-85.338200000129802,38.229379999787284],[-85.356479999552221,38.215899999585474],[-85.374750000312133,38.202429999844753],[-85.392779999896959,38.188699999805294],[-85.410289999783572,38.174450000067623],[-85.427290000433061,38.159710000216478],[-85.444310000206258,38.144959999904245],[-85.470079999692132,38.123090000403351],[-85.478839999866011,38.115970000315428],[-85.487840000315657,38.109109999626924],[-85.505990000038366,38.095499999725348],[-85.533399999610197,38.075290000333382],[-85.551419999633197,38.061560000293923],[-85.568939999980898,38.047320000118077],[-85.58595000019227,38.032569999805787],[-85.602949999942439,38.017829999954699],[-85.619949999692608,38.003079999642409],[-85.637470000040366,37.988840000365883],[-85.655490000063367,37.975110000326424],[-85.664640000235693,37.968369999775803],[-85.682919999658168,37.954900000035138],[-85.718830000004402,37.927310000256455],[-85.727590000178282,37.920179999707386],[-85.744600000389596,37.905439999856242],[-85.770109999576732,37.883319999618436],[-85.778610000351136,37.875940000131038],[-85.796129999799518,37.861699999955192],[-85.814149999822519,37.847969999915733],[-85.832419999683111,37.834500000175012],[-85.859830000154261,37.814280000321901],[-85.868969999865499,37.807539999771336],[-85.877990000338116,37.800670000420325],[-85.904769999635676,37.779829999854769],[-85.922789999658676,37.76609999981531],[-85.941069999980414,37.752619999613444],[-85.950209999691651,37.745879999962199],[-85.986630000174273,37.718800000319902],[-85.99564999974757,37.711939999631397],[-86.013150000072358,37.697689999893726],[-86.030169999845498,37.682950000042638],[-86.047160000033898,37.668199999730348],[-86.064179999807038,37.653450000317434],[-86.081700000154797,37.639210000141532],[-86.09972000017774,37.625480000102073],[-86.117999999600215,37.612010000361352],[-86.145289999933425,37.591670000370357],[-86.154299999944953,37.584800000120083],[-86.17180999983151,37.57055999994418],[-86.196809999781578,37.547929999569988],[-86.205059999819014,37.54030000024494],[-86.221310000056349,37.524789999958671],[-86.246189999868477,37.502040000345858],[-86.254560000043853,37.494530000259431],[-86.272080000391611,37.480290000083585],[-86.290089999953409,37.466560000044126],[-86.299229999664647,37.459820000392824],[-86.326640000135797,37.439610000101595],[-86.344669999720622,37.425880000062079],[-86.362179999607179,37.411639999886233],[-86.38770000015478,37.389519999648428],[-86.39620999959169,37.38214000016103],[-86.421970000415058,37.360280000221962],[-86.430729999689618,37.353160000134039],[-86.439730000139264,37.346289999883709],[-86.46701999957321,37.325949999892714],[-86.485299999894949,37.31248000015205],[-86.503310000356123,37.298739999651389],[-86.520840000265707,37.284500000374862],[-86.537579999717082,37.26950000022498],[-86.562089999553734,37.246359999714343],[-86.570080000191751,37.238479999652384],[-86.586070000130292,37.222720000427842],[-86.602069999630658,37.206949999842777],[-86.618560000143759,37.191699999855246],[-86.635319999618162,37.176690000143537],[-86.652850000427065,37.162449999967691],[-86.670850000427095,37.148719999928176],[-86.679990000138275,37.141980000276931],[-86.69826999956075,37.128509999636947],[-86.725430000194251,37.108039999946186],[-86.742940000080807,37.09379999977034],[-86.75969999955521,37.078799999620458],[-86.784190000268211,37.055660000009141],[-86.792189999568734,37.047779999947181],[-86.808180000406594,37.032010000261437],[-86.824170000345134,37.016250000137518],[-86.840670000420062,37.000989999688898],[-86.857429999894464,36.985990000438335],[-86.874950000242222,36.971750000262432],[-86.89295999980402,36.958020000222973],[-86.920379999836996,36.937809999931687],[-86.929520000447553,36.931070000280442],[-86.938540000020907,36.924200000030112],[-86.973430000094311,36.895589999978654],[-86.981809999831512,36.888090000353372],[-86.998309999906439,36.872829999904695],[-87.014299999845036,36.857069999780833],[-87.038160000283654,36.833299999895246],[-87.046029999884468,36.825290000133521],[-87.062019999823008,36.809520000447833],[-87.077759999923956,36.793500000025119],[-87.10162000036263,36.769730000139532],[-87.109500000424589,36.761720000377863],[-87.133350000402118,36.737949999592956],[-87.141220000002875,36.729930000269462],[-87.157209999941415,36.714170000145543],[-87.180950000242206,36.690269999660927],[-87.188930000419077,36.682389999598968],[-87.204669999620705,36.666370000075574],[-87.220670000020391,36.650600000389829],[-87.236399999660136,36.634579999967173],[-87.252400000059822,36.618819999843254],[-87.26814000016077,36.602800000319917],[-87.28413000009931,36.587040000195998],[-87.299870000200258,36.571010000211459],[-87.315860000138798,36.555250000087597],[-87.331600000239689,36.539229999664883],[-87.347590000178286,36.523470000440341],[-87.363330000279177,36.507450000017627],[-87.379320000217717,36.491680000331883],[-87.395060000318665,36.475659999909226],[-87.418910000296194,36.451890000023639],[-87.426790000358153,36.44388000026197],[-87.442780000296693,36.428120000138051],[-87.458509999936439,36.412090000153512],[-87.47451999989795,36.39633000002965],[-87.490250000437072,36.380309999606936],[-87.506240000375612,36.364550000382337],[-87.529979999777083,36.340640000335895],[-87.5379700004151,36.332760000273936],[-87.561580000116805,36.308730000089554],[-87.569440000155794,36.300720000327885],[-87.584690000143269,36.284189999768842],[-87.599659999809035,36.267410000271468],[-87.61387999996191,36.249869999900739],[-87.634309999606671,36.222659999659413],[-87.641039999696147,36.21351000038635],[-87.661350000102345,36.186170000445316],[-87.668200000329648,36.177149999972642],[-87.689900000084833,36.15120999984174],[-87.697370000125318,36.142819999643393],[-87.712620000112793,36.126289999983669],[-87.728099999914946,36.110019999723363],[-87.750810000381136,36.085099999865236],[-87.76541000007137,36.067930000369358],[-87.77936999992545,36.050129999699891],[-87.786220000152753,36.041110000126537],[-87.806410000421067,36.013650000047619],[-87.819849999677615,35.995340000141027],[-87.833439999556219,35.977159999934202],[-87.847269999710591,35.959229999564968],[-87.854249999637659,35.950330000129554],[-87.874689999743566,35.923130000349374],[-87.888020000222753,35.904689999843754],[-87.901079999941942,35.886000000399861],[-87.91390999984651,35.867060000218999],[-87.9202400003756,35.857520000048112],[-87.932939999681139,35.838459999729366],[-87.945630000324172,35.819380000286912],[-87.964680000181772,35.79077999979728],[-87.977360000363603,35.771709999916709],[-87.990050000107317,35.752640000036138],[-88.002750000312176,35.73357000015551],[-88.015440000055833,35.714489999813793],[-88.021789999708631,35.704960000104052],[-88.034480000351607,35.68589000022348],[-88.053390000048353,35.657160000034139],[-88.065700000254708,35.637700000155007],[-88.077759999724094,35.618000000000166],[-88.089430000094353,35.597909999846763],[-88.095150000372143,35.587740000300926],[-88.11151000028616,35.556469999890737],[-88.122439999806033,35.535610000201473],[-88.133350000202256,35.514760000074091],[-88.144519999997897,35.494159999784301],[-88.150220000252716,35.483990000238464],[-88.167739999701098,35.453869999800816],[-88.179289999933474,35.433649999947704],[-88.190459999729114,35.41306000011906],[-88.200989999688659,35.391819999993174],[-88.206070000130296,35.381009999711864],[-88.220660000258704,35.347959999954185],[-88.230060000268679,35.325580000316904],[-88.239710000116304,35.303460000079099],[-88.249740000400607,35.281720000277915],[-88.259889999923473,35.260110000176496],[-88.264970000365111,35.249299999895243],[-88.280949999842505,35.21764000038587],[-88.291359999664166,35.19628999968387],[-88.301510000086353,35.174670000020626],[-88.311540000370599,35.152930000219499],[-88.316490000213207,35.141999999800305],[-88.329959999953928,35.107800000070085],[-88.338579999966896,35.084659999559506],[-88.342900000434554,35.073090000203479],[-88.35495999990394,35.037489999763807],[-88.362819999942928,35.01359000017851],[-88.370690000443062,34.989689999693894],[-88.378299999745082,34.965529999809803],[-88.385539999970945,34.940990000388354],[-88.392519999897956,34.916209999791818],[-88.399249999987433,34.891160000233981],[-88.405719999778057,34.865859999939175],[-88.408890000273175,34.853139999711345],[-88.417909999846529,34.814489999813759],[-88.423610000101291,34.788430000444293],[-88.426409999721614,34.775329999779785],[-88.434269999760602,34.735540000370861],[-88.439479999901948,34.708969999965689],[-88.444810000181235,34.682530000159545],[-88.450009999861493,34.65595000019249],[-88.454959999704101,34.629129999949669],[-88.459659999709118,34.602050000307429],[-88.46396999971563,34.574579999767309],[-88.468029999884493,34.546880000311887],[-88.472350000352151,34.519409999771824],[-88.477039999895965,34.492330000129527],[-88.48186999960069,34.465380000186997],[-88.48656000004388,34.438299999645437],[-88.490749999912452,34.410709999866754],[-88.493929999969396,34.382099999815296],[-88.495960000053856,34.352350000252443],[-88.497099999565251,34.321710000116582],[-88.497600000139812,34.290439999706393],[-88.497729999839521,34.258780000197021],[-88.497729999839521,34.226999999650388],[-88.497729999839521,34.195210000441307],[-88.497729999839521,34.163429999894731],[-88.497729999839521,34.131650000247475],[-88.497729999839521,34.099860000139017],[-88.497729999839521,34.068079999592442],[-88.497729999839521,34.03629000038336],[-88.497729999839521,34.004509999836785],[-88.497729999839521,33.972719999728326],[-88.497729999839521,33.940940000081071],[-88.497729999839521,33.909160000433815],[-88.497729999839521,33.877370000325413],[-88.497729999839521,33.845589999778838],[-88.497729999839521,33.81379999967038],[-88.497729999839521,33.782020000023124],[-88.497600000139812,33.750370000075577],[-88.497099999565251,33.719090000103563],[-88.495960000053856,33.688449999967645],[-88.493929999969396,33.658700000404849],[-88.490749999912452,33.630090000353391],[-88.486569999605706,33.602499999675388],[-88.48186999960069,33.575420000033148],[-88.477169999595674,33.548349999952677],[-88.472979999727102,33.520760000173993],[-88.469819999693129,33.492150000122535],[-88.467780000046844,33.462390000098594],[-88.466639999636186,33.431760000423822],[-88.466130000399119,33.400490000013633],[-88.465999999800033,33.368829999604941],[-88.465870000100324,33.337170000095568],[-88.465359999963937,33.305890000123554],[-88.464219999553222,33.275260000448782],[-88.462190000368139,33.245509999986666],[-88.459010000311139,33.216899999935208],[-88.454830000004392,33.189310000156524],[-88.450129999999376,33.162229999614908],[-88.445309999856477,33.135279999672377],[-88.440620000312663,33.108200000030138],[-88.436299999845005,33.080739999951163],[-88.432239999676142,33.053019999573451],[-88.42792999966963,33.025560000393853],[-88.42322999966467,32.998479999852236],[-88.418290000283207,32.971650000047589],[-88.413080000141804,32.945079999642417],[-88.407749999862517,32.918630000274447],[-88.402539999721114,32.892059999869218],[-88.397340000040856,32.865490000363366],[-88.391889999623686,32.839169999795786],[-88.386179999807041,32.81311000042632],[-88.380200000129776,32.787299999995128],[-88.373989999738569,32.76174999986273],[-88.367519999947945,32.736449999567981],[-88.364090000053352,32.723989999638889],[-88.353809999931457,32.686609999851783],[-88.346569999705594,32.662070000430333],[-88.339079999642138,32.637790000408359],[-88.331600000039884,32.613510000386327],[-88.324359999814021,32.588970000065615],[-88.317379999887009,32.564179999907196],[-88.310649999797533,32.53913000034936],[-88.304050000307143,32.51395999975432],[-88.300629999974433,32.501499999825285],[-88.290340000290655,32.464120000038122],[-88.283109999626674,32.439579999717353],[-88.275500000324655,32.415430000294407],[-88.267629999824521,32.391529999809791],[-88.259760000223707,32.367619999763349],[-88.25188999972363,32.343720000177996],[-88.24389000042305,32.319950000292408],[-88.235899999785033,32.296169999945675],[-88.228030000184276,32.272270000360379],[-88.224090000153296,32.260319999668411],[-88.212160000383619,32.224590000428293],[-88.208229999914465,32.21265000019747],[-88.196300000144788,32.176920000058089],[-88.192360000113808,32.164970000265441],[-88.180439999905957,32.12924000012606],[-88.172430000144288,32.105470000240473],[-88.1645700001053,32.0815699997558],[-88.156699999605166,32.057659999709358],[-88.148700000304643,32.033889999823771],[-88.140709999666626,32.010119999938183],[-88.132840000065869,31.986220000352887],[-88.124969999565735,31.962310000306388],[-88.116970000265212,31.938540000420801],[-88.10899000008834,31.914760000074068],[-88.101110000026381,31.890870000050597],[-88.093249999987393,31.866960000004156],[-88.08524999978755,31.843190000118568],[-88.077260000048852,31.819409999771835],[-88.069379999986893,31.795510000186482],[-88.061510000386079,31.771609999701866],[-88.053519999748062,31.747839999816279],[-88.045520000447539,31.724060000368866],[-88.037649999947462,31.700159999884249],[-88.033720000377627,31.688210000091601],[-88.021909999846514,31.65235999981428],[-88.018230000114329,31.640149999722837],[-88.007060000318631,31.60365999960942],[-88.00008000039162,31.578870000350378],[-87.993350000302144,31.553830000354367],[-87.986760000373636,31.528659999759327],[-87.98003000028416,31.50361000020149],[-87.973050000357148,31.478820000043129],[-87.969360000163761,31.466609999951686],[-87.958320000067829,31.429999999700385],[-87.950839999566199,31.405710000116528],[-87.943600000239712,31.381169999795816],[-87.936620000312644,31.356379999637397],[-87.933320000117817,31.343790000008653],[-87.923420000432543,31.306029999784812],[-87.917210000041337,31.280479999652414],[-87.911239999925954,31.254670000120541],[-87.905519999648163,31.228609999851756],[-87.900070000130313,31.202290000183496],[-87.894869999550735,31.175719999778323],[-87.889660000308652,31.149150000272414],[-87.886990000388096,31.135930000369342],[-87.87913999991099,31.096129999599952],[-87.874179999607179,31.069310000256451],[-87.869490000063365,31.042229999714834],[-87.865169999595707,31.014769999635917],[-87.861099999865019,30.987050000157524],[-87.856789999858506,30.959590000078606],[-87.85208999985349,30.932510000436309],[-87.847269999710591,30.905559999594459],[-87.842580000166777,30.878479999952162],[-87.838390000298148,30.850890000173536],[-87.835090000103321,30.822409999821787],[-87.832549999882474,30.793170000395321],[-87.830269999960422,30.763669999770798],[-87.827729999739574,30.734430000344389],[-87.824430000444067,30.70594999999264],[-87.820239999676119,30.678360000213956],[-87.815539999671159,30.651279999672397],[-87.810839999666143,30.6242000000301],[-87.806660000258717,30.596610000251474],[-87.803480000201716,30.568009999761841],[-87.801450000117313,30.538260000198989],[-87.800320000167744,30.507620000063071],[-87.799799999570212,30.476349999652882],[-87.799549999732619,30.44481000028145],[-87.799039999596175,30.413539999871261],[-87.797900000084837,30.382899999735343],[-87.795870000000377,30.353150000172491],[-87.792689999943434,30.324540000121033],[-87.788509999636688,30.296959999904232],[-87.783809999631671,30.26986999980079],[-87.779109999626655,30.24279000015855],[-87.774919999758083,30.215209999941692],[-87.771759999724111,30.186599999890234],[-87.769720000077825,30.156850000327381],[-87.768590000128313,30.12621000019152],[-87.768079999991926,30.094939999781332],[-87.767939999831015,30.063280000271959],[-87.767939999831015,30.031490000163501],[-87.767939999831015,29.999709999616925],[-87.767939999831015,29.96792999996967],[-87.767939999831015,29.936139999861268],[-87.767939999831015,29.90434999975281],[-87.767939999831015,29.872570000105554],[-87.767939999831015,29.840789999558979],[-87.767939999831015,29.809000000349897],[-87.767939999831015,29.777219999803265],[-87.767939999831015,29.745429999694863],[-87.767939999831015,29.713650000047608],[-87.767939999831015,29.681870000400352],[-87.767939999831015,29.65008000029195],[-87.767939999831015,29.618299999745318],[-87.767939999831015,29.586509999636917],[-87.767939999831015,29.554729999989661],[-87.767939999831015,29.522950000342405],[-87.767939999831015,29.491160000233947],[-87.767939999831015,29.459379999687371],[-87.767939999831015,29.42758999957897],[-87.767939999831015,29.395809999931714],[-87.767939999831015,29.364030000284401],[-87.767939999831015,29.332240000176],[-87.767939999831015,29.300459999629425],[-87.767939999831015,29.268670000420343],[-87.767939999831015,29.236889999873711],[-87.767939999831015,29.205099999765309],[-87.767939999831015,29.173320000118053],[-87.767939999831015,29.141539999571478],[-87.767939999831015,29.109750000362396],[-87.767939999831015,29.077969999815764],[-87.767939999831015,29.046179999707363],[-87.767939999831015,29.014400000060107],[-87.767939999831015,28.982620000412851],[-87.767939999831015,28.950830000304393],[-87.767939999831015,28.919049999757817],[-87.767939999831015,28.887259999649416],[-87.767939999831015,28.85548000000216],[-87.767939999831015,28.823700000354847],[-87.767939999831015,28.791910000246446],[-87.767939999831015,28.76012999969987],[-87.767939999831015,28.728339999591469],[-87.767939999831015,28.696559999944213],[-87.767939999831015,28.664780000296901],[-87.767939999831015,28.632990000188499],[-87.767939999831015,28.601209999641924],[-87.767939999831015,28.569420000432842],[-87.767939999831015,28.53763999988621],[-87.767939999831015,28.505860000238954],[-87.767939999831015,28.474070000130553],[-87.768079999991926,28.44240999972186],[-87.768590000128313,28.411140000210992],[-87.769729999639651,28.380500000075074],[-87.771759999724111,28.350749999612958],[-87.774930000219229,28.3221399995615],[-87.779109999626655,28.294549999782816],[-87.783809999631671,28.26747000014052],[-87.788509999636688,28.24038999959896],[-87.792689999943434,28.212799999820277],[-87.795870000000377,28.184200000229964],[-87.798020000222721,28.154580000366877],[-87.799680000331648,28.124439999906201],[-87.801320000417604,28.094309999906727],[-87.803480000201716,28.064690000043583],[-87.806660000258717,28.036089999553951],[-87.810850000127289,28.008499999775324],[-87.815539999671159,27.981409999671882],[-87.820370000275204,27.954459999729352],[-87.825059999819018,27.927380000087055],[-87.829380000286676,27.899920000008137],[-87.833439999556219,27.87221000009157],[-87.837749999562732,27.844739999551507],[-87.842449999567748,27.81765999990921],[-87.847400000309676,27.790839999666389],[-87.852599999989877,27.764259999699391],[-87.857930000269221,27.737819999893247],[-87.863140000410567,27.711250000387338],[-87.86832999962968,27.684679999982166],[-87.873670000370112,27.658229999714877],[-87.878999999750079,27.631789999908733],[-87.884339999591191,27.605339999641387],[-87.886999999949921,27.592119999738316],[-87.894869999550735,27.552330000329391],[-87.900070000130313,27.525759999924219],[-87.9054000004096,27.499309999656873],[-87.910729999789567,27.47286999985073],[-87.916060000068853,27.446419999583441],[-87.92139000034814,27.419979999777297],[-87.926590000028398,27.393410000271444],[-87.93180999973157,27.366839999866215],[-87.937130000449031,27.340389999598926],[-87.942459999828998,27.313949999792783],[-87.947790000108341,27.287500000424814],[-87.953120000387628,27.26105999971935],[-87.958329999629655,27.234490000213498],[-87.963519999748087,27.207919999808269],[-87.968859999589199,27.181470000440299],[-87.974060000168777,27.154900000035127],[-87.978880000311676,27.127950000092596],[-87.983079999742074,27.100360000313913],[-87.986110000076337,27.071879999962164],[-87.987639999586236,27.042639999636435],[-87.987639999586236,27.013139999911232],[-87.985989999938454,26.984030000184475],[-87.982439999905978,26.95605999996917],[-87.976979999926925,26.92974000030091],[-87.969739999701119,26.905210000441286],[-87.960609999551707,26.882580000067094],[-87.949570000355152,26.861850000077595],[-87.936870000150293,26.842780000196967],[-87.915300000094817,26.816849999627948],[-87.899049999857482,26.801850000377385],[-87.881920000407604,26.788370000175519],[-87.864150000222253,26.776420000382871],[-87.835850000077357,26.762180000206968],[-87.826329999929442,26.758109999576959],[-87.79447999975207,26.749470000440283]]]},"properties":{"objectid":624,"stormname":"Isaias","stormtype":"HU","basin":"AL","advdate":"700 AM CDT Fri Oct 09 2026","advisnum":"11A","fcstprd":120,"stormnum":9,"idp_source":"al092026-011A_5day_pgn","idp_filedate":1791548272000,"idp_ingestdate":1791548290000,"st_area(shape)":28.533625962049456,"st_perimeter(shape)":32.263374629502628,"binnumber":"AT4"}}]}