{"type":"FeatureCollection","features":[{"type":"Feature","id":607,"geometry":{"type":"LineString","coordinates":[[-88.400000000399586,25.79999999980032],[-87.600000000199771,27.099999999900206],[-87.100000000299644,29.899999999700356],[-87.299999999899967,32.199999999600436],[-87.500000000399609,34.100000000299929],[-86.099999999600186,36.099999999900206],[-83.000000000399609,37.999999999700378]]},"properties":{"objectid":607,"stormname":"Isaias","stormtype":"HU","basin":"AL","advdate":"100 AM CDT Fri Oct 09 2026","advisnum":"10A","fcstprd":120,"stormnum":9,"idp_source":"al092026-010A_5day_lin","idp_filedate":1791526676000,"idp_ingestdate":1791526699000,"st_length(shape)":14.667145792110826,"binnumber":"AT4"}}]}