{"type":"FeatureCollection","features":[{"type":"Feature","id":643,"geometry":{"type":"LineString","coordinates":[[-87.200000000099806,28.400000000000148],[-86.799999999999898,29.70000000010009],[-87.100000000299644,32.099999999800275],[-87.200000000099806,34.20000000010009],[-84.999999999999886,36.500000000000171],[-80.999999999899956,39.100000000199998]]},"properties":{"objectid":643,"stormname":"Isaias","stormtype":"HU","basin":"AL","advdate":"100 PM CDT Fri Oct 09 2026","advisnum":"12A","fcstprd":120,"stormnum":9,"idp_source":"al092026-012A_5day_lin","idp_filedate":1791572556000,"idp_ingestdate":1791572571000,"st_length(shape)":13.834714249188611,"binnumber":"AT4"}}]}