{"type":"FeatureCollection","features":[{"type":"Feature","id":624,"geometry":{"type":"LineString","coordinates":[[-87.699999999999875,27.000000000100044],[-87.299999999899967,28.400000000000148],[-87.100000000299644,31.000000000199975],[-87.500000000399609,33.499999999700378],[-86.700000000199736,35.500000000199975],[-83.100000000199771,38.200000000200021]]},"properties":{"objectid":624,"stormname":"Isaias","stormtype":"HU","basin":"AL","advdate":"700 AM CDT Fri Oct 09 2026","advisnum":"11A","fcstprd":120,"stormnum":9,"idp_source":"al092026-011A_5day_lin","idp_filedate":1791548272000,"idp_ingestdate":1791548285000,"st_length(shape)":13.249566643185943,"binnumber":"AT4"}}]}