{"type":"FeatureCollection","features":[{"type":"Feature","id":23831,"geometry":{"type":"Point","coordinates":[-96.500000000399609,22.000000000199975]},"properties":{"objectid":23831,"stormname":"GENESIS022","stormtype":"DB","stormnum":9,"intensity":15,"basin":"al","mslp":0,"dtg":2026100418,"year":2026,"month":"10","day":4,"hhmm":"1800","lat":22,"lon":-96,"ss":0,"idp_source":"AL092026_pts","idp_filedate":1791548272000,"idp_ingestdate":1791548327000,"binnumber":"AT4"}},{"type":"Feature","id":23832,"geometry":{"type":"Point","coordinates":[-96.500000000399609,22.000000000199975]},"properties":{"objectid":23832,"stormname":"GENESIS022","stormtype":"DB","stormnum":9,"intensity":20,"basin":"al","mslp":0,"dtg":2026100500,"year":2026,"month":"10","day":5,"hhmm":"0000","lat":22,"lon":-96,"ss":0,"idp_source":"AL092026_pts","idp_filedate":1791548272000,"idp_ingestdate":1791548327000,"binnumber":"AT4"}},{"type":"Feature","id":23833,"geometry":{"type":"Point","coordinates":[-96.500000000399609,22.000000000199975]},"properties":{"objectid":23833,"stormname":"GENESIS022","stormtype":"DB","stormnum":9,"intensity":25,"basin":"al","mslp":0,"dtg":2026100506,"year":2026,"month":"10","day":5,"hhmm":"0600","lat":22,"lon":-96,"ss":0,"idp_source":"AL092026_pts","idp_filedate":1791548272000,"idp_ingestdate":1791548327000,"binnumber":"AT4"}},{"type":"Feature","id":23834,"geometry":{"type":"Point","coordinates":[-96.500000000399609,22.000000000199975]},"properties":{"objectid":23834,"stormname":"INVEST","stormtype":"DB","stormnum":9,"intensity":25,"basin":"al","mslp":1010,"dtg":2026100512,"year":2026,"month":"10","day":5,"hhmm":"1200","lat":22,"lon":-96,"ss":0,"idp_source":"AL092026_pts","idp_filedate":1791548272000,"idp_ingestdate":1791548327000,"binnumber":"AT4"}},{"type":"Feature","id":23835,"geometry":{"type":"Point","coordinates":[-96.299999999899967,22.199999999800298]},"properties":{"objectid":23835,"stormname":"INVEST","stormtype":"DB","stormnum":9,"intensity":25,"basin":"al","mslp":1010,"dtg":2026100518,"year":2026,"month":"10","day":5,"hhmm":"1800","lat":22,"lon":-96,"ss":0,"idp_source":"AL092026_pts","idp_filedate":1791548272000,"idp_ingestdate":1791548327000,"binnumber":"AT4"}},{"type":"Feature","id":23836,"geometry":{"type":"Point","coordinates":[-96.100000000299644,22.299999999600459]},"properties":{"objectid":23836,"stormname":"INVEST","stormtype":"DB","stormnum":9,"intensity":25,"basin":"al","mslp":1009,"dtg":2026100600,"year":2026,"month":"10","day":6,"hhmm":"0000","lat":22,"lon":-96,"ss":0,"idp_source":"AL092026_pts","idp_filedate":1791548272000,"idp_ingestdate":1791548327000,"binnumber":"AT4"}},{"type":"Feature","id":23837,"geometry":{"type":"Point","coordinates":[-95.99999999960022,22.199999999800298]},"properties":{"objectid":23837,"stormname":"INVEST","stormtype":"DB","stormnum":9,"intensity":25,"basin":"al","mslp":1009,"dtg":2026100606,"year":2026,"month":"10","day":6,"hhmm":"0600","lat":22,"lon":-96,"ss":0,"idp_source":"AL092026_pts","idp_filedate":1791548272000,"idp_ingestdate":1791548327000,"binnumber":"AT4"}},{"type":"Feature","id":23838,"geometry":{"type":"Point","coordinates":[-95.99999999960022,22.000000000199975]},"properties":{"objectid":23838,"stormname":"INVEST","stormtype":"DB","stormnum":9,"intensity":25,"basin":"al","mslp":1008,"dtg":2026100612,"year":2026,"month":"10","day":6,"hhmm":"1200","lat":22,"lon":-96,"ss":0,"idp_source":"AL092026_pts","idp_filedate":1791548272000,"idp_ingestdate":1791548327000,"binnumber":"AT4"}},{"type":"Feature","id":23839,"geometry":{"type":"Point","coordinates":[-95.700000000199736,21.900000000399814]},"properties":{"objectid":23839,"stormname":"NINE","stormtype":"TD","stormnum":9,"intensity":30,"basin":"al","mslp":1007,"dtg":2026100618,"year":2026,"month":"10","day":6,"hhmm":"1800","lat":22,"lon":-96,"ss":0,"idp_source":"AL092026_pts","idp_filedate":1791548272000,"idp_ingestdate":1791548327000,"binnumber":"AT4"}},{"type":"Feature","id":23840,"geometry":{"type":"Point","coordinates":[-95.300000000099828,21.699999999900228]},"properties":{"objectid":23840,"stormname":"NINE","stormtype":"TD","stormnum":9,"intensity":30,"basin":"al","mslp":1006,"dtg":2026100700,"year":2026,"month":"10","day":7,"hhmm":"0000","lat":22,"lon":-95,"ss":0,"idp_source":"AL092026_pts","idp_filedate":1791548272000,"idp_ingestdate":1791548327000,"binnumber":"AT4"}},{"type":"Feature","id":23841,"geometry":{"type":"Point","coordinates":[-94.599999999700117,21.900000000399814]},"properties":{"objectid":23841,"stormname":"ISAIAS","stormtype":"TS","stormnum":9,"intensity":35,"basin":"al","mslp":1004,"dtg":2026100706,"year":2026,"month":"10","day":7,"hhmm":"0600","lat":22,"lon":-95,"ss":0,"idp_source":"AL092026_pts","idp_filedate":1791548272000,"idp_ingestdate":1791548327000,"binnumber":"AT4"}},{"type":"Feature","id":23842,"geometry":{"type":"Point","coordinates":[-93.900000000199725,22.199999999800298]},"properties":{"objectid":23842,"stormname":"ISAIAS","stormtype":"TS","stormnum":9,"intensity":40,"basin":"al","mslp":1002,"dtg":2026100712,"year":2026,"month":"10","day":7,"hhmm":"1200","lat":22,"lon":-94,"ss":0,"idp_source":"AL092026_pts","idp_filedate":1791548272000,"idp_ingestdate":1791548327000,"binnumber":"AT4"}},{"type":"Feature","id":23843,"geometry":{"type":"Point","coordinates":[-93.299999999600175,22.500000000100044]},"properties":{"objectid":23843,"stormname":"ISAIAS","stormtype":"TS","stormnum":9,"intensity":50,"basin":"al","mslp":995,"dtg":2026100718,"year":2026,"month":"10","day":7,"hhmm":"1800","lat":22,"lon":-93,"ss":0,"idp_source":"AL092026_pts","idp_filedate":1791548272000,"idp_ingestdate":1791548327000,"binnumber":"AT4"}},{"type":"Feature","id":23844,"geometry":{"type":"Point","coordinates":[-92.299999999800036,22.699999999700367]},"properties":{"objectid":23844,"stormname":"ISAIAS","stormtype":"TS","stormnum":9,"intensity":60,"basin":"al","mslp":988,"dtg":2026100800,"year":2026,"month":"10","day":8,"hhmm":"0000","lat":23,"lon":-92,"ss":0,"idp_source":"AL092026_pts","idp_filedate":1791548272000,"idp_ingestdate":1791548327000,"binnumber":"AT4"}},{"type":"Feature","id":23845,"geometry":{"type":"Point","coordinates":[-91.49999999960022,23.099999999800275]},"properties":{"objectid":23845,"stormname":"ISAIAS","stormtype":"HU","stormnum":9,"intensity":70,"basin":"al","mslp":981,"dtg":2026100806,"year":2026,"month":"10","day":8,"hhmm":"0600","lat":23,"lon":-92,"ss":1,"idp_source":"AL092026_pts","idp_filedate":1791548272000,"idp_ingestdate":1791548327000,"binnumber":"AT4"}},{"type":"Feature","id":23846,"geometry":{"type":"Point","coordinates":[-90.599999999600186,23.400000000100079]},"properties":{"objectid":23846,"stormname":"ISAIAS","stormtype":"HU","stormnum":9,"intensity":75,"basin":"al","mslp":977,"dtg":2026100812,"year":2026,"month":"10","day":8,"hhmm":"1200","lat":23,"lon":-91,"ss":1,"idp_source":"AL092026_pts","idp_filedate":1791548272000,"idp_ingestdate":1791548327000,"binnumber":"AT4"}},{"type":"Feature","id":23847,"geometry":{"type":"Point","coordinates":[-89.80000000029969,23.900000000000148]},"properties":{"objectid":23847,"stormname":"ISAIAS","stormtype":"HU","stormnum":9,"intensity":80,"basin":"al","mslp":975,"dtg":2026100818,"year":2026,"month":"10","day":8,"hhmm":"1800","lat":24,"lon":-90,"ss":1,"idp_source":"AL092026_pts","idp_filedate":1791548272000,"idp_ingestdate":1791548327000,"binnumber":"AT4"}},{"type":"Feature","id":23848,"geometry":{"type":"Point","coordinates":[-89.000000000099817,24.800000000000125]},"properties":{"objectid":23848,"stormname":"ISAIAS","stormtype":"HU","stormnum":9,"intensity":85,"basin":"al","mslp":974,"dtg":2026100900,"year":2026,"month":"10","day":9,"hhmm":"0000","lat":25,"lon":-89,"ss":2,"idp_source":"AL092026_pts","idp_filedate":1791548272000,"idp_ingestdate":1791548327000,"binnumber":"AT4"}},{"type":"Feature","id":23849,"geometry":{"type":"Point","coordinates":[-88.400000000399586,25.79999999980032]},"properties":{"objectid":23849,"stormname":"ISAIAS","stormtype":"HU","stormnum":9,"intensity":90,"basin":"al","mslp":970,"dtg":2026100906,"year":2026,"month":"10","day":9,"hhmm":"0600","lat":26,"lon":-88,"ss":2,"idp_source":"AL092026_pts","idp_filedate":1791548272000,"idp_ingestdate":1791548327000,"binnumber":"AT4"}}]}