{"type":"FeatureCollection","features":[{"type":"Feature","id":4993,"geometry":{"type":"Point","coordinates":[-87.699999999999875,27.000000000100044]},"properties":{"objectid":4993,"stormname":"Hurricane Isaias","stormtype":"HU","dvlbl":"H","basin":"AL","advdate":"700 AM CDT Fri Oct 09 2026","advisnum":"11A","fcstprd":120,"gust":115,"maxwind":95,"mslp":958,"ssnum":2,"datelbl":"7:00 AM Fri","tcdvlp":"Hurricane","tcdir":20,"tcspd":13,"fldatelbl":"2026-10-09 4:00 AM Fri CDT","lat":27,"lon":-88,"stormnum":9,"stormsrc":"Tropical Cyclone","tau":0,"timezone":"CDT","validtime":"09/0900","idp_source":"al092026-011A_5day_pts","idp_filedate":1791548272000,"idp_ingestdate":1791548280000,"binnumber":"AT4"}},{"type":"Feature","id":4994,"geometry":{"type":"Point","coordinates":[-87.299999999899967,28.400000000000148]},"properties":{"objectid":4994,"stormname":"Hurricane Isaias","stormtype":"MH","dvlbl":"M","basin":"AL","advdate":"700 AM CDT Fri Oct 09 2026","advisnum":"11A","fcstprd":120,"gust":130,"maxwind":105,"mslp":9999,"ssnum":3,"datelbl":"1:00 PM Fri","tcdvlp":"Major Hurricane","tcdir":9999,"tcspd":9999,"fldatelbl":"2026-10-09 1:00 PM Fri CDT","lat":28,"lon":-87,"stormnum":9,"stormsrc":"Tropical Cyclone","tau":12,"timezone":"CDT","validtime":"09/1800","idp_source":"al092026-011A_5day_pts","idp_filedate":1791548272000,"idp_ingestdate":1791548280000,"binnumber":"AT4"}},{"type":"Feature","id":4995,"geometry":{"type":"Point","coordinates":[-87.100000000299644,31.000000000199975]},"properties":{"objectid":4995,"stormname":"Hurricane Isaias","stormtype":"HU","dvlbl":"H","basin":"AL","advdate":"700 AM CDT Fri Oct 09 2026","advisnum":"11A","fcstprd":120,"gust":80,"maxwind":65,"mslp":9999,"ssnum":1,"datelbl":"1:00 AM Sat","tcdvlp":"Hurricane","tcdir":9999,"tcspd":9999,"fldatelbl":"2026-10-10 1:00 AM Sat CDT","lat":31,"lon":-87,"stormnum":9,"stormsrc":"Tropical Cyclone","tau":24,"timezone":"CDT","validtime":"10/0600","idp_source":"al092026-011A_5day_pts","idp_filedate":1791548272000,"idp_ingestdate":1791548280000,"binnumber":"AT4"}},{"type":"Feature","id":4996,"geometry":{"type":"Point","coordinates":[-87.500000000399609,33.499999999700378]},"properties":{"objectid":4996,"stormname":"Hurricane Isaias","stormtype":"STS","dvlbl":"S","basin":"AL","advdate":"700 AM CDT Fri Oct 09 2026","advisnum":"11A","fcstprd":120,"gust":45,"maxwind":35,"mslp":9999,"ssnum":0,"datelbl":"1:00 PM Sat","tcdvlp":"Subtropical Storm","tcdir":9999,"tcspd":9999,"fldatelbl":"2026-10-10 1:00 PM Sat CDT","lat":34,"lon":-88,"stormnum":9,"stormsrc":"Post-Tropical Cyclone","tau":36,"timezone":"CDT","validtime":"10/1800","idp_source":"al092026-011A_5day_pts","idp_filedate":1791548272000,"idp_ingestdate":1791548280000,"binnumber":"AT4"}},{"type":"Feature","id":4997,"geometry":{"type":"Point","coordinates":[-86.700000000199736,35.500000000199975]},"properties":{"objectid":4997,"stormname":"Hurricane Isaias","stormtype":"STD","dvlbl":"D","basin":"AL","advdate":"700 AM CDT Fri Oct 09 2026","advisnum":"11A","fcstprd":120,"gust":35,"maxwind":25,"mslp":9999,"ssnum":0,"datelbl":"1:00 AM Sun","tcdvlp":"Subtropical Depression","tcdir":9999,"tcspd":9999,"fldatelbl":"2026-10-11 1:00 AM Sun CDT","lat":36,"lon":-87,"stormnum":9,"stormsrc":"Post-Tropical Cyclone","tau":48,"timezone":"CDT","validtime":"11/0600","idp_source":"al092026-011A_5day_pts","idp_filedate":1791548272000,"idp_ingestdate":1791548280000,"binnumber":"AT4"}},{"type":"Feature","id":4998,"geometry":{"type":"Point","coordinates":[-83.100000000199771,38.200000000200021]},"properties":{"objectid":4998,"stormname":"Hurricane Isaias","stormtype":"STD","dvlbl":"D","basin":"AL","advdate":"700 AM CDT Fri Oct 09 2026","advisnum":"11A","fcstprd":120,"gust":20,"maxwind":15,"mslp":9999,"ssnum":0,"datelbl":"1:00 PM Sun","tcdvlp":"Subtropical Depression","tcdir":9999,"tcspd":9999,"fldatelbl":"2026-10-11 1:00 PM Sun CDT","lat":38,"lon":-83,"stormnum":9,"stormsrc":"Post-Tropical Cyclone","tau":60,"timezone":"CDT","validtime":"11/1800","idp_source":"al092026-011A_5day_pts","idp_filedate":1791548272000,"idp_ingestdate":1791548280000,"binnumber":"AT4"}}]}