{"type":"FeatureCollection","features":[{"type":"Feature","id":643,"geometry":{"type":"Polygon","coordinates":[[[-87.284159999684107,28.143429999694888],[-87.260750000212226,28.139859999639441],[-87.235420000332624,28.138200000429833],[-87.208450000367122,28.138200000429833],[-87.180830000104322,28.139859999639441],[-87.1535900002782,28.143429999694888],[-87.127389999848504,28.148779999997146],[-87.102449999967405,28.155670000270447],[-87.079030000034379,28.164079999592445],[-87.056889999773546,28.173770000385332],[-87.035629999624689,28.184349999952701],[-87.00559999974007,28.202069999630908],[-86.996440000005919,28.208819999743355],[-86.970470000290163,28.230619999613452],[-86.955459999679135,28.247449999617913],[-86.941980000376589,28.265799999570447],[-86.92415999968415,28.29575999982427],[-86.918560000443563,28.30608999955399],[-86.907610000001398,28.326990000188516],[-86.896930000319173,28.348150000222461],[-86.886490000013396,28.36956999965588],[-86.870330000329147,28.401179999557485],[-86.864870000350152,28.411630000324408],[-86.853910000346161,28.43253999962144],[-86.83647999965217,28.462880000311884],[-86.830499999974904,28.4728200000431],[-86.812040000345633,28.50213999956145],[-86.799449999817512,28.521389999648932],[-86.793080000141799,28.53094999984279],[-86.7739900002382,28.559630000424306],[-86.767630000124313,28.569189999718844],[-86.74866999992048,28.598000000000127],[-86.74242999994442,28.607689999893751],[-86.730219999853034,28.627320000417853],[-86.712400000059858,28.6572799997723],[-86.706539999621157,28.667350000102545],[-86.689240000425571,28.697810000031609],[-86.683390000448071,28.707880000361854],[-86.671419999733075,28.727770000285432],[-86.659200000079863,28.747399999910215],[-86.646989999988421,28.767030000434318],[-86.634779999896978,28.786660000059101],[-86.622819999643184,28.806549999982678],[-86.605380000286686,28.836889999773803],[-86.593799999570194,28.857149999672913],[-86.581969999915486,28.87717000019552],[-86.575990000238221,28.887109999926679],[-86.563769999685633,28.906739999551462],[-86.551550000032364,28.926370000075565],[-86.539600000239716,28.946259999999143],[-86.522799999820052,28.977230000064594],[-86.512619999813012,28.998909999796808],[-86.503199999780065,29.021339999941176],[-86.498610000351107,29.032680000381845],[-86.485000000449531,29.066840000066065],[-86.476089999653652,29.089789999908703],[-86.47162999992446,29.101260000049081],[-86.457500000324671,29.134920000058116],[-86.448350000152288,29.157609999601959],[-86.443899999984922,29.169079999742337],[-86.430920000357617,29.20388000016203],[-86.422519999698125,29.227340000141055],[-86.418460000428581,29.239189999818791],[-86.406620000312671,29.275140000210968],[-86.398729999789566,29.29911000032638],[-86.391219999703139,29.323450000417324],[-86.384350000352129,29.348430000344365],[-86.377990000238242,29.373929999969675],[-86.37212999979954,29.399939999731373],[-86.366780000396602,29.426450000067575],[-86.361559999794054,29.453090000103543],[-86.358889999873497,29.466350000052614],[-86.351009999811538,29.506250000037596],[-86.346039999945958,29.533139999911214],[-86.341339999940942,29.560299999645395],[-86.337009999911459,29.587830000254428],[-86.332929999719624,29.615620000262936],[-86.328610000151286,29.64314999997265],[-86.323899999685125,29.670309999706888],[-86.319060000418574,29.697330000179534],[-86.314349999952412,29.724480000351889],[-86.310149999622695,29.752150000222457],[-86.306969999565695,29.780829999904711],[-86.304929999919466,29.810659999559448],[-86.303670000270188,29.841250000087598],[-86.302640000435588,29.872100000015109],[-86.30137999988699,29.90268999964394],[-86.299329999779559,29.932520000197997],[-86.296149999722616,29.96119999988025],[-86.291959999853987,29.988860000188993],[-86.287250000287202,30.016010000361348],[-86.282530000259214,30.043170000095586],[-86.278340000390585,30.070830000404328],[-86.275160000333642,30.099510000086582],[-86.273119999788037,30.129339999741319],[-86.271969999815553,30.160059999969178],[-86.271470000140312,30.191420000033133],[-86.271340000440546,30.223159999634447],[-86.271340000440546,30.25502999983479],[-86.271340000440546,30.286900000035132],[-86.271340000440546,30.318770000235475],[-86.271340000440546,30.350629999974672],[-86.271340000440546,30.382500000175014],[-86.271470000140312,30.414239999776328],[-86.271980000276699,30.445599999840283],[-86.273119999788037,30.476320000068085],[-86.275160000333642,30.506149999722879],[-86.278340000390585,30.534830000304396],[-86.282530000259214,30.562489999713875],[-86.287250000287202,30.589650000347376],[-86.291950000292161,30.616799999620412],[-86.296149999722616,30.644459999929211],[-86.299329999779559,30.673139999611465],[-86.301359999864019,30.702970000165521],[-86.302509999836502,30.733690000393324],[-86.303019999972889,30.765049999557959],[-86.303149999672655,30.796790000058593],[-86.303149999672655,30.828660000258935],[-86.303149999672655,30.860529999559958],[-86.303149999672655,30.8923999997603],[-86.303149999672655,30.924260000398817],[-86.303149999672655,30.956129999699897],[-86.303149999672655,30.987999999900239],[-86.303149999672655,31.019870000100582],[-86.303149999672655,31.051740000300924],[-86.303280000271684,31.083479999902238],[-86.303790000408071,31.114830000404311],[-86.304940000380611,31.145560000193996],[-86.306980000026897,31.175380000286907],[-86.310149999622695,31.204070000430306],[-86.314360000413558,31.231729999839786],[-86.319060000418574,31.258880000012141],[-86.323780000446561,31.286030000184496],[-86.327970000315133,31.313689999593976],[-86.331150000372133,31.342370000175492],[-86.333190000018362,31.372199999830286],[-86.334339999990902,31.402920000058089],[-86.334839999666144,31.434280000122044],[-86.334970000265173,31.466019999723358],[-86.334970000265173,31.4978899999237],[-86.334970000265173,31.529760000124043],[-86.334970000265173,31.561630000324385],[-86.334970000265173,31.593499999625408],[-86.334970000265173,31.62536999982575],[-86.334970000265173,31.641299999695377],[-86.334970000265173,31.689099999765347],[-86.334970000265173,31.720969999965689],[-86.334970000265173,31.752840000166032],[-86.334970000265173,31.784710000366374],[-86.334970000265173,31.816579999667397],[-86.334970000265173,31.848449999867739],[-86.334970000265173,31.880309999606936],[-86.334970000265173,31.912179999807279],[-86.334970000265173,31.944050000007621],[-86.334970000265173,31.975920000207964],[-86.334970000265173,32.007790000408363],[-86.334970000265173,32.03965000014756],[-86.334970000265173,32.071520000347903],[-86.334970000265173,32.103389999648925],[-86.334970000265173,32.135259999849268],[-86.334970000265173,32.16713000004961],[-86.334970000265173,32.198989999788807],[-86.334970000265173,32.23085999998915],[-86.334970000265173,32.262730000189492],[-86.335099999964939,32.294480000251951],[-86.335599999640181,32.325829999854761],[-86.336749999612664,32.356550000082564],[-86.338790000158269,32.386379999737358],[-86.341970000215213,32.415060000318931],[-86.346160000083842,32.442730000189499],[-86.350880000111829,32.469880000361854],[-86.355589999678614,32.497029999634947],[-86.359790000008388,32.524689999943689],[-86.362959999604186,32.553380000087088],[-86.365129999849501,32.583080000042116],[-86.366780000396602,32.613290000133532],[-86.36843999960621,32.643489999763801],[-86.370589999828496,32.673189999718829],[-86.373780000346642,32.701879999862228],[-86.37797999977704,32.729540000171028],[-86.382690000243201,32.756690000343383],[-86.387399999810043,32.783850000077564],[-86.391600000139817,32.811510000386363],[-86.39490999989647,32.840069999930677],[-86.397450000117317,32.869379999887258],[-86.399730000039369,32.89895000014252],[-86.402279999822042,32.928269999660927],[-86.405589999578694,32.95683000010456],[-86.409789999908469,32.984490000413359],[-86.414509999936456,33.011639999686395],[-86.41920000037959,33.03878999985875],[-86.42341000027119,33.066450000167492],[-86.426590000328133,33.095129999849746],[-86.428620000412593,33.12496000040386],[-86.429759999923931,33.155690000193488],[-86.430279999622201,33.187039999796298],[-86.430399999760084,33.218780000296931],[-86.430399999760084,33.250649999597954],[-86.430399999760084,33.282519999798296],[-86.430399999760084,33.314389999998639],[-86.430399999760084,33.346260000198981],[-86.430399999760084,33.378119999938178],[-86.430279999622201,33.409870000000637],[-86.429779999946959,33.441230000064593],[-86.428629999974419,33.471950000292452],[-86.426590000328133,33.501779999947189],[-86.42341000027119,33.530459999629443],[-86.419089999803532,33.557990000238476],[-86.413859999639158,33.584630000274444],[-86.408000000099833,33.610640000036142],[-86.401639999985889,33.63613000009957],[-86.394780000196761,33.661119999588436],[-86.387410000271188,33.68559000027841],[-86.379379999587229,33.709429999794793],[-86.375180000156774,33.72114999977282],[-86.360670000120308,33.75443000024444],[-86.350240000275676,33.775840000116034],[-86.344889999973418,33.786419999683403],[-86.327460000178746,33.816760000373847],[-86.315370000225244,33.836519999698396],[-86.309270000410095,33.846340000190992],[-86.290430000344145,33.875269999710838],[-86.277699999655169,33.894390000098554],[-86.264980000326659,33.91350999958695],[-86.25860999975157,33.923069999780807],[-86.239519999848028,33.951750000362381],[-86.226799999620198,33.970869999850777],[-86.220440000405574,33.980430000044635],[-86.207459999879006,33.999299999695381],[-86.187349999702633,34.026960000004124],[-86.173360000263699,34.044810000281416],[-86.158710000066321,34.062019999823292],[-86.15121000044104,34.07043000004461],[-86.128170000045372,34.095169999695884],[-86.120419999683122,34.103319999618407],[-86.105129999649648,34.119899999785332],[-86.090130000399085,34.136720000227967],[-86.068999999949938,34.163360000263935],[-86.062129999699607,34.172410000321406],[-86.041889999823525,34.19994000003112],[-86.028270000360124,34.218180000306916],[-86.01428000002187,34.236020000123062],[-86.007150000372121,34.244820000342884],[-85.992130000199268,34.261650000347402],[-85.96896999966566,34.286249999837764],[-85.961080000041875,34.294279999622404],[-85.945299999894985,34.31034000009106],[-85.929280000371591,34.326149999822803],[-85.905470000440062,34.35011000037639],[-85.897459999779073,34.358009999562],[-85.881679999632183,34.374079999592425],[-85.865649999647644,34.389879999762343],[-85.849850000377103,34.405940000230999],[-85.833829999954446,34.421749999962685],[-85.810029999584685,34.445709999616952],[-85.802019999823017,34.453620000163028],[-85.785980000276709,34.469429999894714],[-85.769440000155782,34.484730000389334],[-85.752639999736118,34.49976000012407],[-85.735080000241737,34.514040000345858],[-85.717009999711593,34.527810000431316],[-85.698679999782087,34.541320000217979],[-85.680360000313669,34.554830000004642],[-85.662280000221756,34.5686000000901],[-85.644730000289201,34.582880000311889],[-85.619670000270219,34.605560000293906],[-85.611400000209755,34.613209999641924],[-85.595359999764071,34.629020000272931],[-85.571429999694601,34.652850000227488],[-85.563540000070816,34.660889999573953],[-85.53948999986352,34.684600000289947],[-85.531469999640649,34.692500000374878],[-85.514939999980925,34.707799999970177],[-85.498120000437552,34.722840000166002],[-85.471530000009409,34.744009999761829],[-85.453340000240701,34.757639999686376],[-85.435010000311138,34.771159999934184],[-85.425860000138812,34.777919999608457],[-85.416819999643167,34.784800000319876],[-85.381699999755085,34.813350000302421],[-85.373170000295147,34.820740000250964],[-85.347600000139778,34.84291999965842],[-85.339069999780577,34.850320000068109],[-85.321499999825051,34.864589999828752],[-85.312469999790551,34.871480000102054],[-85.275939999631191,34.898630000274466],[-85.257749999862483,34.912269999760838],[-85.248699999805069,34.919149999572994],[-85.239930000069364,34.926289999683888],[-85.2140999996152,34.948209999691869],[-85.197039999796061,34.963000000050101],[-85.179990000438067,34.977790000408334],[-85.162410000021396,34.992069999730859],[-85.144349999952453,35.00583999981626],[-85.126020000022891,35.019340000041097],[-85.098539999920945,35.039610000401353],[-85.089389999748562,35.046370000075569],[-85.062410000221234,35.067149999672893],[-85.053500000324675,35.074160000084078],[-85.035420000232705,35.08791999970839],[-85.01711000032617,35.101439999956199],[-84.998780000396607,35.114949999742862],[-84.980449999567725,35.128460000428845],[-84.962130000099307,35.141979999777334],[-84.94405999956922,35.155740000300909],[-84.926250000237189,35.169769999785785],[-84.908170000145276,35.183530000309418],[-84.889849999777539,35.197040000096081],[-84.871519999848033,35.210560000343889],[-84.853200000379616,35.224070000130553],[-84.844039999746087,35.230829999804769],[-84.807899999585231,35.258360000413859],[-84.798989999688615,35.265369999925724],[-84.789959999654172,35.272249999737824],[-84.753430000394076,35.299410000371381],[-84.744260000198722,35.306170000045597],[-84.725950000292187,35.31967999983226],[-84.716780000096833,35.326429999944708],[-84.698590000328124,35.3400700003304],[-84.671730000039361,35.360979999627432],[-84.653660000408593,35.374740000151007],[-84.644499999775064,35.38149999982528],[-84.626049999707618,35.394879999912234],[-84.607340000240697,35.408019999723365],[-84.578830000304151,35.427260000248964],[-84.559749999962435,35.440010000061591],[-84.550200000229722,35.44637999973736],[-84.521819999992886,35.465760000423813],[-84.503249999787556,35.479020000372884],[-84.484919999857993,35.492530000159547],[-84.46683999976608,35.506289999783803],[-84.449039999995875,35.520320000167999],[-84.421800000169753,35.540840000365847],[-84.412640000435545,35.54760000004012],[-84.403350000102307,35.554230000014627],[-84.384639999736066,35.567349999802786],[-84.365680000431553,35.580230000214499],[-84.337039999895978,35.599349999702895],[-84.327499999725092,35.605720000277927],[-84.298869999650663,35.624850000227468],[-84.289330000379096,35.631219999903237],[-84.260700000304666,35.650340000290953],[-84.251149999672634,35.656709999966665],[-84.222519999598205,35.675830000354381],[-84.203689999993401,35.688839999566483],[-84.185099999765043,35.702100000414816],[-84.166780000296683,35.71561000020148],[-84.148709999766595,35.729369999825792],[-84.130900000434565,35.743389999748842],[-84.112569999605682,35.756909999996651],[-84.093730000439052,35.769909999646927],[-84.084079999692108,35.77614999962293],[-84.054550000382108,35.794380000336901],[-84.044370000375125,35.800119999738342],[-84.02412000003784,35.811719999578486],[-84.004150000022378,35.823579999717367],[-83.974619999813058,35.841810000431337],[-83.955280000071866,35.854299999945169],[-83.936190000168267,35.867040000195971],[-83.917100000264668,35.879790000008654],[-83.898019999922951,35.892539999821281],[-83.888470000190239,35.89891000039637],[-83.869380000286696,35.911660000208997],[-83.840739999751065,35.930790000158538],[-83.821660000308668,35.943530000409339],[-83.802570000405069,35.956280000221966],[-83.793030000234239,35.962649999897735],[-83.764139999861015,35.981520000447802],[-83.754340000290654,35.987640000285921],[-83.734620000112784,35.999750000262452],[-83.714650000097322,36.011599999940188],[-83.684219999753054,36.028940000081093],[-83.674170000345157,36.034810000081563],[-83.644259999699102,36.05264999989771],[-83.634460000128797,36.05876999973583],[-83.614869999650637,36.070999999850244],[-83.585470000040345,36.089360000263923],[-83.575550000332157,36.095350000402334],[-83.555569999855493,36.107209999641896],[-83.535340000440556,36.118799999920213],[-83.515110000126299,36.1303999997603],[-83.495129999649635,36.142259999899238],[-83.475399999909939,36.154369999875712],[-83.45579999987001,36.166609999552009],[-83.426409999821544,36.184960000403862],[-83.406559999943909,36.196950000242452],[-83.396500000074866,36.202800000219952],[-83.366089999753569,36.220149999922683],[-83.35602999988447,36.226010000361384],[-83.326129999699617,36.243859999739357],[-83.316330000129312,36.249979999577477],[-83.296739999651152,36.262209999691891],[-83.267329999579715,36.28057000010557],[-83.25740999987147,36.286560000243981],[-83.237299999695097,36.298289999783833],[-83.216689999843538,36.309510000086561],[-83.195819999693128,36.320470000090552],[-83.164519999698143,36.336910000096566],[-83.154080000291685,36.34239000009859],[-83.123290000433087,36.359340000240991],[-83.113360000263697,36.365330000379345],[-83.083830000054377,36.383560000193995],[-83.064239999576216,36.395799999870235],[-83.04464000043555,36.408040000445794],[-83.034710000266216,36.414029999684885],[-83.014609999651668,36.425760000124058],[-82.993990000238227,36.436980000426843],[-82.96267999978204,36.4534200004328],[-82.952249999937465,36.458900000434824],[-82.920940000380597,36.475350000002663],[-82.91076999993544,36.481090000303425],[-82.880729999589676,36.498809999981631],[-82.870930000019371,36.504920000257925],[-82.851329999979384,36.517159999934222],[-82.831729999939455,36.529399999610462],[-82.812009999761585,36.54150000002511],[-82.781719999578229,36.558969999865724],[-82.771289999733597,36.564449999867747],[-82.750419999583187,36.575420000332883],[-82.718860000188727,36.591600000040103],[-82.708179999607182,36.596830000204477],[-82.686920000357645,36.607409999771789],[-82.665919999608207,36.618249999637897],[-82.645050000357116,36.629209999641944],[-82.614259999599199,36.646159999784288],[-82.59440999972162,36.658149999622935],[-82.584610000151258,36.66425999989923],[-82.555209999641647,36.682620000312909],[-82.545410000071342,36.688740000151029],[-82.525680000331647,36.700850000127559],[-82.495399999710116,36.718310000406348],[-82.474529999559707,36.729279999972164],[-82.443110000326158,36.745590000278412],[-82.443099999865012,36.745590000278412],[-82.411160000033874,36.761400000010156],[-82.400599999590213,36.766750000312413],[-82.379610000201239,36.77759000017852],[-82.358729999589684,36.788550000182511],[-82.338119999738069,36.799769999585976],[-82.308080000291682,36.817490000163502],[-82.298279999822,36.823600000439797],[-82.278690000243216,36.835840000116036],[-82.25909000020323,36.848079999792276],[-82.229439999856027,36.866179999907217],[-82.209079999842004,36.877659999609421],[-82.198640000435546,36.883130000049619],[-82.177759999824048,36.894099999615435],[-82.1567799999969,36.904929999919716],[-82.124829999704616,36.920739999651403],[-82.114270000160275,36.92608999995366],[-82.093139999711127,36.936800000120058],[-82.071890000023359,36.947379999687371],[-82.050640000335648,36.957960000154003],[-82.029520000347645,36.968670000320401],[-81.997570000055362,36.984469999590942],[-81.987009999611701,36.989830000354402],[-81.955579999916949,37.006139999761331],[-81.945139999611172,37.0116300002245],[-81.904419999583183,37.034569999605935],[-81.894499999874995,37.040559999744346],[-81.88470000030469,37.046679999582466],[-81.855310000256225,37.065039999996145],[-81.845500000224717,37.071159999834265],[-81.81586000033866,37.089259999949206],[-81.805669999870474,37.094989999788822],[-81.774630000174284,37.111690000093574],[-81.764189999868506,37.117170000095598],[-81.743190000018387,37.128009999961648],[-81.721940000330619,37.138590000428337],[-81.700689999743588,37.14916999999565],[-81.669010000211244,37.165229999564986],[-81.658320000067818,37.17045999972936],[-81.637070000380106,37.181040000195992],[-81.605639999786035,37.197360000064123],[-81.574580000066817,37.214060000368875],[-81.564400000059834,37.219790000208491],[-81.5544699998905,37.225780000346901],[-81.524950000142269,37.244010000161552],[-81.505359999664165,37.256249999837792],[-81.485759999624179,37.268490000413351],[-81.465900000184774,37.280469999790796],[-81.445540000170752,37.291939999931174],[-81.435110000326119,37.297419999933197],[-81.414240000175766,37.308390000398333],[-81.382679999881987,37.324579999667378],[-81.371989999738616,37.329800000269927],[-81.340170000045362,37.345739999701379],[-81.319050000057359,37.356449999867721],[-81.308359999913932,37.36166999957095],[-81.287110000226221,37.372250000037639],[-81.255420000232732,37.388309999606918],[-81.244739999651131,37.393539999771292],[-81.223469999940448,37.404120000237981],[-81.202479999652155,37.414960000104088],[-81.181610000401065,37.425920000108079],[-81.16099999965013,37.437129999949661],[-81.130969999765568,37.45486000008907],[-81.111369999725582,37.467090000203484],[-81.091769999685653,37.479329999879724],[-81.081970000115291,37.485449999717844],[-81.052319999768088,37.503549999832785],[-81.042139999761048,37.509279999672401],[-81.021520000347607,37.520499999975186],[-81.00065999975908,37.531459999979177],[-80.979659999908961,37.542299999845284],[-80.958399999760047,37.552880000311916],[-80.926589999628675,37.568810000181486],[-80.916030000084334,37.574170000045626],[-80.894780000396622,37.584749999612939],[-80.852529999959415,37.606160000383852],[-80.842100000114783,37.611640000385876],[-80.831670000270208,37.617129999949668],[-80.800869999950407,37.634080000092069],[-80.790939999781074,37.64007000023048],[-80.761409999571697,37.658300000045131],[-80.741819999992913,37.67053999972137],[-80.722210000391101,37.68278000029693],[-80.712300000244682,37.688770000435341],[-80.692179999607163,37.700490000413311],[-80.661130000349146,37.7171899998188],[-80.650699999605195,37.722669999820766],[-80.629699999755076,37.733509999686873],[-80.608450000067364,37.744090000153506],[-80.587200000379596,37.754669999720875],[-80.566199999630157,37.765500000025099],[-80.545330000379124,37.776469999590972],[-80.524719999628189,37.787689999893701],[-80.504610000351136,37.799420000332873],[-80.48487999971212,37.811519999848258],[-80.455489999663655,37.829880000261937],[-80.44569000009335,37.836000000100057],[-80.425960000353655,37.848110000076588],[-80.395679999732067,37.865570000355376],[-80.385249999887492,37.8710500003574],[-80.364370000175256,37.882019999923216],[-80.332809999881476,37.898210000091581],[-80.322130000199252,37.90342999979481],[-80.290309999606677,37.91935999966438],[-80.279879999762045,37.924850000127549],[-80.248570000205234,37.941290000133563],[-80.238390000198251,37.947030000434324],[-80.208360000313633,37.964750000112588],[-80.188769999835529,37.976989999788827],[-80.169169999795542,37.989219999903241],[-80.159359999764092,37.995339999741361],[-80.129710000316152,38.013439999856246],[-80.119539999870995,38.019180000157007],[-80.098919999558234,38.030399999560473],[-80.067619999563249,38.046839999566487],[-80.057189999718616,38.052319999568454],[-80.036319999568207,38.063290000033646],[-80.015700000154766,38.074499999875229],[-79.985659999809059,38.092219999553492],[-79.966059999769072,38.104460000129052],[-79.946720000027881,38.116949999642941],[-79.937179999856994,38.123329999779799],[-79.89951000018624,38.14932999997967],[-79.890230000314148,38.155959999954177],[-79.872150000222234,38.16971999957849],[-79.854589999828534,38.183999999800278],[-79.83753999957122,38.198779999697365],[-79.829010000111282,38.206180000107054],[-79.803430000394087,38.228360000413829],[-79.785870000000386,38.242639999736355],[-79.767800000369618,38.256409999821756],[-79.740449999967439,38.276800000319895],[-79.731410000371113,38.283680000132051],[-79.713840000415587,38.297960000353896],[-79.697300000294661,38.313259999949196],[-79.682030000284158,38.329829999654919],[-79.66089999983501,38.356469999690887],[-79.647289999933435,38.374700000404857],[-79.640539999821044,38.383880000162037],[-79.619669999670634,38.410770000035598],[-79.612540000020886,38.419570000255476],[-79.59778000014677,38.436650000097586],[-79.583020000272711,38.453740000400842],[-79.561260000448556,38.479739999701394],[-79.54764999964766,38.497970000415307],[-79.541030000134299,38.507270000310427],[-79.522700000204736,38.536720000427806],[-79.511379999787039,38.557239999726335],[-79.500430000244194,38.578149999922687],[-79.48961999996294,38.599180000256979],[-79.479060000418599,38.620469999990632],[-79.468490000413055,38.641759999724343],[-79.457800000269685,38.662919999758344],[-79.452449999967428,38.673500000224976],[-79.437179999956925,38.706010000261472],[-79.427140000110796,38.727810000131569],[-79.417590000378084,38.750109999676909],[-79.408679999582205,38.773060000418809],[-79.400159999684149,38.796389999798805],[-79.392270000060364,38.820350000352391],[-79.385390000248208,38.845330000279432],[-79.379409999671623,38.871210000341364],[-79.374200000429596,38.897850000377389],[-79.367709999716624,38.939150000172503],[-79.365679999632164,38.95304999995767],[-79.361340000040855,38.980579999667384],[-79.356640000035839,39.007729999839739],[-79.351929999569734,39.034630000174502],[-79.347730000139279,39.06127000021047],[-79.344679999782045,39.087790000108555],[-79.343540000270707,39.114430000144523],[-79.344670000220219,39.141070000180491],[-79.347730000139279,39.167590000078576],[-79.351929999569734,39.194230000114544],[-79.356640000035839,39.221119999988161],[-79.361340000040855,39.248279999722342],[-79.365670000070338,39.275810000331376],[-79.369739999801027,39.303600000339884],[-79.374209999991422,39.331009999911714],[-79.379409999671623,39.357649999947682],[-79.385390000248208,39.383530000009614],[-79.392270000060364,39.408509999936712],[-79.400150000122323,39.432469999590978],[-79.408679999582205,39.455799999870237],[-79.417590000378084,39.478749999712875],[-79.427140000110796,39.501050000157534],[-79.43719000041807,39.522850000027631],[-79.447370000425053,39.544529999759845],[-79.452710000266165,39.555099999765332],[-79.463280000271709,39.576390000398362],[-79.479569999655666,39.607880000162027],[-79.490769999935424,39.628519999598439],[-79.502469999890479,39.648669999820754],[-79.514559999844039,39.668430000044623],[-79.526899999635191,39.687929999969697],[-79.533259999749077,39.697490000163498],[-79.552349999652677,39.726169999845752],[-79.558970000065358,39.735480000202017],[-79.578949999642646,39.763270000210468],[-79.592939999980899,39.781110000026615],[-79.607579999717132,39.798319999568491],[-79.622729999589694,39.815019999873243],[-79.638239999875964,39.831339999741317],[-79.654040000045882,39.847400000209973],[-79.677959999654149,39.871239999726356],[-79.685839999716109,39.87925999994917],[-79.709760000223753,39.903109999926698],[-79.717660000308683,39.911139999711338],[-79.733570000155282,39.927069999580965],[-79.749600000139765,39.942880000211971],[-79.765899999984924,39.95842999964492],[-79.782560000243734,39.973600000439831],[-79.79135000000241,39.980739999651405],[-79.817559999993875,40.002280000122028],[-79.835889999923438,40.015800000369893],[-79.873550000032367,40.041799999670388],[-79.883099999765079,40.048170000245477],[-79.902180000106796,40.060920000058104],[-79.911729999839508,40.067289999733873],[-79.930819999743107,40.08004000044582],[-79.94990999964665,40.092790000258447],[-79.968989999988423,40.105540000071073],[-79.997880000361647,40.124400000160051],[-80.007679999931952,40.130519999998171],[-80.037330000279155,40.148620000113056],[-80.047510000286195,40.154360000413817],[-80.07881000028118,40.170800000419831],[-80.100200000129803,40.18125999984926],[-80.122089999653667,40.191199999580476],[-80.144729999589686,40.20036999977583],[-80.178959999804022,40.213890000023639],[-80.190280000221719,40.21848000035186],[-80.224660000158792,40.231860000438814],[-80.236099999815053,40.236320000168007],[-80.269699999755062,40.250469999790823],[-80.292339999691137,40.259639999986177],[-80.303789999808544,40.264110000176515],[-80.326970000365122,40.272779999797308],[-80.362469999790562,40.285009999911722],[-80.386889999973391,40.292410000321411],[-80.399240000225745,40.295969999915712],[-80.436780000196734,40.306180000406869],[-80.462099999615191,40.31267999978229],[-80.474830000304166,40.31585999983929],[-80.500530000159301,40.32197999967741],[-80.539599999640188,40.330650000197522],[-80.552709999866522,40.333460000278933],[-80.592540000220708,40.341360000363863],[-80.605909999846517,40.343910000146536],[-80.632369999675632,40.34927000001062],[-80.658839999965892,40.354620000312934],[-80.699190000018405,40.362010000261478],[-80.726810000281205,40.366220000153021],[-80.755429999894488,40.369409999771847],[-80.785209999941458,40.37143999985625],[-80.815890000123318,40.372600000289935],[-80.847179999657158,40.373099999965177],[-80.878880000111792,40.373229999664886],[-80.910690000243221,40.373229999664886],[-80.942500000374594,40.373229999664886],[-80.974309999606703,40.373229999664886],[-81.006130000199221,40.373229999664886],[-81.03794000033065,40.373229999664886],[-81.069760000023848,40.373229999664886],[-81.101570000155277,40.373229999664886],[-81.133260000148766,40.373099999965177],[-81.164560000143808,40.37258999982879],[-81.179699999555226,40.371829999854754],[-81.209860000038873,40.370169999745826],[-81.253630000424096,40.366220000153021],[-81.267240000325671,40.363920000207997],[-81.308359999913932,40.357299999795316],[-81.335329999879491,40.35245000006762],[-81.362440000005904,40.347739999601458],[-81.389929999669619,40.343400000010149],[-81.417679999632185,40.339319999818258],[-81.44503999959619,40.334860000089066],[-81.47163000002439,40.329629999924691],[-81.49747000004038,40.32363999978628],[-81.522539999621188,40.31688999967389],[-81.546839999666133,40.309359999564492],[-81.570760000173777,40.301460000378881],[-81.59469000024319,40.293560000293951],[-81.618609999851515,40.285660000208964],[-81.642410000221219,40.277630000424324],[-81.678180000406599,40.265639999686357],[-81.690119999738101,40.261690000093552],[-81.713929999669631,40.253660000308912],[-81.737340000040888,40.245250000087594],[-81.760499999675119,40.236579999567482],[-81.783399999909989,40.227649999647895],[-81.805669999870474,40.218090000353357],[-81.827440000155775,40.208020000023112],[-81.849059999819019,40.197829999554983],[-81.870449999667642,40.187370000125554],[-81.891560000093818,40.176659999959156],[-81.923510000386102,40.160859999789295],[-81.934069999930443,40.155510000386357],[-81.955069999780562,40.14466999962093],[-81.975939999930972,40.13370999961694],[-81.99654999978253,40.122490000213475],[-82.016659999958904,40.110759999774302],[-82.046190000168281,40.092529999959652],[-82.055849999577731,40.086289999983649],[-82.084619999813015,40.067289999733873],[-82.094159999983901,40.060920000058104],[-82.113249999887501,40.048170000245477],[-82.141890000423075,40.029049999857762],[-82.170519999598184,40.009930000369366],[-82.180070000230216,40.003559999794277],[-82.189479999802018,39.997060000418855],[-82.226640000235705,39.970539999621451],[-82.244839999566238,39.956900000135022],[-82.253880000061827,39.950020000322922],[-82.271690000293177,39.936000000399872],[-82.280720000327619,39.929119999688396],[-82.298919999658153,39.915469999740822],[-82.317249999587716,39.901959999954158],[-82.335569999955453,39.888450000167495],[-82.363059999619168,39.868179999807296],[-82.390040000045872,39.847400000209973],[-82.398949999942431,39.840389999798788],[-82.417019999573199,39.826619999713387],[-82.426180000206728,39.81986999960094],[-82.453919999708091,39.799849999977653],[-82.472750000212216,39.786850000327377],[-82.482290000383102,39.780479999752345],[-82.501380000286701,39.767729999939718],[-82.530010000361131,39.748609999552002],[-82.539430000394077,39.742110000176524],[-82.558139999860998,39.728979999927219],[-82.594790000158298,39.701960000353893],[-82.594790000158298,39.701949999892747],[-82.621639999985916,39.681050000157541],[-82.639709999616684,39.667280000072083],[-82.658029999984421,39.653759999824274],[-82.667329999879485,39.647140000310912],[-82.686040000245725,39.634010000061608],[-82.704989999988413,39.621129999649895],[-82.733629999624668,39.602010000161499],[-82.752720000427587,39.589260000348872],[-82.771550000032391,39.576259999799277],[-82.790120000237721,39.562999999850263],[-82.79927999997193,39.556249999737872],[-82.817489999763552,39.542610000251443],[-82.835429999694611,39.528720000028102],[-82.871569999855524,39.501179999857243],[-82.880740000050878,39.494420000183027],[-82.89001999992297,39.487790000208463],[-82.918139999861012,39.468170000145562],[-82.9372400002257,39.455420000332879],[-82.965870000300185,39.436299999945163],[-82.975420000032841,39.429919999808305],[-82.994249999637645,39.416920000158029],[-83.003530000409114,39.410290000183522],[-83.031149999772538,39.390159999984178],[-83.049220000302682,39.37638999989872],[-83.067040000095801,39.36236999997567],[-83.094270000360098,39.341840000215996],[-83.112720000427544,39.328449999667896],[-83.122009999861518,39.321830000154534],[-83.150390000098298,39.302450000367344],[-83.15993999983101,39.296079999792312],[-83.169480000001897,39.289710000116543],[-83.18856999990544,39.276960000303916],[-83.207659999809039,39.264209999591969],[-83.245830000054355,39.238720000427804],[-83.274460000128784,39.219600000040089],[-83.284009999861496,39.213219999903231],[-83.303099999765095,39.200470000090604],[-83.331729999839524,39.181349999702888],[-83.360359999913953,39.162230000214493],[-83.36990000008484,39.155850000077578],[-83.379449999817552,39.149480000401866],[-83.407819999593187,39.130110000176501],[-83.417109999926424,39.123480000201994],[-83.444730000189224,39.103340000440824],[-83.462799999820049,39.089570000355366],[-83.480610000051342,39.075550000432315],[-83.498690000143313,39.061780000346857],[-83.507840000315639,39.055030000234467],[-83.53557999981706,39.03500999971186],[-83.554430000344155,39.022010000061584],[-83.563960000053839,39.015629999924727],[-83.583049999957439,39.002889999673869],[-83.611689999593693,38.983759999724327],[-83.630520000097818,38.970760000074108],[-83.649090000303147,38.957500000125037],[-83.658259999599181,38.950750000012647],[-83.694410000221239,38.923220000302933],[-83.703309999656653,38.916209999891748],[-83.712359999714124,38.909319999618447],[-83.730550000382095,38.895680000132074],[-83.758289999883459,38.875670000070613],[-83.767700000354637,38.869169999795815],[-83.786670000120296,38.856290000283423],[-83.824840000365612,38.830800000219995],[-83.834390000098324,38.82442000008308],[-83.853480000001866,38.811679999832279],[-83.87256000034364,38.798930000019652],[-83.882110000076352,38.792560000343883],[-83.901199999979895,38.779809999631937],[-83.92983000005438,38.760690000143541],[-83.94867000012033,38.747680000032119],[-83.957959999554248,38.741059999619438],[-83.994609999851491,38.714040000046111],[-84.003650000347136,38.70714999977281],[-84.021459999679109,38.693129999849759],[-84.03953999977108,38.679370000225504],[-84.048689999943463,38.672609999651911],[-84.076430000344146,38.65259999959045],[-84.085850000377093,38.646089999753826],[-84.12389000002338,38.620469999990632],[-84.133439999756092,38.61410000031492],[-84.142979999926922,38.607720000178006],[-84.161940000130812,38.594850000227495],[-84.189939999930971,38.575090000003627],[-84.217299999894976,38.554700000404864],[-84.226329999929476,38.547810000131562],[-84.24416000018374,38.533790000208512],[-84.25319000021824,38.52689999993521],[-84.289830000054337,38.499880000361884],[-84.299120000387575,38.493250000387377],[-84.317959999554205,38.480249999837781],[-84.337050000357124,38.467500000025154],[-84.346589999628691,38.461130000349385],[-84.37521999970312,38.44200999996167],[-84.403350000102307,38.422380000336886],[-84.412629999974399,38.41575000036238],[-84.440000000399607,38.395350000302415],[-84.449039999995875,38.388469999590939],[-84.46683999976608,38.374440000106063],[-84.484919999857993,38.360679999582487],[-84.494079999592202,38.353919999908214],[-84.531240000025889,38.327409999571955],[-84.54064999959769,38.320910000196477],[-84.559749999962435,38.30816000038385],[-84.569290000133321,38.301780000246936],[-84.59792000020775,38.282659999859277],[-84.607349999802523,38.276159999584479],[-84.63532999957971,38.25640000025993],[-84.644490000213239,38.24965000014754],[-84.680650000397122,38.222109999976681],[-84.689549999832536,38.215099999565496],[-84.70762999992445,38.201339999941183],[-84.725950000292187,38.187819999693374],[-84.735110000026395,38.181069999580984],[-84.762590000128284,38.160800000120048],[-84.780920000057847,38.147290000333385],[-84.799000000149761,38.133520000247984],[-84.825840000415553,38.112619999613457],[-84.834880000011879,38.105739999801301],[-84.853200000379616,38.092219999553492],[-84.862360000113824,38.08545999987922],[-84.889849999777539,38.06519000041834],[-84.917209999741601,38.044799999920201],[-84.926239999776044,38.037920000108045],[-84.93514999967266,38.03090999969686],[-84.97128000027169,38.003370000425321],[-84.980449999567725,37.996609999851785],[-85.00792999966967,37.976349999952674],[-85.01711000032617,37.969590000278458],[-85.026140000360613,37.962709999566982],[-85.052729999889493,37.941550000432301],[-85.069789999708632,37.926760000074069],[-85.086839999965946,37.911969999715836],[-85.103879999762057,37.897189999818806],[-85.121460000178786,37.882909999596961],[-85.139529999809554,37.869140000410823],[-85.157850000177234,37.85562999972484],[-85.18533000027918,37.835360000263961],[-85.203540000070859,37.821719999878212],[-85.230380000336652,37.800820000143062],[-85.239430000394123,37.793929999869761],[-85.266779999896983,37.773540000270941],[-85.285109999826545,37.760029999584958],[-85.294269999560754,37.753269999910685],[-85.31244999976758,37.739630000424313],[-85.339069999780577,37.718470000390369],[-85.35612000003789,37.703680000032136],[-85.373170000295147,37.68890000013505],[-85.398999999849991,37.666969999665923],[-85.407789999608667,37.659829999554972],[-85.416819999643167,37.652949999742816],[-85.444179999607172,37.632549999682908],[-85.462499999974909,37.619030000334419],[-85.480560000043852,37.605269999810787],[-85.498129999999378,37.591000000050087],[-85.514930000419099,37.575950000292437],[-85.531469999640649,37.560660000258963],[-85.547770000385128,37.545100000364869],[-85.572699999805025,37.522289999783823],[-85.581099999565197,37.51477000013557],[-85.598659999958954,37.500489999913725],[-85.607699999555223,37.493610000101569],[-85.635060000418605,37.473210000041604],[-85.662409999921465,37.452820000442784],[-85.671459999978936,37.44593000016954],[-85.689009999911434,37.43166000040884],[-85.705810000331155,37.416609999751813],[-85.722349999552705,37.401310000156514],[-85.754430000444074,37.369709999816791],[-85.762440000205743,37.361800000170035],[-85.770449999967411,37.353900000085105],[-85.786999999650163,37.338599999590429],[-85.803800000069828,37.323560000293924],[-85.821370000025354,37.309280000072079],[-85.839419999633151,37.295509999986677],[-85.848589999828505,37.288750000312405],[-85.876080000391596,37.268490000413351],[-85.885119999987921,37.261600000140049],[-85.911710000416065,37.240440000106048],[-85.928509999936466,37.225399999910223],[-85.945050000057336,37.210109999876749],[-85.969100000264689,37.18638999959893],[-85.977110000026357,37.178490000413319],[-85.992899999735073,37.162429999944663],[-86.008929999719612,37.146620000212977],[-86.024720000327648,37.130559999744321],[-86.048639999935972,37.10672999978982],[-86.0565299995597,37.098690000443298],[-86.080450000067344,37.074850000027652],[-86.088339999691129,37.066829999804781],[-86.104369999675612,37.051020000073095],[-86.120160000283704,37.034959999604439],[-86.144209999591681,37.011249999787822],[-86.152220000252726,37.003340000141066],[-86.168760000373595,36.988039999646389],[-86.185579999916968,36.973000000349884],[-86.203140000310668,36.958720000128039],[-86.212170000345111,36.951840000315883],[-86.239530000309173,36.931440000255975],[-86.248690000043382,36.924690000143528],[-86.266879999812033,36.911049999757836],[-86.293479999802059,36.889880000162009],[-86.310280000221724,36.87485000042733],[-86.32682000034265,36.85954999993271],[-86.342859999888958,36.843749999762849],[-86.358889999873497,36.827940000031106],[-86.374670000020387,36.811870000000624],[-86.39070000000487,36.796069999830763],[-86.414509999936456,36.772110000176497],[-86.422519999698125,36.764199999630421],[-86.454209999691614,36.732210000191515],[-86.462229999914484,36.724299999645439],[-86.470109999976387,36.716269999860742],[-86.486150000422072,36.700469999690881],[-86.501929999669642,36.6843999996604],[-86.525850000177286,36.660569999705842],[-86.541760000023885,36.644630000274447],[-86.557660000308658,36.62870000040482],[-86.581590000378128,36.604859999989174],[-86.597369999625698,36.588800000419837],[-86.62127999967214,36.564960000004135],[-86.629170000195245,36.556930000219495],[-86.65310999982654,36.533089999803792],[-86.669010000111314,36.517159999934222],[-86.677019999872982,36.509250000287409],[-86.692809999581698,36.49318999981881],[-86.708839999566237,36.477389999648892],[-86.724619999713127,36.461330000079613],[-86.740649999697609,36.445520000347869],[-86.756429999844499,36.429459999879214],[-86.780350000352144,36.405620000362887],[-86.788250000437074,36.397589999678871],[-86.812170000045342,36.373750000162545],[-86.828079999891997,36.357809999831773],[-86.836100000114811,36.349909999746842],[-86.851880000261701,36.333850000177506],[-86.867899999785038,36.318040000445819],[-86.883690000393074,36.301979999977164],[-86.907610000001398,36.278139999561461],[-86.915499999625183,36.270109999776821],[-86.931529999609666,36.25430999960696],[-86.955209999841543,36.230220000252928],[-86.970729999689638,36.213900000384854],[-86.985890000023403,36.197200000080102],[-87.000520000197753,36.179989999638906],[-87.014509999636687,36.162149999822759],[-87.028129999999408,36.143920000008166],[-87.0416199997631,36.125559999594429],[-87.055240000125821,36.107329999779836],[-87.062099999914949,36.098279999722365],[-87.08387000020025,36.072280000421813],[-87.091380000286676,36.063870000200495],[-87.106650000297179,36.047290000033627],[-87.130320000067854,36.023199999780331],[-87.138209999691639,36.015169999995635],[-87.154239999676122,35.999360000263948],[-87.170019999823012,35.983299999795292],[-87.185790000408076,35.967240000225956],[-87.201069999980405,35.950669999620914],[-87.223219999803064,35.925040000295894],[-87.237210000141317,35.907199999580484],[-87.244080000391591,35.898150000422334],[-87.257570000155283,35.879790000008654],[-87.277939999731075,35.85238999999865],[-87.291930000069328,35.834539999721358],[-87.306560000243735,35.817330000179538],[-87.314070000330162,35.808919999958164],[-87.337100000264684,35.784189999868772],[-87.344869999750586,35.776030000384367],[-87.360139999761088,35.759459999779324],[-87.375139999910971,35.742629999774806],[-87.396270000360119,35.715980000177012],[-87.403150000172275,35.706939999681367],[-87.423390000048357,35.679409999971654],[-87.436870000250224,35.661049999557974],[-87.443620000362614,35.651869999800795],[-87.457350000402073,35.63376999968591],[-87.478230000114308,35.606870000250467],[-87.485089999903494,35.597820000192996],[-87.498590000128274,35.579459999779317],[-87.518820000442588,35.551930000069603],[-87.532310000206223,35.533569999655924],[-87.545929999669625,35.515339999841274],[-87.552799999919955,35.506289999783803],[-87.573670000070365,35.479399999910186],[-87.580540000320639,35.470349999852772],[-87.600649999597692,35.442690000443292],[-87.607270000010374,35.433380000087084],[-87.626609999751565,35.404950000242479],[-87.639340000440541,35.385829999854764],[-87.652059999769051,35.366710000366368],[-87.658419999882994,35.35715000017251],[-87.677509999786537,35.328469999590936],[-87.690239999576193,35.30935000010254],[-87.702959999804023,35.290229999714882],[-87.715689999593678,35.271110000226486],[-87.728420000282711,35.25198999983877],[-87.741139999611164,35.232859999889229],[-87.753870000300196,35.213749999962658],[-87.76658999962865,35.194629999574943],[-87.772960000203739,35.185059999819259],[-87.792050000107338,35.156380000137062],[-87.804770000335168,35.137259999749347],[-87.817500000124824,35.118140000260951],[-87.830089999753568,35.098890000173526],[-87.842440000005865,35.079379999787307],[-87.854529999959425,35.05963000002464],[-87.860500000074865,35.049679999832279],[-87.877439999756064,35.018840000365856],[-87.888379999737083,34.997930000169504],[-87.899199999580219,34.976899999835268],[-87.90976000002388,34.955610000101558],[-87.914979999727109,34.944899999935217],[-87.931020000172794,34.913160000333903],[-87.941570000155252,34.891869999700873],[-87.946789999858481,34.881160000433795],[-87.962830000304166,34.849430000394364],[-87.973380000286681,34.828139999761333],[-87.97859999998991,34.817429999594935],[-87.994640000435595,34.785689999993622],[-88.005199999979936,34.764400000259968],[-88.015760000423597,34.743109999626938],[-88.026449999667648,34.721949999592937],[-88.0368800004116,34.700539999721343],[-88.047069999980408,34.678869999551011],[-88.057109999826537,34.657069999680914],[-88.062070000130291,34.646100000115041],[-88.075689999593692,34.61194000043082],[-88.084719999628192,34.589120000287949],[-88.089309999956413,34.57777999984728],[-88.102679999582222,34.543359999864265],[-88.107129999749588,34.53188999972383],[-88.116549999782535,34.509450000017637],[-88.130419999982905,34.475540000171009],[-88.139200000179756,34.452470000190488],[-88.147849999777577,34.429269999610938],[-88.156250000437069,34.405820000093058],[-88.164280000221709,34.381979999677412],[-88.172149999822523,34.358009999562],[-88.180049999907453,34.334049999907734],[-88.183989999938433,34.322069999630912],[-88.198359999814045,34.272729999589956],[-88.201929999869492,34.260369999775833],[-88.208679999981882,34.235249999687881],[-88.211989999738591,34.222629999574963],[-88.221409999771595,34.184269999560968],[-88.227259999749094,34.15825999979927],[-88.232480000351643,34.131619999763302],[-88.236920000057864,34.104210000191529],[-88.240619999813021,34.076039999746342],[-88.243790000308138,34.047360000064089],[-88.246979999926964,34.018680000381835],[-88.250659999659149,33.990509999936705],[-88.254989999688632,33.962969999765846],[-88.259700000154794,33.935819999593434],[-88.264409999721579,33.908670000320399],[-88.268619999613179,33.881010000011656],[-88.271790000108297,33.852330000329403],[-88.273820000192757,33.822499999775289],[-88.274970000165297,33.791780000446806],[-88.275480000301684,33.760420000382851],[-88.275610000001393,33.728679999882218],[-88.275610000001393,33.696809999681875],[-88.275480000301684,33.665070000080561],[-88.274979999727123,33.633710000016606],[-88.273829999754582,33.602989999788804],[-88.271799999670122,33.573160000134067],[-88.268619999613179,33.544479999552493],[-88.264420000182781,33.516820000143014],[-88.259700000154794,33.489669999970658],[-88.254869999550749,33.462639999936187],[-88.250170000445053,33.435489999763831],[-88.245829999954424,33.407960000054118],[-88.241760000223735,33.380170000045609],[-88.237430000194252,33.35262999987475],[-88.232730000189235,33.325479999702395],[-88.227769999885481,33.298580000266952],[-88.222550000182252,33.271940000230984],[-88.219880000261696,33.258680000281913],[-88.211989999738591,33.218780000296931],[-88.206770000035363,33.192140000260963],[-88.201290000033396,33.165750000062587],[-88.195569999755605,33.139620000163006],[-88.18959000007834,33.113740000101075],[-88.183350000102337,33.088120000337881],[-88.176860000288684,33.062750000412336],[-88.17011999973812,33.03763999988621],[-88.163130000249225,33.012789999658878],[-88.155870000000391,32.98817999970737],[-88.148239999776081,32.963970000215454],[-88.140350000152296,32.940000000100042],[-88.132459999629191,32.916040000445832],[-88.124570000005406,32.89207000033042],[-88.116549999782535,32.868229999914718],[-88.108519999997895,32.844390000398334],[-88.100650000397081,32.820429999844748],[-88.092759999873977,32.796459999729336],[-88.084730000089337,32.772629999774836],[-88.076709999866523,32.748790000258452],[-88.068820000242738,32.724829999704866],[-88.060940000180778,32.700859999589454],[-88.052919999957908,32.677020000073071],[-88.044910000196239,32.653179999657425],[-88.040959999704114,32.641200000279923],[-88.033070000080329,32.617230000164511],[-88.02110000026471,32.581419999933189],[-88.017169999795556,32.569439999656424],[-88.009149999572742,32.545600000140041],[-87.997310000356151,32.509649999747808],[-87.989290000133281,32.485810000231481],[-87.981280000371612,32.461980000276924],[-87.973389999848507,32.438010000161512],[-87.965500000224722,32.4140400000461],[-87.961560000193742,32.402059999769335],[-87.949980000376627,32.365860000438829],[-87.942720000127792,32.34126000004909],[-87.935720000177753,32.316400000259932],[-87.928990000088334,32.291280000172037],[-87.922489999813536,32.265919999808261],[-87.916120000137767,32.240429999744833],[-87.90976000002388,32.21493000011958],[-87.903390000348111,32.18942999959495],[-87.897030000234224,32.163940000430841],[-87.890670000120281,32.138450000367357],[-87.884310000006394,32.112949999842783],[-87.877940000330625,32.087459999779298],[-87.874760000273682,32.074709999966672],[-87.86520999964165,32.03647000009056],[-87.858859999988908,32.010969999565987],[-87.852490000313139,31.985480000401822],[-87.846130000199253,31.959979999877248],[-87.842959999704135,31.947239999626447],[-87.833400000409597,31.90899000018851],[-87.827040000295653,31.883500000125025],[-87.820680000181767,31.858010000061597],[-87.814320000067823,31.832510000436343],[-87.807950000392111,31.807009999911713],[-87.801599999839993,31.781519999848285],[-87.795230000164281,31.756029999784801],[-87.788859999589192,31.730530000159547],[-87.782500000374625,31.705040000096062],[-87.77930999985648,31.692290000283435],[-87.769780000146795,31.654050000407324],[-87.763409999571707,31.62854999988275],[-87.75705000035714,31.603059999819266],[-87.750679999782051,31.577560000194012],[-87.744319999668164,31.552070000130527],[-87.737949999992395,31.526569999605954],[-87.731600000339654,31.501080000441789],[-87.725229999764565,31.475590000378361],[-87.722049999707622,31.462839999666414],[-87.712510000436055,31.424590000228477],[-87.706150000322168,31.399100000164992],[-87.699779999747079,31.373599999640419],[-87.693419999633193,31.348109999576991],[-87.687060000418569,31.322620000412826],[-87.680689999843537,31.297119999888253],[-87.674340000190739,31.271629999824768],[-87.667839999915941,31.246259999899223],[-87.661089999803551,31.221150000272416],[-87.654100000314656,31.196289999583939],[-87.646849999627705,31.171690000093577],[-87.639329999979395,31.147340000440806],[-87.631830000354114,31.122989999888716],[-87.624570000105336,31.098390000398354],[-87.617570000155297,31.073529999709876],[-87.61082000004285,31.04842000008307],[-87.604219999653139,31.023179999857234],[-87.597470000440069,30.998070000230484],[-87.590469999590709,30.973210000441327],[-87.583210000241195,30.948610000051588],[-87.575709999716594,30.924260000398817],[-87.568210000091312,30.899909999846784],[-87.564640000035865,30.887550000032604],[-87.553949999892495,30.850449999667887],[-87.550640000135786,30.837840000016115],[-87.540709999966396,30.799979999677362],[-87.534349999852509,30.774480000052108],[-87.52798000017674,30.74898999998868],[-87.521609999601708,30.72349000036337],[-87.51525999994891,30.698000000299942],[-87.508770000135314,30.67263000037434],[-87.502020000022867,30.647519999848271],[-87.495020000072827,30.622660000059113],[-87.487779999847021,30.598059999669374],[-87.480269999760594,30.573710000016604],[-87.472759999674167,30.54936000036389],[-87.465500000324653,30.524759999974151],[-87.458500000374613,30.499900000184994],[-87.451750000262223,30.474789999658924],[-87.445270000010396,30.449419999733323],[-87.438900000334627,30.423929999669895],[-87.43254000022074,30.398430000044584],[-87.426180000106797,30.372939999981156],[-87.41981999999291,30.347440000355903],[-87.413450000317141,30.321950000292418],[-87.40709999976508,30.29646000022899],[-87.400730000089311,30.27095999970436],[-87.397550000032368,30.258209999891733],[-87.388000000299655,30.219970000015621],[-87.381649999747594,30.194479999952193],[-87.37526999961068,30.168980000326883],[-87.368930000419084,30.143490000263455],[-87.365739999900995,30.130739999551508],[-87.356199999730109,30.092499999675397],[-87.34983000005434,30.067000000050086],[-87.343599999640162,30.041380000286949],[-87.337619999962897,30.015500000224961],[-87.331890000123281,29.98937000032538],[-87.326419999683139,29.962989999688887],[-87.32119999997991,29.936340000091093],[-87.315980000276681,29.909700000055125],[-87.310640000435569,29.883189999718866],[-87.305410000271195,29.856540000121072],[-87.30057999966715,29.829519999648426],[-87.296380000236695,29.801860000238946],[-87.293080000041869,29.773299999795313],[-87.290530000259196,29.743980000276963],[-87.288239999875998,29.714410000021644],[-87.285699999655151,29.685089999603917],[-87.282389999898498,29.65653999962143],[-87.278180000006898,29.628880000212007],[-87.273609999701648,29.601850000177535],[-87.269399999810048,29.57521000014151],[-87.266350000352134,29.548699999805308],[-87.265200000379593,29.522050000207514],[-87.266339999890988,29.495410000171489],[-87.269399999810048,29.468899999835287],[-87.273609999701648,29.442259999799319],[-87.278180000006898,29.415229999764847],[-87.282380000336616,29.387570000355367],[-87.285690000093325,29.35902000037288],[-87.288239999875998,29.329699999955153],[-87.290530000259196,29.300129999699891],[-87.293080000041869,29.270810000181484],[-87.296380000236695,29.242249999737851],[-87.300710000266179,29.214720000028137],[-87.303119999887997,29.201199999780329],[-87.311779999946964,29.162070000230472],[-87.318019999922967,29.136449999567958],[-87.324369999575708,29.110949999942704],[-87.330740000150797,29.08545999987922],[-87.337100000264684,29.059960000253966],[-87.343480000401598,29.034470000190481],[-87.34983000005434,29.008969999665908],[-87.356319999867992,28.983610000201509],[-87.363069999980382,28.958499999675382],[-87.370069999930422,28.933639999886225],[-87.3736300004241,28.921269999610956],[-87.384829999804538,28.884689999843772],[-87.392330000329139,28.860340000191002],[-87.399580000116828,28.835739999801319],[-87.406589999628693,28.810880000012162],[-87.413330000179258,28.785770000385355],[-87.419949999692619,28.76053000015952],[-87.426690000243184,28.735419999633393],[-87.433690000193224,28.710559999844236],[-87.440930000419087,28.685960000353873],[-87.448450000067339,28.661609999801783],[-87.455829999554737,28.637130000449304],[-87.462699999805068,28.612149999622943],[-87.465999999999894,28.599530000409345],[-87.474909999896454,28.560649999797818],[-87.480269999760594,28.534140000360878],[-87.485490000363143,28.507489999863765],[-87.490690000043344,28.481110000126534],[-87.495410000071331,28.454980000226954],[-87.49908000024169,28.429100000165022],[-87.501130000349121,28.403599999640392],[-87.50062999977456,28.378619999713351],[-87.497190000318142,28.354270000060581],[-87.491080000041848,28.330810000081556],[-87.482430000444083,28.308640000235982],[-87.471620000162773,28.287859999739339],[-87.46513000034912,28.27843000014451],[-87.438519999897949,28.241329999779794],[-87.43075999997393,28.233170000295445],[-87.406849999927431,28.209459999579451],[-87.389790000108292,28.195180000256926],[-87.372100000014882,28.182179999707387],[-87.354030000384114,28.17045999972936],[-87.325650000147277,28.156180000406835],[-87.316109999976391,28.152100000215],[-87.284159999684107,28.143429999694888]]]},"properties":{"objectid":643,"stormname":"Isaias","stormtype":"HU","basin":"AL","advdate":"100 PM CDT Fri Oct 09 2026","advisnum":"12A","fcstprd":120,"stormnum":9,"idp_source":"al092026-012A_5day_pgn","idp_filedate":1791572556000,"idp_ingestdate":1791572576000,"st_area(shape)":30.074139477826073,"st_perimeter(shape)":33.481171133700265,"binnumber":"AT4"}}]}