{"type":"FeatureCollection","features":[{"type":"Feature","id":656,"geometry":{"type":"LineString","coordinates":[[-86.600000000399575,30.100000000199998],[-86.799999999999898,31.199999999800298],[-87.200000000099806,33.399999999900217],[-86.099999999600186,35.600000000000136],[-82.49999999960022,38.100000000399859]]},"properties":{"objectid":656,"stormname":"Isaias","stormtype":"HU","basin":"AL","advdate":"700 PM CDT Fri Oct 09 2026","advisnum":"13A","fcstprd":120,"stormnum":9,"idp_source":"al092026-013A_5day_lin","idp_filedate":1791590927000,"idp_ingestdate":1791591112000,"st_length(shape)":10.19669814185389,"binnumber":"AT4"}}]}