{"type":"FeatureCollection","features":[{"type":"Feature","id":5116,"geometry":{"type":"Point","coordinates":[-87.200000000099806,28.400000000000148]},"properties":{"objectid":5116,"stormname":"Hurricane Isaias","stormtype":"MH","dvlbl":"M","basin":"AL","advdate":"100 PM CDT Fri Oct 09 2026","advisnum":"12A","fcstprd":120,"gust":130,"maxwind":105,"mslp":959,"ssnum":3,"datelbl":"1:00 PM Fri","tcdvlp":"Major Hurricane","tcdir":25,"tcspd":14,"fldatelbl":"2026-10-09 10:00 AM Fri CDT","lat":28,"lon":-87,"stormnum":9,"stormsrc":"Tropical Cyclone","tau":0,"timezone":"CDT","validtime":"09/1500","idp_source":"al092026-012A_5day_pts","idp_filedate":1791572556000,"idp_ingestdate":1791572566000,"binnumber":"AT4"}},{"type":"Feature","id":5117,"geometry":{"type":"Point","coordinates":[-86.799999999999898,29.70000000010009]},"properties":{"objectid":5117,"stormname":"Hurricane Isaias","stormtype":"MH","dvlbl":"M","basin":"AL","advdate":"100 PM CDT Fri Oct 09 2026","advisnum":"12A","fcstprd":120,"gust":120,"maxwind":100,"mslp":9999,"ssnum":3,"datelbl":"7:00 PM Fri","tcdvlp":"Major Hurricane","tcdir":9999,"tcspd":9999,"fldatelbl":"2026-10-09 7:00 PM Fri CDT","lat":30,"lon":-87,"stormnum":9,"stormsrc":"Tropical Cyclone","tau":12,"timezone":"CDT","validtime":"10/0000","idp_source":"al092026-012A_5day_pts","idp_filedate":1791572556000,"idp_ingestdate":1791572566000,"binnumber":"AT4"}},{"type":"Feature","id":5118,"geometry":{"type":"Point","coordinates":[-87.100000000299644,32.099999999800275]},"properties":{"objectid":5118,"stormname":"Hurricane Isaias","stormtype":"TS","dvlbl":"S","basin":"AL","advdate":"100 PM CDT Fri Oct 09 2026","advisnum":"12A","fcstprd":120,"gust":65,"maxwind":55,"mslp":9999,"ssnum":0,"datelbl":"7:00 AM Sat","tcdvlp":"Tropical Storm","tcdir":9999,"tcspd":9999,"fldatelbl":"2026-10-10 7:00 AM Sat CDT","lat":32,"lon":-87,"stormnum":9,"stormsrc":"Tropical Cyclone","tau":24,"timezone":"CDT","validtime":"10/1200","idp_source":"al092026-012A_5day_pts","idp_filedate":1791572556000,"idp_ingestdate":1791572566000,"binnumber":"AT4"}},{"type":"Feature","id":5119,"geometry":{"type":"Point","coordinates":[-87.200000000099806,34.20000000010009]},"properties":{"objectid":5119,"stormname":"Hurricane Isaias","stormtype":"STS","dvlbl":"S","basin":"AL","advdate":"100 PM CDT Fri Oct 09 2026","advisnum":"12A","fcstprd":120,"gust":45,"maxwind":35,"mslp":9999,"ssnum":0,"datelbl":"7:00 PM Sat","tcdvlp":"Subtropical Storm","tcdir":9999,"tcspd":9999,"fldatelbl":"2026-10-10 7:00 PM Sat CDT","lat":34,"lon":-87,"stormnum":9,"stormsrc":"Post-Tropical Cyclone","tau":36,"timezone":"CDT","validtime":"11/0000","idp_source":"al092026-012A_5day_pts","idp_filedate":1791572556000,"idp_ingestdate":1791572566000,"binnumber":"AT4"}},{"type":"Feature","id":5120,"geometry":{"type":"Point","coordinates":[-84.999999999999886,36.500000000000171]},"properties":{"objectid":5120,"stormname":"Hurricane Isaias","stormtype":"STD","dvlbl":"D","basin":"AL","advdate":"100 PM CDT Fri Oct 09 2026","advisnum":"12A","fcstprd":120,"gust":35,"maxwind":25,"mslp":9999,"ssnum":0,"datelbl":"7:00 AM Sun","tcdvlp":"Subtropical Depression","tcdir":9999,"tcspd":9999,"fldatelbl":"2026-10-11 7:00 AM Sun CDT","lat":36,"lon":-85,"stormnum":9,"stormsrc":"Post-Tropical Cyclone","tau":48,"timezone":"CDT","validtime":"11/1200","idp_source":"al092026-012A_5day_pts","idp_filedate":1791572556000,"idp_ingestdate":1791572566000,"binnumber":"AT4"}},{"type":"Feature","id":5121,"geometry":{"type":"Point","coordinates":[-80.999999999899956,39.100000000199998]},"properties":{"objectid":5121,"stormname":"Hurricane Isaias","stormtype":"STD","dvlbl":"D","basin":"AL","advdate":"100 PM CDT Fri Oct 09 2026","advisnum":"12A","fcstprd":120,"gust":30,"maxwind":20,"mslp":9999,"ssnum":0,"datelbl":"7:00 PM Sun","tcdvlp":"Subtropical Depression","tcdir":9999,"tcspd":9999,"fldatelbl":"2026-10-11 7:00 PM Sun CDT","lat":39,"lon":-81,"stormnum":9,"stormsrc":"Post-Tropical Cyclone","tau":60,"timezone":"CDT","validtime":"12/0000","idp_source":"al092026-012A_5day_pts","idp_filedate":1791572556000,"idp_ingestdate":1791572566000,"binnumber":"AT4"}}]}