{"type":"FeatureCollection","features":[{"type":"Feature","id":656,"geometry":{"type":"Polygon","coordinates":[[[-86.62121999960317,29.831580000217002],[-86.612010000261193,29.830900000334907],[-86.5814199997331,29.831580000217002],[-86.560499999974923,29.834769999835771],[-86.539119999688126,29.839549999932672],[-86.517640000185736,29.845589999678907],[-86.496489999713617,29.85264999969786],[-86.475799999770061,29.86040000006011],[-86.44578999990847,29.873040000195999],[-86.436449999967408,29.87794000043084],[-86.409390000348139,29.893540000370876],[-86.400980000126822,29.899350000302434],[-86.376869999850499,29.917910000046618],[-86.362540000020886,29.93203000008458],[-86.34913999991096,29.947070000280405],[-86.331739999701142,29.97234999965292],[-86.326399999859973,29.981240000425828],[-86.312870000050339,30.010399999760352],[-86.30864999969765,30.020419999583453],[-86.298660000358609,30.053100000264919],[-86.293310000056351,30.076219999853265],[-86.289109999726577,30.100479999852269],[-86.286149999922429,30.125989999938668],[-86.284320000067851,30.152649999997664],[-86.283299999795076,30.18009000005361],[-86.282840000165777,30.20810999987674],[-86.282740000050865,30.236470000090549],[-86.282740000050865,30.264939999981152],[-86.282740000050865,30.293420000332901],[-86.282740000050865,30.321890000223448],[-86.282740000050865,30.350369999675877],[-86.282740000050865,30.37883999956648],[-86.282740000050865,30.407310000356347],[-86.282740000050865,30.435789999808776],[-86.282740000050865,30.464259999699379],[-86.282740000050865,30.492729999589926],[-86.282740000050865,30.521200000379849],[-86.282740000050865,30.549679999832279],[-86.282740000050865,30.578149999722825],[-86.282740000050865,30.606619999613429],[-86.282740000050865,30.635099999965178],[-86.282740000050865,30.663569999855724],[-86.282740000050865,30.692039999746328],[-86.282740000050865,30.720520000098077],[-86.282849999727603,30.74886999985074],[-86.283199999680164,30.762769999635907],[-86.284329999629676,30.804340000191019],[-86.286149999922429,30.830989999788812],[-86.288989999588694,30.856620000013152],[-86.291039999696125,30.868799999620421],[-86.296940000180768,30.905590000078575],[-86.301159999634194,30.929850000077579],[-86.304909999896495,30.954569999705882],[-86.307749999562702,30.980190000368339],[-86.309569999855512,31.006839999966189],[-86.310590000128286,31.034289999583962],[-86.311049999757586,31.062310000306411],[-86.311160000333643,31.090669999620957],[-86.311160000333643,31.119140000410823],[-86.311160000333643,31.147610000301427],[-86.311160000333643,31.176089999753856],[-86.311160000333643,31.204559999644403],[-86.311279999572207,31.232919999858268],[-86.311729999639681,31.260939999681398],[-86.312760000373601,31.288379999737344],[-86.314579999767091,31.315039999796284],[-86.317409999871472,31.340659999559477],[-86.319459999978903,31.352849999627949],[-86.323330000379087,31.377450000017632],[-86.329570000355147,31.413889999623905],[-86.331280000071843,31.426420000083056],[-86.336289999983421,31.464120000237983],[-86.337310000256196,31.47732999967991],[-86.340609999551759,31.516739999551476],[-86.342890000373131,31.542939999981172],[-86.344589999628681,31.555459999979178],[-86.347889999823508,31.580640000136043],[-86.351749999762546,31.60523000006458],[-86.355829999954437,31.629610000201467],[-86.359819999593185,31.654089999554003],[-86.365160000333617,31.691450000217458],[-86.368009999561707,31.717080000441797],[-86.370850000127291,31.742700000204991],[-86.374150000322174,31.767869999900711],[-86.378010000261213,31.79247000029045],[-86.382220000152756,31.816730000289454],[-86.386539999721094,31.840879999712342],[-86.390740000050869,31.865139999711346],[-86.394609999551733,31.889740000101085],[-86.398250000137296,31.914570000305389],[-86.402110000076334,31.939169999795809],[-86.40633000042908,31.963429999794812],[-86.410640000435592,31.987580000117077],[-86.414850000327135,32.011840000116081],[-86.418730000289202,32.036439999606444],[-86.420199999730073,32.04919000031839],[-86.424870000150293,32.087229999964677],[-86.427700000254731,32.112860000189016],[-86.429519999648164,32.125269999610964],[-86.434860000388596,32.162630000274419],[-86.439070000280196,32.186890000273422],[-86.44328000017174,32.211150000272426],[-86.447140000110835,32.235749999762845],[-86.450449999867487,32.260920000357885],[-86.453279999971926,32.286540000121079],[-86.454770000335145,32.299300000394851],[-86.457950000392088,32.324579999767309],[-86.461469999940448,32.349530000109553],[-86.467500000124801,32.386200000429824],[-86.471710000016401,32.410460000428827],[-86.475460000278702,32.435169999595928],[-86.478290000383083,32.460799999820267],[-86.480120000237719,32.487450000317381],[-86.481139999611173,32.514890000373384],[-86.481600000139792,32.54291999975834],[-86.481829999954414,32.571159999834265],[-86.482280000021888,32.599179999657395],[-86.483309999856488,32.626630000174487],[-86.485119999688152,32.653270000210512],[-86.487960000253679,32.678900000434794],[-86.491720000077862,32.703620000063097],[-86.49592000040758,32.727869999600955],[-86.500139999861005,32.752140000061104],[-86.503769999985423,32.776739999551467],[-86.506159999584213,32.801910000146506],[-86.506959999604192,32.827540000370846],[-86.506150000022387,32.853160000134039],[-86.503769999985423,32.878329999829759],[-86.502060000268671,32.89086000028891],[-86.498080000191749,32.915120000287914],[-86.49170999961666,32.951450000217505],[-86.487960000253679,32.976169999845752],[-86.485000000449531,33.001679999932207],[-86.482730000089305,33.027869999900702],[-86.480690000443076,33.05430000014502],[-86.478420000082849,33.080490000113571],[-86.475460000278702,33.10600000019997],[-86.471589999878461,33.130599999690389],[-86.466929999919444,33.154409999621919],[-86.464429999744596,33.166140000061091],[-86.456130000099336,33.20052999955999],[-86.450449999867487,33.223309999656919],[-86.447599999740078,33.234699999705356],[-86.441909999946461,33.257479999802285],[-86.433399999610174,33.291649999947708],[-86.430539999920938,33.303039999996145],[-86.421910000346145,33.337090000003627],[-86.418949999642678,33.348370000375382],[-86.409620000162761,33.38173999960145],[-86.403139999910991,33.403719999678401],[-86.39642000028266,33.425469999940674],[-86.393019999972921,33.43628999978381],[-86.383240000425587,33.46920999984178],[-86.376980000426556,33.491419999733353],[-86.370970000265174,33.513849999877721],[-86.365049999757559,33.536409999721855],[-86.359019999573206,33.558850000327425],[-86.352770000035378,33.581049999757852],[-86.346180000106813,33.602920000158008],[-86.342770000235191,33.613740000001144],[-86.331389999748581,33.645060000019157],[-86.327529999809542,33.655420000232994],[-86.315370000225244,33.685949999792797],[-86.306960000003869,33.705990000338375],[-86.298770000035347,33.726259999799311],[-86.290820000342649,33.746770000435333],[-86.282729999589719,33.76714999957295],[-86.278639999836003,33.777290000433311],[-86.270679999682159,33.797789999708868],[-86.258509999636658,33.828309999706846],[-86.25431000020626,33.838330000429323],[-86.245899999984886,33.858379999637407],[-86.233959999754063,33.889130000349382],[-86.225889999923481,33.909519999948202],[-86.217820000092843,33.929899999985139],[-86.209750000262204,33.950289999583958],[-86.205659999609168,33.960430000444319],[-86.196780000196725,33.980009999561958],[-86.187679999632167,33.999379999787323],[-86.178590000428073,34.018739999551485],[-86.169039999796041,34.037650000147551],[-86.159490000063329,34.056550000282414],[-86.145390000048337,34.085140000310901],[-86.140620000412582,34.094600000389846],[-86.130830000404103,34.113269999810768],[-86.110600000089846,34.149940000131039],[-86.110820000342642,34.15016999994566],[-86.100130000199272,34.167940000131068],[-86.089219999803049,34.185479999602421],[-86.078310000306146,34.203019999973151],[-86.067379999886953,34.22056000034388],[-86.056700000204728,34.238329999629912],[-86.046250000337125,34.256320000068115],[-86.030780000096797,34.283539999871266],[-86.025540000370597,34.292540000320912],[-86.014859999789053,34.310300000045117],[-86.00395000029215,34.327849999977673],[-85.992810000081306,34.345159999634404],[-85.981449999617666,34.362240000375834],[-85.969829999754552,34.379099999965149],[-85.95800999966167,34.395729999739842],[-85.945970000215254,34.412120000138032],[-85.933689999593696,34.428299999845251],[-85.915040000195745,34.452330000029633],[-85.908900000334654,34.460410000321417],[-85.896839999965948,34.476810000281432],[-85.884790000058331,34.493219999803273],[-85.87274000015077,34.509619999763345],[-85.860460000428589,34.525789999908739],[-85.847720000177787,34.541509999986658],[-85.834529999859512,34.556770000435336],[-85.821350000002383,34.572029999984636],[-85.808159999684108,34.587290000433313],[-85.795429999894452,34.603009999611913],[-85.777110000426092,34.627380000187031],[-85.771089999803564,34.635579999717379],[-85.759030000334121,34.651990000138539],[-85.746769999735591,34.668160000283933],[-85.734019999922964,34.683880000361853],[-85.720610000251213,34.698910000096589],[-85.706960000303638,34.713710000016647],[-85.692869999850529,34.728059999869231],[-85.678760000273712,34.742409999721872],[-85.664440000005868,34.756529999759834],[-85.650339999990877,34.770890000073564],[-85.636019999723089,34.785010000111583],[-85.621919999708098,34.799359999964167],[-85.607589999878485,34.81348000000213],[-85.593489999863493,34.827840000315916],[-85.57916000003388,34.841960000353879],[-85.565069999580714,34.856310000206463],[-85.550750000212247,34.870430000244482],[-85.536650000197255,34.884780000097066],[-85.515269999910458,34.906080000291922],[-85.508220000352651,34.913260000448815],[-85.493900000084807,34.927379999587458],[-85.479800000069815,34.941730000339362],[-85.465470000240202,34.955850000377382],[-85.451370000225211,34.970200000229966],[-85.437040000395598,34.984329999829754],[-85.422709999666665,34.998449999867717],[-85.415330000179267,35.005280000072105],[-85.392929999619696,35.025550000432304],[-85.377240000025893,35.038309999806813],[-85.361100000364615,35.050609999551966],[-85.344729999989397,35.062680000381874],[-85.328350000052353,35.074759999874232],[-85.312210000391076,35.087059999619441],[-85.296519999897953,35.099819999893214],[-85.281289999933449,35.113019999773314],[-85.266039999945917,35.126239999676386],[-85.250809999981414,35.139450000017632],[-85.242969999965396,35.145819999693401],[-85.218979999827013,35.164510000036614],[-85.202599999889969,35.17657000040532],[-85.186230000414071,35.188649999897734],[-85.169849999577707,35.200719999828266],[-85.153720000377632,35.213019999573476],[-85.137789999608685,35.225550000032626],[-85.121640000385582,35.237849999777836],[-85.105270000010364,35.249919999708368],[-85.097089999603668,35.255960000353866],[-85.072530000159247,35.274070000030633],[-85.056150000222203,35.286139999961165],[-85.040009999661663,35.298439999706375],[-85.032050000407082,35.304699999705349],[-85.007949999692642,35.323269999910735],[-84.991580000216743,35.335339999841267],[-84.983279999672163,35.341269999910708],[-84.966569999805529,35.35300000034988],[-84.941090000203246,35.370200000329874],[-84.924039999945933,35.381579999917221],[-84.915509999586732,35.387280000172041],[-84.898449999767593,35.398670000220477],[-84.872870000050341,35.415750000062587],[-84.855819999793027,35.427140000111081],[-84.838759999973888,35.438530000159517],[-84.830229999614687,35.444230000414336],[-84.804660000358638,35.461310000256447],[-84.787599999640179,35.47270000030494],[-84.77053999982104,35.484090000353376],[-84.753489999563726,35.495480000401869],[-84.727909999846531,35.512569999805805],[-84.719380000386593,35.518259999599422],[-84.702319999668134,35.529649999647916],[-84.68527000031014,35.541039999696352],[-84.668209999591681,35.552429999744845],[-84.651160000233745,35.563819999793282],[-84.634109999976431,35.575200000279949],[-84.617050000157292,35.586599999890211],[-84.608530000259179,35.592289999683885],[-84.591350000302157,35.603570000055583],[-84.556340000090813,35.625429999994651],[-84.547470000240196,35.630780000296909],[-84.529510000286166,35.641259999749309],[-84.511310000056369,35.651510000286407],[-84.493350000102339,35.661989999738864],[-84.47561999996293,35.672699999905205],[-84.458099999615172,35.683630000324399],[-84.44058000016679,35.694559999844273],[-84.423079999842003,35.705499999825292],[-84.405349999702594,35.716200000429808],[-84.396359999714093,35.721440000156008],[-84.378299999645151,35.731800000369844],[-84.351229999564737,35.747409999871763],[-84.333489999863502,35.758120000038105],[-84.315979999976889,35.769049999557978],[-84.307219999803067,35.774510000436294],[-84.28096000020372,35.790919999958192],[-84.272090000353103,35.796270000260449],[-84.245259999649136,35.812100000015107],[-84.227069999880484,35.822349999652886],[-84.218079999891984,35.827590000278462],[-84.200240000075837,35.83818000030692],[-84.173860000338664,35.854469999690878],[-84.165100000164784,35.859940000131019],[-84.138839999666175,35.876340000091091],[-84.12109999996494,35.887039999796286],[-84.103130000449028,35.897520000148006],[-84.084950000242202,35.907769999785785],[-84.075969999815527,35.913010000411361],[-84.049240000125792,35.928960000303903],[-84.031739999801061,35.939889999823777],[-84.022979999627182,35.945360000263975],[-84.005469999740569,35.956289999783792],[-83.98783999971613,35.967109999626928],[-83.960780000096804,35.982709999566964],[-83.942140000260679,35.992499999575443],[-83.932820000342645,35.997399999810284],[-83.904850000127283,36.012090000053604],[-83.886199999830012,36.021889999623909],[-83.877109999726599,36.027019999673371],[-83.850270000360126,36.042850000327405],[-83.841510000186247,36.048310000306401],[-83.815249999687637,36.064719999828299],[-83.797739999801024,36.075650000247435],[-83.788880000411609,36.08099999965043],[-83.761810000331138,36.096610000051612],[-83.752490000413104,36.101499999825251],[-83.724520000197742,36.116199999630396],[-83.715189999818506,36.121090000303411],[-83.687230000064346,36.135779999647411],[-83.669040000295695,36.14603000018451],[-83.651299999695141,36.156740000350908],[-83.633789999808528,36.167669999870725],[-83.616270000360146,36.178609999851744],[-83.607519999748092,36.184069999830797],[-83.581030000334124,36.200250000437336],[-83.571929999769566,36.205379999587478],[-83.544199999830028,36.220290000083594],[-83.534870000350111,36.225190000318378],[-83.506900000134806,36.239879999662378],[-83.497569999755569,36.244779999897219],[-83.479159999734122,36.254799999720376],[-83.452320000367592,36.270630000374354],[-83.434809999581717,36.281559999894228],[-83.426059999868983,36.287030000334369],[-83.408549999982426,36.297970000315388],[-83.382059999669139,36.314139999561462],[-83.3729600000039,36.319269999610924],[-83.354549999982396,36.329290000333401],[-83.335910000146271,36.33908000034188],[-83.307919999907938,36.353780000147026],[-83.289280000071813,36.36355999969436],[-83.280180000406574,36.368689999743822],[-83.253360000163752,36.384520000397856],[-83.24459999998993,36.389989999938678],[-83.227079999642172,36.400920000357871],[-83.209580000216704,36.411860000338891],[-83.19195999975409,36.422680000182027],[-83.173990000238234,36.433159999634427],[-83.146249999837494,36.448079999692368],[-83.127610000001368,36.457869999700847],[-83.108959999704098,36.467670000170529],[-83.090310000306147,36.477460000179008],[-83.07211000007635,36.487709999816786],[-83.054379999936941,36.498410000421302],[-83.045630000224207,36.50387999996218],[-83.019360000163772,36.520290000383341],[-83.001859999839041,36.531219999903215],[-82.984120000137807,36.541919999608467],[-82.975019999573192,36.547049999657929],[-82.956599999989919,36.557070000380349],[-82.928629999774557,36.57175999972435],[-82.909980000376606,36.581560000193974],[-82.891330000079336,36.59135000020251],[-82.882230000414097,36.596469999790827],[-82.864269999560747,36.606959999704372],[-82.837909999846488,36.62324999998765],[-82.820390000398106,36.634180000406843],[-82.802890000073319,36.645109999926717],[-82.785139999910939,36.655820000093058],[-82.766939999681142,36.666069999730837],[-82.757619999763051,36.670969999965678],[-82.729660000008892,36.685660000208998],[-82.710779999896999,36.695229999964681],[-82.691680000431575,36.704569999905743],[-82.682249999937426,36.709350000002644],[-82.654159999584181,36.723929999669906],[-82.63551000018623,36.733719999678385],[-82.617320000417578,36.743970000215484],[-82.59959000027817,36.754680000381882],[-82.59083000010429,36.760140000360877],[-82.573320000217734,36.771080000341897],[-82.555810000331121,36.782009999861771],[-82.529329999579716,36.79818999956899],[-82.520229999914477,36.803310000056626],[-82.501810000331147,36.813329999879727],[-82.483160000033877,36.823130000349408],[-82.464520000197751,36.832920000357888],[-82.445860000338655,36.842719999928192],[-82.427439999856006,36.85273999975135],[-82.400610000051358,36.868570000405327],[-82.383100000164745,36.879499999925201],[-82.365590000278189,36.890439999906221],[-82.35683000010431,36.895899999885216],[-82.330350000252224,36.912079999592436],[-82.312390000298194,36.92255000038233],[-82.294199999630166,36.932809999581934],[-82.27623000011431,36.943280000371885],[-82.267360000263693,36.948640000235969],[-82.2409799996272,36.9649200000581],[-82.223460000178761,36.97586000003912],[-82.205959999854031,36.986789999558994],[-82.188220000152796,36.997499999725335],[-82.170039999945914,37.007750000262433],[-82.151380000086817,37.017540000270969],[-82.132740000250692,37.027339999841274],[-82.123420000332658,37.032229999614913],[-82.095439999656151,37.046919999858233],[-82.086349999552738,37.052049999907695],[-82.068380000036882,37.062530000259471],[-82.050770000035357,37.07335000010255],[-82.024490000413095,37.089750000062622],[-82.006990000088308,37.100679999582439],[-81.998120000237691,37.106040000345899],[-81.971290000433044,37.121859999639412],[-81.953090000203247,37.132119999738336],[-81.935130000249217,37.14258999962891],[-81.926260000398599,37.14795000039237],[-81.908639999935929,37.158759999774304],[-81.891130000049372,37.169699999755323],[-81.86485999998888,37.186099999715339],[-81.855999999700146,37.191459999579479],[-81.829169999895498,37.207279999772311],[-81.81098000012679,37.217539999871235],[-81.793009999711614,37.228009999761809],[-81.775279999572206,37.238719999928207],[-81.75776999968565,37.249659999909227],[-81.749120000087828,37.255240000026106],[-81.723420000232693,37.272210000191478],[-81.706369999975436,37.283600000239971],[-81.697839999616178,37.289290000033645],[-81.672259999898984,37.306369999875756],[-81.663730000439045,37.312070000130575],[-81.638149999822531,37.329149999972685],[-81.621319999818013,37.340769999835743],[-81.604719999628173,37.352620000412855],[-81.588579999966896,37.364920000158008],[-81.572890000373093,37.377680000431837],[-81.557879999762065,37.391110000126559],[-81.543110000326124,37.404780000097048],[-81.528770000035365,37.418900000135068],[-81.514449999767578,37.433029999734856],[-81.500340000190761,37.44737999958744],[-81.486019999922974,37.461499999625403],[-81.471919999907982,37.475850000377363],[-81.457599999640138,37.489970000415326],[-81.443499999625203,37.504320000267967],[-81.422120000237726,37.525619999563503],[-81.408020000222734,37.539970000315407],[-81.40096999976555,37.54714999957298],[-81.387330000279178,37.561950000392358],[-81.373919999708107,37.576980000127037],[-81.361399999710102,37.592930000019635],[-81.349579999617163,37.609550000232446],[-81.333210000141264,37.63586000033888],[-81.327990000438035,37.644859999889206],[-81.313309999756598,37.672879999712336],[-81.308430000444048,37.682219999653398],[-81.298879999812016,37.701130000249464],[-81.289550000332156,37.720260000199005],[-81.279999999700124,37.739169999895751],[-81.265910000146278,37.767750000362355],[-81.256909999696632,37.787230000264458],[-81.248280000121781,37.807040000096094],[-81.240319999967937,37.827549999832797],[-81.236560000143811,37.838019999723372],[-81.226560000343625,37.870709999966664],[-81.223380000286681,37.881759999624421],[-81.214740000250686,37.915820000093049],[-81.212010000261216,37.92731999981828],[-81.204839999666149,37.962849999727837],[-81.20097999972711,37.987450000117576],[-81.198140000060846,38.013080000341915],[-81.196310000206211,38.039729999939709],[-81.195300000394582,38.067179999557482],[-81.194839999866019,38.095200000279931],[-81.194839999866019,38.109209999741836],[-81.195300000394582,38.151460000178986],[-81.196319999768093,38.178909999796815],[-81.198140000060846,38.205560000293929],[-81.200970000165285,38.231189999618948],[-81.204839999666149,38.255790000008631],[-81.209499999625166,38.279590000378334],[-81.212229999614692,38.291090000103566],[-81.217700000054833,38.314100000015117],[-81.223610000101303,38.336650000297425],[-81.229979999777072,38.35874999961294],[-81.240330000429083,38.391089999903727],[-81.244540000320626,38.40112000018803],[-81.256929999719603,38.431410000371386],[-81.265910000146278,38.450879999812287],[-81.275219999603166,38.470020000222974],[-81.284899999934964,38.488809999781836],[-81.294669999920472,38.507480000102078],[-81.304669999720602,38.525939999731349],[-81.320480000351608,38.552820000043141],[-81.325929999869516,38.561589999778789],[-81.336960000403565,38.579010000011635],[-81.35390000008482,38.604749999912713],[-81.359699999555232,38.613180000157001],[-81.371409999971434,38.629919999608433],[-81.383459999878994,38.646319999568448],[-81.395970000315174,38.662270000360365],[-81.409050000057334,38.677650000047606],[-81.429399999610212,38.699969999615917],[-81.436450000067339,38.70714999977281],[-81.457599999640138,38.728670000220461],[-81.46475999977406,38.735730000239471],[-81.486019999922974,38.757140000111065],[-81.493189999618664,38.7642099996919],[-81.507509999886452,38.778329999729863],[-81.514890000273169,38.785159999934194],[-81.544459999629169,38.812499999875229],[-81.560150000122292,38.825249999687856],[-81.576289999783569,38.837550000332385],[-81.592900000434554,38.849400000010121],[-81.609730000439072,38.861019999873236],[-81.618259999898953,38.866709999666909],[-81.644070000330146,38.883570000155544],[-81.661580000216702,38.894499999675418],[-81.670439999606174,38.899849999977675],[-81.697489999663674,38.915449999917712],[-81.716159999983915,38.925250000387337],[-81.734790000258215,38.935040000395873],[-81.753670000370107,38.944610000151556],[-81.772769999835532,38.953950000092561],[-81.791640000385598,38.963519999848245],[-81.810519999598171,38.973080000042103],[-81.829619999962915,38.982419999983165],[-81.848500000074864,38.991989999738848],[-81.867369999725611,39.001560000393852],[-81.886690000343151,39.010669999620916],[-81.906019999623197,39.019779999747357],[-81.935699999555254,39.032760000273925],[-81.945820000392587,39.036859999589467],[-81.966510000336143,39.04460999995166],[-81.987430000094321,39.052120000038144],[-82.0200600002687,39.06215000032239],[-82.042239999676156,39.068410000321421],[-82.053379999886999,39.071479999802307],[-82.075879999662163,39.077409999871747],[-82.110109999876499,39.085840000116036],[-82.121600000039848,39.088570000105562],[-82.156949999742608,39.095859999939194],[-82.181060000018874,39.100189999968677],[-82.205620000362615,39.104060000368861],[-82.218009999761591,39.105879999762351],[-82.242799999919953,39.109520000347857],[-82.279189999918458,39.115789999908714],[-82.303289999733579,39.120119999938197],[-82.32750999968664,39.124329999829797],[-82.339679999732084,39.126379999937171],[-82.364690000143298,39.129800000269938],[-82.404360000313659,39.132760000074086],[-82.417890000123293,39.133450000417326],[-82.459740000100794,39.13423999997616],[-82.488049999807515,39.134349999652898],[-82.516470000090351,39.134349999652898],[-82.530570000105342,39.13423999997616],[-82.558649999997385,39.133899999585481],[-82.600159999584207,39.132760000074086],[-82.626770000035378,39.130939999781333],[-82.652340000190748,39.128089999653923],[-82.677019999773051,39.124329999829797],[-82.701239999726113,39.120119999938197],[-82.725340000440553,39.115789999908714],[-82.749560000393615,39.111569999555968],[-82.774119999838035,39.107700000055104],[-82.798900000434571,39.104060000368861],[-82.823459999878992,39.100189999968677],[-82.847559999694113,39.095859999939194],[-82.882919999858018,39.088570000105562],[-82.894410000021367,39.085840000116036],[-82.917250000187266,39.080250000437331],[-82.939879999662139,39.0744500000676],[-82.951019999872983,39.071370000125569],[-82.995479999702127,39.058959999804301],[-83.00628999998338,39.055540000370854],[-83.027539999671149,39.048360000213961],[-83.058700000404599,39.036859999589467],[-83.068820000342612,39.032760000273925],[-83.08871000026619,39.024220000352898],[-83.117819999992889,39.010669999620916],[-83.137150000172255,39.001560000393852],[-83.156019999823002,38.991989999738848],[-83.174899999934951,38.982419999983165],[-83.184460000128809,38.977749999563002],[-83.212880000411587,38.963519999848245],[-83.231750000062334,38.953950000092561],[-83.241290000233221,38.949279999672399],[-83.269720000077825,38.935040000395873],[-83.279049999557742,38.930149999722858],[-83.297699999855013,38.920350000152553],[-83.316000000199722,38.910219999753338],[-83.333619999763073,38.899390000348376],[-83.35908999980353,38.882199999930208],[-83.375469999740574,38.870120000437794],[-83.383420000332649,38.863860000438819],[-83.407529999709595,38.845299999795316],[-83.423900000084814,38.833229999864727],[-83.43207999959219,38.827190000118549],[-83.456650000397076,38.809080000441838],[-83.473019999872974,38.797000000050105],[-83.489169999995397,38.78470999986672],[-83.505079999841996,38.772180000306889],[-83.521220000402593,38.759879999662417],[-83.529419999932941,38.753850000377383],[-83.553969999815536,38.735730000239471],[-83.570340000190754,38.723660000308939],[-83.578519999698131,38.717619999663384],[-83.594789999958437,38.705440000056115],[-83.618769999635674,38.68676000017399],[-83.626849999927458,38.680609999851754],[-83.643109999726619,38.668419999783282],[-83.667670000070359,38.650310000106572],[-83.684050000007403,38.63824000017604],[-83.700420000382621,38.626170000245452],[-83.716560000043842,38.613860000039097],[-83.732480000351643,38.601340000041091],[-83.748629999574689,38.589040000295938],[-83.764999999949907,38.57697000036535],[-83.773189999918429,38.570929999719851],[-83.797739999801024,38.552820000043141],[-83.805929999769546,38.546780000296906],[-83.830260000298665,38.528450000367343],[-83.84617999970709,38.515919999908192],[-83.870510000236209,38.49758000041686],[-83.878689999743585,38.491539999771305],[-83.895069999680629,38.479469999840774],[-83.911449999617673,38.467399999910242],[-83.927810000431066,38.455329999979654],[-83.935880000261704,38.449179999657417],[-83.959879999961913,38.430499999775293],[-83.976030000084336,38.41820000003014],[-83.992399999560234,38.406119999638406],[-84.000579999966931,38.400090000353373],[-84.016950000342149,38.388020000422841],[-84.04150999978657,38.369909999846755],[-84.049579999617208,38.363760000423838],[-84.073580000216737,38.345079999642394],[-84.081650000047375,38.338930000219477],[-84.106090000253175,38.320700000404827],[-84.114389999898492,38.314779999897212],[-84.148049999907471,38.291549999732865],[-84.156569999805527,38.285850000377366],[-84.173629999624666,38.274469999890755],[-84.190690000343125,38.263070000280436],[-84.199099999665123,38.257260000348879],[-84.215810000431077,38.245540000370852],[-84.240490000013381,38.22754000037088],[-84.256620000112832,38.21523999972635],[-84.280619999813041,38.196559999844283],[-84.288700000104825,38.190410000421309],[-84.296879999612202,38.184380000236956],[-84.321660000208738,38.166500000374867],[-84.338490000213255,38.154879999612433],[-84.347019999673137,38.149189999818759],[-84.36406999993045,38.137790000208497],[-84.38966000010879,38.120710000366387],[-84.406490000113308,38.109089999603952],[-84.423090000303148,38.097250000387362],[-84.439450000217221,38.085179999557454],[-84.447529999609685,38.079030000134537],[-84.471519999748068,38.06035000025247],[-84.487660000308665,38.04804999960794],[-84.504040000245709,38.035970000115583],[-84.512339999890969,38.030049999607968],[-84.537470000440067,38.012510000136558],[-84.545990000338122,38.006809999881739],[-84.5715799996172,37.989730000039629],[-84.580109999976401,37.984040000245955],[-84.60568000013177,37.966949999942699],[-84.622739999950909,37.955559999894206],[-84.639799999770048,37.944180000306915],[-84.656850000027362,37.932779999797276],[-84.665369999925474,37.927090000003659],[-84.690730000289193,37.909769999885725],[-84.707329999579713,37.897929999769815],[-84.731780000246715,37.87971000041631],[-84.739850000077354,37.873560000094074],[-84.755770000385098,37.861029999634923],[-84.771910000046375,37.848729999889713],[-84.788280000421594,37.836650000397356],[-84.804879999712114,37.824810000281445],[-84.821709999716632,37.813190000418331],[-84.830229999614687,37.807499999725337],[-84.855819999793027,37.790419999883227],[-84.864350000152285,37.784719999628408],[-84.889700000054859,37.767409999971676],[-84.906300000244698,37.75556000029394],[-84.922680000181742,37.743490000363352],[-84.93881999984302,37.731189999718879],[-84.962809999981403,37.7125200002979],[-84.970890000273187,37.706369999975664],[-84.987259999749085,37.694289999583987],[-85.003630000124303,37.682219999653398],[-85.028180000006898,37.664109999976688],[-85.036380000436566,37.658070000230452],[-85.052520000097843,37.64576999958598],[-85.068440000405587,37.633249999587974],[-85.084580000066865,37.620949999842765],[-85.100950000442083,37.608870000350407],[-85.125979999976892,37.59122000030294],[-85.134379999737121,37.585410000371382],[-85.142910000096322,37.579719999678389],[-85.159969999915461,37.568329999629952],[-85.185549999632656,37.55124000022596],[-85.202370000075348,37.539629999924728],[-85.210680000181753,37.53369999985523],[-85.227169999795535,37.521739999601436],[-85.24342000003287,37.509559999994167],[-85.267410000171253,37.490880000112043],[-85.28354999983253,37.47858000036689],[-85.291750000262198,37.472550000182537],[-85.316300000144793,37.45443999960645],[-85.324490000113315,37.448399999860271],[-85.34903999999591,37.430290000183504],[-85.365190000118332,37.417990000438294],[-85.373150000272176,37.41173000043932],[-85.397250000087354,37.393169999795816],[-85.413630000024398,37.381090000303402],[-85.429989999938414,37.369020000372871],[-85.44638000033666,37.356939999981137],[-85.462740000250733,37.344870000050605],[-85.478879999911953,37.332570000305395],[-85.494800000219755,37.32005000030739],[-85.502879999612162,37.313899999985153],[-85.519129999849497,37.301709999916682],[-85.535509999786541,37.289630000424324],[-85.551880000161759,37.277559999594473],[-85.568249999637658,37.265489999663885],[-85.584519999897964,37.25329999959547],[-85.616579999866985,37.228470000290429],[-85.624649999697624,37.222319999968192],[-85.632839999666146,37.216280000221957],[-85.657390000448061,37.198169999645927],[-85.673770000385105,37.186099999715339],[-85.681949999892481,37.18005999996916],[-85.7062800004216,37.161719999578452],[-85.722199999830025,37.149199999580446],[-85.730269999660663,37.14305000015753],[-85.75470999986652,37.124820000342879],[-85.77110000026471,37.112750000412348],[-85.787469999740608,37.100679999582439],[-85.803619999862974,37.088379999837287],[-85.819310000356154,37.075619999563457],[-85.834540000320658,37.062419999683357],[-85.849779999846987,37.049199999780285],[-85.872849999827508,37.029610000201501],[-85.880689999843526,37.023230000064586],[-85.896839999965948,37.010930000319433],[-85.913219999902992,36.998860000388845],[-85.929599999840036,36.986789999558994],[-85.945970000215254,36.974719999628405],[-85.962100000314649,36.962410000321427],[-85.97005999956923,36.956150000322395],[-85.994169999845496,36.937589999678892],[-86.018719999728091,36.919480000002125],[-86.026920000157759,36.913440000255946],[-86.051360000363616,36.895220000003121],[-86.059430000194254,36.889069999680885],[-86.06727999977204,36.88269000044329],[-86.082629999874484,36.869589999778839],[-86.104910000296172,36.849209999741845],[-86.119469999940463,36.835320000417823],[-86.141750000362094,36.814929999919684],[-86.149260000448578,36.80821000029141],[-86.173019999872963,36.789299999695402],[-86.181089999703602,36.783150000272428],[-86.19746000007882,36.771080000341897],[-86.213840000015864,36.759010000411308],[-86.221909999846503,36.752860000089072],[-86.237819999693102,36.740329999629921],[-86.260679999881972,36.720510000236459],[-86.275459999779059,36.70684000026597],[-86.289789999608672,36.692720000227951],[-86.304109999876516,36.678600000189988],[-86.318209999891451,36.664250000337404],[-86.332530000159295,36.650119999838296],[-86.346859999988908,36.635999999800276],[-86.361630000324169,36.622340000290933],[-86.376649999597703,36.608889999673863],[-86.392329999629681,36.596139999861236],[-86.408479999752103,36.583840000116084],[-86.424850000127321,36.57175999972435],[-86.441230000064365,36.559689999793818],[-86.449299999894947,36.553540000370845],[-86.480579999867018,36.527910000146562],[-86.488080000391619,36.521189999618912],[-86.502849999827504,36.507530000109568],[-86.524350000252184,36.486339999591451],[-86.531510000386106,36.479279999572441],[-86.545610000401098,36.464929999719857],[-86.559940000230711,36.450809999681894],[-86.574040000245702,36.436459999829253],[-86.58835999961417,36.422339999791291],[-86.609619999763083,36.400920000357871],[-86.616790000358151,36.393860000338918],[-86.63087999991194,36.379509999586958],[-86.645200000179784,36.365390000448315],[-86.659309999756601,36.351039999696354],[-86.673630000024389,36.336919999658392],[-86.68773000003938,36.322569999805808],[-86.709110000326177,36.301269999610952],[-86.716159999883985,36.294090000353378],[-86.730480000151772,36.279970000315416],[-86.751740000300686,36.258560000443822],[-86.758909999996376,36.251500000424812],[-86.773010000011368,36.237149999672909],[-86.787339999841038,36.223029999634946],[-86.801430000294147,36.208679999782305],[-86.815539999871021,36.194329999929721],[-86.835879999862016,36.171999999900208],[-86.842589999928464,36.164489999813782],[-86.85531999971812,36.148769999735862],[-86.867600000339621,36.132599999590468],[-86.879650000247182,36.116199999630396],[-86.891689999693654,36.099799999670381],[-86.903979999876981,36.083630000424307],[-86.916720000127782,36.067910000346387],[-86.930140000260678,36.052870000150506],[-86.943779999747107,36.038059999769303],[-86.964930000219226,36.016540000220971],[-86.971979999777091,36.009360000064078],[-86.9860700002302,35.995010000211494],[-86.999709999716629,35.98019999983029],[-87.013129999849525,35.96517999965738],[-87.025859999639181,35.94945999957946],[-87.038149999822508,35.933279999872241],[-87.050199999730125,35.916879999912226],[-87.062260000098831,35.900479999952154],[-87.074530000259188,35.884300000244934],[-87.087269999610669,35.868600000189986],[-87.100459999928944,35.853319999718337],[-87.113650000247219,35.838069999730862],[-87.126839999666174,35.82279999972036],[-87.13957000035515,35.807090000103585],[-87.151859999639157,35.790919999958192],[-87.163910000446037,35.774510000436294],[-87.175949999892453,35.758109999576959],[-87.18799999980007,35.741709999616944],[-87.200289999983397,35.72554000037087],[-87.212780000396606,35.709589999578952],[-87.225069999680613,35.693420000332878],[-87.237119999588231,35.677020000372863],[-87.248939999681113,35.660400000160053],[-87.260540000420576,35.643539999671418],[-87.271910000446042,35.626459999829251],[-87.283279999572244,35.609370000425315],[-87.300340000290703,35.583749999762802],[-87.306019999623174,35.575200000279949],[-87.317400000109785,35.558120000437839],[-87.334450000367099,35.5324900002135],[-87.340129999699627,35.523950000292416],[-87.351499999725092,35.506869999550986],[-87.36288000021176,35.48978000014705],[-87.379929999569697,35.464160000383856],[-87.385609999801545,35.455619999563453],[-87.396759999574215,35.438300000344896],[-87.41300999981155,35.411879999662403],[-87.418360000113807,35.402989999788815],[-87.428589999728615,35.38477000043531],[-87.438359999714123,35.366089999653923],[-87.448140000160777,35.347409999771799],[-87.45791999970811,35.328729999889731],[-87.472819999743081,35.300939999881223],[-87.477940000230717,35.291829999754839],[-87.488630000374087,35.274070000030633],[-87.49953999987099,35.256529999659904],[-87.510450000267213,35.238990000188494],[-87.52137999978703,35.221449999817764],[-87.532060000368631,35.203679999632413],[-87.542300000444584,35.185460000278908],[-87.556949999742585,35.157439999556459],[-87.5618400004156,35.148099999615454],[-87.571399999710138,35.129200000379853],[-87.589470000240226,35.090359999814268],[-87.594019999623185,35.080680000381847],[-87.598449999767581,35.070879999912222],[-87.610619999813025,35.040359999914187],[-87.622669999720586,35.009730000239472],[-87.626760000373622,34.999590000278431],[-87.634830000204261,34.979199999780292],[-87.638930000419066,34.969059999819308],[-87.647800000269683,34.949470000240467],[-87.656890000373096,34.930109999576985],[-87.665769999785539,34.910529999559969],[-87.674870000350154,34.891160000233981],[-87.687820000392605,34.86142999979478],[-87.691930000169293,34.851300000294941],[-87.703520000447554,34.820210000091549],[-87.707380000386593,34.809840000315887],[-87.718189999768583,34.777950000092574],[-87.725349999902448,34.756660000358863],[-87.73285000042705,34.735699999655424],[-87.740579999867009,34.714969999665925],[-87.744450000267193,34.704610000351408],[-87.756500000174753,34.67397000021549],[-87.764570000005392,34.653579999717351],[-87.772180000206731,34.632740000051115],[-87.779240000225741,34.611319999718376],[-87.78263999963616,34.60049999987524],[-87.792079999692135,34.567249999887736],[-87.798219999553226,34.54491999985828],[-87.801300000394576,34.533759999624408],[-87.810959999804027,34.500729999889757],[-87.814250000437085,34.489800000369883],[-87.824370000375097,34.457230000264474],[-87.830849999727604,34.435250000187523],[-87.837100000164753,34.413040000295894],[-87.843139999910989,34.39059999969038],[-87.848929999819518,34.367939999731334],[-87.851779999946928,34.356540000121072],[-87.859860000238712,34.321919999908232],[-87.864970000265203,34.298580000067091],[-87.867480000001876,34.286849999627918],[-87.874510000436089,34.251199999580479],[-87.879179999956932,34.227389999648892],[-87.883960000053833,34.203699999855246],[-87.886340000090854,34.191859999739336],[-87.8930399996961,34.15587000020048],[-87.8972499995877,34.131610000201476],[-87.901119999987884,34.107009999811794],[-87.904750000112301,34.082179999607433],[-87.908619999613165,34.057580000117071],[-87.910680000181742,34.045390000048599],[-87.917149999972423,34.009169999795802],[-87.921359999864023,33.984909999796798],[-87.925110000126324,33.960199999730321],[-87.928069999930472,33.934680000082096],[-87.930340000290698,33.908490000113545],[-87.932379999936927,33.882070000330373],[-87.93465999985898,33.855869999900733],[-87.937619999663127,33.830359999814277],[-87.94138000038663,33.805649999747857],[-87.945570000255202,33.781389999748853],[-87.947730000039371,33.769310000256439],[-87.953539999970928,33.732410000121547],[-87.956379999637193,33.706790000358353],[-87.958210000391091,33.68013999986124],[-87.959229999764545,33.652690000243467],[-87.959790000408077,33.624789999658901],[-87.960359999714115,33.596880000411829],[-87.961379999986889,33.569440000355883],[-87.963200000279699,33.542789999858769],[-87.964330000229211,33.529690000093581],[-87.967740000100832,33.504630000074599],[-87.974000000099807,33.468189999568949],[-87.978200000429581,33.44392000000812],[-87.980260000098838,33.43174000040085],[-87.984699999805059,33.393699999855244],[-87.986059999569193,33.367500000324924],[-87.986050000007367,33.341079999642432],[-87.984690000243233,33.314880000112055],[-87.981960000253707,33.289370000025599],[-87.979919999708102,33.277179999957184],[-87.974000000099807,33.240390000398349],[-87.971949999992376,33.228209999891703],[-87.966039999945963,33.191420000332869],[-87.963200000279699,33.165790000108586],[-87.961270000310151,33.139259999749356],[-87.959790000408077,33.112269999760827],[-87.958309999606684,33.085270000210471],[-87.956379999637193,33.058739999851241],[-87.953539999970928,33.033120000088104],[-87.949780000146802,33.008399999560481],[-87.94547000014029,32.984250000137536],[-87.940810000181273,32.960449999767832],[-87.936039999646141,32.936759999974186],[-87.931370000125298,32.912959999604425],[-87.926710000166281,32.889149999672895],[-87.921939999631149,32.865459999879249],[-87.917160000433569,32.841770000085603],[-87.912380000336668,32.8180800002919],[-87.907609999801537,32.794389999598934],[-87.902940000280694,32.770579999667405],[-87.898160000183736,32.746889999873758],[-87.890209999591718,32.712159999984181],[-87.887249999787571,32.700879999612425],[-87.881120000387625,32.678560000044115],[-87.874510000436089,32.656700000105047],[-87.867809999931467,32.634940000280949],[-87.86132999967964,32.612960000203998],[-87.855069999680609,32.590750000312426],[-87.852129999899489,32.579480000401816],[-87.843139999910989,32.545760000323924],[-87.837109999726579,32.523319999718353],[-87.83086000018875,32.501120000287926],[-87.824370000375097,32.479140000210975],[-87.817549999732591,32.457499999625441],[-87.810500000174784,32.436080000192021],[-87.8034499997176,32.414670000320427],[-87.796409999721618,32.393260000448834],[-87.789249999587696,32.371960000253978],[-87.782070000330123,32.350660000059122],[-87.775030000334141,32.329250000187528],[-87.767979999877014,32.30784999987776],[-87.760819999743092,32.286540000121079],[-87.75365999960917,32.265239999926223],[-87.746599999590217,32.243839999616455],[-87.739440000355614,32.222540000320919],[-87.731950000292159,32.201579999617422],[-87.72421000039111,32.180849999627924],[-87.716359999913948,32.160239999776309],[-87.708180000406571,32.139959999854227],[-87.699750000162283,32.119920000207969],[-87.691569999755586,32.09964999984777],[-87.683609999601686,32.079149999672893],[-87.675539999771047,32.058760000074074],[-87.667469999940465,32.038380000037137],[-87.659500000224739,32.017870000300434],[-87.655299999894964,32.007849999577957],[-87.642909999596725,31.977549999832775],[-87.634730000089348,31.957280000371838],[-87.626769999935448,31.936780000197018],[-87.618700000104809,31.916389999698879],[-87.610610000251199,31.896000000100059],[-87.602549999982386,31.875620000063122],[-87.589579999916964,31.845889999623921],[-87.58504000009583,31.8362100001915],[-87.571619999962934,31.806940000280918],[-87.5670800001418,31.797259999949176],[-87.553669999570729,31.767990000038594],[-87.549579999817013,31.75785000007761],[-87.541500000424548,31.737459999579471],[-87.533429999694647,31.717080000441797],[-87.525339999841037,31.696689999943715],[-87.517279999572224,31.676300000344895],[-87.512839999866003,31.666510000336416],[-87.499760000123786,31.636900000035098],[-87.490779999697111,31.617420000133052],[-87.481800000169756,31.597949999792775],[-87.47737000002536,31.58815000022247],[-87.464290000283199,31.558539999921209],[-87.456219999553241,31.538150000322389],[-87.448140000160777,31.517770000285452],[-87.440070000330138,31.497379999787313],[-87.43199999960018,31.476990000188493],[-87.423479999702124,31.457060000218974],[-87.418919999858019,31.447379999887232],[-87.405399999610211,31.418219999653388],[-87.391299999595219,31.389640000086104],[-87.381740000300681,31.370730000389358],[-87.377199999580228,31.361050000057617],[-87.372650000197268,31.351369999725875],[-87.354690000243238,31.312420000382872],[-87.350599999590202,31.302280000421831],[-87.342529999759563,31.281889999923692],[-87.330350000152293,31.251369999925714],[-87.326370000075315,31.241120000287935],[-87.318420000382616,31.220620000113058],[-87.310230000414094,31.200340000190977],[-87.301809999731574,31.180299999645399],[-87.293630000224255,31.16003000018452],[-87.285779999747092,31.139409999871759],[-87.278050000307189,31.118679999882261],[-87.270540000220706,31.09772999963991],[-87.26338000008684,31.076430000344374],[-87.256329999629656,31.05501999957346],[-87.252810000081354,31.044319999868264],[-87.242460000328663,31.011970000015651],[-87.235980000076836,30.9899899999387],[-87.229740000100833,30.967780000047128],[-87.22370999991648,30.945340000340877],[-87.21779999987001,30.922790000058626],[-87.211760000123775,30.900350000352375],[-87.205520000147771,30.878139999561483],[-87.199039999896002,30.856160000383852],[-87.192209999691613,30.834519999798317],[-87.185169999695631,30.813109999926724],[-87.178120000137767,30.79170000005513],[-87.171060000118814,30.770290000183479],[-87.163890000423066,30.74898999998868],[-87.156739999851027,30.727689999793824],[-87.149690000293162,30.706279999922231],[-87.142530000159297,30.684979999727375],[-87.135029999634696,30.664019999923198],[-87.127289999733591,30.643300000394845],[-87.119449999717631,30.622680000082084],[-87.111270000210254,30.602409999721829],[-87.102839999965909,30.582359999614425],[-87.094670000020358,30.562090000153546],[-87.086809999981426,30.541480000301931],[-87.079079999642147,30.520750000312432],[-87.071580000016866,30.499789999608936],[-87.064410000321175,30.4784900003134],[-87.057250000187253,30.45719999968037],[-87.049749999662652,30.43623999987625],[-87.042020000222749,30.415509999886751],[-87.034160000183761,30.394900000035136],[-87.02599000023821,30.37462999967488],[-87.017559999993921,30.354579999567477],[-87.009379999587225,30.334299999645395],[-87.001539999571207,30.31368999979378],[-86.993799999670159,30.292959999804282],[-86.986300000044878,30.272009999561988],[-86.979139999910956,30.250710000266452],[-86.971970000215208,30.229410000071596],[-86.964469999690607,30.208450000267419],[-86.956740000250704,30.18772000027792],[-86.948900000234744,30.167110000426305],[-86.94069999980502,30.146840000066106],[-86.932300000044847,30.126789999958703],[-86.92409999961518,30.106519999598447],[-86.916149999922482,30.08602000032289],[-86.908080000091843,30.06562999982475],[-86.899890000123321,30.045360000363871],[-86.891479999901946,30.025310000256468],[-86.882280000121796,30.006069999730869],[-86.872040000045843,29.987850000377364],[-86.860890000273173,29.97053000025943],[-86.848729999789555,29.954239999976153],[-86.828489999913472,29.931809999831785],[-86.813930000269181,29.917910000046618],[-86.806090000253221,29.911540000370849],[-86.781429999794568,29.893540000370876],[-86.763679999632188,29.882839999766304],[-86.745150000372121,29.873040000195999],[-86.725829999754581,29.864380000137032],[-86.706380000336651,29.856410000421306],[-86.687290000433052,29.848889999873734],[-86.658739999551244,29.839549999932672],[-86.630200000029845,29.833289999933697],[-86.62121999960317,29.831580000217002]]]},"properties":{"objectid":656,"stormname":"Isaias","stormtype":"HU","basin":"AL","advdate":"700 PM CDT Fri Oct 09 2026","advisnum":"13A","fcstprd":120,"stormnum":9,"idp_source":"al092026-013A_5day_pgn","idp_filedate":1791590927000,"idp_ingestdate":1791591124000,"st_area(shape)":19.220245837362103,"st_perimeter(shape)":25.235110082352961,"binnumber":"AT4"}}]}