{"type":"FeatureCollection","features":[{"type":"Feature","id":5409,"geometry":{"type":"LineString","coordinates":[[-96.500000000399609,22.000000000199975],[-96.299999999899967,22.199999999800298],[-96.100000000299644,22.299999999600459],[-95.99999999960022,22.199999999800298],[-95.99999999960022,22.000000000199975],[-95.700000000199736,21.900000000399814]]},"properties":{"objectid":5409,"stormtype":"DB","stormnum":9,"ss":0,"idp_source":"AL092026_lin","idp_filedate":1791572556000,"idp_ingestdate":1791572595000,"st_length(shape)":1.1640986314242154,"binnumber":"AT4"}},{"type":"Feature","id":5410,"geometry":{"type":"LineString","coordinates":[[-95.700000000199736,21.900000000399814],[-95.300000000099828,21.699999999900228],[-94.599999999700117,21.900000000399814]]},"properties":{"objectid":5410,"stormtype":"TD","stormnum":9,"ss":0,"idp_source":"AL092026_lin","idp_filedate":1791572556000,"idp_ingestdate":1791572595000,"st_length(shape)":1.1752245852623704,"binnumber":"AT4"}},{"type":"Feature","id":5411,"geometry":{"type":"LineString","coordinates":[[-94.599999999700117,21.900000000399814],[-93.900000000199725,22.199999999800298],[-93.299999999600175,22.500000000100044],[-92.299999999800036,22.699999999700367],[-91.49999999960022,23.099999999800275]]},"properties":{"objectid":5411,"stormtype":"TS","stormnum":9,"ss":0,"idp_source":"AL092026_lin","idp_filedate":1791572556000,"idp_ingestdate":1791572595000,"st_length(shape)":3.3466287974787696,"binnumber":"AT4"}},{"type":"Feature","id":5412,"geometry":{"type":"LineString","coordinates":[[-91.49999999960022,23.099999999800275],[-90.599999999600186,23.400000000100079],[-89.80000000029969,23.900000000000148],[-89.000000000099817,24.800000000000125]]},"properties":{"objectid":5412,"stormtype":"HU","stormnum":9,"ss":1,"idp_source":"AL092026_lin","idp_filedate":1791572556000,"idp_ingestdate":1791572595000,"st_length(shape)":3.0962408687168725,"binnumber":"AT4"}},{"type":"Feature","id":5413,"geometry":{"type":"LineString","coordinates":[[-89.000000000099817,24.800000000000125],[-88.400000000399586,25.79999999980032],[-87.600000000199771,27.000000000100044]]},"properties":{"objectid":5413,"stormtype":"HU","stormnum":9,"ss":2,"idp_source":"AL092026_lin","idp_filedate":1791572556000,"idp_ingestdate":1791572595000,"st_length(shape)":2.6084108891893178,"binnumber":"AT4"}},{"type":"Feature","id":5414,"geometry":{"type":"LineString","coordinates":[[-89.000000000099817,24.800000000000125],[-88.400000000399586,25.79999999980032],[-87.600000000199771,27.000000000100044]]},"properties":{"objectid":5414,"stormtype":"HU","stormnum":9,"ss":2,"idp_source":"AL092026_lin","idp_filedate":1791572556000,"idp_ingestdate":1791572595000,"st_length(shape)":2.6084108891893178,"binnumber":"AT4"}}]}