{"type":"FeatureCollection","features":[{"type":"Feature","id":5188,"geometry":{"type":"Point","coordinates":[-86.600000000399575,30.100000000199998]},"properties":{"objectid":5188,"stormname":"Hurricane Isaias","stormtype":"HU","dvlbl":"H","basin":"AL","advdate":"700 PM CDT Fri Oct 09 2026","advisnum":"13A","fcstprd":120,"gust":130,"maxwind":95,"mslp":967,"ssnum":2,"datelbl":"7:00 PM Fri","tcdvlp":"Hurricane","tcdir":10,"tcspd":15,"fldatelbl":"2026-10-09 4:00 PM Fri CDT","lat":30,"lon":-87,"stormnum":9,"stormsrc":"Tropical Cyclone","tau":0,"timezone":"CDT","validtime":"09/2100","idp_source":"al092026-013A_5day_pts","idp_filedate":1791590927000,"idp_ingestdate":1791591118000,"binnumber":"AT4"}},{"type":"Feature","id":5189,"geometry":{"type":"Point","coordinates":[-86.799999999999898,31.199999999800298]},"properties":{"objectid":5189,"stormname":"Hurricane Isaias","stormtype":"HU","dvlbl":"H","basin":"AL","advdate":"700 PM CDT Fri Oct 09 2026","advisnum":"13A","fcstprd":120,"gust":95,"maxwind":75,"mslp":9999,"ssnum":1,"datelbl":"1:00 AM Sat","tcdvlp":"Hurricane","tcdir":9999,"tcspd":9999,"fldatelbl":"2026-10-10 1:00 AM Sat CDT","lat":31,"lon":-87,"stormnum":9,"stormsrc":"Tropical Cyclone","tau":12,"timezone":"CDT","validtime":"10/0600","idp_source":"al092026-013A_5day_pts","idp_filedate":1791590927000,"idp_ingestdate":1791591118000,"binnumber":"AT4"}},{"type":"Feature","id":5190,"geometry":{"type":"Point","coordinates":[-87.200000000099806,33.399999999900217]},"properties":{"objectid":5190,"stormname":"Hurricane Isaias","stormtype":"STS","dvlbl":"S","basin":"AL","advdate":"700 PM CDT Fri Oct 09 2026","advisnum":"13A","fcstprd":120,"gust":55,"maxwind":40,"mslp":9999,"ssnum":0,"datelbl":"1:00 PM Sat","tcdvlp":"Subtropical Storm","tcdir":9999,"tcspd":9999,"fldatelbl":"2026-10-10 1:00 PM Sat CDT","lat":33,"lon":-87,"stormnum":9,"stormsrc":"Post-Tropical Cyclone","tau":24,"timezone":"CDT","validtime":"10/1800","idp_source":"al092026-013A_5day_pts","idp_filedate":1791590927000,"idp_ingestdate":1791591118000,"binnumber":"AT4"}},{"type":"Feature","id":5191,"geometry":{"type":"Point","coordinates":[-86.099999999600186,35.600000000000136]},"properties":{"objectid":5191,"stormname":"Hurricane Isaias","stormtype":"STD","dvlbl":"D","basin":"AL","advdate":"700 PM CDT Fri Oct 09 2026","advisnum":"13A","fcstprd":120,"gust":40,"maxwind":30,"mslp":9999,"ssnum":0,"datelbl":"1:00 AM Sun","tcdvlp":"Subtropical Depression","tcdir":9999,"tcspd":9999,"fldatelbl":"2026-10-11 1:00 AM Sun CDT","lat":36,"lon":-86,"stormnum":9,"stormsrc":"Post-Tropical Cyclone","tau":36,"timezone":"CDT","validtime":"11/0600","idp_source":"al092026-013A_5day_pts","idp_filedate":1791590927000,"idp_ingestdate":1791591118000,"binnumber":"AT4"}},{"type":"Feature","id":5192,"geometry":{"type":"Point","coordinates":[-82.49999999960022,38.100000000399859]},"properties":{"objectid":5192,"stormname":"Hurricane Isaias","stormtype":"STD","dvlbl":"D","basin":"AL","advdate":"700 PM CDT Fri Oct 09 2026","advisnum":"13A","fcstprd":120,"gust":35,"maxwind":25,"mslp":9999,"ssnum":0,"datelbl":"1:00 PM Sun","tcdvlp":"Subtropical Depression","tcdir":9999,"tcspd":9999,"fldatelbl":"2026-10-11 1:00 PM Sun CDT","lat":38,"lon":-82,"stormnum":9,"stormsrc":"Post-Tropical Cyclone","tau":48,"timezone":"CDT","validtime":"11/1800","idp_source":"al092026-013A_5day_pts","idp_filedate":1791590927000,"idp_ingestdate":1791591118000,"binnumber":"AT4"}}]}