{"type":"FeatureCollection","features":[{"type":"Feature","id":607,"geometry":{"type":"Polygon","coordinates":[[[-88.438049999607699,25.53697999972735],[-88.414359999814053,25.534730000289414],[-88.389600000139808,25.534859999989123],[-88.364190000168264,25.537509999886709],[-88.338780000196721,25.542550000282404],[-88.313769999785563,25.549579999817297],[-88.289669999970442,25.558330000429294],[-88.255390000148282,25.573710000116535],[-88.244539999821029,25.579410000371354],[-88.213290000333132,25.597840000415829],[-88.194239999576212,25.611900000384878],[-88.176499999874977,25.627280000072062],[-88.160349999752555,25.644250000237491],[-88.145259999948962,25.66227999982226],[-88.130700000304671,25.680839999566444],[-88.11613999976106,25.699409999771831],[-88.101319999818031,25.717699999655395],[-88.085690000293198,25.735210000441327],[-88.069810000031396,25.752440000006118],[-88.053390000048353,25.769149999872752],[-88.036979999627192,25.785850000177504],[-88.020289999783586,25.802299999745344],[-88.003889999823514,25.819000000050096],[-87.987210000441053,25.83544000005611],[-87.970789999558747,25.852149999922688],[-87.954119999738111,25.868589999928702],[-87.937710000216214,25.885299999795279],[-87.921029999934433,25.901739999801293],[-87.904620000412592,25.918449999667871],[-87.887929999669666,25.934889999673885],[-87.871520000147768,25.951600000439782],[-87.854839999865987,25.968040000445797],[-87.838419999883001,25.984750000312431],[-87.813549999632698,26.009539999571473],[-87.805339999641149,26.017889999723877],[-87.788669999820513,26.034329999729835],[-87.772249999837527,26.051039999596469],[-87.755569999555746,26.067479999602426],[-87.739160000033849,26.084179999907235],[-87.722479999752068,26.100630000374338],[-87.706070000230227,26.117329999779827],[-87.68938000038662,26.133769999785784],[-87.672969999965403,26.150479999652418],[-87.656560000443562,26.167190000418316],[-87.640669999720615,26.184430000444308],[-87.625060000218753,26.201929999869719],[-87.610229999814521,26.22021999975334],[-87.595940000030851,26.239050000257464],[-87.581909999646655,26.258140000161006],[-87.567889999723604,26.277239999626431],[-87.553579999916963,26.296070000130555],[-87.538759999973934,26.314369999575945],[-87.52340999987149,26.33213000019947],[-87.50805000020722,26.349900000384878],[-87.485279999672116,26.376810000281409],[-87.477869999700602,26.385959999554473],[-87.463579999916931,26.404790000058597],[-87.44980999983153,26.42414999982276],[-87.436300000044866,26.443769999885717],[-87.423069999680649,26.463659999809295],[-87.410110000076315,26.48381000003161],[-87.397389999848485,26.504230000114546],[-87.384949999942421,26.524920000058103],[-87.372779999896977,26.545870000300397],[-87.354770000335122,26.577560000293943],[-87.348680000081856,26.588030000184517],[-87.329889999623674,26.618929999719853],[-87.323530000409107,26.629140000211009],[-87.310819999743103,26.649560000293945],[-87.291890000023386,26.68031999966837],[-87.279719999977885,26.701269999910721],[-87.273769999885474,26.711870000400324],[-87.262379999837037,26.733619999763334],[-87.245440000155781,26.766370000075597],[-87.239880000061873,26.777370000125529],[-87.223999999800071,26.811179999857245],[-87.213540000370642,26.833859999839262],[-87.203610000201252,26.857060000418812],[-87.19883999966612,26.868859999589461],[-87.18481999974307,26.904529999659871],[-87.180050000107315,26.91632999972984],[-87.170790000258194,26.940190000168514],[-87.156100000014874,26.975200000379857],[-87.15092999991947,26.986599999990176],[-87.135189999818522,27.020549999882746],[-87.124730000389093,27.043220000302938],[-87.114270000060344,27.065889999823753],[-87.104339999890954,27.08909000040336],[-87.094939999880978,27.112829999804774],[-87.085539999871003,27.136559999644419],[-87.080779999797073,27.14835999971433],[-87.071519999947952,27.17222999971483],[-87.057350000302165,27.207770000085588],[-87.04754999983254,27.231100000364847],[-87.0426499995977,27.242769999835787],[-87.028880000411561,27.278700000204992],[-87.019879999961915,27.302829999604967],[-87.01115000027221,27.327229999764825],[-87.002809999681631,27.352019999923186],[-86.994610000151283,27.376950000242459],[-86.986269999560704,27.401740000400821],[-86.977940000330648,27.426540000121065],[-86.969730000339155,27.451470000440338],[-86.961520000347662,27.476390000298409],[-86.953179999757083,27.501190000018653],[-86.944840000065824,27.52598999973884],[-86.936630000074331,27.550909999596968],[-86.928440000105809,27.575839999916184],[-86.920089999953404,27.600630000074602],[-86.911750000262202,27.62542999979479],[-86.903540000270709,27.650360000114063],[-86.895319999818014,27.67527999997219],[-86.887000000149783,27.700079999692377],[-86.878659999559204,27.724869999850739],[-86.870449999567711,27.749800000170012],[-86.862239999576218,27.77472000002814],[-86.853899999884959,27.799519999748327],[-86.845569999755583,27.824309999906689],[-86.837359999764089,27.849240000225961],[-86.82914999977254,27.874169999645915],[-86.820819999643163,27.898959999804276],[-86.812470000390078,27.92376000042384],[-86.804260000398585,27.948689999843737],[-86.796070000430063,27.973609999701864],[-86.78786000043857,27.998540000021137],[-86.779920000307641,28.023729999739828],[-86.772370000175272,28.049319999918225],[-86.765089999903466,28.075179999957186],[-86.758069999930456,28.101300000294941],[-86.751190000118299,28.127550000332405],[-86.744170000145289,28.153669999770841],[-86.736889999873483,28.179529999809802],[-86.72935000020226,28.205119999988142],[-86.721539999771096,28.230440000305919],[-86.713730000239195,28.255770000185521],[-86.706180000106826,28.281360000363861],[-86.698899999835021,28.307209999941676],[-86.691890000323156,28.333330000279432],[-86.685129999749563,28.359719999578488],[-86.678519999798027,28.386240000375835],[-86.671909999846491,28.41276000027392],[-86.665279999871984,28.439269999710859],[-86.658660000358623,28.465789999608944],[-86.655360000163796,28.479049999557958],[-86.645429999994406,28.518830000304433],[-86.638809999581724,28.545350000202518],[-86.632190000068363,28.571870000100546],[-86.625560000093799,28.598380000436805],[-86.618959999704146,28.62490000033489],[-86.612340000190727,28.651420000232974],[-86.605719999778046,28.677940000131059],[-86.599100000264684,28.704460000029144],[-86.592479999852003,28.730979999927172],[-86.585860000338641,28.757490000263431],[-86.579250000387106,28.784010000161516],[-86.572629999974424,28.8105300000596],[-86.566009999561743,28.837049999957685],[-86.559390000048381,28.86356999985577],[-86.552769999635643,28.890080000191972],[-86.546159999684107,28.916600000090057],[-86.539540000170746,28.943119999988141],[-86.532919999758064,28.969639999886226],[-86.526309999806529,28.996159999784311],[-86.519679999832022,29.022679999682396],[-86.513199999580195,29.049330000179509],[-86.506970000065337,29.076240000076098],[-86.501019999972925,29.103430000294395],[-86.495319999718106,29.130870000350399],[-86.489899999785052,29.158580000266966],[-86.484470000290173,29.186290000183533],[-86.47877999959718,29.213739999801305],[-86.472819999942942,29.240919999558457],[-86.466609999551736,29.267839999916191],[-86.460110000176257,29.294490000413305],[-86.453509999786547,29.321010000311389],[-86.447010000411069,29.34765999990924],[-86.440779999996892,29.374569999805772],[-86.43482999990448,29.401760000024126],[-86.429140000110806,29.429200000080073],[-86.423709999716607,29.45690999999664],[-86.418289999783553,29.484619999913207],[-86.412729999689645,29.512200000130065],[-86.407300000194766,29.539919999608458],[-86.402150000122276,29.567889999823763],[-86.397249999887492,29.596129999899745],[-86.392750000112301,29.624770000435319],[-86.388509999736584,29.653679999932194],[-86.384009999961449,29.682319999568449],[-86.379120000187754,29.710559999644431],[-86.374079999792059,29.738670000020647],[-86.369049999857509,29.766780000396864],[-86.364149999622668,29.795019999573469],[-86.359649999847534,29.823660000109044],[-86.355419999932963,29.852569999605919],[-86.350920000157771,29.881199999680405],[-86.34601999992293,29.909450000217475],[-86.340989999988381,29.937559999694372],[-86.336089999753597,29.965799999770297],[-86.331730000139316,29.994570000005638],[-86.328409999921462,30.024399999660375],[-86.326290000183235,30.055429999794796],[-86.325100000164753,30.087389999648906],[-86.32457999956722,30.119999999800314],[-86.3243099997066,30.152879999812285],[-86.323780000446561,30.185500000424838],[-86.322590000428079,30.217460000278948],[-86.320469999790532,30.248479999952167],[-86.317169999595706,30.278320000068106],[-86.312789999958454,30.30709000030339],[-86.307900000184759,30.335330000379372],[-86.302999999949918,30.363569999555978],[-86.298629999874493,30.392350000252463],[-86.295320000117783,30.4221799999072],[-86.293209999941439,30.453210000041622],[-86.292010000361131,30.485160000333906],[-86.291489999763598,30.517780000047082],[-86.291349999602687,30.55078999975882],[-86.291349999602687,30.583939999631411],[-86.291349999602687,30.617090000403323],[-86.291349999602687,30.650229999814769],[-86.291349999602687,30.683379999687361],[-86.291349999602687,30.716529999559953],[-86.291349999602687,30.749680000331921],[-86.291349999602687,30.782830000204513],[-86.291349999602687,30.815969999615959],[-86.291349999602687,30.84912000038787],[-86.291349999602687,30.882270000260462],[-86.291349999602687,30.915420000133054],[-86.291349999602687,30.948570000005645],[-86.291349999602687,30.981710000316411],[-86.291349999602687,31.014860000189003],[-86.291349999602687,31.048010000061595],[-86.291349999602687,31.081159999934187],[-86.291489999763598,31.114169999645924],[-86.292019999922957,31.146790000258477],[-86.293209999941439,31.178739999651384],[-86.295329999679609,31.209769999785806],[-86.298640000335638,31.239600000339863],[-86.303010000411064,31.268380000137029],[-86.307900000184759,31.296620000213011],[-86.3128000004196,31.324860000288936],[-86.314789999558741,31.339439999956198],[-86.320480000251678,31.383460000179014],[-86.322599999989905,31.414490000313435],[-86.323790000008387,31.446450000167545],[-86.3243099997066,31.479060000318896],[-86.324449999867511,31.512079999592459],[-86.324449999867511,31.54523000036437],[-86.324449999867511,31.578369999775816],[-86.324449999867511,31.611519999648408],[-86.324449999867511,31.644670000420319],[-86.324449999867511,31.677820000292911],[-86.324449999867511,31.710970000165503],[-86.324449999867511,31.744120000038095],[-86.324449999867511,31.777260000348861],[-86.324449999867511,31.810410000221452],[-86.324449999867511,31.843560000094101],[-86.324449999867511,31.876709999966693],[-86.324449999867511,31.909850000277459],[-86.324449999867511,31.94300000015005],[-86.324449999867511,31.976150000022642],[-86.324449999867511,32.009299999895234],[-86.324449999867511,32.042440000206],[-86.324449999867511,32.075599999640417],[-86.324449999867511,32.108739999951183],[-86.324449999867511,32.141889999823775],[-86.324449999867511,32.175039999696367],[-86.324449999867511,32.208180000007133],[-86.324449999867511,32.24134000034087],[-86.324449999867511,32.274479999752316],[-86.324449999867511,32.307629999624908],[-86.32457999956722,32.340640000235965],[-86.325100000164753,32.373259999949198],[-86.326299999745061,32.405219999803307],[-86.328409999921462,32.436240000375847],[-86.330399999959923,32.450829999604935],[-86.336089999753597,32.49484999982775],[-86.341000000449583,32.523089999903732],[-86.345890000223221,32.551329999979657],[-86.350260000298647,32.580100000214998],[-86.353579999617182,32.609929999869735],[-86.355689999793526,32.640960000004156],[-86.356879999812065,32.672919999858266],[-86.357409999971424,32.705539999571442],[-86.357539999671133,32.738550000182499],[-86.357670000270218,32.771570000355382],[-86.358200000429576,32.804179999607413],[-86.359390000448059,32.836140000360899],[-86.361510000186229,32.867160000034119],[-86.363489999763601,32.881750000162526],[-86.369179999557218,32.925770000385342],[-86.374079999792059,32.954009999561947],[-86.3789800000269,32.982249999637929],[-86.383350000102325,33.011019999873213],[-86.386659999858978,33.040859999989152],[-86.388779999597205,33.071879999662372],[-86.389969999615687,33.103840000415858],[-86.390499999775045,33.136460000129034],[-86.390619999912985,33.169469999840771],[-86.390619999912985,33.202619999713363],[-86.390619999912985,33.235769999585955],[-86.390619999912985,33.268909999896721],[-86.390619999912985,33.302070000230458],[-86.390619999912985,33.335209999641904],[-86.390619999912985,33.368360000413816],[-86.390619999912985,33.401510000286407],[-86.390619999912985,33.434649999697854],[-86.390499999775045,33.467669999870736],[-86.389969999615687,33.50028999958397],[-86.388779999597205,33.532239999876253],[-86.386519999698123,33.563129999849764],[-86.385070000280166,33.57825000013753],[-86.377130000149293,33.620020000023146],[-86.369979999577197,33.64600000019999],[-86.36600999996142,33.658600000289937],[-86.3513199997181,33.693600000040135],[-86.346160000083842,33.705010000111542],[-86.330000000399593,33.738549999982638],[-86.318889999773546,33.760570000105588],[-86.313320000117812,33.771570000155521],[-86.296909999696652,33.804849999727878],[-86.291349999602687,33.815849999777811],[-86.27481000038108,33.848999999650403],[-86.263819999892974,33.871150000372381],[-86.252560000443566,33.893019999873218],[-86.241179999956955,33.914759999674402],[-86.235490000163281,33.925639999586451],[-86.217359999564223,33.957199999880231],[-86.20478999995845,33.977749999662876],[-86.191960000053882,33.998040000046103],[-86.18547000024023,34.008110000376348],[-86.165469999740594,34.037819999893202],[-86.158719999628204,34.047629999924709],[-86.144960000003891,34.066980000127046],[-86.130929999619696,34.086079999592471],[-86.116630000274199,34.104899999635393],[-86.094920000057868,34.1328800003119],[-86.087779999946918,34.142300000344903],[-86.073749999562722,34.1613799997873],[-86.0597099996167,34.180480000152045],[-86.045680000131824,34.199570000055587],[-86.031660000208717,34.218670000420332],[-86.010079999692152,34.246770000335403],[-86.002789999858521,34.25605999976932],[-85.981489999663665,34.284440000006157],[-85.974469999690655,34.293980000176987],[-85.953409999771566,34.322619999813298],[-85.946409999821526,34.332170000445331],[-85.924699999605195,34.360150000222461],[-85.909469999640692,34.378039999646433],[-85.901660000108791,34.386799999820255],[-85.885790000308191,34.404030000284422],[-85.861160000333655,34.429090000303404],[-85.844609999751583,34.445660000009127],[-85.836270000060324,34.453879999562503],[-85.819870000100309,34.4705900003284],[-85.803189999818528,34.487030000334414],[-85.786769999835542,34.503740000200992],[-85.770100000014907,34.520180000207006],[-85.753680000031864,34.536890000073583],[-85.728809999781561,34.561680000231945],[-85.720599999790068,34.570030000384349],[-85.703909999946461,34.586479999952189],[-85.679170000295187,34.61139999981026],[-85.670820000142783,34.619620000262955],[-85.654400000159796,34.636330000129533],[-85.637730000339161,34.652770000135547],[-85.621319999917944,34.669480000002125],[-85.596440000105815,34.694270000160543],[-85.588230000114322,34.702629999874716],[-85.563339999840991,34.727420000033135],[-85.555140000310644,34.735770000185482],[-85.530259999599195,34.760569999905726],[-85.522049999607702,34.768920000058074],[-85.505359999764096,34.785360000064088],[-85.48868999994346,34.801800000070102],[-85.471480000401584,34.817709999916701],[-85.45400999966165,34.833360000363882],[-85.435739999801058,34.848209999891708],[-85.416950000242196,34.862530000159552],[-85.407410000071366,34.869559999694388],[-85.378829999604704,34.890639999636392],[-85.360029999584697,34.904959999904236],[-85.34177000018525,34.919810000331381],[-85.324029999584695,34.935190000018622],[-85.306289999883461,34.950569999705863],[-85.288559999744109,34.965950000292423],[-85.27028999988346,34.980799999820306],[-85.251500000324654,34.995120000088093],[-85.232440000005909,35.009180000057086],[-85.213370000125281,35.02322999956499],[-85.19432000026768,35.037279999972156],[-85.17552000024773,35.051609999801769],[-85.166260000398609,35.0588999996354],[-85.138190000068334,35.080509999736819],[-85.119129999749589,35.094560000144043],[-85.099799999570223,35.108350000252472],[-85.080219999553208,35.121880000062106],[-85.060360000113803,35.13514000001112],[-85.050429999944413,35.141769999985684],[-85.0206499998975,35.161659999909205],[-85.00078999955872,35.174919999858275],[-84.980939999681141,35.188179999807289],[-84.971019999972896,35.194809999781796],[-84.951029999934462,35.207929999569956],[-84.930779999597178,35.220789999958697],[-84.899929999669666,35.239619999563502],[-84.889479999802063,35.245720000277913],[-84.868430000344119,35.257790000208502],[-84.83693000011931,35.275950000392356],[-84.826609999951415,35.282179999907214],[-84.795889999723613,35.301140000111047],[-84.775509999686619,35.313869999900703],[-84.755129999649682,35.326599999690359],[-84.734479999752068,35.339070000080596],[-84.713299999695153,35.350999999850274],[-84.691590000378085,35.362400000359855],[-84.680729999589687,35.368099999715355],[-84.647900000084803,35.384940000181018],[-84.62567000017026,35.395809999631922],[-84.614690000143298,35.401380000187032],[-84.592710000066347,35.412520000397819],[-84.570600000289687,35.423520000447809],[-84.537520000047834,35.440099999715358],[-84.526540000020873,35.445670000270468],[-84.504430000244213,35.456670000320401],[-84.482319999568233,35.46767000037039],[-84.460340000390602,35.478809999681857],[-84.427119999987895,35.495249999687871],[-84.416139999960933,35.500820000242982],[-84.38317999985702,35.517530000109559],[-84.372059999669148,35.522970000065584],[-84.349960000353633,35.533970000115573],[-84.31700000024972,35.550679999982151],[-84.305880000061848,35.55611000037635],[-84.283770000285188,35.567119999988165],[-84.250810000181275,35.583829999854743],[-84.228580000266675,35.594700000204966],[-84.217589999778568,35.600269999860757],[-84.195620000162762,35.611410000071601],[-84.173510000386102,35.622410000121533],[-84.151410000171268,35.633419999733349],[-84.118450000067355,35.6501200000381],[-84.107329999879482,35.655559999994125],[-84.085220000102822,35.666560000044115],[-84.063249999587697,35.677700000254958],[-84.030030000084309,35.694149999822798],[-84.008059999569241,35.70527999957244],[-83.997069999980397,35.71085000012755],[-83.96384999957769,35.727290000133564],[-83.941879999961941,35.738430000344408],[-83.919910000346135,35.749569999655932],[-83.897400000109826,35.760170000145536],[-83.886150000222244,35.765480000401851],[-83.863510000286169,35.775959999854251],[-83.840349999752561,35.785899999585467],[-83.816659999958915,35.795310000056588],[-83.792959999704124,35.804730000089592],[-83.769269999910478,35.814139999661393],[-83.745569999655629,35.82355000013257],[-83.722410000021398,35.833500000324875],[-83.688529999759567,35.849279999572445],[-83.666029999984403,35.859889999623931],[-83.655040000395616,35.865460000178985],[-83.63306999988049,35.876589999928683],[-83.599850000377103,35.893040000395843],[-83.58885000032717,35.898599999590431],[-83.566879999812045,35.909739999801275],[-83.544649999897445,35.920610000151555],[-83.522139999661135,35.931220000202984],[-83.499510000186262,35.941690000093558],[-83.476349999652655,35.95164000028592],[-83.440739999651157,35.965689999793824],[-83.428959999604217,35.970469999890724],[-83.393360000063865,35.984520000297948],[-83.381580000016868,35.989300000394849],[-83.358409999921435,35.999240000126065],[-83.335780000446562,36.009710000016639],[-83.302020000322671,36.025619999863238],[-83.28004000024572,36.036760000074082],[-83.269060000218701,36.042329999729873],[-83.235839999816051,36.05876999973583],[-83.224850000227207,36.06434000029094],[-83.191890000123294,36.081050000157518],[-83.169399999909956,36.091649999747858],[-83.158139999561229,36.096960000004117],[-83.124120000037863,36.112599999990152],[-83.112339999990922,36.117380000087053],[-83.088650000197219,36.126789999658911],[-83.064960000403573,36.136200000130032],[-83.041269999710607,36.14560999970189],[-83.017570000355136,36.155029999734836],[-82.983019999773092,36.170150000022602],[-82.971769999885453,36.175449999817772],[-82.949270000110289,36.186059999869258],[-82.916049999707639,36.202499999875215],[-82.894069999630688,36.213640000086059],[-82.871839999716087,36.224510000436339],[-82.860859999689126,36.230080000092073],[-82.838879999612175,36.241220000302917],[-82.805390000248224,36.257390000448311],[-82.794140000360642,36.262699999805307],[-82.771500000424567,36.273169999695881],[-82.748339999890959,36.283119999888243],[-82.724639999636167,36.292530000359363],[-82.700949999842521,36.301939999931221],[-82.677260000048875,36.311359999964168],[-82.641779999747087,36.325549999632926],[-82.630400000159796,36.330719999728331],[-82.60776000022372,36.341189999618905],[-82.585270000010382,36.351799999670391],[-82.552049999607675,36.368239999676405],[-82.530079999991926,36.379379999887249],[-82.518950000242228,36.384810000281448],[-82.485860000438549,36.401390000448316],[-82.474869999950442,36.40696000010405],[-82.452769999735608,36.417960000154039],[-82.430659999958948,36.428969999765798],[-82.408679999881997,36.440100000414816],[-82.386579999667163,36.451110000026631],[-82.35350000032463,36.467679999732354],[-82.342509999836523,36.473250000287408],[-82.320270000360097,36.484119999738368],[-82.297780000146759,36.494729999789797],[-82.275129999749595,36.505210000141517],[-82.251970000115307,36.515149999872733],[-82.228280000321661,36.524569999905736],[-82.192800000019872,36.538750000012612],[-82.180890000273166,36.543389999948658],[-82.14542000043258,36.557579999617417],[-82.134030000384087,36.562749999712878],[-82.111400000009894,36.573219999603452],[-82.08890000023473,36.583840000116084],[-82.055679999832023,36.600269999660895],[-82.044690000243236,36.605840000216006],[-82.022579999567199,36.616849999827764],[-81.989489999763578,36.633420000432807],[-81.97850000017479,36.638990000088597],[-81.956410000421101,36.64999000013853],[-81.923310000156278,36.666570000305398],[-81.912459999829025,36.672269999660898],[-81.879889999723616,36.689370000425299],[-81.858720000127789,36.701309999756802],[-81.838070000230232,36.713769999685894],[-81.817679999732093,36.72650000037487],[-81.797559999993894,36.739489999564],[-81.777710000116315,36.752750000412334],[-81.757860000238736,36.766010000361348],[-81.7479199996082,36.772640000335912],[-81.718150000022376,36.792530000259433],[-81.698289999683652,36.805790000208503],[-81.688369999975407,36.81242000018301],[-81.658839999766087,36.832570000405326],[-81.639520000047867,36.846370000075581],[-81.611589999878504,36.868109999876765],[-81.602459999729092,36.875530000309425],[-81.576380000336655,36.899130000449304],[-81.567780000346659,36.907089999703885],[-81.542219999753058,36.931220000003123],[-81.524890000073356,36.947000000150013],[-81.516160000383593,36.954820000143059],[-81.497889999623681,36.969669999670884],[-81.479349999902468,36.984259999799292],[-81.460830000204226,36.998840000365874],[-81.442830000204253,37.013950000192494],[-81.425610000201232,37.029869999600919],[-81.402190000268206,37.05611999963844],[-81.39464000013578,37.065140000111057],[-81.380079999592226,37.083699999855241],[-81.358109999976421,37.111409999771809],[-81.35069000044308,37.120559999944192],[-81.335340000340636,37.138330000129542],[-81.312310000406114,37.164979999727336],[-81.30462999967466,37.173869999600925],[-81.282660000058854,37.201580000416811],[-81.275510000386078,37.210989999988669],[-81.254999999750055,37.240159999784282],[-81.241619999663158,37.259910000446325],[-81.235000000149796,37.269859999739367],[-81.215159999834043,37.299690000293424],[-81.201919999907943,37.319580000217002],[-81.188809999681609,37.339599999840289],[-81.17595999975407,37.359890000223459],[-81.163539999870977,37.38056999970587],[-81.151750000262211,37.401920000407813],[-81.146059999569218,37.412789999858774],[-81.130309999906444,37.446739999751344],[-81.120239999576199,37.469809999731865],[-81.110589999728575,37.493280000172035],[-81.100919999857979,37.516749999712886],[-81.0911299998495,37.540079999992145],[-81.081589999678613,37.563680000132024],[-81.072460000428578,37.587679999832289],[-81.067959999754066,37.599749999762821],[-81.055260000448527,37.63673999955148],[-81.047579999717129,37.662200000030111],[-81.040300000344644,37.688049999607927],[-81.033280000371633,37.714169999945682],[-81.026539999821011,37.740560000144058],[-81.020050000007416,37.767209999741851],[-81.013959999754093,37.794259999799294],[-81.008530000259213,37.821969999715861],[-81.004029999584702,37.850610000251436],[-81.000730000289195,37.88043999990623],[-80.998600000089823,37.911470000040595],[-80.997410000071341,37.943420000332878],[-80.996879999911982,37.976040000046112],[-80.996750000212216,38.009060000218994],[-80.996890000373128,38.042080000391877],[-80.997410000071341,38.074689999643908],[-80.998600000089823,38.106650000397337],[-81.00071999982805,38.137670000070614],[-81.004029999584702,38.167499999725351],[-81.008390000098302,38.196269999960691],[-81.013429999594678,38.224380000336907],[-81.018850000427051,38.2520999998153],[-81.024409999621696,38.279669999570956],[-81.029969999715604,38.307249999787814],[-81.035919999808016,38.334430000444286],[-81.042680000381608,38.360819999743342],[-81.050220000052832,38.386409999921682],[-81.054730000289169,38.39847999985227],[-81.067959999754066,38.434940000380834],[-81.077359999764099,38.458670000220479],[-81.086619999613163,38.482540000220979],[-81.096019999623195,38.50627999962245],[-81.10541999963317,38.530010000361358],[-81.114819999643146,38.553740000201003],[-81.124760000273682,38.576939999881233],[-81.13535000030214,38.599490000163541],[-81.146330000329158,38.621630000424318],[-81.157839999616158,38.643239999626417],[-81.170020000122804,38.664189999868768],[-81.182589999728577,38.684739999651413],[-81.195430000094348,38.70503000003464],[-81.208540000320625,38.725049999657926],[-81.221909999946433,38.744800000319913],[-81.235530000309154,38.764300000244987],[-81.249570000255176,38.783390000148529],[-81.264129999899467,38.801960000353859],[-81.279219999703116,38.819980000376859],[-81.294580000266706,38.83774999966289],[-81.309930000369093,38.855519999848241],[-81.325029999734568,38.873550000332386],[-81.339579999817033,38.89211000007657],[-81.353739999900995,38.911079999842286],[-81.367770000285191,38.930169999745829],[-81.381939999930921,38.949129999949662],[-81.396619999713096,38.967559999994137],[-81.42033000042909,38.993549999732863],[-81.437259999649143,39.009730000339403],[-81.455259999649172,39.024840000166023],[-81.464659999659148,39.032000000299945],[-81.493119999987925,39.05322000040286],[-81.512180000306671,39.067269999910707],[-81.521580000316646,39.074419999583483],[-81.549250000187271,39.096439999706377],[-81.558109999576686,39.104129999999657],[-81.566989999888506,39.111820000292937],[-81.602459999729092,39.142579999667419],[-81.611589999878504,39.150009999661904],[-81.630120000037891,39.164590000228486],[-81.649189999918462,39.178639999736333],[-81.678439999806017,39.199059999819269],[-81.698289999683652,39.21231999976834],[-81.708339999990926,39.218820000043138],[-81.738790000358108,39.238039999646389],[-81.749109999626683,39.244279999622449],[-81.780620000312638,39.262439999806304],[-81.802320000067823,39.273840000315886],[-81.835019999872998,39.290820000043141],[-81.857129999649658,39.301820000093073],[-81.868240000275705,39.307260000049098],[-81.890209999891454,39.318389999798796],[-81.923310000156278,39.334969999965665],[-81.93443000034415,39.34040999992169],[-81.956410000421101,39.351550000132534],[-81.97838000003685,39.362690000343378],[-82.000870000250188,39.373289999933718],[-82.034760000073845,39.389070000080608],[-82.057919999708133,39.399009999811767],[-82.069699999755073,39.403789999908724],[-82.093799999570194,39.412799999920196],[-82.105830000354104,39.417310000156533],[-82.154950000142264,39.43441999958344],[-82.179820000392624,39.44262999957499],[-82.204569999605667,39.450990000188483],[-82.216890000273168,39.45522999966488],[-82.254209999991417,39.467559999894206],[-82.266660000358627,39.471669999670894],[-82.303989999638645,39.48399999990022],[-82.32926999991048,39.491830000354355],[-82.355210000041382,39.498989999588957],[-82.381680000331642,39.505619999563464],[-82.408690000343142,39.511720000277933],[-82.422320000267689,39.514629999574993],[-82.463880000361598,39.522720000327922],[-82.477650000447056,39.525510000386362],[-82.519079999941937,39.533729999939681],[-82.547130000249183,39.53875999987423],[-82.561310000356116,39.54115000037234],[-82.604979999727107,39.54711999958846],[-82.634770000235221,39.550430000244489],[-82.66455000028219,39.553749999562967],[-82.69380999973157,39.557590000378354],[-82.708239999676152,39.559719999678407],[-82.750579999767069,39.567010000411358],[-82.778790000258198,39.571909999746822],[-82.807509999986394,39.57629000028345],[-82.837290000033363,39.579609999601928],[-82.852510000436041,39.580930000219496],[-82.900159999883954,39.582920000257957],[-82.932720000427594,39.583450000417315],[-82.965679999632187,39.583580000117081],[-82.998779999896954,39.583580000117081],[-83.031869999700632,39.583580000117081],[-83.064960000403573,39.583580000117081],[-83.097919999608166,39.583450000417315],[-83.130480000151806,39.582920000257957],[-83.162379999936945,39.581730000239475],[-83.193350000002397,39.579609999601928],[-83.223130000049366,39.57629000028345],[-83.237290000133271,39.573899999785283],[-83.28004000024572,39.567010000411358],[-83.308109999676617,39.561970000015663],[-83.336300000144774,39.557060000218996],[-83.364899999735087,39.552560000443805],[-83.393750000062369,39.548309999606943],[-83.422340000090799,39.543800000269925],[-83.450529999659636,39.538900000035142],[-83.478459999828999,39.533720000377855],[-83.506129999699624,39.528289999983656],[-83.533660000308657,39.522720000327922],[-83.561330000179282,39.517280000371841],[-83.58885000032717,39.511720000277933],[-83.615849999877469,39.505619999563464],[-83.642329999729611,39.498989999588957],[-83.668269999860513,39.491830000354355],[-83.693559999694116,39.48399999990022],[-83.718440000405565,39.475780000346901],[-83.74332000021775,39.467559999894206],[-83.768200000029879,39.459340000340887],[-83.792950000142298,39.450990000188483],[-83.817720000277689,39.44262999957499],[-83.842589999628672,39.434410000021614],[-83.867359999764062,39.426059999869267],[-83.891710000316152,39.417310000156533],[-83.915799999670128,39.408289999683859],[-83.93962000006286,39.399009999811767],[-83.962779999697148,39.389070000080608],[-83.985419999633166,39.378589999728831],[-84.007920000307649,39.367979999677402],[-84.030159999784075,39.357110000226498],[-84.063130000349133,39.340400000359864],[-84.074229999614658,39.334969999965665],[-84.107329999879482,39.318400000259942],[-84.129300000394608,39.307260000049098],[-84.140430000144306,39.301820000093073],[-84.173510000386102,39.28525000038735],[-84.184359999814035,39.279550000132531],[-84.216929999919444,39.262439999806304],[-84.238109999976416,39.250510000036627],[-84.24843000014431,39.244279999622449],[-84.268950000342159,39.231680000431822],[-84.299259999649166,39.21231999976834],[-84.319110000426065,39.199059999819269],[-84.338700000004906,39.185539999571461],[-84.367559999893956,39.164719999928195],[-84.386489999613673,39.150539999821262],[-84.395889999623705,39.143379999687397],[-84.41441000022121,39.12878999955899],[-84.433210000241218,39.114470000190522],[-84.452269999660643,39.100410000221473],[-84.471329999979389,39.086359999814306],[-84.490390000298191,39.072299999845256],[-84.509449999717617,39.058250000337409],[-84.528249999737568,39.043930000069622],[-84.556179999906988,39.022179999807292],[-84.565570000355137,39.01501999967337],[-84.584640000235709,39.000970000165523],[-84.613749999962408,38.980420000382878],[-84.633479999702104,38.967029999834779],[-84.643400000309668,38.960399999860272],[-84.663250000187247,38.947139999911201],[-84.683109999626652,38.933879999962187],[-84.702709999666638,38.920359999714378],[-84.722030000284178,38.906560000044124],[-84.741089999703604,38.8925099996369],[-84.759889999723612,38.878190000268432],[-84.78783000035412,38.856449999567985],[-84.79721999990295,38.849290000333383],[-84.825939999631146,38.828340000091089],[-84.835599999939916,38.821440000255961],[-84.855190000418077,38.807920000008153],[-84.875049999857481,38.794660000059082],[-84.894899999735117,38.781400000110068],[-84.90482999990445,38.774770000135561],[-84.924679999782086,38.76151000018649],[-84.964389999998389,38.734999999850231],[-84.974320000167779,38.728369999875724],[-84.984239999875967,38.721739999901217],[-85.014019999922937,38.70184999997764],[-85.023959999654153,38.695220000003133],[-85.053739999701122,38.675330000079612],[-85.063669999870513,38.668700000105048],[-85.083519999748091,38.655440000156034],[-85.113299999795061,38.635550000232456],[-85.14307999984203,38.615660000308935],[-85.162929999719609,38.602400000359864],[-85.172870000350144,38.595770000385357],[-85.182790000058333,38.58914000041085],[-85.212570000105302,38.569249999587953],[-85.232430000444083,38.556000000100084],[-85.252289999883487,38.542740000151014],[-85.272139999761066,38.529480000202],[-85.282069999930457,38.522850000227493],[-85.3118400004156,38.502960000303915],[-85.34109999986498,38.482540000220979],[-85.350769999735576,38.475640000385852],[-85.369830000054378,38.461589999978685],[-85.388630000074329,38.447269999710841],[-85.407160000233716,38.432690000043635],[-85.425949999792579,38.418369999775791],[-85.454670000420094,38.397420000432817],[-85.46434000029069,38.39051999969837],[-85.493849999577719,38.370370000375374],[-85.50377999974711,38.363740000400867],[-85.533570000255224,38.343849999577969],[-85.533550000232196,38.343849999577969],[-85.563339999840991,38.323959999654392],[-85.583200000179772,38.310699999705378],[-85.593119999887961,38.304069999730871],[-85.622910000396075,38.284179999807293],[-85.642760000273711,38.270919999858279],[-85.66261000015129,38.257659999909208],[-85.692399999760084,38.237780000446833],[-85.702320000367592,38.231149999572949],[-85.73212000043759,38.211259999649428],[-85.742029999684632,38.204629999674864],[-85.761890000023357,38.19136999972585],[-85.771820000192747,38.184739999751343],[-85.811519999947961,38.158219999853259],[-85.821459999679121,38.151589999878752],[-85.841309999556756,38.138329999929681],[-85.851110000026381,38.131570000255465],[-85.880230000214226,38.111019999573443],[-85.899289999633652,38.096959999604451],[-85.918080000091834,38.082649999797809],[-85.936610000251221,38.068059999669401],[-85.955410000271172,38.053740000300934],[-85.974469999690655,38.039680000331884],[-86.0035899998785,38.01912999964992],[-86.013379999886979,38.012369999975647],[-86.023319999618195,38.00574000000114],[-86.053090000103339,37.985850000077562],[-86.072950000442063,37.972590000128548],[-86.102200000329674,37.952170000045612],[-86.11187000020027,37.94527999977231],[-86.140329999629671,37.924059999669396],[-86.158999999949913,37.909609999701843],[-86.168259999799034,37.902319999868268],[-86.187059999819041,37.887999999600424],[-86.206109999676642,37.873950000092577],[-86.225169999995387,37.859890000123528],[-86.234699999705128,37.852859999689372],[-86.263289999733615,37.831779999747312],[-86.282089999753566,37.817460000378844],[-86.300610000351128,37.802879999812262],[-86.328949999642646,37.781530000009639],[-86.338469999790561,37.774499999575482],[-86.357539999671133,37.760439999606433],[-86.376590000428052,37.746390000098586],[-86.395660000308681,37.732339999691362],[-86.41444000030566,37.718020000322895],[-86.442380000036849,37.696270000060622],[-86.451769999585736,37.6891099999267],[-86.470840000365627,37.675060000418853],[-86.489899999785052,37.660999999550484],[-86.508960000103798,37.646950000042636],[-86.537420000432576,37.625740000400867],[-86.546820000442551,37.618580000266945],[-86.574749999712594,37.596830000004616],[-86.584149999722626,37.58966999987075],[-86.603199999580227,37.575609999901701],[-86.622270000360118,37.561560000393854],[-86.641329999779543,37.54750999998663],[-86.660129999799551,37.533189999718843],[-86.678390000098318,37.518340000191017],[-86.695859999938932,37.502689999743836],[-86.713070000380128,37.486779999897237],[-86.730010000061327,37.470600000190018],[-86.747219999603203,37.454690000343362],[-86.764690000343137,37.439039999896238],[-86.78296000020373,37.424190000368355],[-86.801749999762592,37.409870000100568],[-86.830350000252224,37.388790000158508],[-86.849270000410058,37.374610000051632],[-86.858670000420091,37.36744999991771],[-86.876940000280683,37.352600000389828],[-86.903010000111294,37.328989999788803],[-86.911619999663174,37.321040000096048],[-86.928299999944954,37.30460000009009],[-86.944980000226735,37.288149999622931],[-86.96138000018675,37.271450000217499],[-86.978059999569211,37.255010000211485],[-86.994479999552254,37.238300000344907],[-87.01115000027221,37.221860000338893],[-87.036429999644668,37.197460000179035],[-87.053769999785573,37.181689999593971],[-87.062509999936424,37.173860000039099],[-87.090159999784078,37.151859999939177],[-87.099559999794053,37.144699999805312],[-87.11864000013577,37.130639999836262],[-87.137699999555252,37.11657999986727],[-87.165480000001878,37.094699999905231],[-87.174479999552261,37.087149999772805],[-87.191440000155751,37.070970000065586],[-87.215129999949454,37.044980000326916],[-87.222669999620678,37.035959999854242],[-87.236969999865494,37.017139999811263],[-87.258009999761555,36.988500000175009],[-87.265029999734622,36.978950000442296],[-87.279329999979439,36.960119999938172],[-87.294140000360642,36.941830000054608],[-87.31771999957823,36.915709999716853],[-87.325650000147277,36.907089999703885],[-87.34207000013032,36.890379999837251],[-87.358470000090335,36.873680000431818],[-87.375150000372116,36.857229999964659],[-87.391570000355102,36.840529999659907],[-87.40824999973762,36.824089999653893],[-87.424660000158781,36.807379999787315],[-87.441340000440562,36.790939999781301],[-87.457749999962402,36.774229999914724],[-87.482640000235733,36.749439999756305],[-87.499049999757574,36.732729999889727],[-87.507259999749067,36.724379999737323],[-87.523149999572695,36.707139999711387],[-87.546169999945448,36.680490000113537],[-87.553590000378108,36.67133999994121],[-87.567880000161779,36.652510000336406],[-87.581909999646655,36.633420000432807],[-87.595949999592676,36.614329999629945],[-87.610240000275667,36.59550000002514],[-87.632869999750596,36.568449999967697],[-87.640689999743586,36.559700000254963],[-87.664639999836027,36.533980000376857],[-87.672709999666665,36.525490000063598],[-87.696400000359631,36.499500000324929],[-87.70422000035262,36.490749999712875],[-87.719040000295649,36.472450000267429],[-87.740359999614213,36.444079999592475],[-87.754380000436583,36.424989999688876],[-87.768420000382605,36.405899999785333],[-87.775440000355616,36.396350000052621],[-87.789719999678141,36.377520000447817],[-87.804280000221752,36.358959999804313],[-87.825600000439579,36.330579999567476],[-87.832609999951444,36.321040000295909],[-87.8463699995757,36.301670000070601],[-87.866499999775044,36.272110000276427],[-87.873120000187782,36.262169999645891],[-87.892970000065361,36.232330000429329],[-87.906339999691113,36.212579999767343],[-87.91308999980356,36.202769999735835],[-87.933870000300146,36.17386000023896],[-87.940890000273214,36.164309999606928],[-87.962460000328633,36.136200000130032],[-87.976899999835041,36.117509999786819],[-87.984039999945935,36.108089999753815],[-88.004939999681142,36.079320000417852],[-88.018589999628659,36.059830000054603],[-88.031949999692642,36.040069999830791],[-88.038570000105324,36.030130000099575],[-88.05790000028469,35.999770000285423],[-88.070469999890463,35.979219999603458],[-88.082789999658644,35.958399999960193],[-88.094830000004379,35.937320000018133],[-88.106870000350114,35.916240000076073],[-88.112959999704117,35.905759999724353],[-88.131759999724125,35.874869999750842],[-88.144470000390129,35.854449999667906],[-88.157169999695611,35.83402999958497],[-88.169740000200761,35.813479999802269],[-88.181919999808031,35.792529999559974],[-88.187869999900499,35.781920000407865],[-88.204960000203755,35.749310000256457],[-88.216199999630192,35.727419999833273],[-88.227190000118298,35.70527999957244],[-88.238190000168288,35.683140000210983],[-88.243739999801051,35.672129999699848],[-88.260279999921977,35.638990000288402],[-88.271270000410084,35.61683999956648],[-88.282389999698637,35.594829999904732],[-88.287949999792545,35.583829999854743],[-88.304369999775588,35.550539999821297],[-88.315480000401578,35.528530000159549],[-88.321030000034398,35.517530000109559],[-88.337450000017384,35.484249999637939],[-88.348570000205257,35.462239999976191],[-88.359550000232218,35.440099999715358],[-88.364970000165272,35.428960000403833],[-88.381650000447053,35.395940000230951],[-88.392649999597722,35.373799999970174],[-88.403629999624684,35.351659999709341],[-88.414749999812557,35.329650000047593],[-88.425609999701635,35.307369999625905],[-88.436199999730093,35.284840000265945],[-88.446660000058841,35.262160000283927],[-88.456590000228232,35.238959999704377],[-88.465990000238207,35.215229999864732],[-88.475370000225212,35.191489999563998],[-88.48477999979707,35.167750000162528],[-88.494030000084308,35.143889999723854],[-88.503570000255195,35.120289999583974],[-88.5133699998255,35.096949999742833],[-88.522900000434561,35.073349999602954],[-88.532029999684653,35.049349999902745],[-88.541030000134299,35.025219999603451],[-88.549759999824005,35.000820000342912],[-88.558109999976409,34.976030000184494],[-88.566310000406077,34.951099999865221],[-88.57452000039757,34.92618000000715],[-88.578619999713112,34.913709999616913],[-88.590000000199723,34.875389999648917],[-88.597290000033354,34.849529999609956],[-88.604289999983393,34.823419999733346],[-88.611180000256695,34.797160000134056],[-88.614619999713113,34.784029999884751],[-88.625470000040366,34.745190000218486],[-88.633020000172792,34.719600000040089],[-88.640840000165781,34.694270000160543],[-88.64851000043609,34.668820000143057],[-88.655649999647665,34.642830000404331],[-88.662279999622172,34.616300000045101],[-88.668369999875495,34.589260000448803],[-88.673929999969403,34.561680000231945],[-88.676570000305162,34.547760000423807],[-88.684919999558247,34.506390000098577],[-88.687700000054861,34.492599999990148],[-88.696030000184237,34.451229999664918],[-88.701579999817056,34.423650000347379],[-88.707019999773081,34.395940000430812],[-88.71245000016728,34.368229999614925],[-88.717999999800043,34.340650000297444],[-88.723430000194242,34.312940000380877],[-88.728460000128791,34.284830000004661],[-88.732830000204217,34.25605999976932],[-88.736269999660635,34.226359999814292],[-88.73891999955822,34.195859999839286],[-88.741290000033359,34.165099999565484],[-88.743939999930944,34.134610000051623],[-88.747380000286682,34.104899999635393],[-88.751750000362108,34.076130000299429],[-88.756649999697629,34.047890000223504],[-88.76154999993247,34.019650000147521],[-88.76591000044607,33.990879999912238],[-88.769229999764548,33.961039999796299],[-88.77121000024124,33.930149999822788],[-88.771870000100307,33.898729999689863],[-88.771219999803066,33.867299999995168],[-88.769229999764548,33.836399999560456],[-88.765920000007895,33.806569999905719],[-88.761560000393615,33.777799999670378],[-88.756649999697629,33.749559999594453],[-88.754269999660664,33.735369999925695],[-88.749769999885473,33.70673000028944],[-88.743939999930944,33.662839999766334],[-88.741290000033359,33.632350000252472],[-88.738909999996395,33.601589999978671],[-88.736269999660635,33.571090000003664],[-88.734279999622174,33.556499999875257],[-88.728460000128791,33.512619999813296],[-88.723430000194242,33.4845100003364],[-88.720660000158773,33.470720000227971],[-88.715229999764574,33.443010000311403],[-88.707019999773081,33.401499999825262],[-88.704109999576701,33.387849999877744],[-88.69537000032517,33.346880000012163],[-88.691929999969432,33.333749999762802],[-88.681609999801537,33.294370000375352],[-88.673920000407577,33.268920000357866],[-88.67007999959219,33.256189999668891],[-88.65857000030519,33.218000000299924],[-88.651290000033384,33.192149999822789],[-88.644270000060374,33.166019999923208],[-88.637390000248217,33.139769999885743],[-88.630370000275207,33.113650000447308],[-88.623090000003401,33.087790000408347],[-88.615419999733092,33.062340000390861],[-88.607069999580688,33.037539999771298],[-88.598210000191273,33.013279999772294],[-88.584440000105815,32.977350000302408],[-88.579550000332119,32.965679999932206],[-88.56976000032364,32.942340000091065],[-88.560229999714636,32.918739999951185],[-88.550960000303689,32.894869999950686],[-88.536800000219728,32.859340000041129],[-88.532169999845507,32.847399999810307],[-88.522900000434561,32.823540000270953],[-88.5133699998255,32.799940000131073],[-88.503570000255195,32.776600000289932],[-88.498939999880974,32.764669999620935],[-88.48477999979707,32.729130000149553],[-88.480010000161258,32.717330000079585],[-88.465979999777062,32.681669999570943],[-88.456710000366115,32.657799999570443],[-88.447179999757054,32.634200000329884],[-88.437380000186749,32.610859999589479],[-88.427849999577688,32.587269999910689],[-88.418589999728624,32.563399999910189],[-88.409189999718592,32.539659999609455],[-88.399800000169762,32.51592999976981],[-88.395160000233716,32.503990000438307],[-88.381000000149811,32.468459999629431],[-88.371219999703101,32.445130000249435],[-88.361680000431591,32.42151999964841],[-88.352539999821033,32.397519999948202],[-88.343540000270707,32.373400000110053],[-88.334809999681625,32.348999999950195],[-88.326479999552248,32.324200000229951],[-88.318269999560755,32.299269999910734],[-88.310059999569205,32.274350000052607],[-88.306210000091312,32.261620000262951],[-88.294570000205226,32.223559999694373],[-88.287289999933421,32.197710000116558],[-88.28026999996041,32.171589999778803],[-88.27351999984802,32.145199999580484],[-88.266900000334658,32.118679999682399],[-88.260279999921977,32.09217000024546],[-88.253660000408615,32.065650000347375],[-88.247039999995877,32.03913000044929],[-88.240430000044341,32.012609999651886],[-88.233940000230746,31.985960000054092],[-88.230900000334657,31.972430000244458],[-88.221770000185245,31.931859999939206],[-88.216080000391628,31.90441999988326],[-88.210649999997372,31.876709999966693],[-88.205219999603173,31.849000000050125],[-88.19952000024773,31.821550000432296],[-88.193570000155262,31.794360000213999],[-88.18735000020223,31.76745000031741],[-88.180860000388577,31.740799999820297],[-88.174259999998924,31.714279999922212],[-88.16763000002436,31.687760000024127],[-88.161009999611679,31.661240000126043],[-88.154390000098317,31.634720000227958],[-88.147769999685636,31.608209999891699],[-88.1411599997341,31.581689999993671],[-88.134540000220738,31.555170000095586],[-88.127930000269203,31.528650000197501],[-88.121309999856521,31.502130000299417],[-88.11469000034316,31.475619999963158],[-88.108060000368596,31.449100000065073],[-88.104760000173769,31.435840000116059],[-88.094830000004379,31.39606000026896],[-88.088209999591697,31.369540000370876],[-88.081599999640162,31.343030000034616],[-88.074969999665655,31.316510000136532],[-88.068350000152293,31.289990000238447],[-88.061740000200757,31.263470000340362],[-88.05511000022625,31.236950000442334],[-88.048489999813512,31.21042999964493],[-88.041890000323178,31.183909999746845],[-88.03539000004838,31.157260000149051],[-88.029159999634146,31.130350000252463],[-88.023210000441054,31.103160000034109],[-88.01751999974806,31.075719999978162],[-88.012090000253181,31.048010000061595],[-88.006670000320128,31.020300000145028],[-88.000979999627191,30.992849999627936],[-87.995030000434042,30.965669999870727],[-87.988800000019864,30.938759999974138],[-87.982319999768094,30.912099999915199],[-87.975689999793531,30.885580000017114],[-87.969220000002906,30.858930000419321],[-87.963129999749583,30.831889999923703],[-87.957569999655675,30.804309999706845],[-87.9525300001593,30.776200000229949],[-87.948030000384108,30.747559999694374],[-87.943799999570217,30.718650000197499],[-87.939299999795026,30.690009999661925],[-87.934399999560242,30.661769999585943],[-87.929369999625692,30.633660000109046],[-87.924339999691142,30.60554999973283],[-87.919440000355621,30.577309999656904],[-87.914950000142312,30.54867000002065],[-87.910709999766596,30.5197700000856],[-87.906200000429578,30.491130000449289],[-87.901309999756563,30.462879999912218],[-87.896279999822013,30.434770000435321],[-87.89137999958723,30.406530000359396],[-87.887010000411067,30.377760000124056],[-87.883579999617211,30.348060000169028],[-87.880920000157801,30.317560000194021],[-87.878540000120779,30.28679999992022],[-87.875899999785076,30.256310000406359],[-87.872449999867513,30.226599999990128],[-87.870060000268666,30.212419999883252],[-87.863179999557246,30.169589999678863],[-87.858289999783551,30.141349999602937],[-87.8539100001463,30.112580000266917],[-87.850600000389591,30.082740000151034],[-87.848490000213246,30.051719999578438],[-87.847300000194764,30.019759999724329],[-87.846770000035349,29.987149999572978],[-87.84664000033564,29.954130000299415],[-87.84664000033564,29.920980000426823],[-87.84664000033564,29.887829999654912],[-87.84664000033564,29.854690000243465],[-87.84664000033564,29.821540000370874],[-87.84664000033564,29.788389999598962],[-87.84664000033564,29.755239999726371],[-87.84664000033564,29.722100000314924],[-87.84664000033564,29.688950000442333],[-87.84664000033564,29.655799999670364],[-87.84664000033564,29.622649999797773],[-87.84664000033564,29.589499999925181],[-87.84664000033564,29.556359999614415],[-87.84664000033564,29.523209999741823],[-87.84664000033564,29.490059999869231],[-87.84664000033564,29.45690999999664],[-87.84664000033564,29.423769999685874],[-87.84664000033564,29.390619999813282],[-87.84664000033564,29.35746999994069],[-87.84664000033564,29.324320000068099],[-87.84664000033564,29.291170000195507],[-87.84664000033564,29.258029999884741],[-87.84664000033564,29.224880000012149],[-87.84664000033564,29.191730000139557],[-87.84664000033564,29.158580000266966],[-87.84664000033564,29.125430000394374],[-87.84664000033564,29.092290000083608],[-87.84664000033564,29.059140000210959],[-87.846770000035349,29.026120000038134],[-87.84730999975659,28.993509999886726],[-87.848499999775072,28.961550000032616],[-87.850620000412562,28.930519999898195],[-87.853930000169271,28.900690000243458],[-87.858289999783551,28.871920000008117],[-87.863190000018392,28.843679999932192],[-87.868090000253233,28.815439999856267],[-87.872449999867513,28.786660000059101],[-87.875759999624165,28.756830000404364],[-87.877880000261712,28.725800000269942],[-87.879070000280194,28.693849999977658],[-87.879610000001378,28.661230000264425],[-87.879730000139318,28.628219999653425],[-87.879870000300173,28.595200000379862],[-87.880389999998386,28.562579999767308],[-87.881589999578694,28.530630000374344],[-87.88371000021624,28.49960000023998],[-87.887019999972892,28.469769999685866],[-87.891390000048375,28.441000000349902],[-87.896279999822013,28.412749999812775],[-87.901180000056854,28.384509999736849],[-87.90555000013228,28.355740000400829],[-87.908859999888989,28.325909999846772],[-87.910979999627159,28.29487999971235],[-87.912289999783582,28.263060000019152],[-87.913350000102298,28.230969999565957],[-87.914680000281692,28.199149999872759],[-87.916789999558716,28.168119999738337],[-87.920100000214745,28.1382900000836],[-87.924470000290171,28.10951999984826],[-87.929369999625692,28.081279999772335],[-87.934269999860476,28.053039999696352],[-87.938639999935958,28.024259999899243],[-87.942089999853522,27.994559999944158],[-87.944730000189281,27.964070000430297],[-87.947110000226246,27.93329999969535],[-87.949749999662629,27.902810000181489],[-87.953190000018367,27.873110000226461],[-87.957560000093849,27.844339999991178],[-87.95994999969264,27.830150000322419],[-87.967359999664154,27.787850000277444],[-87.971860000338665,27.759209999741813],[-87.975689999793531,27.729910000246434],[-87.97899999955024,27.700079999692377],[-87.982319999768094,27.670239999576438],[-87.986150000122279,27.640940000081059],[-87.990649999897471,27.612300000444804],[-87.995539999671166,27.584060000368879],[-88.00043999990595,27.555820000292897],[-88.004939999681142,27.527179999757323],[-88.008790000058355,27.497880000261944],[-88.012090000253181,27.468040000146004],[-88.01540000000989,27.438209999591948],[-88.019239999925958,27.408910000096569],[-88.023739999701149,27.380269999560994],[-88.028639999935933,27.352019999923186],[-88.033669999870483,27.323920000008115],[-88.038570000105324,27.295670000370365],[-88.043069999880458,27.26702999983479],[-88.04729999979503,27.238129999899741],[-88.051810000031367,27.209490000263429],[-88.056839999965916,27.181379999887213],[-88.059489999863501,27.167460000079075],[-88.068490000313147,27.126749999612912],[-88.0749800001268,27.100100000015118],[-88.08173000023919,27.073709999816799],[-88.088750000212258,27.047590000378364],[-88.096020000022861,27.021739999901229],[-88.099730000239219,27.008880000411807],[-88.1120500000074,26.971490000163499],[-88.116409999621681,26.959289999633938],[-88.125399999610181,26.935160000233964],[-88.139559999694143,26.899619999863262],[-88.144459999928927,26.887950000392323],[-88.158889999873509,26.852679999882241],[-88.163529999809555,26.840750000112564],[-88.177560000193751,26.805089999603922],[-88.18232000026768,26.793290000433331],[-88.196349999752556,26.757620000362863],[-88.201109999826542,26.745820000292895],[-88.21672999978955,26.711739999801296],[-88.22733000027921,26.689199999980133],[-88.238190000168288,26.666930000019647],[-88.243739999801051,26.655920000407832],[-88.254859999988923,26.633909999846765],[-88.265719999878002,26.611630000324396],[-88.276829999604672,26.589619999763329],[-88.293910000346159,26.557009999611921],[-88.30555999979407,26.535530000109532],[-88.317729999839514,26.514579999867237],[-88.323949999792546,26.504230000114546],[-88.336649999997405,26.48381000003161],[-88.355710000316151,26.45318999991872],[-88.36207999999192,26.442980000326884],[-88.374510000336159,26.422290000383327],[-88.392640000035897,26.39073999965143],[-88.404689999943457,26.36965999970937],[-88.417009999711638,26.348840000066104],[-88.429580000216731,26.328290000283403],[-88.435929999869472,26.318079999792303],[-88.455520000347633,26.287980000276946],[-88.462139999860995,26.278030000084584],[-88.475390000248183,26.258140000161006],[-88.495229999664673,26.22830999960695],[-88.508330000329124,26.208289999983663],[-88.52118000025672,26.188010000061581],[-88.527529999909461,26.177799999570482],[-88.545919999907937,26.14649999957544],[-88.557570000255225,26.125020000073107],[-88.563260000048842,26.114149999722827],[-88.574650000097336,26.092409999921699],[-88.591199999780088,26.059260000049107],[-88.596619999713084,26.048119999838264],[-88.607739999900957,26.026110000176516],[-88.624280000021884,25.992960000303924],[-88.635280000071816,25.970820000043091],[-88.640840000165781,25.959819999993158],[-88.651949999892452,25.93781000033141],[-88.662410000221257,25.915400000209956],[-88.676969999865491,25.881319999718357],[-88.680940000380588,25.870319999668368],[-88.689549999932467,25.834250000037628],[-88.691669999670637,25.810119999738333],[-88.690610000251183,25.785719999578475],[-88.686639999736087,25.761060000019143],[-88.680279999622201,25.736659999859228],[-88.671799999770087,25.713059999719349],[-88.661610000201222,25.690390000198477],[-88.649959999853991,25.668909999796767],[-88.629710000416082,25.639470000140534],[-88.621770000285153,25.630859999689392],[-88.596630000174287,25.606329999829768],[-88.577689999993424,25.592269999860775],[-88.546860000088827,25.574369999975659],[-88.536539999920933,25.56893999958146],[-88.515350000302192,25.559119999988127],[-88.49376999978557,25.550900000434808],[-88.47205999956924,25.544139999861272],[-88.438049999607699,25.53697999972735]]]},"properties":{"objectid":607,"stormname":"Isaias","stormtype":"HU","basin":"AL","advdate":"100 AM CDT Fri Oct 09 2026","advisnum":"10A","fcstprd":120,"stormnum":9,"idp_source":"al092026-010A_5day_pgn","idp_filedate":1791526676000,"idp_ingestdate":1791526684000,"st_area(shape)":35.919620079762204,"st_perimeter(shape)":36.214662175593951,"binnumber":"AT4"}}]}