{"type":"FeatureCollection","features":[{"type":"Feature","id":23331,"geometry":{"type":"Point","coordinates":[-96.500000000399609,22.000000000199975]},"properties":{"objectid":23331,"stormname":"GENESIS022","stormtype":"DB","stormnum":9,"intensity":15,"basin":"al","mslp":0,"dtg":2026100418,"year":2026,"month":"10","day":4,"hhmm":"1800","lat":22,"lon":-96,"ss":0,"idp_source":"AL092026_pts","idp_filedate":1791526676000,"idp_ingestdate":1791526742000,"binnumber":"AT4"}},{"type":"Feature","id":23332,"geometry":{"type":"Point","coordinates":[-96.500000000399609,22.000000000199975]},"properties":{"objectid":23332,"stormname":"GENESIS022","stormtype":"DB","stormnum":9,"intensity":20,"basin":"al","mslp":0,"dtg":2026100500,"year":2026,"month":"10","day":5,"hhmm":"0000","lat":22,"lon":-96,"ss":0,"idp_source":"AL092026_pts","idp_filedate":1791526676000,"idp_ingestdate":1791526742000,"binnumber":"AT4"}},{"type":"Feature","id":23333,"geometry":{"type":"Point","coordinates":[-96.500000000399609,22.000000000199975]},"properties":{"objectid":23333,"stormname":"GENESIS022","stormtype":"DB","stormnum":9,"intensity":25,"basin":"al","mslp":0,"dtg":2026100506,"year":2026,"month":"10","day":5,"hhmm":"0600","lat":22,"lon":-96,"ss":0,"idp_source":"AL092026_pts","idp_filedate":1791526676000,"idp_ingestdate":1791526742000,"binnumber":"AT4"}},{"type":"Feature","id":23334,"geometry":{"type":"Point","coordinates":[-96.500000000399609,22.000000000199975]},"properties":{"objectid":23334,"stormname":"INVEST","stormtype":"DB","stormnum":9,"intensity":25,"basin":"al","mslp":1010,"dtg":2026100512,"year":2026,"month":"10","day":5,"hhmm":"1200","lat":22,"lon":-96,"ss":0,"idp_source":"AL092026_pts","idp_filedate":1791526676000,"idp_ingestdate":1791526742000,"binnumber":"AT4"}},{"type":"Feature","id":23335,"geometry":{"type":"Point","coordinates":[-96.299999999899967,22.199999999800298]},"properties":{"objectid":23335,"stormname":"INVEST","stormtype":"DB","stormnum":9,"intensity":25,"basin":"al","mslp":1010,"dtg":2026100518,"year":2026,"month":"10","day":5,"hhmm":"1800","lat":22,"lon":-96,"ss":0,"idp_source":"AL092026_pts","idp_filedate":1791526676000,"idp_ingestdate":1791526742000,"binnumber":"AT4"}},{"type":"Feature","id":23336,"geometry":{"type":"Point","coordinates":[-96.100000000299644,22.299999999600459]},"properties":{"objectid":23336,"stormname":"INVEST","stormtype":"DB","stormnum":9,"intensity":25,"basin":"al","mslp":1009,"dtg":2026100600,"year":2026,"month":"10","day":6,"hhmm":"0000","lat":22,"lon":-96,"ss":0,"idp_source":"AL092026_pts","idp_filedate":1791526676000,"idp_ingestdate":1791526742000,"binnumber":"AT4"}},{"type":"Feature","id":23337,"geometry":{"type":"Point","coordinates":[-95.99999999960022,22.199999999800298]},"properties":{"objectid":23337,"stormname":"INVEST","stormtype":"DB","stormnum":9,"intensity":25,"basin":"al","mslp":1009,"dtg":2026100606,"year":2026,"month":"10","day":6,"hhmm":"0600","lat":22,"lon":-96,"ss":0,"idp_source":"AL092026_pts","idp_filedate":1791526676000,"idp_ingestdate":1791526742000,"binnumber":"AT4"}},{"type":"Feature","id":23338,"geometry":{"type":"Point","coordinates":[-95.99999999960022,22.000000000199975]},"properties":{"objectid":23338,"stormname":"INVEST","stormtype":"DB","stormnum":9,"intensity":25,"basin":"al","mslp":1008,"dtg":2026100612,"year":2026,"month":"10","day":6,"hhmm":"1200","lat":22,"lon":-96,"ss":0,"idp_source":"AL092026_pts","idp_filedate":1791526676000,"idp_ingestdate":1791526742000,"binnumber":"AT4"}},{"type":"Feature","id":23339,"geometry":{"type":"Point","coordinates":[-95.700000000199736,21.900000000399814]},"properties":{"objectid":23339,"stormname":"NINE","stormtype":"TD","stormnum":9,"intensity":30,"basin":"al","mslp":1007,"dtg":2026100618,"year":2026,"month":"10","day":6,"hhmm":"1800","lat":22,"lon":-96,"ss":0,"idp_source":"AL092026_pts","idp_filedate":1791526676000,"idp_ingestdate":1791526742000,"binnumber":"AT4"}},{"type":"Feature","id":23340,"geometry":{"type":"Point","coordinates":[-95.300000000099828,21.699999999900228]},"properties":{"objectid":23340,"stormname":"NINE","stormtype":"TD","stormnum":9,"intensity":30,"basin":"al","mslp":1006,"dtg":2026100700,"year":2026,"month":"10","day":7,"hhmm":"0000","lat":22,"lon":-95,"ss":0,"idp_source":"AL092026_pts","idp_filedate":1791526676000,"idp_ingestdate":1791526742000,"binnumber":"AT4"}},{"type":"Feature","id":23341,"geometry":{"type":"Point","coordinates":[-94.599999999700117,21.900000000399814]},"properties":{"objectid":23341,"stormname":"ISAIAS","stormtype":"TS","stormnum":9,"intensity":35,"basin":"al","mslp":1004,"dtg":2026100706,"year":2026,"month":"10","day":7,"hhmm":"0600","lat":22,"lon":-95,"ss":0,"idp_source":"AL092026_pts","idp_filedate":1791526676000,"idp_ingestdate":1791526742000,"binnumber":"AT4"}},{"type":"Feature","id":23342,"geometry":{"type":"Point","coordinates":[-93.900000000199725,22.199999999800298]},"properties":{"objectid":23342,"stormname":"ISAIAS","stormtype":"TS","stormnum":9,"intensity":40,"basin":"al","mslp":1002,"dtg":2026100712,"year":2026,"month":"10","day":7,"hhmm":"1200","lat":22,"lon":-94,"ss":0,"idp_source":"AL092026_pts","idp_filedate":1791526676000,"idp_ingestdate":1791526742000,"binnumber":"AT4"}},{"type":"Feature","id":23343,"geometry":{"type":"Point","coordinates":[-93.299999999600175,22.500000000100044]},"properties":{"objectid":23343,"stormname":"ISAIAS","stormtype":"TS","stormnum":9,"intensity":50,"basin":"al","mslp":995,"dtg":2026100718,"year":2026,"month":"10","day":7,"hhmm":"1800","lat":22,"lon":-93,"ss":0,"idp_source":"AL092026_pts","idp_filedate":1791526676000,"idp_ingestdate":1791526742000,"binnumber":"AT4"}},{"type":"Feature","id":23344,"geometry":{"type":"Point","coordinates":[-92.299999999800036,22.699999999700367]},"properties":{"objectid":23344,"stormname":"ISAIAS","stormtype":"TS","stormnum":9,"intensity":60,"basin":"al","mslp":988,"dtg":2026100800,"year":2026,"month":"10","day":8,"hhmm":"0000","lat":23,"lon":-92,"ss":0,"idp_source":"AL092026_pts","idp_filedate":1791526676000,"idp_ingestdate":1791526742000,"binnumber":"AT4"}},{"type":"Feature","id":23345,"geometry":{"type":"Point","coordinates":[-91.49999999960022,23.099999999800275]},"properties":{"objectid":23345,"stormname":"ISAIAS","stormtype":"HU","stormnum":9,"intensity":70,"basin":"al","mslp":981,"dtg":2026100806,"year":2026,"month":"10","day":8,"hhmm":"0600","lat":23,"lon":-92,"ss":1,"idp_source":"AL092026_pts","idp_filedate":1791526676000,"idp_ingestdate":1791526742000,"binnumber":"AT4"}},{"type":"Feature","id":23346,"geometry":{"type":"Point","coordinates":[-90.599999999600186,23.400000000100079]},"properties":{"objectid":23346,"stormname":"ISAIAS","stormtype":"HU","stormnum":9,"intensity":75,"basin":"al","mslp":976,"dtg":2026100812,"year":2026,"month":"10","day":8,"hhmm":"1200","lat":23,"lon":-91,"ss":1,"idp_source":"AL092026_pts","idp_filedate":1791526676000,"idp_ingestdate":1791526742000,"binnumber":"AT4"}},{"type":"Feature","id":23347,"geometry":{"type":"Point","coordinates":[-89.80000000029969,23.900000000000148]},"properties":{"objectid":23347,"stormname":"ISAIAS","stormtype":"HU","stormnum":9,"intensity":85,"basin":"al","mslp":977,"dtg":2026100818,"year":2026,"month":"10","day":8,"hhmm":"1800","lat":24,"lon":-90,"ss":2,"idp_source":"AL092026_pts","idp_filedate":1791526676000,"idp_ingestdate":1791526742000,"binnumber":"AT4"}},{"type":"Feature","id":23348,"geometry":{"type":"Point","coordinates":[-88.799999999600175,24.800000000000125]},"properties":{"objectid":23348,"stormname":"ISAIAS","stormtype":"HU","stormnum":9,"intensity":85,"basin":"al","mslp":973,"dtg":2026100900,"year":2026,"month":"10","day":9,"hhmm":"0000","lat":25,"lon":-89,"ss":2,"idp_source":"AL092026_pts","idp_filedate":1791526676000,"idp_ingestdate":1791526742000,"binnumber":"AT4"}}]}